{"type": "FeatureCollection", "crs": {"type": "name", "properties": {"name": "EPSG:4326"}}, "features": [{"type": "Feature", "geometry": {"type": "Polygon", "coordinates": [[[-80.98643, 31.87514], [-80.9846, 31.87586], [-80.98386, 31.87629], [-80.98287, 31.87724], [-80.98269, 31.87779], [-80.98172, 31.87724], [-80.97972, 31.87863], [-80.97993, 31.88], [-80.97889, 31.8814], [-80.97761, 31.88176], [-80.97689, 31.88069], [-80.97368, 31.88276], [-80.97427, 31.88341], [-80.97361, 31.88458], [-80.97259, 31.88359], [-80.97215, 31.88387], [-80.96884, 31.88489], [-80.96708, 31.88219], [-80.97388, 31.87633], [-80.98611, 31.86444], [-80.9888, 31.86181], [-80.99077, 31.85988], [-80.9917, 31.85895], [-80.99354, 31.85812], [-80.99412, 31.85762], [-80.99511, 31.85752], [-80.99901, 31.85805], [-81.00084, 31.85852], [-81.00173, 31.85889], [-81.00258, 31.85948], [-81.00303, 31.86024], [-81.00313, 31.86119], [-81.00277, 31.86158], [-81.00091, 31.86342], [-80.99966, 31.86494], [-80.99696, 31.86942], [-80.99652, 31.87188], [-80.99521, 31.87111], [-80.99235, 31.87264], [-80.98942, 31.87482], [-80.98907, 31.87584], [-80.98828, 31.8756], [-80.98643, 31.87514]]]}, "properties": {"poly_IncidentName": "Main Trail", "poly_GISAcres": 200, "poly_DateCurrent": 1787500121208}}, {"type": "Feature", "geometry": {"type": "Polygon", "coordinates": [[[-90.16468, 46.04668], [-90.16458, 46.04656], [-90.16458, 46.04643], [-90.16454, 46.04634], [-90.16456, 46.04629], [-90.16467, 46.04625], [-90.16491, 46.04619], [-90.16515, 46.04629], [-90.16526, 46.04631], [-90.16533, 46.04626], [-90.16551, 46.04631], [-90.1657, 46.04632], [-90.16579, 46.04619], [-90.16591, 46.04619], [-90.16607, 46.04616], [-90.16609, 46.0461], [-90.16607, 46.04608], [-90.16595, 46.04599], [-90.16586, 46.0459], [-90.166, 46.04587], [-90.16605, 46.04586], [-90.16603, 46.04582], [-90.16609, 46.04582], [-90.16634, 46.04589], [-90.16642, 46.04585], [-90.16648, 46.04602], [-90.16659, 46.04604], [-90.16668, 46.04595], [-90.16675, 46.04603], [-90.16677, 46.04616], [-90.16688, 46.04618], [-90.16697, 46.0462], [-90.16702, 46.04627], [-90.16705, 46.04639], [-90.16711, 46.04646], [-90.16683, 46.04652], [-90.16657, 46.04641], [-90.16659, 46.04653], [-90.16646, 46.04647], [-90.16628, 46.04643], [-90.16619, 46.04646], [-90.16616, 46.04654], [-90.16614, 46.04665], [-90.16607, 46.04681], [-90.16605, 46.04691], [-90.16599, 46.04706], [-90.16599, 46.04717], [-90.16603, 46.04729], [-90.16613, 46.04738], [-90.1662, 46.04744], [-90.16618, 46.0475], [-90.16618, 46.04763], [-90.16611, 46.04773], [-90.16586, 46.04781], [-90.16566, 46.04786], [-90.16547, 46.04791], [-90.1654, 46.04796], [-90.16539, 46.0481], [-90.16544, 46.04818], [-90.16539, 46.04824], [-90.16514, 46.0483], [-90.16505, 46.04825], [-90.16497, 46.04823], [-90.1648, 46.04826], [-90.16471, 46.04826], [-90.16455, 46.04828], [-90.16443, 46.04827], [-90.1644, 46.04819], [-90.16441, 46.0481], [-90.16452, 46.04805], [-90.16442, 46.04795], [-90.16439, 46.04782], [-90.16436, 46.04771], [-90.16429, 46.04759], [-90.16437, 46.04746], [-90.16436, 46.04735], [-90.1644, 46.04728], [-90.16437, 46.04722], [-90.16426, 46.04714], [-90.16419, 46.04704], [-90.16406, 46.04702], [-90.16398, 46.04702], [-90.16385, 46.04701], [-90.16387, 46.04698], [-90.16401, 46.0469], [-90.16415, 46.04686], [-90.16417, 46.04679], [-90.16436, 46.04674], [-90.16456, 46.04679], [-90.16468, 46.04668]]]}, "properties": {"poly_IncidentName": "Flowage", "poly_GISAcres": 7.73, "poly_DateCurrent": 1788972050000}}, {"type": "Feature", "geometry": {"type": "Polygon", "coordinates": [[[-90.25463, 45.38831], [-90.25464, 45.38832], [-90.25466, 45.38834], [-90.25468, 45.38837], [-90.2546, 45.38837], [-90.25454, 45.38837], [-90.25454, 45.38837], [-90.25453, 45.38838], [-90.2545, 45.38838], [-90.25444, 45.38839], [-90.25445, 45.38833], [-90.25446, 45.38833], [-90.25451, 45.38831], [-90.25454, 45.38829], [-90.25459, 45.38831], [-90.25463, 45.38831]]]}, "properties": {"poly_IncidentName": "Hultman 2", "poly_GISAcres": 0.03, "poly_DateCurrent": 1788269995000}}, {"type": "Feature", "geometry": {"type": "Polygon", "coordinates": [[[-88.08921, 45.74944], [-88.08921, 45.74947], [-88.08923, 45.74971], [-88.089, 45.74984], [-88.08895, 45.74992], [-88.08881, 45.74992], [-88.08877, 45.74992], [-88.08862, 45.74993], [-88.08851, 45.74993], [-88.0885, 45.74993], [-88.08839, 45.74995], [-88.08839, 45.74995], [-88.08833, 45.74996], [-88.08785, 45.74998], [-88.08772, 45.74997], [-88.08774, 45.74984], [-88.08795, 45.74972], [-88.08806, 45.74966], [-88.08806, 45.74956], [-88.08805, 45.74926], [-88.0884, 45.74917], [-88.08847, 45.74917], [-88.0886, 45.74915], [-88.08864, 45.74913], [-88.08871, 45.74909], [-88.08888, 45.74905], [-88.08899, 45.74913], [-88.08903, 45.74916], [-88.08906, 45.74919], [-88.08919, 45.7493], [-88.08921, 45.74944]]]}, "properties": {"poly_IncidentName": "Tractor", "poly_GISAcres": 1.99, "poly_DateCurrent": 1789044107000}}, {"type": "Feature", "geometry": {"type": "Polygon", "coordinates": [[[-89.72197, 45.9364], [-89.722, 45.93667], [-89.72183, 45.93673], [-89.72174, 45.93671], [-89.72161, 45.93662], [-89.72172, 45.93653], [-89.72181, 45.93644], [-89.72197, 45.9364]]]}, "properties": {"poly_IncidentName": "Bayer Lake", "poly_GISAcres": 0.01, "poly_DateCurrent": 1789157316679}}, {"type": "Feature", "geometry": {"type": "Polygon", "coordinates": [[[-85.63886, 33.62692], [-85.63892, 33.62691], [-85.63897, 33.62689], [-85.63902, 33.62687], [-85.63905, 33.62685], [-85.63913, 33.62686], [-85.63917, 33.62685], [-85.63925, 33.62685], [-85.63929, 33.62683], [-85.63934, 33.62681], [-85.63941, 33.62682], [-85.63947, 33.62683], [-85.63951, 33.62685], [-85.63955, 33.62684], [-85.63959, 33.62681], [-85.63964, 33.62684], [-85.6397, 33.62686], [-85.63973, 33.62685], [-85.63977, 33.62685], [-85.63981, 33.62686], [-85.63986, 33.62686], [-85.63992, 33.62685], [-85.64009, 33.62685], [-85.64015, 33.62686], [-85.64023, 33.62683], [-85.64027, 33.62683], [-85.64032, 33.62685], [-85.64038, 33.62686], [-85.64045, 33.62687], [-85.6405, 33.62686], [-85.64056, 33.62686], [-85.64063, 33.62686], [-85.64068, 33.62686], [-85.64071, 33.62686], [-85.64075, 33.62687], [-85.64079, 33.62687], [-85.64088, 33.62689], [-85.64098, 33.62688], [-85.64104, 33.62689], [-85.64109, 33.62687], [-85.64113, 33.62684], [-85.64118, 33.62688], [-85.6412, 33.62684], [-85.64125, 33.62679], [-85.64133, 33.62678], [-85.64137, 33.62679], [-85.64141, 33.6268], [-85.64144, 33.62685], [-85.64147, 33.62688], [-85.64149, 33.62691], [-85.64152, 33.62692], [-85.64154, 33.62693], [-85.64157, 33.62693], [-85.6416, 33.62694], [-85.64162, 33.62695], [-85.64163, 33.62696], [-85.64167, 33.62698], [-85.64171, 33.62698], [-85.64176, 33.62701], [-85.6418, 33.62704], [-85.64185, 33.62707], [-85.64187, 33.62709], [-85.6419, 33.62711], [-85.64191, 33.62712], [-85.64195, 33.62715], [-85.64199, 33.62714], [-85.64203, 33.62713], [-85.64206, 33.62713], [-85.64208, 33.62714], [-85.64211, 33.62715], [-85.64213, 33.62715], [-85.64215, 33.62716], [-85.64219, 33.62716], [-85.64224, 33.62716], [-85.64231, 33.62717], [-85.64241, 33.62723], [-85.64245, 33.62728], [-85.64249, 33.62732], [-85.64255, 33.62741], [-85.64259, 33.62752], [-85.6426, 33.62771], [-85.64257, 33.62779], [-85.64245, 33.62791], [-85.64242, 33.62809], [-85.64245, 33.62819], [-85.64246, 33.62822], [-85.64248, 33.62827], [-85.64252, 33.62828], [-85.64254, 33.62832], [-85.64254, 33.62834], [-85.64258, 33.62839], [-85.64262, 33.62845], [-85.64265, 33.62853], [-85.64267, 33.6286], [-85.64266, 33.62868], [-85.64265, 33.6287], [-85.64263, 33.62873], [-85.64259, 33.6288], [-85.6426, 33.62893], [-85.64259, 33.62897], [-85.64259, 33.62904], [-85.64256, 33.62908], [-85.64253, 33.62927], [-85.64253, 33.6293], [-85.64255, 33.62935], [-85.64252, 33.62942], [-85.64252, 33.62955], [-85.64251, 33.6296], [-85.64253, 33.62965], [-85.64248, 33.62968], [-85.64239, 33.62967], [-85.64235, 33.62967], [-85.64227, 33.62965], [-85.64215, 33.62966], [-85.64205, 33.62969], [-85.64196, 33.62968], [-85.64187, 33.62968], [-85.64177, 33.62967], [-85.64169, 33.62966], [-85.64159, 33.62963], [-85.64152, 33.62959], [-85.64147, 33.62956], [-85.6414, 33.62954], [-85.64132, 33.62952], [-85.64123, 33.62949], [-85.64117, 33.62951], [-85.64115, 33.62952], [-85.6411, 33.62952], [-85.64107, 33.62953], [-85.64103, 33.62952], [-85.641, 33.62953], [-85.64098, 33.62953], [-85.64095, 33.62953], [-85.64092, 33.62953], [-85.64089, 33.62954], [-85.64082, 33.62954], [-85.64071, 33.62953], [-85.64065, 33.62954], [-85.64061, 33.62954], [-85.64056, 33.62955], [-85.64054, 33.62955], [-85.64051, 33.62955], [-85.64048, 33.62955], [-85.64046, 33.62955], [-85.64044, 33.62955], [-85.64042, 33.62956], [-85.64039, 33.62956], [-85.64034, 33.62957], [-85.64028, 33.62957], [-85.64026, 33.62958], [-85.64011, 33.62959], [-85.64008, 33.62958], [-85.64002, 33.6296], [-85.63999, 33.6296], [-85.63995, 33.62958], [-85.63992, 33.62958], [-85.6398, 33.62956], [-85.63968, 33.62953], [-85.63962, 33.62948], [-85.63958, 33.62948], [-85.63957, 33.62946], [-85.63954, 33.62944], [-85.63952, 33.62941], [-85.63949, 33.62939], [-85.63946, 33.62937], [-85.63943, 33.62932], [-85.63942, 33.6293], [-85.6394, 33.62929], [-85.63935, 33.62926], [-85.63932, 33.62923], [-85.63929, 33.62921], [-85.63919, 33.62921], [-85.6391, 33.62922], [-85.63905, 33.62923], [-85.63902, 33.62924], [-85.63898, 33.62925], [-85.63894, 33.62924], [-85.63892, 33.62926], [-85.6389, 33.62927], [-85.63887, 33.62928], [-85.63884, 33.6293], [-85.6388, 33.62931], [-85.63874, 33.62932], [-85.6387, 33.62934], [-85.63867, 33.62935], [-85.63863, 33.62934], [-85.63858, 33.62936], [-85.63853, 33.62937], [-85.63848, 33.62937], [-85.63846, 33.62935], [-85.63847, 33.62932], [-85.63848, 33.62928], [-85.63848, 33.62925], [-85.63848, 33.62922], [-85.63848, 33.62916], [-85.63848, 33.62913], [-85.63846, 33.62906], [-85.63842, 33.62899], [-85.63844, 33.62891], [-85.63843, 33.62882], [-85.63845, 33.62878], [-85.63847, 33.62876], [-85.6385, 33.62868], [-85.6385, 33.62858], [-85.63849, 33.62853], [-85.63849, 33.62845], [-85.6385, 33.62838], [-85.63848, 33.62828], [-85.63844, 33.62825], [-85.63843, 33.62818], [-85.63848, 33.62816], [-85.63847, 33.62809], [-85.63845, 33.62803], [-85.63849, 33.62795], [-85.63853, 33.62792], [-85.63854, 33.62787], [-85.63851, 33.62781], [-85.63851, 33.62776], [-85.6385, 33.62771], [-85.6385, 33.62766], [-85.63848, 33.62758], [-85.63849, 33.62752], [-85.63851, 33.6274], [-85.63851, 33.62737], [-85.6385, 33.62731], [-85.63851, 33.62726], [-85.6385, 33.62722], [-85.63851, 33.62715], [-85.6385, 33.62712], [-85.63848, 33.62709], [-85.63847, 33.62705], [-85.63849, 33.62703], [-85.6385, 33.62701], [-85.63851, 33.627], [-85.63853, 33.62697], [-85.6386, 33.62692], [-85.63866, 33.62693], [-85.63872, 33.62694], [-85.6388, 33.62693], [-85.63886, 33.62692]]]}, "properties": {"poly_IncidentName": "Bobo", "poly_GISAcres": 26, "poly_DateCurrent": 1789165988540}}, {"type": "Feature", "geometry": {"type": "Polygon", "coordinates": [[[-89.58023, 43.53319], [-89.5802, 43.53317], [-89.58016, 43.53316], [-89.58012, 43.53316], [-89.58009, 43.53313], [-89.58013, 43.53314], [-89.58017, 43.53316], [-89.58021, 43.53317], [-89.58023, 43.53319]]]}, "properties": {"poly_IncidentName": "Ghost", "poly_GISAcres": 0.01, "poly_DateCurrent": 1788970640000}}, {"type": "Feature", "geometry": {"type": "Polygon", "coordinates": [[[-89.85279, 45.89137], [-89.85275, 45.89136], [-89.85271, 45.89137], [-89.85268, 45.8914], [-89.85266, 45.89142], [-89.85262, 45.89145], [-89.85257, 45.89145], [-89.85258, 45.89142], [-89.8526, 45.89139], [-89.85263, 45.89137], [-89.85263, 45.89133], [-89.85265, 45.89131], [-89.85263, 45.89128], [-89.85265, 45.89124], [-89.85269, 45.89122], [-89.85272, 45.8912], [-89.85276, 45.89118], [-89.8528, 45.89116], [-89.85282, 45.89113], [-89.85284, 45.89111], [-89.85287, 45.89109], [-89.85292, 45.89109], [-89.85296, 45.89107], [-89.85301, 45.89108], [-89.85306, 45.89108], [-89.8531, 45.89109], [-89.85314, 45.89109], [-89.85318, 45.89109], [-89.85323, 45.89111], [-89.85329, 45.8911], [-89.85333, 45.89111], [-89.85329, 45.89114], [-89.85329, 45.89117], [-89.85334, 45.89119], [-89.85334, 45.89122], [-89.85336, 45.89125], [-89.85336, 45.89129], [-89.85331, 45.8913], [-89.85326, 45.89131], [-89.85322, 45.89132], [-89.85319, 45.89136], [-89.85314, 45.89138], [-89.85314, 45.89142], [-89.85316, 45.89146], [-89.85315, 45.89149], [-89.85314, 45.89152], [-89.85312, 45.89154], [-89.8531, 45.89157], [-89.85306, 45.89158], [-89.85302, 45.89157], [-89.85298, 45.89156], [-89.85296, 45.89153], [-89.85294, 45.89149], [-89.85292, 45.89146], [-89.85289, 45.89143], [-89.85286, 45.89141], [-89.85284, 45.89137], [-89.85279, 45.89137]]]}, "properties": {"poly_IncidentName": "Sunday Lake", "poly_GISAcres": 0.5, "poly_DateCurrent": 1786997495000}}, {"type": "Feature", "geometry": {"type": "Polygon", "coordinates": [[[-90.18755, 46.10046], [-90.18748, 46.10047], [-90.18754, 46.10045], [-90.1876, 46.10045], [-90.18763, 46.10047], [-90.18765, 46.10049], [-90.18769, 46.10051], [-90.1877, 46.10054], [-90.18766, 46.10054], [-90.18764, 46.10051], [-90.1876, 46.10051], [-90.18756, 46.10049], [-90.18755, 46.10046]]]}, "properties": {"poly_IncidentName": "Turtle", "poly_GISAcres": 0.01, "poly_DateCurrent": 1786980521000}}, {"type": "Feature", "geometry": {"type": "Polygon", "coordinates": [[[-90.25415, 45.38834], [-90.25415, 45.38835], [-90.25415, 45.38836], [-90.25416, 45.3884], [-90.25405, 45.3884], [-90.25395, 45.38841], [-90.25383, 45.38841], [-90.25381, 45.38841], [-90.25377, 45.38841], [-90.25373, 45.38838], [-90.25374, 45.38831], [-90.25375, 45.38831], [-90.2538, 45.38829], [-90.25384, 45.38828], [-90.25395, 45.38828], [-90.25398, 45.38828], [-90.25413, 45.38828], [-90.25413, 45.38829], [-90.25413, 45.3883], [-90.25415, 45.38834]]]}, "properties": {"poly_IncidentName": "Hultman", "poly_GISAcres": 0.11, "poly_DateCurrent": 1788269949000}}, {"type": "Feature", "geometry": {"type": "Polygon", "coordinates": [[[-90.07396, 43.98459], [-90.07394, 43.98451], [-90.07408, 43.98455], [-90.07409, 43.98461], [-90.07396, 43.98459]]]}, "properties": {"poly_IncidentName": "Maple ", "poly_GISAcres": 0.02, "poly_DateCurrent": 1787661367000}}]}