{"type": "FeatureCollection", "crs": {"type": "name", "properties": {"name": "EPSG:4326"}}, "features": [{"type": "Feature", "geometry": {"type": "Polygon", "coordinates": [[[-81.48468, 28.91762], [-81.48472, 28.91762], [-81.48476, 28.9176], [-81.48478, 28.91757], [-81.48481, 28.91755], [-81.48484, 28.91753], [-81.48487, 28.91752], [-81.48491, 28.91751], [-81.48494, 28.91751], [-81.48498, 28.91749], [-81.48499, 28.91746], [-81.485, 28.91743], [-81.48502, 28.91739], [-81.48504, 28.91736], [-81.48506, 28.91734], [-81.48509, 28.91731], [-81.48512, 28.91729], [-81.48515, 28.91726], [-81.48517, 28.91724], [-81.48519, 28.91721], [-81.48522, 28.91718], [-81.48526, 28.91716], [-81.4853, 28.91716], [-81.48534, 28.91716], [-81.48538, 28.91718], [-81.48541, 28.9172], [-81.48545, 28.91722], [-81.48548, 28.91723], [-81.48551, 28.91726], [-81.48554, 28.91728], [-81.48557, 28.9173], [-81.48561, 28.9173], [-81.48564, 28.91729], [-81.48566, 28.91727], [-81.48568, 28.91724], [-81.48571, 28.91722], [-81.48576, 28.91722], [-81.4858, 28.9172], [-81.48584, 28.91719], [-81.48588, 28.91719], [-81.48592, 28.91719], [-81.48595, 28.91721], [-81.48599, 28.91723], [-81.48602, 28.91726], [-81.48604, 28.91729], [-81.48605, 28.91732], [-81.48607, 28.91735], [-81.48608, 28.91738], [-81.4861, 28.91741], [-81.4861, 28.91744], [-81.48612, 28.91747], [-81.48615, 28.91748], [-81.48619, 28.91747], [-81.48623, 28.91747], [-81.48627, 28.91746], [-81.48631, 28.91746], [-81.48635, 28.91746], [-81.48639, 28.91745], [-81.48641, 28.91743], [-81.48643, 28.9174], [-81.48647, 28.91738], [-81.48651, 28.91737], [-81.48655, 28.91738], [-81.48657, 28.91741], [-81.48657, 28.91744], [-81.48658, 28.91747], [-81.48659, 28.91751], [-81.48661, 28.91753], [-81.48663, 28.91756], [-81.48665, 28.91759], [-81.48667, 28.91763], [-81.4867, 28.91765], [-81.48672, 28.91767], [-81.48674, 28.91769], [-81.48677, 28.91772], [-81.48679, 28.91774], [-81.48683, 28.91776], [-81.48684, 28.91773], [-81.48683, 28.91768], [-81.48684, 28.91765], [-81.48684, 28.91761], [-81.48684, 28.91758], [-81.48685, 28.91754], [-81.48685, 28.9175], [-81.48685, 28.91746], [-81.48684, 28.91742], [-81.48684, 28.91739], [-81.48684, 28.91735], [-81.48684, 28.91732], [-81.48683, 28.91727], [-81.48684, 28.91722], [-81.48688, 28.91719], [-81.48691, 28.91718], [-81.48695, 28.91718], [-81.48699, 28.91719], [-81.48704, 28.91719], [-81.48708, 28.91721], [-81.48713, 28.91721], [-81.48718, 28.91722], [-81.48722, 28.91723], [-81.48726, 28.91723], [-81.48731, 28.91724], [-81.48735, 28.91724], [-81.48739, 28.91724], [-81.48745, 28.91725], [-81.48751, 28.91726], [-81.48754, 28.91726], [-81.48758, 28.91727], [-81.48762, 28.91728], [-81.48766, 28.9173], [-81.48769, 28.91731], [-81.48773, 28.91732], [-81.48776, 28.91732], [-81.48779, 28.91734], [-81.48781, 28.91736], [-81.48784, 28.9174], [-81.48786, 28.91745], [-81.48788, 28.91748], [-81.4879, 28.9175], [-81.48794, 28.91754], [-81.48796, 28.91757], [-81.48798, 28.9176], [-81.48798, 28.91764], [-81.488, 28.91769], [-81.48802, 28.91772], [-81.48805, 28.91777], [-81.48808, 28.91779], [-81.48807, 28.91783], [-81.48807, 28.91787], [-81.48808, 28.9179], [-81.48809, 28.91793], [-81.4881, 28.91796], [-81.48811, 28.918], [-81.48811, 28.91803], [-81.48811, 28.91806], [-81.48811, 28.9181], [-81.4881, 28.91814], [-81.48809, 28.91817], [-81.48808, 28.91821], [-81.48808, 28.91826], [-81.48807, 28.9183], [-81.48807, 28.91834], [-81.4881, 28.91838], [-81.48814, 28.9184], [-81.48819, 28.91841], [-81.48821, 28.91845], [-81.48822, 28.91849], [-81.48822, 28.91853], [-81.48822, 28.91856], [-81.48823, 28.9186], [-81.48825, 28.91863], [-81.48826, 28.91866], [-81.48825, 28.91869], [-81.48826, 28.91872], [-81.48828, 28.91875], [-81.48829, 28.91878], [-81.48827, 28.91881], [-81.48823, 28.91883], [-81.4882, 28.91886], [-81.48816, 28.91889], [-81.48814, 28.91892], [-81.48814, 28.91895], [-81.48815, 28.91899], [-81.48819, 28.91903], [-81.4882, 28.91907], [-81.48818, 28.9191], [-81.48816, 28.91913], [-81.48814, 28.91916], [-81.48813, 28.91919], [-81.48811, 28.91922], [-81.4881, 28.91924], [-81.48807, 28.91927], [-81.48806, 28.91929], [-81.48804, 28.91932], [-81.48802, 28.91935], [-81.488, 28.91938], [-81.48797, 28.91942], [-81.48796, 28.91944], [-81.48794, 28.91947], [-81.48794, 28.9195], [-81.48794, 28.91955], [-81.48793, 28.9196], [-81.48792, 28.91964], [-81.48791, 28.91969], [-81.48791, 28.91972], [-81.4879, 28.91977], [-81.48789, 28.91981], [-81.48788, 28.91984], [-81.48788, 28.91987], [-81.48787, 28.9199], [-81.48788, 28.91994], [-81.48792, 28.91998], [-81.48796, 28.91999], [-81.488, 28.91999], [-81.48804, 28.91999], [-81.48814, 28.91999], [-81.48818, 28.91999], [-81.48822, 28.91999], [-81.48825, 28.91999], [-81.48829, 28.91999], [-81.48836, 28.91998], [-81.4884, 28.91997], [-81.48844, 28.91996], [-81.48847, 28.91994], [-81.48852, 28.91994], [-81.48856, 28.91995], [-81.48858, 28.91997], [-81.48859, 28.92001], [-81.48856, 28.92003], [-81.48859, 28.92005], [-81.48863, 28.92007], [-81.48866, 28.92008], [-81.48868, 28.92011], [-81.48871, 28.92014], [-81.48869, 28.92017], [-81.48866, 28.9202], [-81.48864, 28.92022], [-81.48861, 28.92025], [-81.48859, 28.92028], [-81.48858, 28.9203], [-81.48855, 28.92033], [-81.48853, 28.92035], [-81.48851, 28.92037], [-81.48465, 28.92033], [-81.48468, 28.91762]]]}, "properties": {"poly_IncidentName": "Pine Lakes ", "poly_GISAcres": 27.84363049356955, "poly_DateCurrent": 1786550485000}}, {"type": "Feature", "geometry": {"type": "Polygon", "coordinates": [[[-80.98643, 31.87514], [-80.9846, 31.87586], [-80.98386, 31.87629], [-80.98287, 31.87724], [-80.98269, 31.87779], [-80.98172, 31.87724], [-80.97972, 31.87863], [-80.97993, 31.88], [-80.97889, 31.8814], [-80.97761, 31.88176], [-80.97689, 31.88069], [-80.97368, 31.88276], [-80.97427, 31.88341], [-80.97361, 31.88458], [-80.97259, 31.88359], [-80.97215, 31.88387], [-80.96884, 31.88489], [-80.96708, 31.88219], [-80.97388, 31.87633], [-80.98611, 31.86444], [-80.9888, 31.86181], [-80.99077, 31.85988], [-80.9917, 31.85895], [-80.99354, 31.85812], [-80.99412, 31.85762], [-80.99511, 31.85752], [-80.99901, 31.85805], [-81.00084, 31.85852], [-81.00173, 31.85889], [-81.00258, 31.85948], [-81.00303, 31.86024], [-81.00313, 31.86119], [-81.00277, 31.86158], [-81.00091, 31.86342], [-80.99966, 31.86494], [-80.99696, 31.86942], [-80.99652, 31.87188], [-80.99521, 31.87111], [-80.99235, 31.87264], [-80.98942, 31.87482], [-80.98907, 31.87584], [-80.98828, 31.8756], [-80.98643, 31.87514]]]}, "properties": {"poly_IncidentName": "Main Trail", "poly_GISAcres": 200, "poly_DateCurrent": 1787500121208}}, {"type": "Feature", "geometry": {"type": "Polygon", "coordinates": [[[-71.27081, 41.94642], [-71.26953, 41.94639], [-71.2696, 41.94531], [-71.27091, 41.94546], [-71.27164, 41.9459], [-71.27083, 41.94625], [-71.27081, 41.94642]]]}, "properties": {"poly_IncidentName": "FD03062", "poly_GISAcres": 3.72, "poly_DateCurrent": 1788183590097}}, {"type": "Feature", "geometry": {"type": "Polygon", "coordinates": [[[-88.79114, 45.17722], [-88.79113, 45.1772], [-88.79112, 45.17718], [-88.79109, 45.17715], [-88.79108, 45.17711], [-88.79104, 45.17708], [-88.79102, 45.17705], [-88.791, 45.17702], [-88.79104, 45.177], [-88.79109, 45.17699], [-88.79113, 45.177], [-88.79116, 45.17697], [-88.79121, 45.17697], [-88.79125, 45.17698], [-88.79129, 45.17699], [-88.79133, 45.17699], [-88.79138, 45.17699], [-88.79142, 45.17702], [-88.79146, 45.177], [-88.7915, 45.17701], [-88.79153, 45.17704], [-88.79156, 45.17707], [-88.79154, 45.1771], [-88.79153, 45.17713], [-88.79156, 45.17716], [-88.79159, 45.17717], [-88.79163, 45.17719], [-88.79164, 45.17723], [-88.79163, 45.17726], [-88.7916, 45.17728], [-88.79156, 45.17727], [-88.79154, 45.17731], [-88.79151, 45.17733], [-88.79149, 45.17736], [-88.79148, 45.17739], [-88.79145, 45.17741], [-88.79143, 45.17744], [-88.79141, 45.17746], [-88.79137, 45.17748], [-88.79134, 45.17746], [-88.79131, 45.17743], [-88.7913, 45.17741], [-88.79127, 45.17739], [-88.79125, 45.17736], [-88.79122, 45.17734], [-88.7912, 45.17731], [-88.79118, 45.17728], [-88.79116, 45.17724], [-88.79114, 45.17722]]]}, "properties": {"poly_IncidentName": "Badger Trail", "poly_GISAcres": 0.4, "poly_DateCurrent": 1786980699000}}, {"type": "Feature", "geometry": {"type": "Polygon", "coordinates": [[[-81.56822, 29.13775], [-81.56822, 29.13778], [-81.56822, 29.13782], [-81.56822, 29.13787], [-81.5682, 29.13791], [-81.56818, 29.13794], [-81.56817, 29.13797], [-81.56815, 29.138], [-81.56813, 29.13803], [-81.56812, 29.13805], [-81.5681, 29.13808], [-81.56808, 29.13811], [-81.56806, 29.13815], [-81.56803, 29.13817], [-81.56798, 29.13822], [-81.56795, 29.13824], [-81.5679, 29.13826], [-81.56787, 29.13828], [-81.56784, 29.1383], [-81.56779, 29.13833], [-81.56776, 29.13835], [-81.56771, 29.13838], [-81.56767, 29.13841], [-81.56764, 29.13844], [-81.5676, 29.13847], [-81.56757, 29.13849], [-81.56751, 29.13853], [-81.56748, 29.13857], [-81.56745, 29.1386], [-81.56742, 29.13864], [-81.56738, 29.13866], [-81.56732, 29.13868], [-81.56729, 29.13868], [-81.56722, 29.13869], [-81.56719, 29.13869], [-81.56713, 29.13869], [-81.56709, 29.1387], [-81.56705, 29.1387], [-81.567, 29.1387], [-81.56696, 29.1387], [-81.56691, 29.13867], [-81.56688, 29.13865], [-81.56686, 29.13863], [-81.56683, 29.13861], [-81.56681, 29.13859], [-81.56678, 29.13857], [-81.56675, 29.13855], [-81.56672, 29.13853], [-81.56669, 29.13851], [-81.56666, 29.1385], [-81.56662, 29.13849], [-81.56659, 29.13847], [-81.56653, 29.13846], [-81.56647, 29.13847], [-81.56642, 29.13849], [-81.56638, 29.13849], [-81.56635, 29.13849], [-81.56631, 29.13848], [-81.56629, 29.13848], [-81.56619, 29.13845], [-81.56619, 29.13844], [-81.56619, 29.13844], [-81.56614, 29.13845], [-81.56611, 29.13848], [-81.56606, 29.1385], [-81.56601, 29.1385], [-81.56596, 29.13848], [-81.56591, 29.13847], [-81.56587, 29.13844], [-81.56582, 29.13842], [-81.56579, 29.1384], [-81.56575, 29.13837], [-81.56574, 29.13834], [-81.5657, 29.13829], [-81.56566, 29.13826], [-81.56563, 29.13822], [-81.5656, 29.1382], [-81.56556, 29.13817], [-81.56553, 29.13814], [-81.56548, 29.13812], [-81.56544, 29.13812], [-81.5654, 29.13813], [-81.56536, 29.13811], [-81.56533, 29.13809], [-81.56531, 29.13807], [-81.56526, 29.13805], [-81.56521, 29.13808], [-81.56518, 29.13812], [-81.56516, 29.13816], [-81.56513, 29.13819], [-81.56511, 29.13822], [-81.56508, 29.13824], [-81.56505, 29.13826], [-81.56501, 29.13828], [-81.56497, 29.1383], [-81.56493, 29.13831], [-81.5649, 29.13833], [-81.56488, 29.13836], [-81.56484, 29.1384], [-81.56482, 29.13843], [-81.5648, 29.13847], [-81.56477, 29.13852], [-81.56475, 29.1386], [-81.56474, 29.13865], [-81.56475, 29.13868], [-81.56474, 29.13871], [-81.56473, 29.13876], [-81.56471, 29.13881], [-81.56469, 29.13883], [-81.56465, 29.13889], [-81.56463, 29.13894], [-81.56462, 29.13898], [-81.56461, 29.13902], [-81.5646, 29.13904], [-81.56459, 29.13905], [-81.56455, 29.13909], [-81.56451, 29.13913], [-81.56447, 29.13914], [-81.56445, 29.13916], [-81.5644, 29.13918], [-81.56434, 29.1392], [-81.56433, 29.1392], [-81.56433, 29.1392], [-81.56429, 29.1392], [-81.56425, 29.13923], [-81.5642, 29.13925], [-81.56416, 29.13926], [-81.56413, 29.13926], [-81.56409, 29.13926], [-81.56405, 29.13925], [-81.56402, 29.13924], [-81.56402, 29.13924], [-81.56399, 29.13923], [-81.56396, 29.13922], [-81.56393, 29.13922], [-81.56388, 29.13924], [-81.56384, 29.13926], [-81.56381, 29.13927], [-81.56376, 29.13929], [-81.56372, 29.13928], [-81.56368, 29.13925], [-81.56363, 29.13923], [-81.56359, 29.13923], [-81.56354, 29.13924], [-81.56348, 29.13925], [-81.56345, 29.13926], [-81.56342, 29.13927], [-81.56339, 29.13927], [-81.56334, 29.13929], [-81.56331, 29.1393], [-81.56323, 29.13931], [-81.56319, 29.13933], [-81.56316, 29.13935], [-81.56312, 29.13937], [-81.56308, 29.13939], [-81.56299, 29.13945], [-81.56295, 29.13947], [-81.56292, 29.13949], [-81.56288, 29.13951], [-81.56285, 29.13952], [-81.56281, 29.13954], [-81.56279, 29.13956], [-81.56276, 29.13958], [-81.56273, 29.13959], [-81.5627, 29.1396], [-81.56267, 29.13962], [-81.56264, 29.13964], [-81.56261, 29.13967], [-81.56259, 29.13969], [-81.56256, 29.13971], [-81.56254, 29.13973], [-81.56251, 29.13976], [-81.56247, 29.13976], [-81.56244, 29.13977], [-81.56243, 29.13977], [-81.56239, 29.13977], [-81.56238, 29.13976], [-81.56236, 29.13973], [-81.56236, 29.13973], [-81.56236, 29.13973], [-81.56232, 29.1397], [-81.5623, 29.13968], [-81.56227, 29.13966], [-81.56225, 29.13964], [-81.56224, 29.13961], [-81.56223, 29.13958], [-81.56224, 29.13955], [-81.56223, 29.13952], [-81.56222, 29.13949], [-81.56221, 29.13943], [-81.5622, 29.13938], [-81.56215, 29.13928], [-81.56214, 29.13923], [-81.56214, 29.13918], [-81.56213, 29.13913], [-81.56213, 29.13907], [-81.56212, 29.13902], [-81.56212, 29.13897], [-81.56211, 29.13892], [-81.5621, 29.13886], [-81.56211, 29.13881], [-81.56211, 29.13876], [-81.56212, 29.1387], [-81.56213, 29.13865], [-81.56213, 29.1386], [-81.56213, 29.13855], [-81.56213, 29.13849], [-81.56213, 29.13843], [-81.56212, 29.13838], [-81.56211, 29.13832], [-81.5621, 29.13826], [-81.5621, 29.1382], [-81.56209, 29.13814], [-81.56208, 29.13808], [-81.56207, 29.13802], [-81.56207, 29.13797], [-81.56207, 29.13794], [-81.56208, 29.13792], [-81.56208, 29.13788], [-81.56209, 29.13783], [-81.56209, 29.13779], [-81.56209, 29.13773], [-81.56209, 29.1377], [-81.56209, 29.13767], [-81.56209, 29.13764], [-81.56208, 29.1376], [-81.56207, 29.13757], [-81.56207, 29.13754], [-81.56205, 29.1375], [-81.56204, 29.13745], [-81.56203, 29.13742], [-81.56202, 29.13739], [-81.56201, 29.13736], [-81.56203, 29.13731], [-81.56204, 29.1373], [-81.56203, 29.1373], [-81.56207, 29.13729], [-81.56208, 29.13729], [-81.56219, 29.13728], [-81.56219, 29.13728], [-81.56223, 29.13727], [-81.56227, 29.13727], [-81.56231, 29.13726], [-81.56236, 29.13722], [-81.56238, 29.1372], [-81.56241, 29.13718], [-81.56243, 29.13717], [-81.56246, 29.13715], [-81.56251, 29.13714], [-81.56254, 29.13713], [-81.56259, 29.13711], [-81.56263, 29.1371], [-81.56268, 29.13708], [-81.56272, 29.13708], [-81.56277, 29.13706], [-81.56281, 29.13704], [-81.56285, 29.13702], [-81.56289, 29.13698], [-81.56291, 29.13695], [-81.56295, 29.13692], [-81.563, 29.13692], [-81.56306, 29.13693], [-81.56311, 29.13695], [-81.56317, 29.13696], [-81.56323, 29.13694], [-81.56327, 29.13693], [-81.56331, 29.13693], [-81.56334, 29.13692], [-81.56338, 29.13692], [-81.56341, 29.13692], [-81.56344, 29.13691], [-81.56347, 29.13691], [-81.56353, 29.1369], [-81.56357, 29.13691], [-81.56361, 29.13693], [-81.56363, 29.13697], [-81.56367, 29.137], [-81.56372, 29.13706], [-81.56376, 29.13708], [-81.56382, 29.13708], [-81.56388, 29.13707], [-81.56393, 29.13707], [-81.56397, 29.13706], [-81.56402, 29.13706], [-81.56408, 29.13707], [-81.56411, 29.13708], [-81.56415, 29.13709], [-81.56419, 29.13709], [-81.56423, 29.13708], [-81.56427, 29.13708], [-81.56431, 29.13708], [-81.56436, 29.13707], [-81.56441, 29.13705], [-81.56446, 29.13702], [-81.56449, 29.13701], [-81.56451, 29.137], [-81.56457, 29.13698], [-81.56461, 29.13696], [-81.56465, 29.13694], [-81.56469, 29.13691], [-81.56473, 29.13688], [-81.56475, 29.13686], [-81.56478, 29.13683], [-81.56482, 29.13681], [-81.56486, 29.13681], [-81.56498, 29.137], [-81.56495, 29.13717], [-81.56502, 29.13725], [-81.56542, 29.13721], [-81.56557, 29.1372], [-81.56569, 29.1373], [-81.5657, 29.13756], [-81.56569, 29.13757], [-81.56559, 29.13779], [-81.56588, 29.13808], [-81.5663, 29.13807], [-81.56657, 29.13798], [-81.56668, 29.13785], [-81.56659, 29.13764], [-81.56661, 29.13764], [-81.56658, 29.13761], [-81.5666, 29.13756], [-81.56663, 29.13755], [-81.56667, 29.13755], [-81.5667, 29.13755], [-81.56672, 29.13753], [-81.56675, 29.13751], [-81.56677, 29.13748], [-81.5668, 29.13747], [-81.56683, 29.13747], [-81.56683, 29.13744], [-81.56687, 29.13741], [-81.56691, 29.13738], [-81.56697, 29.13737], [-81.56703, 29.13735], [-81.56708, 29.13733], [-81.56714, 29.13733], [-81.56719, 29.13731], [-81.56724, 29.13729], [-81.56727, 29.13728], [-81.56731, 29.13727], [-81.56735, 29.13725], [-81.56738, 29.13725], [-81.56742, 29.13723], [-81.5675, 29.13719], [-81.56754, 29.13719], [-81.56758, 29.13719], [-81.56763, 29.13719], [-81.56766, 29.13717], [-81.5677, 29.13716], [-81.56774, 29.13714], [-81.56777, 29.13713], [-81.56782, 29.13712], [-81.56787, 29.1371], [-81.56792, 29.1371], [-81.56795, 29.13714], [-81.56797, 29.13718], [-81.56798, 29.13721], [-81.56799, 29.13724], [-81.56804, 29.1373], [-81.56806, 29.13733], [-81.56808, 29.13735], [-81.56809, 29.13739], [-81.56809, 29.13742], [-81.56811, 29.13747], [-81.56813, 29.13753], [-81.56816, 29.13758], [-81.56818, 29.13763], [-81.5682, 29.13767], [-81.56821, 29.13775], [-81.56822, 29.13775]]]}, "properties": {"poly_IncidentName": "Astor Park 2", "poly_GISAcres": 24.92288327201919, "poly_DateCurrent": 1787574942000}}, {"type": "Feature", "geometry": {"type": "MultiPolygon", "coordinates": [[[[-82.29885, 30.34327], [-82.29883, 30.34325], [-82.29883, 30.34325], [-82.29885, 30.34327]]], [[[-82.29815, 30.34292], [-82.29814, 30.34292], [-82.29819, 30.34291], [-82.29815, 30.34292]]], [[[-82.29878, 30.3432], [-82.29877, 30.3432], [-82.29876, 30.34319], [-82.29878, 30.3432]]], [[[-82.29883, 30.34325], [-82.29881, 30.34322], [-82.29878, 30.34321], [-82.29878, 30.3432], [-82.2988, 30.34321], [-82.29882, 30.34324], [-82.29883, 30.34325]]], [[[-82.29876, 30.34319], [-82.29875, 30.34319], [-82.29876, 30.34323], [-82.29876, 30.34326], [-82.29878, 30.34329], [-82.29881, 30.34332], [-82.29883, 30.34334], [-82.29887, 30.34335], [-82.29891, 30.34337], [-82.29894, 30.3434], [-82.29896, 30.34344], [-82.29897, 30.34349], [-82.29896, 30.34354], [-82.29894, 30.3436], [-82.29891, 30.34362], [-82.29889, 30.34364], [-82.29885, 30.34368], [-82.29884, 30.34371], [-82.2988, 30.34375], [-82.29878, 30.34377], [-82.29875, 30.3438], [-82.29871, 30.34383], [-82.29867, 30.34384], [-82.29864, 30.34385], [-82.2986, 30.34387], [-82.29856, 30.3439], [-82.29854, 30.34393], [-82.29851, 30.34397], [-82.29849, 30.34401], [-82.29848, 30.34405], [-82.29847, 30.34409], [-82.29843, 30.34411], [-82.29839, 30.34413], [-82.29833, 30.34415], [-82.29829, 30.34416], [-82.29823, 30.34418], [-82.2982, 30.34419], [-82.29817, 30.34419], [-82.29812, 30.34422], [-82.29809, 30.34426], [-82.29807, 30.34432], [-82.29804, 30.34435], [-82.29802, 30.34438], [-82.29798, 30.3444], [-82.29794, 30.34442], [-82.29791, 30.34444], [-82.29788, 30.34446], [-82.29785, 30.34449], [-82.29782, 30.34452], [-82.29778, 30.34456], [-82.29776, 30.34459], [-82.29774, 30.34462], [-82.2977, 30.34465], [-82.29766, 30.34468], [-82.29762, 30.3447], [-82.29758, 30.34472], [-82.29755, 30.34476], [-82.29751, 30.34479], [-82.29746, 30.34481], [-82.29743, 30.34485], [-82.2974, 30.34488], [-82.29736, 30.34491], [-82.29731, 30.34493], [-82.29726, 30.34495], [-82.29721, 30.34497], [-82.29718, 30.34498], [-82.29715, 30.34499], [-82.29712, 30.345], [-82.29709, 30.34502], [-82.29706, 30.34504], [-82.29704, 30.34505], [-82.297, 30.34508], [-82.297, 30.34512], [-82.29699, 30.34516], [-82.297, 30.34519], [-82.297, 30.34522], [-82.29695, 30.34525], [-82.29689, 30.34528], [-82.29685, 30.34529], [-82.29681, 30.3453], [-82.29677, 30.34532], [-82.29673, 30.34533], [-82.29669, 30.34534], [-82.29665, 30.34536], [-82.29661, 30.34537], [-82.29657, 30.34539], [-82.29653, 30.3454], [-82.29648, 30.34542], [-82.29644, 30.34543], [-82.29639, 30.34545], [-82.29635, 30.34546], [-82.2963, 30.34548], [-82.29625, 30.34549], [-82.29621, 30.34551], [-82.29616, 30.34552], [-82.29612, 30.34554], [-82.29608, 30.34555], [-82.29602, 30.34557], [-82.29598, 30.34558], [-82.29595, 30.34558], [-82.29592, 30.34559], [-82.29586, 30.34561], [-82.29582, 30.34562], [-82.29579, 30.34563], [-82.29575, 30.34565], [-82.29571, 30.34566], [-82.29567, 30.34567], [-82.29564, 30.34565], [-82.29559, 30.34563], [-82.29554, 30.3456], [-82.29552, 30.34558], [-82.29549, 30.34557], [-82.29546, 30.34555], [-82.2954, 30.34553], [-82.29535, 30.34551], [-82.29529, 30.34551], [-82.29523, 30.3455], [-82.29517, 30.3455], [-82.29513, 30.34549], [-82.2951, 30.34547], [-82.29505, 30.34545], [-82.29502, 30.34544], [-82.29497, 30.34542], [-82.29493, 30.34542], [-82.2949, 30.3454], [-82.29486, 30.34537], [-82.29483, 30.34534], [-82.29481, 30.34533], [-82.29477, 30.34531], [-82.29474, 30.3453], [-82.29471, 30.34529], [-82.29468, 30.34527], [-82.29465, 30.34525], [-82.29463, 30.34523], [-82.29459, 30.34522], [-82.29454, 30.34518], [-82.29451, 30.34516], [-82.29448, 30.34513], [-82.29445, 30.34511], [-82.29443, 30.34509], [-82.29441, 30.34507], [-82.29438, 30.34504], [-82.29436, 30.34502], [-82.29433, 30.345], [-82.2943, 30.34496], [-82.29427, 30.34492], [-82.29424, 30.34489], [-82.29419, 30.34487], [-82.29415, 30.34486], [-82.29412, 30.34484], [-82.29411, 30.3448], [-82.29407, 30.34476], [-82.29405, 30.34474], [-82.29402, 30.34472], [-82.29398, 30.34468], [-82.29393, 30.34465], [-82.2939, 30.34463], [-82.29386, 30.3446], [-82.29383, 30.34456], [-82.2938, 30.34452], [-82.29376, 30.34448], [-82.29372, 30.34444], [-82.2937, 30.34441], [-82.29367, 30.34438], [-82.29363, 30.34434], [-82.29359, 30.34432], [-82.29357, 30.3443], [-82.29353, 30.34428], [-82.29349, 30.34427], [-82.29345, 30.34425], [-82.29343, 30.34422], [-82.29341, 30.34418], [-82.29336, 30.34415], [-82.29331, 30.34413], [-82.29327, 30.34412], [-82.29322, 30.34411], [-82.29318, 30.3441], [-82.29312, 30.34408], [-82.29309, 30.34406], [-82.29304, 30.34404], [-82.29299, 30.34401], [-82.29294, 30.344], [-82.29289, 30.34402], [-82.29285, 30.34404], [-82.2928, 30.34407], [-82.29275, 30.34409], [-82.29272, 30.34411], [-82.29269, 30.34413], [-82.29266, 30.34414], [-82.29261, 30.34417], [-82.29256, 30.34419], [-82.29253, 30.34421], [-82.2925, 30.34422], [-82.29246, 30.34423], [-82.29243, 30.34424], [-82.2924, 30.34425], [-82.29237, 30.34426], [-82.29232, 30.34428], [-82.29229, 30.34431], [-82.29224, 30.34435], [-82.2922, 30.34438], [-82.29217, 30.3444], [-82.29212, 30.34443], [-82.29209, 30.34444], [-82.29204, 30.34447], [-82.292, 30.34447], [-82.29197, 30.34446], [-82.29178, 30.34439], [-82.29174, 30.34439], [-82.2917, 30.34439], [-82.29166, 30.3444], [-82.29163, 30.3444], [-82.2916, 30.34438], [-82.29156, 30.34434], [-82.29154, 30.34432], [-82.29151, 30.3443], [-82.29146, 30.34428], [-82.29143, 30.34426], [-82.29142, 30.34423], [-82.29142, 30.34419], [-82.29144, 30.34417], [-82.29146, 30.34415], [-82.29149, 30.34413], [-82.29152, 30.3441], [-82.29152, 30.34408], [-82.29152, 30.34406], [-82.2915, 30.34403], [-82.29147, 30.344], [-82.29146, 30.34396], [-82.29145, 30.34393], [-82.29147, 30.34389], [-82.29148, 30.34388], [-82.29145, 30.34387], [-82.29152, 30.34377], [-82.29152, 30.34376], [-82.2915, 30.34373], [-82.29149, 30.34368], [-82.2915, 30.34365], [-82.2915, 30.3436], [-82.29151, 30.34357], [-82.29153, 30.34354], [-82.29154, 30.34352], [-82.29157, 30.34347], [-82.29159, 30.34344], [-82.2916, 30.34342], [-82.2916, 30.34338], [-82.29161, 30.34335], [-82.29162, 30.34332], [-82.29162, 30.34328], [-82.29161, 30.34325], [-82.2916, 30.34322], [-82.29159, 30.34319], [-82.29157, 30.34313], [-82.29156, 30.34309], [-82.29156, 30.34305], [-82.29155, 30.343], [-82.29157, 30.34297], [-82.29159, 30.34293], [-82.2916, 30.3429], [-82.29162, 30.34284], [-82.29161, 30.34284], [-82.29162, 30.3428], [-82.29163, 30.34276], [-82.29164, 30.34271], [-82.29164, 30.34268], [-82.29166, 30.34264], [-82.29166, 30.34261], [-82.29166, 30.34257], [-82.29167, 30.34253], [-82.29167, 30.3425], [-82.29169, 30.34246], [-82.2917, 30.34243], [-82.29172, 30.3424], [-82.29174, 30.34238], [-82.29176, 30.34236], [-82.29179, 30.34234], [-82.29182, 30.34232], [-82.29184, 30.3423], [-82.29186, 30.34228], [-82.29189, 30.34226], [-82.29191, 30.34224], [-82.29193, 30.34221], [-82.29197, 30.34219], [-82.29203, 30.34216], [-82.29206, 30.34214], [-82.29209, 30.34213], [-82.29214, 30.34209], [-82.2922, 30.34205], [-82.29225, 30.34203], [-82.29231, 30.34201], [-82.29236, 30.342], [-82.29241, 30.34199], [-82.29244, 30.34199], [-82.29247, 30.34199], [-82.29251, 30.34198], [-82.29255, 30.34198], [-82.29261, 30.342], [-82.29265, 30.34202], [-82.29268, 30.34203], [-82.29273, 30.34206], [-82.29277, 30.34207], [-82.2928, 30.34208], [-82.29284, 30.34209], [-82.29292, 30.34212], [-82.29295, 30.34212], [-82.293, 30.34211], [-82.29305, 30.34208], [-82.29311, 30.34206], [-82.29315, 30.34204], [-82.29319, 30.34202], [-82.29321, 30.34198], [-82.29323, 30.34195], [-82.29322, 30.34192], [-82.29319, 30.3419], [-82.29316, 30.34188], [-82.29315, 30.34185], [-82.29317, 30.34183], [-82.29318, 30.34179], [-82.29318, 30.34176], [-82.29319, 30.34172], [-82.29319, 30.34166], [-82.2932, 30.34162], [-82.29321, 30.34159], [-82.29325, 30.34157], [-82.29328, 30.34156], [-82.29331, 30.34155], [-82.29336, 30.34152], [-82.2934, 30.34151], [-82.29343, 30.34149], [-82.29346, 30.34149], [-82.2935, 30.34147], [-82.29356, 30.34145], [-82.2936, 30.34145], [-82.29363, 30.34145], [-82.29367, 30.34145], [-82.29371, 30.34145], [-82.29374, 30.34143], [-82.29375, 30.34139], [-82.29378, 30.34137], [-82.29383, 30.34135], [-82.29387, 30.34136], [-82.29391, 30.34136], [-82.29395, 30.34136], [-82.294, 30.34137], [-82.29405, 30.34137], [-82.29409, 30.34137], [-82.29413, 30.34137], [-82.29417, 30.34138], [-82.29421, 30.34137], [-82.29424, 30.34138], [-82.29428, 30.34139], [-82.29431, 30.3414], [-82.29435, 30.3414], [-82.29441, 30.34142], [-82.29446, 30.34141], [-82.2945, 30.34142], [-82.29454, 30.34142], [-82.29458, 30.34143], [-82.29461, 30.34145], [-82.29465, 30.34147], [-82.29469, 30.34149], [-82.29472, 30.34151], [-82.29475, 30.34153], [-82.29479, 30.34155], [-82.29485, 30.34157], [-82.29488, 30.34159], [-82.29493, 30.3416], [-82.29498, 30.34161], [-82.29501, 30.34162], [-82.29503, 30.34165], [-82.29506, 30.34168], [-82.29509, 30.3417], [-82.29513, 30.3417], [-82.29516, 30.34168], [-82.29519, 30.34168], [-82.29523, 30.3417], [-82.29527, 30.34172], [-82.2953, 30.34173], [-82.29534, 30.34176], [-82.29536, 30.34179], [-82.29539, 30.34179], [-82.29542, 30.34181], [-82.29545, 30.34185], [-82.29548, 30.34186], [-82.29551, 30.34188], [-82.29555, 30.34191], [-82.29559, 30.34194], [-82.29562, 30.34197], [-82.29567, 30.342], [-82.29572, 30.34203], [-82.29576, 30.34205], [-82.29578, 30.34207], [-82.2958, 30.34209], [-82.29583, 30.3421], [-82.29587, 30.34212], [-82.29591, 30.34215], [-82.29593, 30.34217], [-82.29596, 30.34219], [-82.29599, 30.34221], [-82.29602, 30.34223], [-82.29604, 30.34225], [-82.29607, 30.34228], [-82.2961, 30.34231], [-82.29612, 30.34234], [-82.29615, 30.34237], [-82.29619, 30.34238], [-82.29623, 30.34241], [-82.29627, 30.34244], [-82.29631, 30.34246], [-82.29633, 30.34248], [-82.29636, 30.3425], [-82.29641, 30.34251], [-82.29645, 30.34253], [-82.29649, 30.34255], [-82.29653, 30.34258], [-82.29657, 30.34261], [-82.29661, 30.34265], [-82.29664, 30.34268], [-82.29668, 30.34271], [-82.29673, 30.34272], [-82.29676, 30.34274], [-82.29679, 30.34276], [-82.29682, 30.34277], [-82.29685, 30.34279], [-82.29687, 30.3428], [-82.29691, 30.34283], [-82.29695, 30.34286], [-82.29698, 30.34287], [-82.29703, 30.34288], [-82.29706, 30.3429], [-82.2971, 30.34292], [-82.29712, 30.34294], [-82.29716, 30.34297], [-82.2972, 30.343], [-82.29723, 30.34301], [-82.29727, 30.34302], [-82.2973, 30.34304], [-82.29733, 30.34304], [-82.29736, 30.34305], [-82.2974, 30.34306], [-82.29743, 30.34307], [-82.29746, 30.34306], [-82.2975, 30.34306], [-82.29753, 30.34304], [-82.29757, 30.34304], [-82.2976, 30.34304], [-82.29763, 30.34305], [-82.29767, 30.34304], [-82.29771, 30.34305], [-82.29775, 30.34304], [-82.29778, 30.34304], [-82.29783, 30.34304], [-82.29787, 30.34303], [-82.2979, 30.34302], [-82.29793, 30.343], [-82.29795, 30.34298], [-82.29798, 30.34296], [-82.29801, 30.34294], [-82.29804, 30.34293], [-82.29808, 30.34292], [-82.29812, 30.34292], [-82.29814, 30.34292], [-82.29812, 30.34292], [-82.29816, 30.34292], [-82.29819, 30.34293], [-82.29823, 30.34294], [-82.29825, 30.34297], [-82.29828, 30.34298], [-82.29831, 30.343], [-82.29834, 30.34302], [-82.29837, 30.34302], [-82.2984, 30.34301], [-82.29844, 30.34302], [-82.29848, 30.34302], [-82.29851, 30.34303], [-82.29854, 30.34304], [-82.29859, 30.34303], [-82.29863, 30.34301], [-82.29867, 30.34303], [-82.2987, 30.34305], [-82.29873, 30.34308], [-82.29874, 30.34313], [-82.29875, 30.34316], [-82.29875, 30.34318], [-82.29874, 30.34317], [-82.29875, 30.3432], [-82.29875, 30.34318], [-82.29876, 30.34319]]], [[[-82.29156, 30.34386], [-82.29155, 30.34383], [-82.29154, 30.3438], [-82.29155, 30.34386], [-82.29156, 30.34386]]], [[[-82.31376, 30.34042], [-82.31378, 30.3404], [-82.3139, 30.34028], [-82.31404, 30.3402], [-82.3141, 30.34026], [-82.31426, 30.34039], [-82.31437, 30.34048], [-82.31439, 30.34061], [-82.31429, 30.34067], [-82.31424, 30.3407], [-82.31378, 30.34097], [-82.31374, 30.341], [-82.3137, 30.34101], [-82.31241, 30.34162], [-82.3092, 30.3429], [-82.3065, 30.34317], [-82.30614, 30.34318], [-82.30614, 30.34317], [-82.30614, 30.34317], [-82.30609, 30.34317], [-82.30605, 30.34317], [-82.306, 30.34318], [-82.306, 30.34318], [-82.30593, 30.34318], [-82.30586, 30.3432], [-82.30586, 30.3432], [-82.30579, 30.34321], [-82.30578, 30.34321], [-82.3057, 30.34322], [-82.3056, 30.34323], [-82.30551, 30.34325], [-82.30541, 30.34326], [-82.30531, 30.34327], [-82.30521, 30.34328], [-82.30511, 30.34329], [-82.30501, 30.3433], [-82.30492, 30.34331], [-82.30483, 30.34332], [-82.30474, 30.34332], [-82.30465, 30.34333], [-82.30456, 30.34334], [-82.30447, 30.34335], [-82.30438, 30.34336], [-82.3043, 30.34337], [-82.30421, 30.34338], [-82.30413, 30.34339], [-82.30405, 30.3434], [-82.30397, 30.34341], [-82.30389, 30.34341], [-82.30382, 30.34342], [-82.30373, 30.34343], [-82.30365, 30.34343], [-82.30357, 30.34344], [-82.30349, 30.34345], [-82.30342, 30.34346], [-82.30334, 30.34346], [-82.30326, 30.34346], [-82.30318, 30.34347], [-82.30311, 30.34347], [-82.30303, 30.34349], [-82.30295, 30.34349], [-82.30288, 30.3435], [-82.30281, 30.3435], [-82.30275, 30.34351], [-82.30268, 30.34353], [-82.30262, 30.34353], [-82.30257, 30.34354], [-82.30252, 30.34354], [-82.30247, 30.34354], [-82.30243, 30.34353], [-82.30237, 30.34351], [-82.30234, 30.34348], [-82.3023, 30.34344], [-82.30227, 30.34341], [-82.30225, 30.34338], [-82.30223, 30.34334], [-82.30219, 30.3433], [-82.30218, 30.3433], [-82.30216, 30.34327], [-82.30214, 30.34323], [-82.3021, 30.3432], [-82.30206, 30.34317], [-82.302, 30.34314], [-82.30195, 30.34312], [-82.30189, 30.3431], [-82.30188, 30.3431], [-82.30188, 30.34309], [-82.30183, 30.34308], [-82.30178, 30.34307], [-82.30177, 30.34307], [-82.30173, 30.34306], [-82.3017, 30.34305], [-82.30166, 30.34304], [-82.30166, 30.34304], [-82.30163, 30.34303], [-82.30162, 30.34302], [-82.30161, 30.34302], [-82.30155, 30.34301], [-82.30154, 30.343], [-82.30153, 30.343], [-82.30146, 30.34298], [-82.30145, 30.34298], [-82.30143, 30.34297], [-82.30137, 30.34295], [-82.30131, 30.34292], [-82.30127, 30.34291], [-82.30122, 30.34288], [-82.30117, 30.34287], [-82.30115, 30.34285], [-82.3011, 30.34281], [-82.30105, 30.34279], [-82.30101, 30.34277], [-82.30098, 30.34274], [-82.30093, 30.34271], [-82.30089, 30.34269], [-82.30086, 30.34267], [-82.30082, 30.34264], [-82.30078, 30.34261], [-82.30077, 30.34261], [-82.30076, 30.3426], [-82.30072, 30.34255], [-82.30065, 30.34252], [-82.3006, 30.34247], [-82.30053, 30.34243], [-82.30048, 30.3424], [-82.3004, 30.34236], [-82.3004, 30.34236], [-82.30039, 30.34235], [-82.30034, 30.34232], [-82.3003, 30.34227], [-82.30029, 30.34225], [-82.30026, 30.34221], [-82.30024, 30.34217], [-82.30019, 30.34206], [-82.30017, 30.34202], [-82.30013, 30.34194], [-82.30011, 30.34191], [-82.30006, 30.34183], [-82.30005, 30.3418], [-82.30005, 30.34179], [-82.30006, 30.34176], [-82.30006, 30.34171], [-82.30007, 30.3417], [-82.30008, 30.34165], [-82.30008, 30.34163], [-82.30009, 30.3416], [-82.30009, 30.34158], [-82.30009, 30.34157], [-82.3001, 30.34152], [-82.30011, 30.34147], [-82.30013, 30.34142], [-82.30014, 30.34138], [-82.30014, 30.34137], [-82.30015, 30.34135], [-82.30015, 30.34135], [-82.30015, 30.34133], [-82.30016, 30.34128], [-82.30017, 30.34124], [-82.30017, 30.3412], [-82.30017, 30.34116], [-82.30017, 30.34113], [-82.30017, 30.34108], [-82.30018, 30.34104], [-82.30017, 30.34097], [-82.30016, 30.34095], [-82.30016, 30.34091], [-82.30016, 30.34086], [-82.30016, 30.3408], [-82.30017, 30.34078], [-82.30016, 30.34077], [-82.30016, 30.34073], [-82.30017, 30.34069], [-82.30017, 30.34068], [-82.30017, 30.34063], [-82.30017, 30.34058], [-82.30017, 30.34053], [-82.30017, 30.34048], [-82.30019, 30.34044], [-82.30021, 30.34038], [-82.30024, 30.34032], [-82.30024, 30.34031], [-82.30026, 30.34026], [-82.30027, 30.34022], [-82.30028, 30.34019], [-82.30028, 30.34017], [-82.30028, 30.34016], [-82.30029, 30.34011], [-82.30029, 30.34006], [-82.3003, 30.34], [-82.30032, 30.33994], [-82.30034, 30.33989], [-82.30034, 30.33985], [-82.30039, 30.33977], [-82.30039, 30.33972], [-82.30043, 30.33963], [-82.30044, 30.33956], [-82.30044, 30.33951], [-82.30045, 30.33945], [-82.30045, 30.33939], [-82.30046, 30.33933], [-82.30046, 30.33927], [-82.30047, 30.33921], [-82.30048, 30.33915], [-82.30049, 30.33909], [-82.30057, 30.33887], [-82.30058, 30.3388], [-82.30059, 30.33874], [-82.30059, 30.33869], [-82.30061, 30.33864], [-82.30062, 30.33859], [-82.30063, 30.33857], [-82.30063, 30.33857], [-82.30063, 30.33853], [-82.30064, 30.33849], [-82.30065, 30.33845], [-82.30065, 30.33845], [-82.30065, 30.33843], [-82.30065, 30.33841], [-82.30064, 30.33836], [-82.30065, 30.33834], [-82.30063, 30.33832], [-82.30065, 30.33829], [-82.30065, 30.33825], [-82.30065, 30.33822], [-82.30065, 30.33819], [-82.30065, 30.33815], [-82.30064, 30.33811], [-82.30064, 30.33808], [-82.30063, 30.33805], [-82.30062, 30.33802], [-82.30061, 30.33799], [-82.3006, 30.33797], [-82.30059, 30.33794], [-82.30058, 30.33791], [-82.30057, 30.33787], [-82.30056, 30.33784], [-82.30056, 30.33781], [-82.30056, 30.33778], [-82.30058, 30.33773], [-82.3006, 30.33768], [-82.30062, 30.33765], [-82.30065, 30.3376], [-82.30067, 30.33759], [-82.30069, 30.33756], [-82.30072, 30.33754], [-82.30075, 30.3375], [-82.30077, 30.33748], [-82.30079, 30.33745], [-82.30081, 30.33743], [-82.30083, 30.3374], [-82.30084, 30.33736], [-82.30086, 30.33733], [-82.30086, 30.33732], [-82.30087, 30.3373], [-82.30088, 30.33727], [-82.30089, 30.33726], [-82.30091, 30.33721], [-82.30091, 30.3372], [-82.30092, 30.33719], [-82.30091, 30.33718], [-82.3009, 30.33714], [-82.30087, 30.3371], [-82.30086, 30.33707], [-82.30085, 30.33702], [-82.30082, 30.33698], [-82.3008, 30.3369], [-82.30078, 30.33685], [-82.30074, 30.3368], [-82.30071, 30.33679], [-82.30067, 30.33673], [-82.30064, 30.33672], [-82.30061, 30.33669], [-82.30054, 30.33663], [-82.30051, 30.33661], [-82.30038, 30.33637], [-82.30038, 30.33637], [-82.30038, 30.33637], [-82.3004, 30.33636], [-82.3004, 30.33634], [-82.30038, 30.33629], [-82.30041, 30.33631], [-82.30042, 30.33635], [-82.30042, 30.33636], [-82.30043, 30.33636], [-82.30043, 30.33635], [-82.30041, 30.33632], [-82.3004, 30.33629], [-82.30039, 30.33626], [-82.30038, 30.33624], [-82.30037, 30.3362], [-82.30039, 30.33618], [-82.30042, 30.33615], [-82.30042, 30.33613], [-82.30048, 30.33602], [-82.30053, 30.33601], [-82.30056, 30.33599], [-82.30058, 30.33599], [-82.30062, 30.336], [-82.30065, 30.33601], [-82.30068, 30.336], [-82.30071, 30.33597], [-82.30073, 30.33594], [-82.30074, 30.33592], [-82.30076, 30.3359], [-82.30079, 30.3359], [-82.30078, 30.33587], [-82.30078, 30.33586], [-82.30078, 30.33585], [-82.30079, 30.33584], [-82.3008, 30.33584], [-82.30082, 30.33582], [-82.30084, 30.33579], [-82.30088, 30.3358], [-82.30085, 30.33578], [-82.30086, 30.33574], [-82.30087, 30.3357], [-82.30086, 30.33569], [-82.30087, 30.33568], [-82.30087, 30.33564], [-82.30087, 30.33562], [-82.30088, 30.3356], [-82.30086, 30.33559], [-82.30085, 30.33558], [-82.30085, 30.33554], [-82.30085, 30.33551], [-82.30085, 30.33548], [-82.30087, 30.33545], [-82.30088, 30.33543], [-82.30089, 30.33542], [-82.30089, 30.33539], [-82.30089, 30.33537], [-82.30089, 30.33535], [-82.30089, 30.33535], [-82.3009, 30.33533], [-82.30091, 30.33529], [-82.30093, 30.33526], [-82.30096, 30.33523], [-82.30098, 30.33521], [-82.301, 30.33518], [-82.30102, 30.33516], [-82.30103, 30.33513], [-82.30103, 30.33509], [-82.30102, 30.33507], [-82.30104, 30.33506], [-82.30106, 30.33502], [-82.30105, 30.33497], [-82.30105, 30.33493], [-82.30105, 30.33489], [-82.30103, 30.33486], [-82.30104, 30.33486], [-82.30105, 30.33483], [-82.30105, 30.33479], [-82.30106, 30.33477], [-82.30105, 30.33474], [-82.30104, 30.3347], [-82.30103, 30.33468], [-82.30103, 30.33466], [-82.30103, 30.33465], [-82.30103, 30.3346], [-82.30104, 30.33455], [-82.30105, 30.3345], [-82.30105, 30.33447], [-82.30106, 30.33444], [-82.30107, 30.3344], [-82.30108, 30.33437], [-82.30109, 30.33434], [-82.30109, 30.33432], [-82.30109, 30.33429], [-82.30108, 30.33424], [-82.30106, 30.3342], [-82.30106, 30.33419], [-82.30107, 30.33416], [-82.30108, 30.33415], [-82.30111, 30.33412], [-82.30112, 30.3341], [-82.30115, 30.33408], [-82.30119, 30.33404], [-82.30122, 30.334], [-82.30125, 30.33399], [-82.30128, 30.33397], [-82.30131, 30.33395], [-82.30134, 30.33394], [-82.30139, 30.33393], [-82.30144, 30.33391], [-82.30144, 30.3339], [-82.30146, 30.33386], [-82.30146, 30.33383], [-82.30145, 30.3338], [-82.30145, 30.33376], [-82.30146, 30.33372], [-82.30147, 30.33368], [-82.30147, 30.33367], [-82.30147, 30.33366], [-82.30146, 30.33363], [-82.30146, 30.33362], [-82.30147, 30.33362], [-82.30148, 30.33359], [-82.30153, 30.33359], [-82.30153, 30.33359], [-82.30162, 30.3336], [-82.30165, 30.33358], [-82.30166, 30.33358], [-82.30169, 30.33356], [-82.30186, 30.3334], [-82.30205, 30.33334], [-82.30222, 30.33329], [-82.30238, 30.33321], [-82.30242, 30.33321], [-82.30322, 30.33279], [-82.30344, 30.3327], [-82.30449, 30.33257], [-82.30536, 30.33215], [-82.30635, 30.3321], [-82.30692, 30.33205], [-82.30751, 30.33217], [-82.30789, 30.33216], [-82.308, 30.33216], [-82.30801, 30.33216], [-82.30801, 30.33216], [-82.30814, 30.33216], [-82.30841, 30.33214], [-82.30864, 30.33211], [-82.30883, 30.33201], [-82.30893, 30.33192], [-82.3094, 30.33148], [-82.30948, 30.33143], [-82.30964, 30.33132], [-82.30965, 30.33132], [-82.30965, 30.33132], [-82.30984, 30.33149], [-82.30995, 30.3316], [-82.31002, 30.33168], [-82.31009, 30.33174], [-82.31001, 30.33178], [-82.3099, 30.33181], [-82.30984, 30.33183], [-82.30981, 30.33184], [-82.30976, 30.33185], [-82.30972, 30.33186], [-82.30971, 30.33186], [-82.30969, 30.33186], [-82.30964, 30.33189], [-82.3096, 30.33191], [-82.30957, 30.33195], [-82.30958, 30.33199], [-82.3096, 30.33204], [-82.30961, 30.33206], [-82.30962, 30.33209], [-82.30963, 30.33212], [-82.30964, 30.33216], [-82.30965, 30.33221], [-82.30965, 30.33224], [-82.30965, 30.33228], [-82.30966, 30.33231], [-82.30969, 30.33233], [-82.30972, 30.33236], [-82.30977, 30.33238], [-82.30978, 30.33238], [-82.30982, 30.33241], [-82.30984, 30.33243], [-82.30985, 30.33247], [-82.30987, 30.33252], [-82.30987, 30.33256], [-82.30989, 30.3326], [-82.30989, 30.33266], [-82.30988, 30.33271], [-82.30985, 30.33275], [-82.30985, 30.33279], [-82.30984, 30.33284], [-82.30982, 30.33288], [-82.3098, 30.33291], [-82.30979, 30.33293], [-82.30976, 30.33296], [-82.30973, 30.33298], [-82.3097, 30.33301], [-82.30966, 30.33304], [-82.30963, 30.33305], [-82.30959, 30.33308], [-82.30955, 30.3331], [-82.3095, 30.33312], [-82.30947, 30.33313], [-82.30944, 30.33314], [-82.30941, 30.33316], [-82.30936, 30.33318], [-82.30933, 30.33321], [-82.30933, 30.33322], [-82.30926, 30.3333], [-82.30925, 30.33331], [-82.30925, 30.33331], [-82.30921, 30.33336], [-82.30921, 30.33336], [-82.30918, 30.3334], [-82.30909, 30.33344], [-82.30889, 30.33355], [-82.30886, 30.33356], [-82.3088, 30.33357], [-82.30875, 30.33359], [-82.3087, 30.3336], [-82.30865, 30.33362], [-82.3086, 30.33363], [-82.30855, 30.33364], [-82.3085, 30.33365], [-82.30846, 30.33366], [-82.30841, 30.33366], [-82.30838, 30.33367], [-82.30833, 30.33368], [-82.30832, 30.33368], [-82.30825, 30.33368], [-82.3082, 30.33369], [-82.30814, 30.33368], [-82.30808, 30.33366], [-82.30808, 30.33366], [-82.30803, 30.33364], [-82.30799, 30.33364], [-82.30796, 30.33363], [-82.30793, 30.33362], [-82.3079, 30.33361], [-82.30784, 30.33359], [-82.30782, 30.33358], [-82.30781, 30.33358], [-82.30778, 30.33357], [-82.30773, 30.33354], [-82.3077, 30.33353], [-82.30767, 30.33351], [-82.30764, 30.33349], [-82.30761, 30.33347], [-82.30757, 30.33343], [-82.30756, 30.33343], [-82.30754, 30.33341], [-82.30751, 30.33339], [-82.30749, 30.33337], [-82.30747, 30.33335], [-82.30742, 30.3333], [-82.3074, 30.33328], [-82.30738, 30.33325], [-82.30736, 30.33322], [-82.30735, 30.33319], [-82.30732, 30.33317], [-82.3073, 30.33314], [-82.30728, 30.33312], [-82.30726, 30.33309], [-82.30722, 30.33304], [-82.3072, 30.33302], [-82.30718, 30.33299], [-82.30713, 30.33296], [-82.30707, 30.33294], [-82.30702, 30.33293], [-82.307, 30.33293], [-82.30687, 30.33282], [-82.30686, 30.33282], [-82.30686, 30.33278], [-82.30674, 30.33274], [-82.30626, 30.33259], [-82.30589, 30.33255], [-82.30538, 30.33279], [-82.30462, 30.33327], [-82.30446, 30.3334], [-82.30437, 30.33347], [-82.304, 30.33366], [-82.30399, 30.33366], [-82.30371, 30.33375], [-82.30349, 30.33379], [-82.30313, 30.33419], [-82.30314, 30.3342], [-82.30303, 30.33429], [-82.303, 30.3345], [-82.30299, 30.33505], [-82.30296, 30.33556], [-82.30298, 30.33615], [-82.30305, 30.33673], [-82.30304, 30.33713], [-82.30275, 30.33738], [-82.30274, 30.33738], [-82.30275, 30.33745], [-82.3033, 30.33807], [-82.30414, 30.33821], [-82.3055, 30.33839], [-82.30606, 30.33828], [-82.30682, 30.33793], [-82.30713, 30.33768], [-82.30698, 30.33745], [-82.30683, 30.33729], [-82.30658, 30.33709], [-82.30621, 30.33683], [-82.30594, 30.33678], [-82.30574, 30.33654], [-82.30562, 30.33628], [-82.30568, 30.33577], [-82.30602, 30.33556], [-82.30656, 30.33554], [-82.30733, 30.33563], [-82.30819, 30.3357], [-82.30826, 30.3357], [-82.30837, 30.33556], [-82.30856, 30.33535], [-82.30915, 30.33506], [-82.30947, 30.33482], [-82.30981, 30.33447], [-82.31006, 30.33431], [-82.31035, 30.3341], [-82.31101, 30.3339], [-82.31112, 30.33391], [-82.31121, 30.33387], [-82.31186, 30.33384], [-82.31268, 30.33374], [-82.31288, 30.33374], [-82.3129, 30.33373], [-82.31365, 30.33362], [-82.31427, 30.33378], [-82.31431, 30.33431], [-82.31395, 30.33464], [-82.31355, 30.33467], [-82.31338, 30.33481], [-82.31304, 30.33498], [-82.31286, 30.33501], [-82.31286, 30.33522], [-82.31292, 30.33587], [-82.31303, 30.33636], [-82.31327, 30.33651], [-82.31328, 30.3365], [-82.31331, 30.33648], [-82.31335, 30.33648], [-82.31339, 30.33648], [-82.31342, 30.33646], [-82.31346, 30.33644], [-82.31348, 30.33642], [-82.31349, 30.33639], [-82.31349, 30.33636], [-82.3135, 30.33632], [-82.31351, 30.33629], [-82.31353, 30.33626], [-82.31356, 30.33625], [-82.3136, 30.33625], [-82.31364, 30.33624], [-82.31367, 30.33623], [-82.31371, 30.33622], [-82.31375, 30.33621], [-82.31378, 30.33621], [-82.31382, 30.3362], [-82.31384, 30.33618], [-82.31388, 30.33616], [-82.31389, 30.33613], [-82.31391, 30.33611], [-82.31392, 30.33608], [-82.31391, 30.33605], [-82.31392, 30.33602], [-82.31393, 30.33599], [-82.31395, 30.33596], [-82.31398, 30.33594], [-82.31402, 30.33593], [-82.31405, 30.33591], [-82.31406, 30.33588], [-82.31408, 30.33585], [-82.3141, 30.33582], [-82.31414, 30.33581], [-82.31416, 30.33578], [-82.31415, 30.33574], [-82.31418, 30.33574], [-82.31422, 30.33574], [-82.31425, 30.33572], [-82.31427, 30.33569], [-82.3143, 30.33567], [-82.31433, 30.33566], [-82.31436, 30.33565], [-82.3144, 30.33563], [-82.31442, 30.3356], [-82.31444, 30.33557], [-82.31447, 30.33556], [-82.31451, 30.33556], [-82.31454, 30.33555], [-82.31458, 30.33554], [-82.31462, 30.33553], [-82.31466, 30.33553], [-82.3147, 30.33551], [-82.31473, 30.33551], [-82.31477, 30.3355], [-82.3148, 30.33548], [-82.31483, 30.33547], [-82.31486, 30.33545], [-82.31489, 30.33544], [-82.31493, 30.33544], [-82.31496, 30.33545], [-82.31497, 30.33548], [-82.31501, 30.3355], [-82.31504, 30.3355], [-82.31507, 30.33549], [-82.3151, 30.33548], [-82.31514, 30.33549], [-82.31517, 30.33549], [-82.31521, 30.33549], [-82.31525, 30.33549], [-82.31528, 30.3355], [-82.31532, 30.33551], [-82.31535, 30.33551], [-82.31539, 30.33552], [-82.31542, 30.33554], [-82.31545, 30.33555], [-82.31547, 30.33558], [-82.3155, 30.33559], [-82.31554, 30.3356], [-82.31556, 30.33562], [-82.31558, 30.33565], [-82.3156, 30.33568], [-82.31564, 30.33569], [-82.31567, 30.3357], [-82.3157, 30.33572], [-82.31575, 30.33574], [-82.31578, 30.33575], [-82.31579, 30.33579], [-82.31579, 30.33581], [-82.31579, 30.33584], [-82.3158, 30.33587], [-82.31583, 30.33589], [-82.31584, 30.33592], [-82.31586, 30.33595], [-82.31589, 30.33597], [-82.31592, 30.33599], [-82.31594, 30.33602], [-82.31595, 30.33605], [-82.31592, 30.33608], [-82.31591, 30.33611], [-82.31591, 30.33615], [-82.3159, 30.33617], [-82.31589, 30.33621], [-82.31588, 30.33624], [-82.31586, 30.33627], [-82.31584, 30.3363], [-82.31583, 30.33633], [-82.31581, 30.33636], [-82.3158, 30.33639], [-82.31579, 30.33642], [-82.31579, 30.33645], [-82.31578, 30.33649], [-82.31576, 30.33652], [-82.31575, 30.33655], [-82.31572, 30.33656], [-82.31568, 30.33657], [-82.31566, 30.33659], [-82.31566, 30.33664], [-82.31565, 30.33668], [-82.31563, 30.33671], [-82.31561, 30.33676], [-82.3156, 30.33681], [-82.31556, 30.33683], [-82.31554, 30.33688], [-82.31553, 30.33693], [-82.31549, 30.33696], [-82.31547, 30.337], [-82.31546, 30.33703], [-82.31544, 30.33707], [-82.31542, 30.33709], [-82.31539, 30.33713], [-82.31536, 30.33716], [-82.31536, 30.33719], [-82.31534, 30.33723], [-82.3153, 30.33725], [-82.31526, 30.33726], [-82.3152, 30.33725], [-82.31516, 30.33725], [-82.31513, 30.33727], [-82.31509, 30.3373], [-82.31505, 30.33734], [-82.31502, 30.33737], [-82.31499, 30.33739], [-82.31497, 30.33742], [-82.31494, 30.33745], [-82.3149, 30.33748], [-82.31487, 30.33749], [-82.31484, 30.33751], [-82.31482, 30.33754], [-82.31478, 30.33757], [-82.31473, 30.3376], [-82.3147, 30.33762], [-82.31464, 30.33764], [-82.31461, 30.33767], [-82.3146, 30.33769], [-82.31459, 30.33773], [-82.31457, 30.33779], [-82.31453, 30.33781], [-82.31448, 30.33782], [-82.31445, 30.33784], [-82.31443, 30.33788], [-82.31442, 30.33791], [-82.3144, 30.33795], [-82.31438, 30.33798], [-82.31436, 30.33801], [-82.31434, 30.33803], [-82.31431, 30.33805], [-82.31428, 30.33807], [-82.31426, 30.33809], [-82.31422, 30.33814], [-82.31419, 30.33815], [-82.31416, 30.33816], [-82.31411, 30.33818], [-82.31406, 30.3382], [-82.31401, 30.33824], [-82.31399, 30.33826], [-82.31395, 30.3383], [-82.31393, 30.33832], [-82.31389, 30.33834], [-82.31385, 30.33837], [-82.3138, 30.33841], [-82.31377, 30.33843], [-82.31375, 30.33844], [-82.31372, 30.33846], [-82.31369, 30.33849], [-82.31367, 30.33851], [-82.31366, 30.33855], [-82.31364, 30.3389], [-82.31365, 30.33893], [-82.31367, 30.339], [-82.31368, 30.33908], [-82.31372, 30.3392], [-82.31375, 30.33924], [-82.31377, 30.33929], [-82.31376, 30.33933], [-82.31374, 30.33937], [-82.31368, 30.33944], [-82.31363, 30.33953], [-82.31356, 30.33953], [-82.31356, 30.33953], [-82.31353, 30.33953], [-82.3135, 30.33953], [-82.31345, 30.33952], [-82.3134, 30.3395], [-82.31334, 30.3395], [-82.31331, 30.33949], [-82.31326, 30.33949], [-82.31321, 30.3395], [-82.31321, 30.3395], [-82.31321, 30.3395], [-82.31318, 30.33948], [-82.31308, 30.33959], [-82.31306, 30.33961], [-82.31303, 30.33963], [-82.313, 30.33966], [-82.31298, 30.33969], [-82.31295, 30.33971], [-82.31293, 30.33974], [-82.31291, 30.33977], [-82.3129, 30.3398], [-82.3129, 30.33983], [-82.31289, 30.33987], [-82.31287, 30.33989], [-82.31288, 30.33994], [-82.31288, 30.33998], [-82.31288, 30.34001], [-82.31288, 30.34005], [-82.3129, 30.34008], [-82.31291, 30.34011], [-82.31293, 30.34015], [-82.31295, 30.34018], [-82.31297, 30.3402], [-82.313, 30.34023], [-82.31303, 30.34026], [-82.31305, 30.34028], [-82.31307, 30.3403], [-82.3131, 30.34033], [-82.31312, 30.34035], [-82.31315, 30.34038], [-82.31318, 30.3404], [-82.31321, 30.34043], [-82.31324, 30.34045], [-82.31327, 30.34048], [-82.3133, 30.34049], [-82.31333, 30.34051], [-82.31336, 30.34052], [-82.3134, 30.34054], [-82.31344, 30.34055], [-82.31348, 30.34055], [-82.31352, 30.34055], [-82.31356, 30.34054], [-82.31359, 30.34053], [-82.31363, 30.34052], [-82.31365, 30.3405], [-82.31368, 30.34048], [-82.31371, 30.34046], [-82.31376, 30.34042], [-82.31376, 30.34042]]]]}, "properties": {"poly_IncidentName": "Mail Box", "poly_GISAcres": 334.11917392400267, "poly_DateCurrent": 1786551272000}}, {"type": "Feature", "geometry": {"type": "Polygon", "coordinates": [[[-82.24658, 30.63374], [-82.24654, 30.63356], [-82.24654, 30.63355], [-82.24651, 30.63346], [-82.24648, 30.63338], [-82.2464, 30.63322], [-82.2463, 30.63309], [-82.24622, 30.63301], [-82.24617, 30.63297], [-82.24612, 30.63294], [-82.24602, 30.63287], [-82.24584, 30.63278], [-82.24571, 30.63272], [-82.24566, 30.63269], [-82.24546, 30.63261], [-82.24525, 30.63253], [-82.24503, 30.63245], [-82.2448, 30.63238], [-82.24456, 30.63231], [-82.24432, 30.63225], [-82.24407, 30.63219], [-82.24382, 30.63213], [-82.2438, 30.63213], [-82.24357, 30.63208], [-82.24348, 30.63206], [-82.24332, 30.63202], [-82.24306, 30.63196], [-82.2428, 30.63191], [-82.24254, 30.63186], [-82.24229, 30.6318], [-82.24203, 30.63175], [-82.24177, 30.63171], [-82.2416, 30.63168], [-82.2416, 30.63168], [-82.2416, 30.63168], [-82.24152, 30.63167], [-82.24127, 30.63166], [-82.24103, 30.63165], [-82.24078, 30.63167], [-82.24053, 30.63169], [-82.24029, 30.63172], [-82.24022, 30.63172], [-82.24005, 30.63173], [-82.23992, 30.63174], [-82.2398, 30.63174], [-82.23969, 30.63174], [-82.23957, 30.63174], [-82.23933, 30.63174], [-82.23911, 30.63173], [-82.2391, 30.63173], [-82.23889, 30.63173], [-82.23869, 30.63173], [-82.2385, 30.63175], [-82.23832, 30.63178], [-82.23817, 30.63183], [-82.23804, 30.63191], [-82.23799, 30.63196], [-82.23794, 30.63201], [-82.2379, 30.63206], [-82.23785, 30.63211], [-82.2378, 30.63223], [-82.23777, 30.63236], [-82.23775, 30.6325], [-82.23772, 30.63264], [-82.23768, 30.63279], [-82.23764, 30.63293], [-82.23757, 30.63307], [-82.23748, 30.63321], [-82.23737, 30.63333], [-82.23723, 30.63344], [-82.23709, 30.63353], [-82.23694, 30.63363], [-82.23679, 30.63371], [-82.23663, 30.63378], [-82.23655, 30.63382], [-82.23647, 30.63385], [-82.23639, 30.63388], [-82.23636, 30.63389], [-82.23629, 30.63391], [-82.23626, 30.63391], [-82.2361, 30.63394], [-82.23591, 30.63393], [-82.23571, 30.6339], [-82.23551, 30.63383], [-82.23532, 30.63374], [-82.23514, 30.63364], [-82.23497, 30.63352], [-82.2348, 30.63339], [-82.23465, 30.63325], [-82.23452, 30.6331], [-82.23439, 30.63295], [-82.23428, 30.63279], [-82.23418, 30.63264], [-82.23413, 30.63256], [-82.23407, 30.63249], [-82.23395, 30.63237], [-82.23386, 30.6323], [-82.23364, 30.63219], [-82.23348, 30.63215], [-82.23329, 30.63213], [-82.23318, 30.63213], [-82.23308, 30.63214], [-82.23288, 30.63216], [-82.23266, 30.6322], [-82.23244, 30.63225], [-82.23222, 30.63231], [-82.23202, 30.63236], [-82.23199, 30.63237], [-82.23175, 30.63242], [-82.23156, 30.63245], [-82.23137, 30.63246], [-82.23125, 30.63247], [-82.23099, 30.63246], [-82.23072, 30.63243], [-82.23062, 30.63242], [-82.23046, 30.63239], [-82.23019, 30.63234], [-82.22993, 30.63229], [-82.22991, 30.63228], [-82.22974, 30.63224], [-82.22966, 30.63223], [-82.22965, 30.63222], [-82.2294, 30.63216], [-82.22913, 30.63209], [-82.22886, 30.63201], [-82.2286, 30.63191], [-82.22843, 30.63183], [-82.22834, 30.63179], [-82.22811, 30.63164], [-82.2281, 30.63163], [-82.22781, 30.63137], [-82.22771, 30.63126], [-82.22755, 30.63103], [-82.22741, 30.63078], [-82.22732, 30.63051], [-82.22726, 30.63023], [-82.22725, 30.62994], [-82.22726, 30.62963], [-82.22731, 30.62932], [-82.22738, 30.62901], [-82.22749, 30.62869], [-82.22761, 30.62837], [-82.22776, 30.62805], [-82.22794, 30.62773], [-82.22816, 30.62742], [-82.22841, 30.62711], [-82.22867, 30.62681], [-82.22896, 30.62652], [-82.22926, 30.62624], [-82.22959, 30.62598], [-82.22992, 30.62572], [-82.23026, 30.62547], [-82.23061, 30.62522], [-82.23096, 30.62498], [-82.23133, 30.62474], [-82.23169, 30.6245], [-82.23206, 30.62427], [-82.23244, 30.62404], [-82.23282, 30.6238], [-82.23321, 30.62358], [-82.2336, 30.62335], [-82.234, 30.62313], [-82.2344, 30.62291], [-82.23481, 30.6227], [-82.23523, 30.62249], [-82.23565, 30.62229], [-82.23608, 30.62209], [-82.23651, 30.6219], [-82.23695, 30.62171], [-82.2374, 30.62154], [-82.23785, 30.62137], [-82.2383, 30.62122], [-82.23876, 30.62107], [-82.23922, 30.62094], [-82.2397, 30.62082], [-82.23977, 30.6208], [-82.24017, 30.62071], [-82.2406, 30.62062], [-82.24066, 30.62061], [-82.24114, 30.62053], [-82.24163, 30.62045], [-82.24213, 30.62038], [-82.24263, 30.62032], [-82.24313, 30.62027], [-82.24363, 30.62023], [-82.24414, 30.62019], [-82.24465, 30.62017], [-82.24515, 30.62015], [-82.24547, 30.62014], [-82.24566, 30.62014], [-82.24578, 30.62014], [-82.24617, 30.62014], [-82.24668, 30.62016], [-82.2472, 30.62019], [-82.24771, 30.62024], [-82.24822, 30.62031], [-82.24874, 30.62039], [-82.24925, 30.62048], [-82.24976, 30.62058], [-82.25027, 30.62069], [-82.25048, 30.62082], [-82.25071, 30.62095], [-82.25091, 30.62111], [-82.2511, 30.62128], [-82.25126, 30.62146], [-82.25144, 30.62163], [-82.25163, 30.62179], [-82.25184, 30.62193], [-82.25207, 30.62205], [-82.2523, 30.62215], [-82.25254, 30.62224], [-82.25262, 30.62228], [-82.25277, 30.62235], [-82.25298, 30.62248], [-82.25318, 30.62263], [-82.25336, 30.62281], [-82.25352, 30.62301], [-82.25365, 30.62323], [-82.25375, 30.62345], [-82.25383, 30.62368], [-82.25385, 30.62374], [-82.25389, 30.62391], [-82.25394, 30.62414], [-82.25397, 30.62435], [-82.254, 30.62456], [-82.25401, 30.62475], [-82.25402, 30.62492], [-82.25404, 30.62507], [-82.25408, 30.62519], [-82.25416, 30.62529], [-82.25426, 30.62536], [-82.25439, 30.6254], [-82.25453, 30.6254], [-82.25467, 30.62537], [-82.25481, 30.62531], [-82.25494, 30.62522], [-82.25504, 30.62511], [-82.25514, 30.62498], [-82.25524, 30.62484], [-82.25535, 30.62471], [-82.25548, 30.62458], [-82.25564, 30.62446], [-82.25583, 30.62437], [-82.25605, 30.6243], [-82.2563, 30.62427], [-82.25656, 30.62428], [-82.25682, 30.62432], [-82.25708, 30.62439], [-82.25733, 30.62448], [-82.25757, 30.62459], [-82.25781, 30.62471], [-82.25804, 30.62483], [-82.25827, 30.62495], [-82.2585, 30.62508], [-82.25872, 30.6252], [-82.25893, 30.62534], [-82.25913, 30.62548], [-82.25931, 30.62563], [-82.25946, 30.62581], [-82.2596, 30.62599], [-82.25971, 30.62617], [-82.25981, 30.62636], [-82.25987, 30.6265], [-82.25989, 30.62654], [-82.25996, 30.62671], [-82.26002, 30.62688], [-82.26005, 30.627], [-82.26006, 30.62703], [-82.2601, 30.62717], [-82.26015, 30.62729], [-82.26022, 30.6274], [-82.2603, 30.62748], [-82.26041, 30.62755], [-82.26054, 30.62761], [-82.26069, 30.62766], [-82.26085, 30.62773], [-82.26092, 30.62776], [-82.26095, 30.62777], [-82.26104, 30.62781], [-82.26123, 30.62792], [-82.26129, 30.62796], [-82.26141, 30.62805], [-82.26158, 30.62821], [-82.26173, 30.62839], [-82.26185, 30.62859], [-82.26196, 30.62879], [-82.26209, 30.62898], [-82.26212, 30.629], [-82.26225, 30.62914], [-82.26242, 30.62929], [-82.26261, 30.62941], [-82.26282, 30.6295], [-82.26302, 30.62957], [-82.26303, 30.62957], [-82.26324, 30.62963], [-82.26335, 30.62966], [-82.26345, 30.62969], [-82.26365, 30.62977], [-82.26385, 30.62987], [-82.26402, 30.62999], [-82.26418, 30.63013], [-82.26432, 30.63029], [-82.26444, 30.63047], [-82.26454, 30.63066], [-82.26464, 30.63086], [-82.26474, 30.63105], [-82.26483, 30.63125], [-82.26491, 30.63146], [-82.26497, 30.63167], [-82.265, 30.63189], [-82.26499, 30.63211], [-82.26497, 30.63233], [-82.26494, 30.63253], [-82.26489, 30.63273], [-82.26484, 30.63293], [-82.26478, 30.63312], [-82.26472, 30.6333], [-82.26464, 30.63348], [-82.26454, 30.63365], [-82.26442, 30.63382], [-82.26429, 30.63396], [-82.26414, 30.6341], [-82.26398, 30.63422], [-82.26381, 30.63432], [-82.26363, 30.63441], [-82.26345, 30.63448], [-82.26327, 30.63456], [-82.26311, 30.63463], [-82.26296, 30.63471], [-82.26295, 30.63472], [-82.26282, 30.63481], [-82.26269, 30.63491], [-82.26256, 30.63503], [-82.26242, 30.63515], [-82.26224, 30.63524], [-82.26203, 30.63531], [-82.26179, 30.63533], [-82.26155, 30.63533], [-82.2613, 30.63531], [-82.26118, 30.6353], [-82.26106, 30.63529], [-82.26082, 30.63527], [-82.26059, 30.63526], [-82.26037, 30.63525], [-82.26016, 30.63524], [-82.25996, 30.63523], [-82.25978, 30.63524], [-82.25977, 30.63524], [-82.25961, 30.63526], [-82.25947, 30.6353], [-82.25934, 30.63535], [-82.25924, 30.63541], [-82.25917, 30.63549], [-82.2591, 30.63558], [-82.2591, 30.63558], [-82.25902, 30.63568], [-82.25893, 30.63579], [-82.25879, 30.63589], [-82.25862, 30.63595], [-82.25842, 30.63597], [-82.25822, 30.63596], [-82.25802, 30.6359], [-82.25787, 30.63581], [-82.25784, 30.6358], [-82.25767, 30.63568], [-82.25751, 30.63555], [-82.25735, 30.63544], [-82.25725, 30.63539], [-82.25718, 30.63535], [-82.25701, 30.63529], [-82.25682, 30.63526], [-82.25663, 30.63525], [-82.25644, 30.63527], [-82.25632, 30.6353], [-82.25626, 30.63531], [-82.25608, 30.63537], [-82.2559, 30.63544], [-82.25574, 30.6355], [-82.25573, 30.63551], [-82.25555, 30.63558], [-82.25538, 30.63565], [-82.25521, 30.63571], [-82.25503, 30.63576], [-82.25486, 30.63577], [-82.25473, 30.63576], [-82.25469, 30.63575], [-82.25453, 30.63571], [-82.25438, 30.63566], [-82.25424, 30.63564], [-82.25411, 30.63565], [-82.25409, 30.63566], [-82.254, 30.63571], [-82.2539, 30.63579], [-82.25383, 30.63591], [-82.25376, 30.63604], [-82.25367, 30.63619], [-82.25356, 30.63632], [-82.25341, 30.63643], [-82.25323, 30.63652], [-82.25321, 30.63652], [-82.25303, 30.63657], [-82.25282, 30.63661], [-82.25259, 30.63662], [-82.25236, 30.63663], [-82.25212, 30.63663], [-82.25187, 30.63661], [-82.25161, 30.63659], [-82.25135, 30.63657], [-82.25108, 30.63653], [-82.25082, 30.63647], [-82.25056, 30.63639], [-82.25031, 30.63631], [-82.25006, 30.63624], [-82.24982, 30.63618], [-82.24958, 30.63613], [-82.24934, 30.63609], [-82.24911, 30.63606], [-82.24888, 30.63604], [-82.24865, 30.63602], [-82.24799, 30.63603], [-82.24778, 30.63604], [-82.24737, 30.63601], [-82.24717, 30.63594], [-82.247, 30.63584], [-82.24686, 30.63571], [-82.24675, 30.63554], [-82.24667, 30.63535], [-82.24663, 30.63515], [-82.2466, 30.63494], [-82.24659, 30.63474], [-82.24659, 30.63453], [-82.2466, 30.63433], [-82.24661, 30.63413], [-82.24661, 30.63406], [-82.24661, 30.63393], [-82.24658, 30.63374]]]}, "properties": {"poly_IncidentName": "Mitchell", "poly_GISAcres": 1030, "poly_DateCurrent": 1787945618056}}, {"type": "Feature", "geometry": {"type": "Polygon", "coordinates": [[[-87.04738, 32.7633], [-87.04606, 32.76388], [-87.04478, 32.76388], [-87.04395, 32.76427], [-87.04327, 32.76484], [-87.04256, 32.76548], [-87.04177, 32.7661], [-87.04021, 32.7686], [-87.03988, 32.7713], [-87.04062, 32.77266], [-87.04063, 32.77337], [-87.03897, 32.77353], [-87.03744, 32.77354], [-87.03551, 32.77315], [-87.03448, 32.77307], [-87.03297, 32.77319], [-87.03223, 32.773], [-87.03031, 32.77213], [-87.02713, 32.7709], [-87.02627, 32.77064], [-87.02485, 32.77042], [-87.02385, 32.76991], [-87.02116, 32.76855], [-87.01788, 32.76857], [-87.01706, 32.76821], [-87.01632, 32.76777], [-87.01606, 32.76724], [-87.01591, 32.76599], [-87.01508, 32.76458], [-87.01425, 32.76402], [-87.01316, 32.76296], [-87.01289, 32.75844], [-87.01251, 32.75663], [-87.01171, 32.75578], [-87.01091, 32.75463], [-87.01096, 32.75294], [-87.0105, 32.75195], [-87.00978, 32.75157], [-87.00864, 32.75131], [-87.00804, 32.75076], [-87.00784, 32.75047], [-87.00946, 32.75016], [-87.00972, 32.74206], [-87.0102, 32.74221], [-87.01117, 32.74205], [-87.01351, 32.7413], [-87.01409, 32.74132], [-87.0149, 32.74202], [-87.01542, 32.74258], [-87.01537, 32.74354], [-87.01579, 32.74429], [-87.01646, 32.74467], [-87.01854, 32.74571], [-87.01907, 32.74679], [-87.01862, 32.74756], [-87.01916, 32.74813], [-87.02153, 32.74935], [-87.02191, 32.74978], [-87.02199, 32.75015], [-87.02879, 32.75008], [-87.02952, 32.75013], [-87.03118, 32.75047], [-87.03405, 32.75188], [-87.03392, 32.75294], [-87.0346, 32.7541], [-87.03706, 32.75449], [-87.03768, 32.75503], [-87.03927, 32.75739], [-87.04347, 32.75776], [-87.04352, 32.76108], [-87.04708, 32.7612], [-87.04728, 32.76277], [-87.04738, 32.7633]]]}, "properties": {"poly_IncidentName": "Williams Creek", "poly_GISAcres": 120, "poly_DateCurrent": 1775493496558}}, {"type": "Feature", "geometry": {"type": "Polygon", "coordinates": [[[-81.53596, 29.1061], [-81.53595, 29.10611], [-81.53597, 29.1061], [-81.53604, 29.10617], [-81.53604, 29.10617], [-81.53605, 29.10622], [-81.53603, 29.10626], [-81.53599, 29.10628], [-81.53595, 29.10631], [-81.53592, 29.10633], [-81.5359, 29.10636], [-81.53587, 29.10639], [-81.53588, 29.10641], [-81.5359, 29.10644], [-81.53596, 29.10645], [-81.53595, 29.10648], [-81.53595, 29.10652], [-81.53611, 29.10675], [-81.53612, 29.10672], [-81.53612, 29.10676], [-81.53611, 29.1068], [-81.53611, 29.10683], [-81.53615, 29.10686], [-81.53617, 29.10689], [-81.5362, 29.10694], [-81.53622, 29.10697], [-81.5362, 29.10702], [-81.53619, 29.10706], [-81.53619, 29.1071], [-81.53622, 29.10713], [-81.53624, 29.10716], [-81.53626, 29.10719], [-81.53627, 29.10724], [-81.53625, 29.10729], [-81.53622, 29.10732], [-81.53619, 29.10734], [-81.5362, 29.10737], [-81.53623, 29.10741], [-81.53623, 29.10744], [-81.53622, 29.10747], [-81.53623, 29.10752], [-81.53622, 29.10757], [-81.53619, 29.10759], [-81.53614, 29.1076], [-81.5361, 29.10762], [-81.53604, 29.10764], [-81.53599, 29.10766], [-81.53597, 29.10769], [-81.53598, 29.10772], [-81.53598, 29.10777], [-81.536, 29.10782], [-81.53599, 29.10787], [-81.53594, 29.1079], [-81.53589, 29.10793], [-81.53586, 29.10795], [-81.53586, 29.108], [-81.53585, 29.10805], [-81.53584, 29.10808], [-81.53582, 29.10812], [-81.53578, 29.10814], [-81.53573, 29.10814], [-81.53569, 29.10813], [-81.53563, 29.10813], [-81.53558, 29.10813], [-81.53555, 29.10814], [-81.5355, 29.10817], [-81.53547, 29.10818], [-81.53544, 29.1082], [-81.5354, 29.10821], [-81.53535, 29.10822], [-81.53529, 29.10823], [-81.53524, 29.10824], [-81.5352, 29.10825], [-81.53515, 29.10826], [-81.53509, 29.10829], [-81.53507, 29.10831], [-81.53503, 29.10832], [-81.535, 29.10833], [-81.53497, 29.10835], [-81.53497, 29.10834], [-81.53496, 29.10836], [-81.53496, 29.10837], [-81.53496, 29.1084], [-81.53486, 29.10833], [-81.53483, 29.10831], [-81.53477, 29.1083], [-81.53473, 29.10829], [-81.53471, 29.10827], [-81.53469, 29.10824], [-81.53466, 29.10821], [-81.53462, 29.10819], [-81.5346, 29.10817], [-81.53454, 29.10817], [-81.5345, 29.10818], [-81.53445, 29.10819], [-81.53442, 29.10818], [-81.53437, 29.10817], [-81.53433, 29.10817], [-81.53428, 29.10815], [-81.53424, 29.10815], [-81.53419, 29.10814], [-81.53416, 29.10813], [-81.53412, 29.10815], [-81.5341, 29.10818], [-81.53406, 29.1082], [-81.53404, 29.10822], [-81.53398, 29.10823], [-81.53394, 29.10822], [-81.5339, 29.10822], [-81.53386, 29.10823], [-81.53382, 29.10824], [-81.53378, 29.10823], [-81.53377, 29.10819], [-81.53377, 29.10816], [-81.53375, 29.10812], [-81.53372, 29.10807], [-81.5337, 29.10803], [-81.53368, 29.108], [-81.53366, 29.10799], [-81.53362, 29.10796], [-81.53358, 29.10793], [-81.53354, 29.1079], [-81.53352, 29.10788], [-81.53352, 29.10784], [-81.53353, 29.10781], [-81.53355, 29.10778], [-81.53358, 29.10773], [-81.5336, 29.10771], [-81.53362, 29.10767], [-81.53363, 29.10763], [-81.53364, 29.10759], [-81.53364, 29.10755], [-81.53363, 29.1075], [-81.53364, 29.10746], [-81.53364, 29.10742], [-81.53365, 29.10738], [-81.53366, 29.10734], [-81.53369, 29.10731], [-81.53372, 29.1073], [-81.53376, 29.1073], [-81.5338, 29.10731], [-81.53383, 29.10729], [-81.53387, 29.10727], [-81.5339, 29.10723], [-81.53391, 29.10721], [-81.53392, 29.10718], [-81.53391, 29.10715], [-81.53391, 29.1071], [-81.53389, 29.10706], [-81.5339, 29.10702], [-81.53392, 29.10699], [-81.53394, 29.10697], [-81.53396, 29.10693], [-81.53397, 29.1069], [-81.53398, 29.10691], [-81.534, 29.1069], [-81.53402, 29.10679], [-81.53402, 29.10672], [-81.53402, 29.10671], [-81.53401, 29.10668], [-81.53402, 29.10665], [-81.53406, 29.10664], [-81.53409, 29.10663], [-81.53411, 29.10659], [-81.53411, 29.10654], [-81.53413, 29.10648], [-81.53415, 29.10646], [-81.53417, 29.10643], [-81.5342, 29.1064], [-81.53424, 29.10638], [-81.53428, 29.10637], [-81.53432, 29.10636], [-81.53434, 29.10632], [-81.53434, 29.1063], [-81.53436, 29.10625], [-81.53439, 29.10621], [-81.53439, 29.10618], [-81.53441, 29.10614], [-81.53441, 29.10611], [-81.5344, 29.10608], [-81.53442, 29.10604], [-81.53443, 29.106], [-81.53442, 29.10595], [-81.53443, 29.1059], [-81.53445, 29.10585], [-81.53443, 29.10581], [-81.53443, 29.10579], [-81.53443, 29.10576], [-81.53443, 29.10571], [-81.53442, 29.10568], [-81.5344, 29.10564], [-81.53438, 29.10562], [-81.53438, 29.10557], [-81.5344, 29.10553], [-81.53443, 29.1055], [-81.53449, 29.10549], [-81.53452, 29.10548], [-81.53455, 29.10546], [-81.5346, 29.10543], [-81.53464, 29.10542], [-81.53467, 29.10543], [-81.53472, 29.10542], [-81.53477, 29.10542], [-81.5348, 29.10544], [-81.53482, 29.10546], [-81.53485, 29.10547], [-81.53489, 29.10548], [-81.53492, 29.10548], [-81.53498, 29.10547], [-81.53501, 29.10548], [-81.53503, 29.10551], [-81.53507, 29.10554], [-81.53511, 29.10557], [-81.53515, 29.10558], [-81.53519, 29.10559], [-81.53522, 29.10559], [-81.53524, 29.10562], [-81.53527, 29.10564], [-81.53531, 29.10568], [-81.53535, 29.10569], [-81.53538, 29.10571], [-81.5354, 29.10573], [-81.53542, 29.10577], [-81.53544, 29.10581], [-81.53546, 29.10585], [-81.53548, 29.10588], [-81.53551, 29.1059], [-81.53553, 29.10592], [-81.53557, 29.10595], [-81.53558, 29.10598], [-81.53561, 29.106], [-81.53564, 29.10601], [-81.53568, 29.10599], [-81.53571, 29.10598], [-81.53577, 29.10599], [-81.53581, 29.10599], [-81.53585, 29.10603], [-81.53589, 29.10605], [-81.53591, 29.10607], [-81.53595, 29.10609], [-81.53596, 29.1061]]]}, "properties": {"poly_IncidentName": "Bowers Bluff", "poly_GISAcres": 13.92044081220612, "poly_DateCurrent": 1787578988000}}, {"type": "Feature", "geometry": {"type": "Polygon", "coordinates": [[[-84.66184, 30.29201], [-84.66233, 30.29199], [-84.66254, 30.292], [-84.66275, 30.29233], [-84.66268, 30.29268], [-84.66276, 30.29289], [-84.66286, 30.29313], [-84.66263, 30.29331], [-84.6622, 30.29342], [-84.66179, 30.29359], [-84.66158, 30.29379], [-84.66146, 30.29411], [-84.66136, 30.29439], [-84.66123, 30.29475], [-84.66118, 30.29519], [-84.66112, 30.29561], [-84.66108, 30.29605], [-84.66107, 30.2964], [-84.66063, 30.29694], [-84.66005, 30.29695], [-84.65983, 30.29673], [-84.65979, 30.2964], [-84.65998, 30.29604], [-84.66037, 30.29568], [-84.66059, 30.29536], [-84.66065, 30.29507], [-84.66039, 30.29487], [-84.66009, 30.2949], [-84.65979, 30.29501], [-84.6595, 30.2953], [-84.65933, 30.29566], [-84.65928, 30.2959], [-84.65928, 30.29617], [-84.65903, 30.29665], [-84.65864, 30.29701], [-84.65799, 30.29708], [-84.65777, 30.29688], [-84.65736, 30.29653], [-84.65731, 30.2963], [-84.65731, 30.29593], [-84.65699, 30.29569], [-84.6568, 30.2954], [-84.65662, 30.29521], [-84.65642, 30.29506], [-84.65614, 30.29497], [-84.65586, 30.29491], [-84.65553, 30.29474], [-84.65539, 30.29462], [-84.65522, 30.2943], [-84.65522, 30.29419], [-84.65528, 30.29377], [-84.65545, 30.29351], [-84.65579, 30.29337], [-84.65592, 30.29331], [-84.6559, 30.29321], [-84.65588, 30.29311], [-84.65596, 30.29307], [-84.65612, 30.2928], [-84.65611, 30.29278], [-84.65615, 30.29278], [-84.65644, 30.29285], [-84.65676, 30.2931], [-84.6569, 30.29316], [-84.6574, 30.29306], [-84.65768, 30.29306], [-84.65791, 30.29303], [-84.65807, 30.29278], [-84.6581, 30.2926], [-84.65822, 30.29246], [-84.65843, 30.29224], [-84.65878, 30.29208], [-84.65902, 30.29189], [-84.6592, 30.29151], [-84.65922, 30.29138], [-84.65952, 30.29118], [-84.65989, 30.29139], [-84.6601, 30.29178], [-84.66021, 30.29191], [-84.66062, 30.29204], [-84.66098, 30.29204], [-84.66139, 30.29202], [-84.66171, 30.29201], [-84.66184, 30.29201]]]}, "properties": {"poly_IncidentName": "Lima", "poly_GISAcres": 61.49201933623677, "poly_DateCurrent": 1788198876000}}, {"type": "Feature", "geometry": {"type": "Polygon", "coordinates": [[[-85.03517, 30.12769], [-85.03516, 30.12769], [-85.03526, 30.12773], [-85.03543, 30.12787], [-85.03564, 30.12803], [-85.03575, 30.1283], [-85.03571, 30.1284], [-85.03564, 30.12856], [-85.03575, 30.12869], [-85.03602, 30.12897], [-85.03611, 30.12922], [-85.03597, 30.12936], [-85.03566, 30.12941], [-85.03536, 30.12964], [-85.03528, 30.12978], [-85.03529, 30.13003], [-85.03505, 30.13037], [-85.03497, 30.13058], [-85.03469, 30.13055], [-85.03443, 30.13048], [-85.03402, 30.13041], [-85.03359, 30.13031], [-85.03344, 30.13029], [-85.03317, 30.13024], [-85.03284, 30.13017], [-85.03283, 30.13017], [-85.03215, 30.13003], [-85.0312, 30.12987], [-85.03051, 30.12968], [-85.03085, 30.12946], [-85.03189, 30.12878], [-85.0319, 30.12878], [-85.03189, 30.12877], [-85.03191, 30.12877], [-85.03207, 30.12869], [-85.03363, 30.12781], [-85.03473, 30.12715], [-85.03484, 30.12742], [-85.03507, 30.12769], [-85.03517, 30.12769]]]}, "properties": {"poly_IncidentName": "Alligator Pond", "poly_GISAcres": 25.821137187740362, "poly_DateCurrent": 1788198876000}}]}