{"type": "FeatureCollection", "crs": {"type": "name", "properties": {"name": "EPSG:4326"}}, "features": [{"type": "Feature", "geometry": {"type": "Polygon", "coordinates": [[[-89.19803, 32.7861], [-89.1979, 32.78608], [-89.19764, 32.78617], [-89.19756, 32.78619], [-89.19743, 32.78627], [-89.19724, 32.78635], [-89.19713, 32.78636], [-89.19698, 32.7864], [-89.19677, 32.7865], [-89.19649, 32.78663], [-89.19622, 32.7868], [-89.19594, 32.78688], [-89.19571, 32.78691], [-89.19547, 32.78696], [-89.19516, 32.78691], [-89.19479, 32.78695], [-89.19428, 32.78699], [-89.19374, 32.78694], [-89.19351, 32.78685], [-89.1929, 32.78662], [-89.19237, 32.7864], [-89.19165, 32.78608], [-89.19142, 32.78592], [-89.19124, 32.78582], [-89.19134, 32.78569], [-89.19145, 32.78563], [-89.19166, 32.78548], [-89.19178, 32.78534], [-89.1919, 32.78525], [-89.19197, 32.7852], [-89.19195, 32.78512], [-89.19169, 32.78505], [-89.19137, 32.78493], [-89.19125, 32.7849], [-89.19102, 32.78472], [-89.19105, 32.7847], [-89.19109, 32.78468], [-89.19117, 32.78457], [-89.19116, 32.78454], [-89.19115, 32.78451], [-89.19114, 32.78448], [-89.19113, 32.78445], [-89.19111, 32.78442], [-89.1911, 32.78436], [-89.1911, 32.78431], [-89.19109, 32.78429], [-89.19109, 32.78425], [-89.19108, 32.78416], [-89.19108, 32.78412], [-89.19108, 32.7841], [-89.19108, 32.78405], [-89.19107, 32.78398], [-89.19106, 32.78393], [-89.19104, 32.7838], [-89.19104, 32.78377], [-89.19103, 32.78371], [-89.19101, 32.78367], [-89.19099, 32.78363], [-89.19099, 32.78362], [-89.19097, 32.78359], [-89.19095, 32.78355], [-89.19095, 32.78354], [-89.19093, 32.78349], [-89.19092, 32.78347], [-89.1909, 32.78343], [-89.19089, 32.78341], [-89.19088, 32.78338], [-89.19087, 32.78336], [-89.19085, 32.78332], [-89.19084, 32.7833], [-89.19081, 32.78323], [-89.19079, 32.7832], [-89.19078, 32.78317], [-89.19079, 32.78312], [-89.19079, 32.78309], [-89.1908, 32.78306], [-89.19081, 32.78301], [-89.19081, 32.783], [-89.19082, 32.78295], [-89.19083, 32.78291], [-89.19082, 32.78286], [-89.19082, 32.78278], [-89.19081, 32.78278], [-89.19081, 32.78276], [-89.19081, 32.78271], [-89.1908, 32.78267], [-89.19078, 32.78262], [-89.19077, 32.78259], [-89.19077, 32.78255], [-89.19075, 32.7825], [-89.19069, 32.78244], [-89.19065, 32.7824], [-89.19063, 32.78233], [-89.19063, 32.78228], [-89.19063, 32.78227], [-89.19062, 32.78223], [-89.19064, 32.78219], [-89.1906, 32.78204], [-89.19056, 32.78187], [-89.19053, 32.78177], [-89.19052, 32.78172], [-89.19052, 32.78169], [-89.19052, 32.78166], [-89.19053, 32.78162], [-89.19049, 32.78144], [-89.19045, 32.78142], [-89.1904, 32.7814], [-89.19035, 32.78135], [-89.1902, 32.78119], [-89.19016, 32.78113], [-89.19011, 32.78107], [-89.18997, 32.78094], [-89.18994, 32.7809], [-89.1899, 32.78075], [-89.19087, 32.78031], [-89.19106, 32.78004], [-89.19159, 32.77929], [-89.19188, 32.77919], [-89.19236, 32.77931], [-89.19366, 32.77981], [-89.1959, 32.78053], [-89.19713, 32.78083], [-89.19796, 32.78086], [-89.19799, 32.78406], [-89.19803, 32.7861]]]}, "properties": {"poly_IncidentName": "Wolf Creek RX", "poly_GISAcres": 118.49389643021277, "poly_DateCurrent": 1776458531767}}, {"type": "Feature", "geometry": {"type": "Polygon", "coordinates": [[[-89.89863, 43.89758], [-89.89867, 43.89759], [-89.89871, 43.89761], [-89.89872, 43.89764], [-89.89872, 43.89767], [-89.89876, 43.89766], [-89.89878, 43.8977], [-89.89875, 43.89773], [-89.89875, 43.89777], [-89.89876, 43.89781], [-89.89881, 43.8978], [-89.89886, 43.89782], [-89.89884, 43.89785], [-89.89881, 43.89787], [-89.89878, 43.8979], [-89.89875, 43.89792], [-89.89871, 43.89792], [-89.8987, 43.89789], [-89.89868, 43.89786], [-89.89864, 43.89787], [-89.89861, 43.89785], [-89.89857, 43.89783], [-89.89854, 43.89785], [-89.8985, 43.89785], [-89.89846, 43.89784], [-89.89842, 43.89784], [-89.89838, 43.89783], [-89.89835, 43.8978], [-89.89835, 43.89777], [-89.89832, 43.89775], [-89.89828, 43.89773], [-89.89825, 43.89774], [-89.8982, 43.89774], [-89.89819, 43.89771], [-89.89814, 43.89771], [-89.8981, 43.89772], [-89.89808, 43.8977], [-89.89808, 43.89766], [-89.89812, 43.89765], [-89.89816, 43.89765], [-89.89818, 43.89762], [-89.89819, 43.89759], [-89.89816, 43.89757], [-89.89812, 43.89757], [-89.89808, 43.89758], [-89.89805, 43.89756], [-89.89803, 43.89753], [-89.89798, 43.89752], [-89.89795, 43.89749], [-89.89793, 43.89747], [-89.89792, 43.89744], [-89.89795, 43.89741], [-89.89799, 43.8974], [-89.898, 43.89737], [-89.89802, 43.89734], [-89.89805, 43.89732], [-89.89802, 43.8973], [-89.89798, 43.89731], [-89.89797, 43.89728], [-89.89799, 43.89725], [-89.89802, 43.89723], [-89.89798, 43.89721], [-89.89794, 43.89721], [-89.89791, 43.89719], [-89.89786, 43.89721], [-89.89781, 43.89721], [-89.89778, 43.89719], [-89.89777, 43.89716], [-89.89775, 43.89713], [-89.89777, 43.8971], [-89.89781, 43.8971], [-89.89785, 43.89708], [-89.89786, 43.89705], [-89.89785, 43.89701], [-89.89782, 43.897], [-89.89779, 43.89698], [-89.89781, 43.89695], [-89.89783, 43.89692], [-89.89783, 43.89689], [-89.89781, 43.89686], [-89.89781, 43.89682], [-89.89787, 43.89683], [-89.89791, 43.89681], [-89.89794, 43.89679], [-89.89799, 43.89681], [-89.89803, 43.89682], [-89.89807, 43.89679], [-89.89804, 43.89677], [-89.89805, 43.89673], [-89.89809, 43.89672], [-89.89813, 43.89672], [-89.89817, 43.89673], [-89.89818, 43.89669], [-89.89815, 43.89666], [-89.89812, 43.89664], [-89.89817, 43.89662], [-89.89821, 43.89661], [-89.89824, 43.89658], [-89.89827, 43.89656], [-89.89831, 43.89655], [-89.89835, 43.89657], [-89.89838, 43.89659], [-89.89837, 43.89663], [-89.89839, 43.89666], [-89.89843, 43.89667], [-89.89847, 43.89669], [-89.89851, 43.89669], [-89.89855, 43.89669], [-89.8986, 43.89668], [-89.89863, 43.89667], [-89.89864, 43.8967], [-89.8986, 43.89673], [-89.89855, 43.89673], [-89.89857, 43.89676], [-89.89857, 43.89679], [-89.89855, 43.89682], [-89.89859, 43.89683], [-89.89864, 43.89682], [-89.89868, 43.89681], [-89.89872, 43.8968], [-89.89875, 43.89677], [-89.89879, 43.89678], [-89.8988, 43.89681], [-89.89881, 43.89684], [-89.89883, 43.89687], [-89.89885, 43.89689], [-89.89884, 43.89693], [-89.89886, 43.89696], [-89.8989, 43.89697], [-89.89894, 43.89697], [-89.89898, 43.89697], [-89.89903, 43.89697], [-89.89907, 43.89695], [-89.89907, 43.89692], [-89.89911, 43.89693], [-89.89915, 43.89691], [-89.8992, 43.8969], [-89.89924, 43.89691], [-89.89929, 43.89691], [-89.89933, 43.89691], [-89.89937, 43.89693], [-89.8994, 43.89695], [-89.89945, 43.89695], [-89.89948, 43.89697], [-89.89952, 43.89699], [-89.89957, 43.897], [-89.89961, 43.89701], [-89.89966, 43.89702], [-89.8997, 43.89703], [-89.89973, 43.89704], [-89.89972, 43.89708], [-89.89971, 43.8971], [-89.89971, 43.89714], [-89.8997, 43.89717], [-89.8997, 43.8972], [-89.8997, 43.89724], [-89.89971, 43.89727], [-89.89972, 43.8973], [-89.89971, 43.89733], [-89.89971, 43.89737], [-89.89967, 43.89738], [-89.89963, 43.89738], [-89.89958, 43.89738], [-89.89954, 43.89738], [-89.89949, 43.89738], [-89.89945, 43.89739], [-89.89941, 43.89739], [-89.89936, 43.89738], [-89.89932, 43.89738], [-89.89928, 43.8974], [-89.89923, 43.89741], [-89.8992, 43.89739], [-89.89916, 43.89738], [-89.89911, 43.89738], [-89.89906, 43.89737], [-89.89902, 43.89737], [-89.89897, 43.89736], [-89.89893, 43.89737], [-89.89889, 43.89736], [-89.89885, 43.89736], [-89.8988, 43.89736], [-89.89875, 43.89735], [-89.89874, 43.89732], [-89.89874, 43.89729], [-89.8987, 43.89728], [-89.89867, 43.89726], [-89.89861, 43.89726], [-89.89857, 43.89724], [-89.89854, 43.89721], [-89.8985, 43.8972], [-89.89846, 43.89721], [-89.89844, 43.89724], [-89.89841, 43.89726], [-89.89839, 43.89728], [-89.89836, 43.89731], [-89.89832, 43.89729], [-89.89829, 43.89728], [-89.89827, 43.89731], [-89.89827, 43.89735], [-89.89828, 43.89738], [-89.89829, 43.89741], [-89.89827, 43.89745], [-89.89827, 43.89748], [-89.89829, 43.89751], [-89.8983, 43.89754], [-89.89831, 43.89757], [-89.8983, 43.8976], [-89.89834, 43.89762], [-89.89837, 43.8976], [-89.89838, 43.89757], [-89.89843, 43.89755], [-89.89847, 43.89755], [-89.89851, 43.89754], [-89.89863, 43.89758]]]}, "properties": {"poly_IncidentName": "Soleburg", "poly_GISAcres": 2.56, "poly_DateCurrent": 1787687206000}}, {"type": "Feature", "geometry": {"type": "Polygon", "coordinates": [[[-80.98643, 31.87514], [-80.9846, 31.87586], [-80.98386, 31.87629], [-80.98287, 31.87724], [-80.98269, 31.87779], [-80.98172, 31.87724], [-80.97972, 31.87863], [-80.97993, 31.88], [-80.97889, 31.8814], [-80.97761, 31.88176], [-80.97689, 31.88069], [-80.97368, 31.88276], [-80.97427, 31.88341], [-80.97361, 31.88458], [-80.97259, 31.88359], [-80.97215, 31.88387], [-80.96884, 31.88489], [-80.96708, 31.88219], [-80.97388, 31.87633], [-80.98611, 31.86444], [-80.9888, 31.86181], [-80.99077, 31.85988], [-80.9917, 31.85895], [-80.99354, 31.85812], [-80.99412, 31.85762], [-80.99511, 31.85752], [-80.99901, 31.85805], [-81.00084, 31.85852], [-81.00173, 31.85889], [-81.00258, 31.85948], [-81.00303, 31.86024], [-81.00313, 31.86119], [-81.00277, 31.86158], [-81.00091, 31.86342], [-80.99966, 31.86494], [-80.99696, 31.86942], [-80.99652, 31.87188], [-80.99521, 31.87111], [-80.99235, 31.87264], [-80.98942, 31.87482], [-80.98907, 31.87584], [-80.98828, 31.8756], [-80.98643, 31.87514]]]}, "properties": {"poly_IncidentName": "Main Trail", "poly_GISAcres": 200, "poly_DateCurrent": 1787500121208}}, {"type": "Feature", "geometry": {"type": "Polygon", "coordinates": [[[-94.70579, 36.28222], [-94.70634, 36.28221], [-94.7063, 36.28288], [-94.70633, 36.28498], [-94.70627, 36.28648], [-94.70625, 36.2875], [-94.70625, 36.28778], [-94.70625, 36.28794], [-94.70624, 36.28806], [-94.70624, 36.28809], [-94.70625, 36.28812], [-94.70623, 36.28816], [-94.70624, 36.28819], [-94.70624, 36.28822], [-94.70623, 36.28825], [-94.70623, 36.28828], [-94.70624, 36.28831], [-94.70623, 36.28834], [-94.70622, 36.28837], [-94.70621, 36.2884], [-94.7062, 36.28842], [-94.70618, 36.28845], [-94.70617, 36.28848], [-94.70616, 36.28851], [-94.70616, 36.28854], [-94.70615, 36.28858], [-94.70615, 36.28861], [-94.70614, 36.28864], [-94.70614, 36.28867], [-94.70614, 36.2887], [-94.70613, 36.28874], [-94.70613, 36.28877], [-94.70612, 36.2888], [-94.70611, 36.28883], [-94.70609, 36.28886], [-94.70607, 36.28889], [-94.70605, 36.28891], [-94.70601, 36.28891], [-94.70596, 36.28891], [-94.70592, 36.28893], [-94.7059, 36.28896], [-94.7059, 36.289], [-94.70589, 36.28902], [-94.70589, 36.28905], [-94.70588, 36.28908], [-94.70587, 36.28912], [-94.70587, 36.28916], [-94.70578, 36.28925], [-94.70575, 36.28924], [-94.70571, 36.28923], [-94.70567, 36.28923], [-94.70564, 36.28925], [-94.70564, 36.28923], [-94.70563, 36.2892], [-94.70559, 36.28922], [-94.70556, 36.28922], [-94.70553, 36.28924], [-94.70549, 36.28925], [-94.70545, 36.28925], [-94.7054, 36.28924], [-94.70536, 36.28925], [-94.70532, 36.28924], [-94.70529, 36.28923], [-94.70525, 36.28925], [-94.70522, 36.28927], [-94.70519, 36.28931], [-94.70516, 36.28934], [-94.70515, 36.28938], [-94.70514, 36.28942], [-94.70512, 36.28945], [-94.70511, 36.28949], [-94.7051, 36.28953], [-94.70509, 36.28957], [-94.70509, 36.28961], [-94.7051, 36.28965], [-94.70509, 36.28969], [-94.70508, 36.28973], [-94.70507, 36.28976], [-94.70505, 36.2898], [-94.70504, 36.28983], [-94.70501, 36.28986], [-94.70499, 36.2899], [-94.70499, 36.28994], [-94.70499, 36.28998], [-94.70499, 36.29002], [-94.70499, 36.29006], [-94.705, 36.29008], [-94.70502, 36.29012], [-94.70502, 36.29016], [-94.70503, 36.2902], [-94.70501, 36.29023], [-94.70497, 36.29024], [-94.70494, 36.29025], [-94.7049, 36.29026], [-94.70487, 36.29025], [-94.70483, 36.29027], [-94.70483, 36.2903], [-94.70482, 36.29033], [-94.70482, 36.29036], [-94.70482, 36.29039], [-94.7048, 36.29042], [-94.70478, 36.29046], [-94.70476, 36.29049], [-94.70473, 36.29052], [-94.70471, 36.29054], [-94.70468, 36.29057], [-94.70466, 36.2906], [-94.70463, 36.29063], [-94.70461, 36.29065], [-94.70457, 36.29068], [-94.70454, 36.2907], [-94.7045, 36.29073], [-94.70447, 36.29074], [-94.70444, 36.29076], [-94.7044, 36.29076], [-94.70436, 36.29076], [-94.70432, 36.29076], [-94.70427, 36.29077], [-94.70423, 36.29077], [-94.70418, 36.29076], [-94.70415, 36.29078], [-94.70412, 36.2908], [-94.70408, 36.29081], [-94.70408, 36.29084], [-94.70404, 36.29086], [-94.704, 36.29087], [-94.70397, 36.29089], [-94.70394, 36.29091], [-94.70393, 36.29094], [-94.70393, 36.29097], [-94.70392, 36.291], [-94.7039, 36.29103], [-94.70386, 36.29105], [-94.70382, 36.29107], [-94.7038, 36.29111], [-94.70378, 36.29113], [-94.70375, 36.29115], [-94.70371, 36.29116], [-94.70366, 36.29116], [-94.70362, 36.29118], [-94.70359, 36.29119], [-94.70356, 36.29122], [-94.70354, 36.29124], [-94.70352, 36.29127], [-94.70351, 36.2913], [-94.70348, 36.29133], [-94.70346, 36.29135], [-94.70341, 36.29136], [-94.70338, 36.29137], [-94.70333, 36.29137], [-94.7033, 36.29139], [-94.70326, 36.2914], [-94.70323, 36.29141], [-94.70319, 36.29142], [-94.70315, 36.2914], [-94.70313, 36.29136], [-94.70309, 36.29135], [-94.70305, 36.29135], [-94.70301, 36.29135], [-94.70298, 36.29134], [-94.70294, 36.29133], [-94.7029, 36.29132], [-94.70286, 36.29131], [-94.70283, 36.29128], [-94.7028, 36.29126], [-94.70278, 36.29123], [-94.70276, 36.2912], [-94.70276, 36.29118], [-94.70274, 36.29115], [-94.7027, 36.29113], [-94.70266, 36.29111], [-94.70262, 36.2911], [-94.70259, 36.29107], [-94.70254, 36.29107], [-94.70251, 36.2911], [-94.70248, 36.2911], [-94.70245, 36.29111], [-94.7024, 36.2911], [-94.70236, 36.2911], [-94.70232, 36.29111], [-94.70229, 36.29113], [-94.70227, 36.29116], [-94.70224, 36.29119], [-94.70223, 36.29122], [-94.70223, 36.29124], [-94.7022, 36.29127], [-94.70216, 36.29128], [-94.70212, 36.29128], [-94.70208, 36.29127], [-94.70205, 36.29124], [-94.70202, 36.29122], [-94.70199, 36.29121], [-94.70195, 36.2912], [-94.70191, 36.29119], [-94.70188, 36.29118], [-94.70185, 36.29116], [-94.70182, 36.29114], [-94.7018, 36.29111], [-94.70179, 36.29108], [-94.70176, 36.29109], [-94.70173, 36.29112], [-94.70169, 36.29113], [-94.70167, 36.29115], [-94.70163, 36.29117], [-94.70161, 36.2912], [-94.70158, 36.29122], [-94.70156, 36.29125], [-94.70153, 36.29127], [-94.70151, 36.29129], [-94.70149, 36.29131], [-94.70146, 36.29134], [-94.70143, 36.29137], [-94.7014, 36.29139], [-94.70139, 36.29136], [-94.70137, 36.29133], [-94.70136, 36.29129], [-94.70135, 36.29125], [-94.70133, 36.29122], [-94.70133, 36.29118], [-94.70132, 36.29115], [-94.70131, 36.29111], [-94.70128, 36.29108], [-94.70128, 36.29105], [-94.70125, 36.29102], [-94.70122, 36.29099], [-94.70122, 36.29096], [-94.7012, 36.29093], [-94.70118, 36.29091], [-94.70115, 36.29089], [-94.70112, 36.29086], [-94.70108, 36.29085], [-94.70105, 36.29084], [-94.70102, 36.29082], [-94.70099, 36.29081], [-94.70095, 36.2908], [-94.7009, 36.29079], [-94.70086, 36.29079], [-94.70083, 36.29078], [-94.70079, 36.29076], [-94.70075, 36.29075], [-94.70072, 36.29074], [-94.70068, 36.29072], [-94.70065, 36.2907], [-94.70063, 36.29067], [-94.70061, 36.29065], [-94.70057, 36.29062], [-94.70055, 36.2906], [-94.70052, 36.29059], [-94.70047, 36.29056], [-94.70044, 36.29054], [-94.70043, 36.29051], [-94.70043, 36.29048], [-94.70043, 36.29045], [-94.70042, 36.29042], [-94.7004, 36.29038], [-94.70039, 36.29035], [-94.70038, 36.29031], [-94.70039, 36.29027], [-94.70041, 36.29024], [-94.70043, 36.29022], [-94.70045, 36.29019], [-94.70047, 36.29015], [-94.70049, 36.29013], [-94.70052, 36.2901], [-94.70053, 36.29006], [-94.70055, 36.29003], [-94.70054, 36.28999], [-94.70053, 36.28996], [-94.70053, 36.28993], [-94.70052, 36.2899], [-94.70052, 36.28987], [-94.70051, 36.28983], [-94.70053, 36.28981], [-94.70054, 36.28977], [-94.70056, 36.28974], [-94.70058, 36.28972], [-94.70061, 36.28969], [-94.70062, 36.28966], [-94.70065, 36.28962], [-94.70068, 36.28959], [-94.7007, 36.28957], [-94.70072, 36.28954], [-94.70074, 36.28951], [-94.70075, 36.28947], [-94.70075, 36.28944], [-94.70073, 36.28941], [-94.70072, 36.28937], [-94.70069, 36.28934], [-94.70067, 36.28931], [-94.70066, 36.28928], [-94.70066, 36.28924], [-94.70064, 36.2892], [-94.70062, 36.28918], [-94.70062, 36.28915], [-94.70061, 36.28912], [-94.7006, 36.2891], [-94.70057, 36.28906], [-94.70056, 36.28902], [-94.70056, 36.289], [-94.70057, 36.28896], [-94.70059, 36.28892], [-94.70062, 36.28889], [-94.70065, 36.28886], [-94.70068, 36.28883], [-94.70071, 36.28881], [-94.70074, 36.28878], [-94.70076, 36.28875], [-94.70079, 36.28871], [-94.70081, 36.28867], [-94.70082, 36.28864], [-94.70083, 36.28859], [-94.70084, 36.28856], [-94.70088, 36.28853], [-94.70091, 36.2885], [-94.70093, 36.28846], [-94.70096, 36.28843], [-94.701, 36.28841], [-94.70104, 36.2884], [-94.70108, 36.28838], [-94.70112, 36.28835], [-94.70114, 36.28833], [-94.70117, 36.28831], [-94.7012, 36.2883], [-94.70123, 36.28829], [-94.70126, 36.28827], [-94.70129, 36.28825], [-94.70131, 36.28824], [-94.70134, 36.28822], [-94.70136, 36.28819], [-94.70137, 36.28817], [-94.70138, 36.28814], [-94.70139, 36.28811], [-94.7014, 36.28809], [-94.70141, 36.28805], [-94.70143, 36.28801], [-94.70144, 36.28798], [-94.70147, 36.28795], [-94.70149, 36.28792], [-94.70151, 36.28788], [-94.70151, 36.28785], [-94.70151, 36.28782], [-94.70154, 36.28779], [-94.70157, 36.28777], [-94.7016, 36.28775], [-94.70162, 36.28773], [-94.70164, 36.28771], [-94.70166, 36.28768], [-94.70168, 36.28766], [-94.70171, 36.28764], [-94.70175, 36.28761], [-94.70178, 36.28759], [-94.70181, 36.28758], [-94.70307, 36.28224], [-94.70579, 36.28222]]]}, "properties": {"poly_IncidentName": "Chicken Coop", "poly_GISAcres": 91.16711883721395, "poly_DateCurrent": 1789955375000}}, {"type": "Feature", "geometry": {"type": "Polygon", "coordinates": [[[-95.37197, 34.29653], [-95.37167, 34.29713], [-95.37166, 34.29846], [-95.37203, 34.29953], [-95.37242, 34.30099], [-95.37242, 34.30178], [-95.37271, 34.30269], [-95.37244, 34.30298], [-95.37202, 34.30307], [-95.37171, 34.30329], [-95.3718, 34.3035], [-95.37257, 34.30387], [-95.37319, 34.30418], [-95.37379, 34.3048], [-95.37379, 34.30542], [-95.37311, 34.30594], [-95.3721, 34.30632], [-95.3708, 34.30649], [-95.36905, 34.30725], [-95.36724, 34.30832], [-95.36653, 34.30886], [-95.36628, 34.31004], [-95.36581, 34.3104], [-95.36411, 34.30971], [-95.36291, 34.30946], [-95.3613, 34.30984], [-95.35854, 34.30696], [-95.35879, 34.30642], [-95.35959, 34.30559], [-95.36098, 34.30453], [-95.36038, 34.30423], [-95.36073, 34.30193], [-95.36118, 34.30077], [-95.36199, 34.30044], [-95.36246, 34.2997], [-95.36294, 34.29925], [-95.36276, 34.29807], [-95.36218, 34.29773], [-95.36104, 34.29806], [-95.36006, 34.29779], [-95.35943, 34.29725], [-95.36015, 34.29688], [-95.36027, 34.29559], [-95.3597, 34.29456], [-95.36017, 34.29427], [-95.36197, 34.29333], [-95.36214, 34.29273], [-95.36237, 34.29206], [-95.36285, 34.29122], [-95.36356, 34.29063], [-95.36427, 34.28985], [-95.36473, 34.28887], [-95.36483, 34.28802], [-95.36557, 34.28729], [-95.36609, 34.28648], [-95.36666, 34.28629], [-95.36686, 34.28578], [-95.36759, 34.28541], [-95.36847, 34.285], [-95.36862, 34.28452], [-95.36902, 34.28374], [-95.36957, 34.28325], [-95.36993, 34.28283], [-95.37131, 34.28251], [-95.37153, 34.28307], [-95.37339, 34.28333], [-95.37427, 34.28349], [-95.37291, 34.28414], [-95.37223, 34.28455], [-95.37234, 34.28563], [-95.37269, 34.28721], [-95.3719, 34.28882], [-95.37153, 34.28931], [-95.37097, 34.29019], [-95.37142, 34.29191], [-95.37176, 34.29395], [-95.37243, 34.29573], [-95.37197, 34.29653]]]}, "properties": {"poly_IncidentName": "Tram Trail", "poly_GISAcres": 625.9345811737693, "poly_DateCurrent": 1789480355728}}, {"type": "Feature", "geometry": {"type": "MultiPolygon", "coordinates": [[[[-94.15983, 29.67518], [-94.15979, 29.67552], [-94.15865, 29.67529], [-94.15829, 29.67521], [-94.15792, 29.67519], [-94.15754, 29.67522], [-94.15717, 29.67532], [-94.15682, 29.67546], [-94.15649, 29.67562], [-94.15617, 29.67582], [-94.15586, 29.67601], [-94.15556, 29.67622], [-94.15527, 29.67643], [-94.15498, 29.67664], [-94.15468, 29.67682], [-94.15436, 29.67696], [-94.15403, 29.67705], [-94.15369, 29.67708], [-94.15336, 29.67705], [-94.15307, 29.67695], [-94.15283, 29.67678], [-94.15265, 29.67656], [-94.15252, 29.67632], [-94.15241, 29.67607], [-94.15229, 29.67581], [-94.15217, 29.67554], [-94.15204, 29.67526], [-94.1519, 29.67498], [-94.15176, 29.67468], [-94.15161, 29.67439], [-94.15147, 29.67408], [-94.15132, 29.67378], [-94.15117, 29.67347], [-94.15101, 29.67316], [-94.15085, 29.67285], [-94.15069, 29.67253], [-94.15053, 29.67221], [-94.15036, 29.67188], [-94.15019, 29.67155], [-94.15002, 29.67122], [-94.14986, 29.67089], [-94.14969, 29.67055], [-94.14952, 29.67021], [-94.14935, 29.66988], [-94.14919, 29.66954], [-94.14902, 29.6692], [-94.14884, 29.66888], [-94.14865, 29.66856], [-94.14845, 29.66825], [-94.14824, 29.66794], [-94.14803, 29.66764], [-94.14784, 29.66733], [-94.14766, 29.66702], [-94.1475, 29.66671], [-94.14736, 29.66639], [-94.14722, 29.66607], [-94.14709, 29.66575], [-94.14694, 29.66543], [-94.14677, 29.66513], [-94.14658, 29.66483], [-94.14638, 29.66454], [-94.14617, 29.66425], [-94.14598, 29.66395], [-94.1458, 29.66365], [-94.14564, 29.66334], [-94.14549, 29.66303], [-94.14534, 29.66272], [-94.14519, 29.66241], [-94.14504, 29.6621], [-94.14489, 29.66179], [-94.14474, 29.66148], [-94.14461, 29.66116], [-94.14449, 29.66084], [-94.14438, 29.66051], [-94.14427, 29.66019], [-94.14416, 29.65987], [-94.14403, 29.65955], [-94.14389, 29.65924], [-94.14374, 29.65893], [-94.14359, 29.65863], [-94.14344, 29.65832], [-94.14329, 29.65801], [-94.14314, 29.65771], [-94.14298, 29.65741], [-94.14282, 29.6571], [-94.14266, 29.6568], [-94.14251, 29.6565], [-94.14235, 29.65619], [-94.14219, 29.65589], [-94.14204, 29.65558], [-94.14188, 29.65527], [-94.14172, 29.65497], [-94.14156, 29.65466], [-94.1414, 29.65436], [-94.14124, 29.65406], [-94.14108, 29.65375], [-94.14092, 29.65345], [-94.14076, 29.65315], [-94.1406, 29.65285], [-94.14045, 29.65255], [-94.14029, 29.65225], [-94.14014, 29.65196], [-94.13999, 29.65166], [-94.13984, 29.65136], [-94.13969, 29.65107], [-94.13954, 29.65077], [-94.13939, 29.65048], [-94.13925, 29.6502], [-94.13911, 29.64993], [-94.13897, 29.64966], [-94.13884, 29.6494], [-94.13871, 29.64915], [-94.13859, 29.64892], [-94.13849, 29.64869], [-94.13843, 29.64847], [-94.13843, 29.64824], [-94.13851, 29.64803], [-94.13865, 29.64784], [-94.13885, 29.64769], [-94.13909, 29.64756], [-94.13934, 29.64744], [-94.13961, 29.64733], [-94.13989, 29.64724], [-94.14018, 29.64715], [-94.14047, 29.64706], [-94.14075, 29.64696], [-94.14104, 29.64685], [-94.14132, 29.64675], [-94.14161, 29.64664], [-94.1419, 29.64653], [-94.14219, 29.64643], [-94.14247, 29.64632], [-94.14276, 29.64621], [-94.14304, 29.64611], [-94.14334, 29.64603], [-94.14363, 29.646], [-94.14393, 29.64604], [-94.14422, 29.64614], [-94.14449, 29.64628], [-94.14475, 29.64643], [-94.14501, 29.64656], [-94.14531, 29.64665], [-94.1456, 29.6467], [-94.14591, 29.6467], [-94.14621, 29.64668], [-94.14651, 29.64662], [-94.14681, 29.64655], [-94.14711, 29.64648], [-94.14743, 29.64642], [-94.14775, 29.64636], [-94.14808, 29.6463], [-94.14842, 29.64624], [-94.14876, 29.64617], [-94.14911, 29.6461], [-94.14946, 29.64603], [-94.14981, 29.64595], [-94.15016, 29.64586], [-94.15051, 29.64576], [-94.15086, 29.64566], [-94.15121, 29.64555], [-94.15155, 29.64543], [-94.1519, 29.6453], [-94.15223, 29.64517], [-94.15257, 29.64502], [-94.15289, 29.64487], [-94.15322, 29.6447], [-94.15354, 29.64454], [-94.15386, 29.64438], [-94.15421, 29.64423], [-94.15457, 29.64412], [-94.15494, 29.64404], [-94.15533, 29.64401], [-94.15572, 29.64399], [-94.1561, 29.64396], [-94.15646, 29.64389], [-94.1568, 29.64377], [-94.15712, 29.64361], [-94.15738, 29.64341], [-94.15759, 29.64317], [-94.15776, 29.64291], [-94.15789, 29.64263], [-94.15802, 29.64235], [-94.15817, 29.64207], [-94.15832, 29.64179], [-94.15849, 29.64153], [-94.15868, 29.64127], [-94.1589, 29.64102], [-94.15914, 29.64078], [-94.1594, 29.64056], [-94.15967, 29.64035], [-94.15997, 29.64016], [-94.16028, 29.63999], [-94.16061, 29.63986], [-94.16097, 29.63977], [-94.16134, 29.63974], [-94.16172, 29.63977], [-94.16208, 29.63985], [-94.16244, 29.63994], [-94.1628, 29.64003], [-94.16317, 29.64011], [-94.16353, 29.64018], [-94.1639, 29.64023], [-94.16427, 29.64025], [-94.16464, 29.64024], [-94.16501, 29.64019], [-94.16536, 29.64012], [-94.16571, 29.64002], [-94.16604, 29.63989], [-94.16636, 29.63973], [-94.16666, 29.63956], [-94.16693, 29.63936], [-94.16719, 29.63914], [-94.16743, 29.6389], [-94.16765, 29.63866], [-94.16788, 29.63841], [-94.16811, 29.63817], [-94.16836, 29.63793], [-94.16864, 29.63771], [-94.16893, 29.63751], [-94.16924, 29.63732], [-94.16957, 29.63716], [-94.1699, 29.637], [-94.17024, 29.63685], [-94.17058, 29.6367], [-94.17093, 29.63655], [-94.17128, 29.63641], [-94.17163, 29.63627], [-94.17199, 29.63613], [-94.17235, 29.63598], [-94.1727, 29.63584], [-94.17307, 29.63569], [-94.17343, 29.63554], [-94.17379, 29.63538], [-94.17415, 29.63523], [-94.17451, 29.63507], [-94.1749, 29.63491], [-94.17527, 29.63473], [-94.17563, 29.63456], [-94.176, 29.63438], [-94.17637, 29.63421], [-94.17675, 29.63403], [-94.17713, 29.63386], [-94.17752, 29.63369], [-94.1779, 29.63352], [-94.1783, 29.63335], [-94.17869, 29.63319], [-94.17909, 29.63303], [-94.17949, 29.63287], [-94.17988, 29.6327], [-94.18028, 29.63253], [-94.18068, 29.63236], [-94.18107, 29.63219], [-94.18146, 29.63201], [-94.18185, 29.63183], [-94.18222, 29.63164], [-94.1826, 29.63144], [-94.18297, 29.63124], [-94.18334, 29.63104], [-94.18372, 29.63085], [-94.1841, 29.63066], [-94.1845, 29.63048], [-94.18489, 29.63031], [-94.1853, 29.63015], [-94.1857, 29.63], [-94.18611, 29.62984], [-94.18653, 29.6297], [-94.18693, 29.62955], [-94.18734, 29.6294], [-94.18775, 29.62925], [-94.18815, 29.6291], [-94.18855, 29.62895], [-94.18896, 29.6288], [-94.18937, 29.62867], [-94.18979, 29.62854], [-94.19021, 29.62843], [-94.19064, 29.62833], [-94.19107, 29.62823], [-94.19149, 29.62814], [-94.19192, 29.62803], [-94.19233, 29.6279], [-94.19272, 29.62775], [-94.1931, 29.62758], [-94.19346, 29.62741], [-94.19382, 29.62722], [-94.19417, 29.62703], [-94.19453, 29.62684], [-94.19488, 29.62666], [-94.19525, 29.62649], [-94.19563, 29.62633], [-94.19603, 29.62622], [-94.19644, 29.62613], [-94.19685, 29.62607], [-94.19726, 29.62604], [-94.19768, 29.62602], [-94.1981, 29.62602], [-94.19852, 29.62602], [-94.19894, 29.62599], [-94.19934, 29.62593], [-94.19973, 29.62582], [-94.20009, 29.62568], [-94.20041, 29.6255], [-94.2007, 29.62528], [-94.20095, 29.62503], [-94.2012, 29.62477], [-94.20145, 29.62452], [-94.20172, 29.62428], [-94.20202, 29.62406], [-94.20235, 29.62387], [-94.2027, 29.6237], [-94.20304, 29.62354], [-94.20338, 29.62337], [-94.20372, 29.62319], [-94.20404, 29.623], [-94.20436, 29.6228], [-94.20467, 29.62259], [-94.20498, 29.62238], [-94.20529, 29.62217], [-94.20561, 29.62197], [-94.20593, 29.62177], [-94.20628, 29.62159], [-94.20663, 29.62143], [-94.207, 29.62129], [-94.20739, 29.62117], [-94.20779, 29.62109], [-94.2082, 29.62102], [-94.20862, 29.62097], [-94.20903, 29.62093], [-94.20944, 29.62087], [-94.20985, 29.62079], [-94.21024, 29.62069], [-94.21063, 29.62057], [-94.211, 29.62042], [-94.21136, 29.62027], [-94.21171, 29.62011], [-94.21206, 29.61994], [-94.21242, 29.61978], [-94.21277, 29.61963], [-94.21314, 29.61948], [-94.21351, 29.61935], [-94.21389, 29.61922], [-94.21428, 29.6191], [-94.21467, 29.61897], [-94.21506, 29.61884], [-94.21544, 29.61871], [-94.21583, 29.61857], [-94.2162, 29.61843], [-94.21658, 29.61828], [-94.21695, 29.61812], [-94.21732, 29.61797], [-94.21769, 29.61781], [-94.21805, 29.61764], [-94.21842, 29.61748], [-94.21878, 29.61731], [-94.21915, 29.61715], [-94.21952, 29.61699], [-94.21989, 29.61684], [-94.22026, 29.61668], [-94.22063, 29.61653], [-94.221, 29.61637], [-94.22137, 29.6162], [-94.22173, 29.61603], [-94.22209, 29.61586], [-94.22245, 29.61569], [-94.22281, 29.61551], [-94.22316, 29.61533], [-94.22352, 29.61514], [-94.22387, 29.61495], [-94.22422, 29.61477], [-94.22458, 29.61458], [-94.22494, 29.61441], [-94.22531, 29.61423], [-94.22569, 29.61407], [-94.22607, 29.61392], [-94.22645, 29.61377], [-94.22684, 29.61362], [-94.22723, 29.61347], [-94.22762, 29.61332], [-94.22801, 29.61317], [-94.2284, 29.61303], [-94.22878, 29.61288], [-94.22917, 29.61273], [-94.22955, 29.61258], [-94.22994, 29.61243], [-94.23032, 29.61228], [-94.2307, 29.61213], [-94.23109, 29.61198], [-94.23147, 29.61183], [-94.23186, 29.61168], [-94.23224, 29.61153], [-94.23262, 29.61138], [-94.233, 29.61124], [-94.23339, 29.61109], [-94.23377, 29.61094], [-94.23415, 29.61079], [-94.23453, 29.61065], [-94.23491, 29.6105], [-94.23529, 29.61035], [-94.23566, 29.6102], [-94.23604, 29.61006], [-94.23641, 29.60991], [-94.23678, 29.60976], [-94.23716, 29.60961], [-94.23754, 29.60946], [-94.23791, 29.60932], [-94.2383, 29.60917], [-94.23868, 29.60903], [-94.23906, 29.60889], [-94.23945, 29.60874], [-94.23983, 29.6086], [-94.24021, 29.60845], [-94.2406, 29.60831], [-94.24098, 29.60816], [-94.24136, 29.60802], [-94.24174, 29.60787], [-94.24212, 29.60772], [-94.2425, 29.60758], [-94.24287, 29.60743], [-94.24325, 29.60729], [-94.24363, 29.60714], [-94.244, 29.60699], [-94.24438, 29.60684], [-94.24476, 29.6067], [-94.24514, 29.60655], [-94.24552, 29.60641], [-94.24589, 29.60626], [-94.24627, 29.60611], [-94.24664, 29.60596], [-94.247, 29.60582], [-94.24736, 29.60567], [-94.24772, 29.60553], [-94.24807, 29.60539], [-94.24842, 29.60525], [-94.24877, 29.60512], [-94.24913, 29.60498], [-94.24948, 29.60485], [-94.24984, 29.60471], [-94.2502, 29.60458], [-94.25056, 29.60444], [-94.25093, 29.6043], [-94.2513, 29.60416], [-94.25167, 29.60403], [-94.25204, 29.6039], [-94.25242, 29.60377], [-94.2528, 29.60364], [-94.25317, 29.60351], [-94.25355, 29.60338], [-94.25393, 29.60325], [-94.25432, 29.60313], [-94.25471, 29.60303], [-94.25511, 29.60293], [-94.25551, 29.60286], [-94.25592, 29.60282], [-94.25633, 29.60285], [-94.25672, 29.60293], [-94.25708, 29.60308], [-94.25738, 29.60328], [-94.25761, 29.60354], [-94.25778, 29.60383], [-94.25787, 29.60414], [-94.25792, 29.60446], [-94.2579, 29.60479], [-94.25781, 29.6051], [-94.2577, 29.60542], [-94.25756, 29.60572], [-94.25738, 29.606], [-94.25717, 29.60628], [-94.25695, 29.60656], [-94.25674, 29.60684], [-94.25652, 29.60712], [-94.2563, 29.6074], [-94.25607, 29.60768], [-94.25584, 29.60796], [-94.2556, 29.60825], [-94.25536, 29.60854], [-94.25514, 29.60884], [-94.25494, 29.60916], [-94.25479, 29.60949], [-94.25469, 29.60984], [-94.25467, 29.61019], [-94.25473, 29.61052], [-94.25488, 29.61083], [-94.25511, 29.61108], [-94.25541, 29.61126], [-94.25573, 29.61136], [-94.25608, 29.61138], [-94.25641, 29.61132], [-94.25672, 29.6112], [-94.257, 29.61103], [-94.25725, 29.61083], [-94.2575, 29.61061], [-94.25773, 29.61039], [-94.25797, 29.61016], [-94.2582, 29.60993], [-94.25844, 29.60969], [-94.25868, 29.60946], [-94.25893, 29.60922], [-94.25918, 29.60898], [-94.25946, 29.60875], [-94.25977, 29.60855], [-94.26012, 29.60839], [-94.2605, 29.60828], [-94.2609, 29.60821], [-94.26131, 29.60817], [-94.26173, 29.60816], [-94.26215, 29.60815], [-94.26258, 29.60814], [-94.26301, 29.60813], [-94.26344, 29.60812], [-94.26387, 29.6081], [-94.2643, 29.60807], [-94.26472, 29.60801], [-94.26512, 29.60791], [-94.26556, 29.60786], [-94.26755, 29.60873], [-94.26807, 29.6097], [-94.26856, 29.61081], [-94.26875, 29.61199], [-94.26855, 29.61275], [-94.26812, 29.61344], [-94.26723, 29.61431], [-94.26646, 29.61527], [-94.26582, 29.61635], [-94.26525, 29.61749], [-94.26479, 29.61867], [-94.26463, 29.61993], [-94.26468, 29.6212], [-94.26476, 29.62248], [-94.26475, 29.62377], [-94.2647, 29.62504], [-94.26485, 29.62632], [-94.26552, 29.62742], [-94.2666, 29.6282], [-94.26771, 29.62897], [-94.2686, 29.62994], [-94.26904, 29.63113], [-94.26906, 29.63363], [-94.26925, 29.63489], [-94.2697, 29.6361], [-94.27045, 29.63722], [-94.27146, 29.63813], [-94.27261, 29.63891], [-94.27384, 29.63955], [-94.27516, 29.6398], [-94.27541, 29.63986], [-94.2768, 29.6392], [-94.2781, 29.63846], [-94.27904, 29.63743], [-94.27953, 29.63625], [-94.27978, 29.63502], [-94.28013, 29.63382], [-94.28046, 29.63262], [-94.28058, 29.63142], [-94.2805, 29.63023], [-94.28032, 29.62904], [-94.28018, 29.62826], [-94.28009, 29.6275], [-94.28012, 29.62675], [-94.2804, 29.62608], [-94.28095, 29.62558], [-94.28165, 29.62527], [-94.28244, 29.62511], [-94.28328, 29.62505], [-94.28413, 29.62501], [-94.28497, 29.62488], [-94.28574, 29.62462], [-94.28646, 29.62427], [-94.28716, 29.62387], [-94.28826, 29.62332], [-94.28945, 29.62286], [-94.29071, 29.6225], [-94.29195, 29.62212], [-94.2932, 29.62179], [-94.29449, 29.6219], [-94.29562, 29.62255], [-94.2967, 29.62332], [-94.29786, 29.62402], [-94.29905, 29.62467], [-94.30009, 29.62549], [-94.30084, 29.62646], [-94.30145, 29.62741], [-94.30225, 29.62818], [-94.30364, 29.63009], [-94.30373, 29.63044], [-94.30384, 29.6308], [-94.30395, 29.63115], [-94.30402, 29.63151], [-94.30403, 29.63188], [-94.30399, 29.63224], [-94.30387, 29.63259], [-94.30369, 29.63291], [-94.30345, 29.6332], [-94.30316, 29.63346], [-94.30284, 29.63367], [-94.30249, 29.63386], [-94.30213, 29.63401], [-94.30176, 29.63415], [-94.30138, 29.63428], [-94.301, 29.63442], [-94.30024, 29.63472], [-94.29985, 29.63488], [-94.29947, 29.63504], [-94.29908, 29.63522], [-94.29869, 29.63539], [-94.2983, 29.63556], [-94.29793, 29.63572], [-94.29756, 29.63589], [-94.29719, 29.63605], [-94.29681, 29.63621], [-94.29643, 29.63637], [-94.29605, 29.63653], [-94.29566, 29.6367], [-94.29527, 29.63687], [-94.29488, 29.63704], [-94.29448, 29.63722], [-94.29409, 29.6374], [-94.2937, 29.63758], [-94.29331, 29.63777], [-94.29292, 29.63796], [-94.29252, 29.63815], [-94.29213, 29.63833], [-94.29173, 29.63851], [-94.29133, 29.63869], [-94.29093, 29.63887], [-94.29053, 29.63905], [-94.29013, 29.63922], [-94.28972, 29.6394], [-94.28932, 29.63958], [-94.28891, 29.63976], [-94.28849, 29.63993], [-94.28808, 29.64011], [-94.28767, 29.64029], [-94.28725, 29.64047], [-94.28684, 29.64065], [-94.28642, 29.64083], [-94.28601, 29.64101], [-94.2856, 29.64119], [-94.28518, 29.64137], [-94.28476, 29.64155], [-94.28435, 29.64174], [-94.28393, 29.64192], [-94.28352, 29.64211], [-94.28311, 29.64229], [-94.28269, 29.64248], [-94.28228, 29.64267], [-94.28187, 29.64286], [-94.28147, 29.64306], [-94.28106, 29.64326], [-94.28065, 29.64345], [-94.28023, 29.64365], [-94.27982, 29.64385], [-94.2794, 29.64405], [-94.27897, 29.64425], [-94.27855, 29.64445], [-94.27813, 29.64465], [-94.27771, 29.64485], [-94.27729, 29.64505], [-94.27687, 29.64526], [-94.27645, 29.64547], [-94.27604, 29.64567], [-94.27563, 29.64588], [-94.27523, 29.64608], [-94.27484, 29.64626], [-94.27445, 29.64644], [-94.27408, 29.6466], [-94.27371, 29.64672], [-94.27333, 29.64679], [-94.27298, 29.64677], [-94.27267, 29.64665], [-94.27245, 29.64647], [-94.27233, 29.64623], [-94.27232, 29.64597], [-94.27239, 29.64572], [-94.27253, 29.64548], [-94.27274, 29.64527], [-94.27296, 29.64507], [-94.27319, 29.64486], [-94.27341, 29.64464], [-94.27361, 29.6444], [-94.27378, 29.64415], [-94.27391, 29.64388], [-94.27398, 29.64359], [-94.27399, 29.6433], [-94.27394, 29.64302], [-94.27382, 29.64275], [-94.27365, 29.64249], [-94.27342, 29.64227], [-94.27314, 29.64211], [-94.27281, 29.642], [-94.27246, 29.64197], [-94.2721, 29.642], [-94.27174, 29.64208], [-94.27139, 29.6422], [-94.27103, 29.64233], [-94.27067, 29.64247], [-94.2703, 29.6426], [-94.26993, 29.64275], [-94.26955, 29.64289], [-94.26916, 29.64304], [-94.26877, 29.64319], [-94.26838, 29.64333], [-94.26798, 29.64348], [-94.26757, 29.64362], [-94.26714, 29.64374], [-94.26671, 29.64384], [-94.26626, 29.6439], [-94.26582, 29.64394], [-94.26537, 29.64397], [-94.26493, 29.64399], [-94.26448, 29.64402], [-94.26403, 29.64405], [-94.26358, 29.64408], [-94.26313, 29.64412], [-94.26267, 29.64417], [-94.26221, 29.64422], [-94.26176, 29.64429], [-94.2613, 29.64435], [-94.26085, 29.64443], [-94.2604, 29.64453], [-94.25996, 29.64465], [-94.25952, 29.64481], [-94.2591, 29.64499], [-94.25869, 29.64519], [-94.25829, 29.64543], [-94.25792, 29.64569], [-94.25757, 29.64596], [-94.25723, 29.64626], [-94.25692, 29.64657], [-94.25662, 29.64689], [-94.25635, 29.64723], [-94.2561, 29.64758], [-94.25586, 29.64794], [-94.25563, 29.64832], [-94.25542, 29.64869], [-94.25521, 29.64908], [-94.25501, 29.64946], [-94.25482, 29.64985], [-94.25464, 29.65024], [-94.25446, 29.65064], [-94.25428, 29.65103], [-94.25408, 29.65142], [-94.25387, 29.65179], [-94.25364, 29.65216], [-94.25338, 29.6525], [-94.25309, 29.65282], [-94.25277, 29.65312], [-94.25242, 29.65337], [-94.25204, 29.6536], [-94.25165, 29.65379], [-94.25124, 29.65395], [-94.25083, 29.65408], [-94.25042, 29.65419], [-94.25, 29.6543], [-94.24959, 29.6544], [-94.24917, 29.6545], [-94.24875, 29.6546], [-94.24833, 29.6547], [-94.24791, 29.65481], [-94.24749, 29.65492], [-94.24706, 29.65503], [-94.24662, 29.65515], [-94.24619, 29.65528], [-94.24576, 29.65542], [-94.24533, 29.65556], [-94.2449, 29.6557], [-94.24447, 29.65585], [-94.24404, 29.65601], [-94.24362, 29.65617], [-94.2432, 29.65634], [-94.24278, 29.65654], [-94.24239, 29.65676], [-94.242, 29.657], [-94.24164, 29.65727], [-94.24129, 29.65756], [-94.24097, 29.65788], [-94.24067, 29.65821], [-94.24038, 29.65856], [-94.2401, 29.6589], [-94.2398, 29.65923], [-94.23949, 29.65955], [-94.23917, 29.65986], [-94.23882, 29.66014], [-94.23846, 29.66041], [-94.23808, 29.66065], [-94.2377, 29.66088], [-94.23731, 29.66111], [-94.23693, 29.66134], [-94.23655, 29.66157], [-94.23617, 29.66181], [-94.23579, 29.66204], [-94.23542, 29.66228], [-94.23505, 29.66252], [-94.23467, 29.66275], [-94.23429, 29.66299], [-94.23392, 29.66323], [-94.23354, 29.66347], [-94.23316, 29.66372], [-94.23279, 29.66397], [-94.23242, 29.66421], [-94.23204, 29.66446], [-94.23167, 29.66472], [-94.23129, 29.66497], [-94.23091, 29.66522], [-94.23052, 29.66546], [-94.23013, 29.6657], [-94.22973, 29.66592], [-94.22933, 29.66614], [-94.22893, 29.66635], [-94.22852, 29.66655], [-94.2281, 29.66674], [-94.22769, 29.66693], [-94.22727, 29.66711], [-94.22686, 29.6673], [-94.22644, 29.66748], [-94.22603, 29.66767], [-94.22562, 29.66785], [-94.22521, 29.66804], [-94.22481, 29.66823], [-94.2244, 29.66843], [-94.224, 29.66863], [-94.2236, 29.66884], [-94.22319, 29.66904], [-94.22278, 29.66923], [-94.22236, 29.66943], [-94.22195, 29.66963], [-94.22155, 29.66983], [-94.22116, 29.67005], [-94.22077, 29.67028], [-94.22039, 29.67051], [-94.22001, 29.67074], [-94.21961, 29.67096], [-94.21921, 29.67117], [-94.2188, 29.67137], [-94.21839, 29.67155], [-94.21797, 29.67173], [-94.21755, 29.6719], [-94.21713, 29.67208], [-94.21671, 29.67225], [-94.2163, 29.67243], [-94.21589, 29.67261], [-94.21549, 29.67279], [-94.21509, 29.67297], [-94.21468, 29.67315], [-94.21428, 29.67333], [-94.21387, 29.67351], [-94.21347, 29.67369], [-94.21306, 29.67387], [-94.21264, 29.67405], [-94.21222, 29.67423], [-94.2118, 29.6744], [-94.21138, 29.67457], [-94.21095, 29.67474], [-94.21053, 29.67491], [-94.21011, 29.67508], [-94.20969, 29.67525], [-94.20927, 29.67542], [-94.20885, 29.67559], [-94.20843, 29.67577], [-94.20801, 29.67594], [-94.2076, 29.67612], [-94.20719, 29.6763], [-94.20678, 29.67649], [-94.20638, 29.67669], [-94.20597, 29.67689], [-94.20557, 29.67709], [-94.20517, 29.6773], [-94.20477, 29.67751], [-94.20437, 29.67771], [-94.20396, 29.67791], [-94.20355, 29.6781], [-94.20314, 29.67829], [-94.20273, 29.67848], [-94.20232, 29.67866], [-94.20191, 29.67885], [-94.2015, 29.67904], [-94.20109, 29.67924], [-94.20069, 29.67945], [-94.20029, 29.67965], [-94.19989, 29.67986], [-94.19948, 29.68006], [-94.19907, 29.68025], [-94.19865, 29.68043], [-94.19822, 29.68061], [-94.1978, 29.68079], [-94.19739, 29.68097], [-94.19697, 29.68115], [-94.19656, 29.68134], [-94.19614, 29.68152], [-94.18989, 29.68411], [-94.18951, 29.68253], [-94.18939, 29.68216], [-94.18918, 29.68123], [-94.18896, 29.6805], [-94.18866, 29.68058], [-94.18814, 29.68076], [-94.18742, 29.68097], [-94.18685, 29.68114], [-94.18632, 29.68128], [-94.18591, 29.68141], [-94.18546, 29.68152], [-94.18498, 29.68165], [-94.18439, 29.68185], [-94.18468, 29.68298], [-94.18499, 29.684], [-94.18477, 29.68437], [-94.18391, 29.68419], [-94.18368, 29.68396], [-94.18343, 29.68445], [-94.1831, 29.68484], [-94.1824, 29.68479], [-94.18223, 29.68449], [-94.18205, 29.68426], [-94.18196, 29.68378], [-94.18164, 29.68387], [-94.18138, 29.68356], [-94.18088, 29.68352], [-94.18067, 29.6833], [-94.1801, 29.68305], [-94.17919, 29.68279], [-94.17916, 29.68208], [-94.17926, 29.6816], [-94.17913, 29.68103], [-94.17988, 29.68033], [-94.18031, 29.68017], [-94.18051, 29.67969], [-94.18098, 29.67829], [-94.18147, 29.67766], [-94.18248, 29.67779], [-94.1834, 29.67705], [-94.18305, 29.67596], [-94.18122, 29.67539], [-94.18077, 29.67509], [-94.18041, 29.67491], [-94.17725, 29.67434], [-94.17689, 29.6742], [-94.17655, 29.67403], [-94.17623, 29.67382], [-94.17596, 29.67357], [-94.17572, 29.6733], [-94.17555, 29.673], [-94.1754, 29.67269], [-94.17529, 29.67237], [-94.17518, 29.67205], [-94.17508, 29.67172], [-94.17499, 29.6714], [-94.17489, 29.67107], [-94.1748, 29.67074], [-94.17472, 29.67041], [-94.17462, 29.67007], [-94.17451, 29.66974], [-94.17438, 29.66941], [-94.17421, 29.6691], [-94.17399, 29.66881], [-94.17373, 29.66856], [-94.17342, 29.66834], [-94.17308, 29.66818], [-94.1727, 29.66808], [-94.1723, 29.66805], [-94.17189, 29.66807], [-94.17147, 29.66814], [-94.17105, 29.66826], [-94.17063, 29.6684], [-94.17021, 29.66854], [-94.16979, 29.66869], [-94.16936, 29.66884], [-94.16892, 29.66899], [-94.16848, 29.66914], [-94.16804, 29.66929], [-94.16759, 29.66942], [-94.16713, 29.66954], [-94.16667, 29.66965], [-94.16621, 29.66975], [-94.16574, 29.66983], [-94.16528, 29.66991], [-94.16482, 29.66999], [-94.16436, 29.67007], [-94.16391, 29.67017], [-94.16346, 29.67028], [-94.16301, 29.6704], [-94.16256, 29.67054], [-94.16213, 29.6707], [-94.1617, 29.67089], [-94.16129, 29.6711], [-94.1609, 29.67134], [-94.16054, 29.67161], [-94.16021, 29.67192], [-94.15992, 29.67226], [-94.15969, 29.67264], [-94.1595, 29.67303], [-94.15937, 29.67344], [-94.15928, 29.67387], [-94.15922, 29.6743], [-94.15924, 29.67466], [-94.15975, 29.67481], [-94.15983, 29.67518]]], [[[-94.15843, 29.68943], [-94.1583, 29.68938], [-94.15804, 29.68901], [-94.15793, 29.68868], [-94.15776, 29.68829], [-94.15804, 29.68805], [-94.1582, 29.68777], [-94.15829, 29.68746], [-94.15846, 29.68718], [-94.15858, 29.68687], [-94.15873, 29.68662], [-94.15891, 29.68635], [-94.159, 29.68604], [-94.15905, 29.68573], [-94.15906, 29.68542], [-94.15903, 29.68511], [-94.15894, 29.68481], [-94.15882, 29.68452], [-94.15868, 29.68424], [-94.15852, 29.68397], [-94.15835, 29.68371], [-94.15819, 29.68345], [-94.15804, 29.68318], [-94.15792, 29.6829], [-94.15784, 29.68261], [-94.15779, 29.68231], [-94.15778, 29.682], [-94.15782, 29.68169], [-94.15789, 29.68138], [-94.15797, 29.68107], [-94.15809, 29.68077], [-94.15822, 29.68047], [-94.15838, 29.68017], [-94.15857, 29.67989], [-94.15878, 29.67961], [-94.159, 29.67934], [-94.15923, 29.67908], [-94.15944, 29.6788], [-94.1599, 29.67875], [-94.16301, 29.67835], [-94.16279, 29.67693], [-94.16262, 29.67657], [-94.16271, 29.67595], [-94.16291, 29.67575], [-94.16338, 29.67581], [-94.16378, 29.67579], [-94.16442, 29.67615], [-94.16482, 29.67625], [-94.16524, 29.67644], [-94.16557, 29.67628], [-94.16598, 29.6758], [-94.16675, 29.67556], [-94.16774, 29.67595], [-94.16854, 29.67692], [-94.16881, 29.67785], [-94.16763, 29.67923], [-94.16676, 29.67942], [-94.16684, 29.68005], [-94.16663, 29.68043], [-94.1668, 29.68087], [-94.16825, 29.68068], [-94.16932, 29.68065], [-94.17054, 29.68063], [-94.17203, 29.68049], [-94.17235, 29.6802], [-94.17146, 29.6793], [-94.17167, 29.6789], [-94.17197, 29.67879], [-94.17233, 29.6787], [-94.17269, 29.67871], [-94.17308, 29.67851], [-94.17377, 29.67823], [-94.17406, 29.67785], [-94.17422, 29.67763], [-94.17453, 29.67766], [-94.1749, 29.67771], [-94.1754, 29.67775], [-94.17582, 29.67782], [-94.1763, 29.67799], [-94.17685, 29.67805], [-94.17734, 29.67801], [-94.17766, 29.67804], [-94.1781, 29.67815], [-94.17825, 29.67881], [-94.17833, 29.67911], [-94.17843, 29.67951], [-94.17858, 29.6799], [-94.17856, 29.68048], [-94.1773, 29.6824], [-94.17749, 29.68296], [-94.17798, 29.68349], [-94.17843, 29.68362], [-94.17887, 29.68377], [-94.17951, 29.68391], [-94.1797, 29.68418], [-94.18, 29.68403], [-94.18033, 29.68393], [-94.1805, 29.68417], [-94.18079, 29.68418], [-94.18106, 29.68442], [-94.18147, 29.6847], [-94.18158, 29.68495], [-94.15843, 29.68943]]]]}, "properties": {"poly_IncidentName": "Star Lake", "poly_GISAcres": 1129, "poly_DateCurrent": 1789576954354}}, {"type": "Feature", "geometry": {"type": "Polygon", "coordinates": [[[-89.72197, 45.9364], [-89.722, 45.93667], [-89.72183, 45.93673], [-89.72174, 45.93671], [-89.72161, 45.93662], [-89.72172, 45.93653], [-89.72181, 45.93644], [-89.72197, 45.9364]]]}, "properties": {"poly_IncidentName": "Bayer Lake", "poly_GISAcres": 0.2, "poly_DateCurrent": 1789752154000}}, {"type": "Feature", "geometry": {"type": "Polygon", "coordinates": [[[-89.46315, 32.63494], [-89.45962, 32.63488], [-89.45962, 32.63483], [-89.45962, 32.63481], [-89.45963, 32.6348], [-89.45963, 32.63471], [-89.45964, 32.63469], [-89.45964, 32.63467], [-89.45965, 32.63464], [-89.45965, 32.63455], [-89.45966, 32.63454], [-89.45966, 32.63445], [-89.45967, 32.63444], [-89.45967, 32.63442], [-89.45968, 32.63441], [-89.45968, 32.63439], [-89.45969, 32.63439], [-89.45969, 32.63435], [-89.4597, 32.63434], [-89.4597, 32.63432], [-89.4597, 32.63427], [-89.45972, 32.63425], [-89.45972, 32.63424], [-89.45974, 32.63421], [-89.45974, 32.63419], [-89.45975, 32.63419], [-89.45975, 32.6341], [-89.45976, 32.63408], [-89.45976, 32.63405], [-89.45977, 32.63403], [-89.45977, 32.63394], [-89.45978, 32.63393], [-89.45978, 32.63382], [-89.45979, 32.63381], [-89.45979, 32.63372], [-89.4598, 32.63369], [-89.4598, 32.63365], [-89.45981, 32.63364], [-89.45981, 32.63355], [-89.45982, 32.63354], [-89.45982, 32.63348], [-89.45983, 32.63347], [-89.45984, 32.63344], [-89.45985, 32.63342], [-89.45986, 32.63342], [-89.45986, 32.6334], [-89.45989, 32.63338], [-89.4599, 32.63337], [-89.45991, 32.63336], [-89.45992, 32.63335], [-89.45993, 32.63334], [-89.45997, 32.63332], [-89.46001, 32.63329], [-89.46003, 32.63328], [-89.46005, 32.63328], [-89.46008, 32.63326], [-89.46009, 32.63325], [-89.46013, 32.63323], [-89.46015, 32.63323], [-89.46017, 32.63322], [-89.46019, 32.63322], [-89.46025, 32.6332], [-89.46029, 32.6332], [-89.46031, 32.63319], [-89.46033, 32.63319], [-89.46039, 32.63316], [-89.46043, 32.63315], [-89.46045, 32.63315], [-89.46049, 32.63314], [-89.46064, 32.63314], [-89.46066, 32.63314], [-89.46067, 32.63315], [-89.46069, 32.63315], [-89.4607, 32.63316], [-89.46072, 32.63317], [-89.46074, 32.63317], [-89.46076, 32.63318], [-89.46078, 32.63318], [-89.4608, 32.63319], [-89.46086, 32.63319], [-89.46089, 32.63321], [-89.46091, 32.63321], [-89.46095, 32.63322], [-89.46097, 32.63322], [-89.46098, 32.63323], [-89.461, 32.63323], [-89.46101, 32.63325], [-89.46107, 32.63326], [-89.4611, 32.63328], [-89.46112, 32.63328], [-89.46115, 32.6333], [-89.46118, 32.6333], [-89.46123, 32.63331], [-89.4613, 32.63332], [-89.46132, 32.63332], [-89.46161, 32.63332], [-89.46163, 32.63333], [-89.46169, 32.63334], [-89.46171, 32.63334], [-89.46175, 32.63335], [-89.46176, 32.63336], [-89.4618, 32.63336], [-89.46182, 32.63337], [-89.46184, 32.63337], [-89.46188, 32.63337], [-89.4619, 32.63338], [-89.46197, 32.63338], [-89.46198, 32.63339], [-89.46206, 32.63339], [-89.4621, 32.6334], [-89.46212, 32.63341], [-89.46214, 32.63341], [-89.46215, 32.63342], [-89.46217, 32.63342], [-89.46222, 32.63344], [-89.46224, 32.63344], [-89.46227, 32.63347], [-89.46229, 32.63348], [-89.46233, 32.63348], [-89.46239, 32.63349], [-89.46241, 32.6335], [-89.46244, 32.63352], [-89.46245, 32.63353], [-89.46247, 32.63355], [-89.46249, 32.63358], [-89.46251, 32.63361], [-89.46257, 32.63366], [-89.46259, 32.6337], [-89.46261, 32.63372], [-89.46262, 32.63374], [-89.46265, 32.63376], [-89.46267, 32.63379], [-89.46269, 32.63382], [-89.4627, 32.63383], [-89.46271, 32.63386], [-89.46272, 32.63387], [-89.46274, 32.63389], [-89.46275, 32.63392], [-89.46278, 32.63395], [-89.4628, 32.63398], [-89.46281, 32.63401], [-89.46282, 32.63402], [-89.46282, 32.63403], [-89.46284, 32.63406], [-89.46284, 32.63409], [-89.46285, 32.63411], [-89.46287, 32.63412], [-89.4629, 32.63416], [-89.4629, 32.63418], [-89.46293, 32.6342], [-89.46295, 32.63423], [-89.46299, 32.63427], [-89.46299, 32.63429], [-89.463, 32.6343], [-89.46302, 32.63433], [-89.46303, 32.63435], [-89.46305, 32.63436], [-89.46306, 32.63439], [-89.46307, 32.6344], [-89.46309, 32.63442], [-89.46309, 32.63448], [-89.46313, 32.63453], [-89.46314, 32.63454], [-89.46316, 32.63459], [-89.46316, 32.63472], [-89.46315, 32.63473], [-89.46315, 32.63482], [-89.46315, 32.63494]]]}, "properties": {"poly_IncidentName": "Ester Mill Rd", "poly_GISAcres": 12.86652646378678, "poly_DateCurrent": 1773067580000}}, {"type": "Feature", "geometry": {"type": "Polygon", "coordinates": [[[-89.96606, 46.12684], [-89.96607, 46.12684], [-89.96611, 46.12683], [-89.96612, 46.12682], [-89.96614, 46.12679], [-89.96619, 46.12676], [-89.96621, 46.12674], [-89.96624, 46.12671], [-89.96628, 46.12668], [-89.96633, 46.12665], [-89.96637, 46.12662], [-89.96641, 46.12659], [-89.96644, 46.12657], [-89.96648, 46.12653], [-89.96652, 46.12654], [-89.96656, 46.12653], [-89.96658, 46.12656], [-89.96662, 46.12657], [-89.96666, 46.12657], [-89.96672, 46.12657], [-89.96678, 46.12658], [-89.96683, 46.12659], [-89.96687, 46.12658], [-89.96689, 46.12658], [-89.96696, 46.12657], [-89.96701, 46.12657], [-89.96705, 46.12656], [-89.96709, 46.12657], [-89.96714, 46.12658], [-89.96721, 46.1266], [-89.96726, 46.12664], [-89.96729, 46.12667], [-89.96729, 46.12671], [-89.96731, 46.12674], [-89.96733, 46.12677], [-89.96735, 46.12681], [-89.96737, 46.12684], [-89.96739, 46.12689], [-89.96741, 46.12693], [-89.96743, 46.12696], [-89.96744, 46.127], [-89.96744, 46.12702], [-89.96745, 46.12705], [-89.96748, 46.12708], [-89.96752, 46.1271], [-89.96752, 46.1271], [-89.96754, 46.12711], [-89.96754, 46.12711], [-89.96757, 46.12713], [-89.96762, 46.12714], [-89.96766, 46.12715], [-89.96771, 46.12717], [-89.96775, 46.12717], [-89.9678, 46.12719], [-89.96786, 46.12722], [-89.96789, 46.12725], [-89.96795, 46.12728], [-89.968, 46.1273], [-89.96806, 46.12732], [-89.9681, 46.12729], [-89.96863, 46.12688], [-89.96868, 46.12687], [-89.96869, 46.1269], [-89.96871, 46.12687], [-89.96875, 46.12683], [-89.96879, 46.1268], [-89.96884, 46.12677], [-89.96884, 46.12676], [-89.96885, 46.12675], [-89.96885, 46.12676], [-89.9689, 46.12675], [-89.96896, 46.12674], [-89.96903, 46.12673], [-89.96907, 46.12672], [-89.96911, 46.12671], [-89.96916, 46.1267], [-89.96922, 46.12666], [-89.96928, 46.12665], [-89.96935, 46.12664], [-89.96941, 46.12663], [-89.96948, 46.12663], [-89.96952, 46.12662], [-89.96956, 46.12661], [-89.96962, 46.12659], [-89.96967, 46.12656], [-89.96974, 46.12657], [-89.96983, 46.12654], [-89.96987, 46.12653], [-89.96992, 46.12653], [-89.97, 46.12653], [-89.97006, 46.12655], [-89.9701, 46.12657], [-89.97017, 46.12659], [-89.97025, 46.1266], [-89.97029, 46.12662], [-89.97036, 46.12663], [-89.9704, 46.12665], [-89.97046, 46.12665], [-89.97052, 46.12666], [-89.97057, 46.12666], [-89.97066, 46.12667], [-89.97071, 46.12666], [-89.97075, 46.12668], [-89.97077, 46.1267], [-89.97083, 46.12673], [-89.97086, 46.12675], [-89.97088, 46.12677], [-89.97091, 46.1268], [-89.97094, 46.12682], [-89.97097, 46.12685], [-89.971, 46.1269], [-89.97099, 46.12695], [-89.97096, 46.12698], [-89.97092, 46.127], [-89.9709, 46.12704], [-89.97088, 46.12707], [-89.97086, 46.12711], [-89.97087, 46.12716], [-89.97087, 46.12722], [-89.97087, 46.12725], [-89.97089, 46.12728], [-89.97093, 46.12731], [-89.97097, 46.12733], [-89.97103, 46.12734], [-89.97109, 46.12736], [-89.97117, 46.12737], [-89.97122, 46.12738], [-89.97127, 46.12739], [-89.97133, 46.1274], [-89.9714, 46.12743], [-89.97143, 46.12745], [-89.97149, 46.12748], [-89.97154, 46.1275], [-89.97158, 46.12752], [-89.97162, 46.12755], [-89.97164, 46.12759], [-89.97166, 46.12763], [-89.97171, 46.12767], [-89.97175, 46.12768], [-89.97179, 46.1277], [-89.97184, 46.1277], [-89.97188, 46.12771], [-89.97192, 46.12773], [-89.97196, 46.12775], [-89.97201, 46.12774], [-89.97206, 46.12775], [-89.97209, 46.12773], [-89.97214, 46.12773], [-89.9722, 46.12774], [-89.97226, 46.12776], [-89.97232, 46.12776], [-89.97238, 46.12778], [-89.97244, 46.12779], [-89.97248, 46.1278], [-89.97256, 46.1278], [-89.97262, 46.12781], [-89.97265, 46.12783], [-89.97269, 46.12785], [-89.97273, 46.12786], [-89.9728, 46.12786], [-89.97285, 46.12788], [-89.9729, 46.1279], [-89.97294, 46.12791], [-89.97299, 46.12795], [-89.97304, 46.12794], [-89.97311, 46.12794], [-89.97317, 46.12795], [-89.97323, 46.12796], [-89.9733, 46.12795], [-89.97336, 46.12794], [-89.9734, 46.12794], [-89.97347, 46.12792], [-89.97354, 46.12789], [-89.97358, 46.12786], [-89.97363, 46.12782], [-89.97366, 46.1278], [-89.9737, 46.12777], [-89.97374, 46.12775], [-89.97379, 46.12773], [-89.97384, 46.12772], [-89.97392, 46.12772], [-89.97397, 46.12774], [-89.97403, 46.12776], [-89.97408, 46.12776], [-89.97413, 46.12774], [-89.97416, 46.1277], [-89.97417, 46.12767], [-89.9742, 46.12766], [-89.97428, 46.12766], [-89.97435, 46.12768], [-89.97439, 46.12769], [-89.97444, 46.12769], [-89.9745, 46.12772], [-89.97456, 46.12775], [-89.97462, 46.12777], [-89.97467, 46.12778], [-89.97473, 46.12781], [-89.9748, 46.12779], [-89.97487, 46.12777], [-89.97494, 46.12775], [-89.97501, 46.12774], [-89.97507, 46.12776], [-89.97513, 46.12776], [-89.97518, 46.12779], [-89.97524, 46.1278], [-89.97528, 46.1278], [-89.97533, 46.12777], [-89.97539, 46.12774], [-89.9754, 46.12771], [-89.97542, 46.12766], [-89.97546, 46.12763], [-89.97547, 46.12757], [-89.97549, 46.12754], [-89.97553, 46.12753], [-89.9756, 46.12751], [-89.97566, 46.12751], [-89.9757, 46.1275], [-89.97574, 46.12751], [-89.97579, 46.12752], [-89.97585, 46.12753], [-89.97589, 46.12754], [-89.97595, 46.12754], [-89.976, 46.12755], [-89.97606, 46.12755], [-89.9761, 46.12756], [-89.97611, 46.12756], [-89.97617, 46.12756], [-89.97622, 46.1276], [-89.97626, 46.12763], [-89.97626, 46.12766], [-89.97623, 46.12769], [-89.97622, 46.12772], [-89.97621, 46.12776], [-89.97626, 46.12778], [-89.97631, 46.12782], [-89.97634, 46.12784], [-89.97635, 46.12787], [-89.97635, 46.12791], [-89.97638, 46.12796], [-89.97636, 46.12799], [-89.97634, 46.12802], [-89.97633, 46.12805], [-89.97632, 46.12809], [-89.97632, 46.12813], [-89.97634, 46.12816], [-89.97637, 46.12818], [-89.97643, 46.12818], [-89.97647, 46.1282], [-89.97652, 46.12822], [-89.97657, 46.12823], [-89.97659, 46.12827], [-89.97659, 46.12827], [-89.97662, 46.1283], [-89.97665, 46.12831], [-89.97675, 46.12831], [-89.97676, 46.12834], [-89.97677, 46.12837], [-89.97678, 46.12837], [-89.97679, 46.12838], [-89.97681, 46.12839], [-89.97685, 46.12841], [-89.97688, 46.12842], [-89.97686, 46.12848], [-89.97688, 46.1285], [-89.97691, 46.12853], [-89.97692, 46.12856], [-89.97696, 46.12856], [-89.977, 46.12857], [-89.97705, 46.12857], [-89.9771, 46.12856], [-89.97713, 46.12856], [-89.97714, 46.12856], [-89.97718, 46.12857], [-89.97722, 46.12858], [-89.97727, 46.12859], [-89.97728, 46.12859], [-89.97729, 46.12859], [-89.97732, 46.12859], [-89.97736, 46.12861], [-89.97741, 46.12861], [-89.97743, 46.12862], [-89.97747, 46.12865], [-89.97749, 46.12866], [-89.9775, 46.12868], [-89.97753, 46.1287], [-89.97754, 46.12871], [-89.97754, 46.12873], [-89.97757, 46.12875], [-89.9776, 46.12878], [-89.97765, 46.12879], [-89.97768, 46.12881], [-89.97768, 46.12881], [-89.97768, 46.12882], [-89.97769, 46.12884], [-89.97769, 46.12884], [-89.97768, 46.12888], [-89.97767, 46.12888], [-89.97768, 46.12892], [-89.97767, 46.12893], [-89.97767, 46.12895], [-89.97768, 46.12898], [-89.97765, 46.12901], [-89.97764, 46.12903], [-89.97762, 46.12906], [-89.97762, 46.1291], [-89.97761, 46.12913], [-89.97759, 46.12916], [-89.97758, 46.12919], [-89.97758, 46.12923], [-89.97756, 46.12925], [-89.97756, 46.12929], [-89.97755, 46.12932], [-89.97754, 46.12935], [-89.97747, 46.12936], [-89.97743, 46.12936], [-89.97738, 46.12937], [-89.97734, 46.12937], [-89.9773, 46.12938], [-89.97725, 46.12939], [-89.97722, 46.12942], [-89.97721, 46.12945], [-89.9772, 46.12947], [-89.97717, 46.1295], [-89.97714, 46.12953], [-89.9771, 46.12953], [-89.97705, 46.12952], [-89.97701, 46.12952], [-89.97696, 46.1295], [-89.97692, 46.12948], [-89.97689, 46.12946], [-89.97686, 46.12944], [-89.97683, 46.12941], [-89.9768, 46.12939], [-89.97675, 46.12937], [-89.9767, 46.12938], [-89.97669, 46.12938], [-89.97669, 46.12939], [-89.97668, 46.12941], [-89.97667, 46.12945], [-89.97664, 46.12948], [-89.97663, 46.12948], [-89.97659, 46.12949], [-89.97655, 46.1295], [-89.97649, 46.1295], [-89.97645, 46.12949], [-89.97641, 46.1295], [-89.97636, 46.12951], [-89.97632, 46.12953], [-89.97629, 46.12954], [-89.97628, 46.12954], [-89.97628, 46.12954], [-89.97625, 46.12958], [-89.97621, 46.12959], [-89.97617, 46.12958], [-89.97614, 46.12958], [-89.97612, 46.12958], [-89.9761, 46.1296], [-89.97606, 46.12959], [-89.97604, 46.12962], [-89.97601, 46.12964], [-89.97597, 46.12965], [-89.97593, 46.12965], [-89.97589, 46.12968], [-89.97585, 46.12969], [-89.9758, 46.12969], [-89.97579, 46.12969], [-89.97576, 46.12969], [-89.97576, 46.12969], [-89.97571, 46.12969], [-89.97568, 46.12968], [-89.97563, 46.12967], [-89.97559, 46.12965], [-89.97556, 46.12966], [-89.97551, 46.12966], [-89.97547, 46.12966], [-89.97543, 46.12965], [-89.97539, 46.12964], [-89.97534, 46.12964], [-89.97528, 46.12964], [-89.97526, 46.1296], [-89.97522, 46.12959], [-89.9752, 46.12957], [-89.97518, 46.12955], [-89.97516, 46.12954], [-89.97512, 46.12952], [-89.97508, 46.12952], [-89.97506, 46.12952], [-89.97503, 46.12952], [-89.97498, 46.12953], [-89.97493, 46.12954], [-89.9749, 46.12956], [-89.97486, 46.12958], [-89.97481, 46.12957], [-89.97474, 46.12956], [-89.97472, 46.12956], [-89.97471, 46.12956], [-89.9747, 46.12955], [-89.97466, 46.12957], [-89.97462, 46.12959], [-89.97459, 46.12961], [-89.97455, 46.12964], [-89.97451, 46.12966], [-89.97446, 46.12969], [-89.97443, 46.1297], [-89.97443, 46.12971], [-89.97443, 46.12971], [-89.97445, 46.12973], [-89.97445, 46.12974], [-89.97445, 46.12974], [-89.97446, 46.12976], [-89.97449, 46.1298], [-89.97449, 46.12983], [-89.97445, 46.12986], [-89.9744, 46.12987], [-89.97435, 46.12987], [-89.9743, 46.12987], [-89.97427, 46.12989], [-89.97423, 46.12991], [-89.97418, 46.12993], [-89.97413, 46.12992], [-89.97408, 46.12994], [-89.97403, 46.12993], [-89.97402, 46.12993], [-89.974, 46.12993], [-89.97398, 46.12992], [-89.97395, 46.1299], [-89.97393, 46.12988], [-89.97389, 46.12986], [-89.97385, 46.12986], [-89.97379, 46.12987], [-89.97375, 46.12987], [-89.97373, 46.1299], [-89.9737, 46.12993], [-89.97368, 46.12995], [-89.97367, 46.12999], [-89.97364, 46.13001], [-89.97364, 46.13005], [-89.97363, 46.13008], [-89.97361, 46.13011], [-89.97359, 46.13014], [-89.97355, 46.13016], [-89.97354, 46.13019], [-89.9735, 46.13021], [-89.97346, 46.13024], [-89.97344, 46.13024], [-89.97343, 46.13024], [-89.97341, 46.13025], [-89.97341, 46.13025], [-89.97337, 46.13025], [-89.97332, 46.13027], [-89.9733, 46.1303], [-89.97326, 46.13032], [-89.97321, 46.13032], [-89.97317, 46.13035], [-89.97317, 46.13039], [-89.9732, 46.1304], [-89.97323, 46.13041], [-89.97322, 46.13044], [-89.97321, 46.13046], [-89.97321, 46.13047], [-89.97321, 46.13048], [-89.97324, 46.1305], [-89.97328, 46.13052], [-89.9733, 46.13055], [-89.97333, 46.13058], [-89.97335, 46.13059], [-89.97337, 46.13061], [-89.97339, 46.13063], [-89.97337, 46.13064], [-89.97336, 46.13065], [-89.97339, 46.13068], [-89.97339, 46.13069], [-89.97342, 46.13071], [-89.97346, 46.13074], [-89.97349, 46.13076], [-89.97353, 46.13079], [-89.97356, 46.13081], [-89.9736, 46.13082], [-89.97364, 46.13083], [-89.97365, 46.13084], [-89.97367, 46.13086], [-89.97372, 46.13086], [-89.97376, 46.13087], [-89.97378, 46.13088], [-89.97378, 46.13088], [-89.97383, 46.13089], [-89.97384, 46.13089], [-89.97385, 46.13089], [-89.9739, 46.1309], [-89.97394, 46.13092], [-89.97396, 46.13095], [-89.97397, 46.13099], [-89.974, 46.13101], [-89.97403, 46.13105], [-89.97403, 46.13108], [-89.97405, 46.13112], [-89.97408, 46.13115], [-89.9741, 46.13119], [-89.97411, 46.13122], [-89.97407, 46.13124], [-89.97407, 46.13128], [-89.97408, 46.13131], [-89.97408, 46.13134], [-89.97406, 46.13138], [-89.97406, 46.13139], [-89.97406, 46.13141], [-89.97406, 46.13142], [-89.97404, 46.13145], [-89.97402, 46.13148], [-89.97401, 46.13148], [-89.97397, 46.13149], [-89.97395, 46.13152], [-89.97395, 46.13152], [-89.97393, 46.13154], [-89.97386, 46.13158], [-89.97382, 46.1316], [-89.97376, 46.13158], [-89.97372, 46.13157], [-89.97367, 46.13152], [-89.97362, 46.13153], [-89.97358, 46.13154], [-89.97354, 46.13155], [-89.97349, 46.13155], [-89.97346, 46.13153], [-89.97341, 46.13153], [-89.97336, 46.13152], [-89.97335, 46.13155], [-89.97333, 46.13158], [-89.97329, 46.13159], [-89.97328, 46.13161], [-89.97326, 46.13164], [-89.97324, 46.13168], [-89.97321, 46.13171], [-89.97316, 46.13172], [-89.97313, 46.13173], [-89.97309, 46.13174], [-89.97306, 46.13176], [-89.97302, 46.13178], [-89.97298, 46.13179], [-89.97298, 46.13182], [-89.97295, 46.13185], [-89.97293, 46.1319], [-89.97291, 46.13193], [-89.97291, 46.13196], [-89.9729, 46.13198], [-89.97288, 46.13202], [-89.97287, 46.13202], [-89.97276, 46.13211], [-89.97274, 46.13213], [-89.97271, 46.13215], [-89.97267, 46.13217], [-89.97263, 46.13219], [-89.97258, 46.1322], [-89.97253, 46.13218], [-89.97248, 46.13217], [-89.97242, 46.13216], [-89.97238, 46.13215], [-89.97233, 46.13214], [-89.97229, 46.1321], [-89.97227, 46.13208], [-89.97223, 46.13206], [-89.9722, 46.13203], [-89.97217, 46.13201], [-89.97215, 46.13199], [-89.97211, 46.13197], [-89.97207, 46.13195], [-89.97202, 46.13193], [-89.97199, 46.1319], [-89.97197, 46.13187], [-89.97194, 46.13184], [-89.9719, 46.13181], [-89.9719, 46.13181], [-89.97187, 46.13179], [-89.97183, 46.13179], [-89.97183, 46.13179], [-89.97181, 46.13179], [-89.97181, 46.13179], [-89.97181, 46.13182], [-89.9718, 46.13185], [-89.97179, 46.13187], [-89.97175, 46.13188], [-89.97175, 46.13188], [-89.9717, 46.13188], [-89.97165, 46.13187], [-89.97161, 46.13186], [-89.97156, 46.13186], [-89.97152, 46.13184], [-89.97149, 46.13181], [-89.97145, 46.1318], [-89.97141, 46.13178], [-89.97136, 46.13179], [-89.97135, 46.13182], [-89.97132, 46.13185], [-89.9713, 46.13188], [-89.97124, 46.13188], [-89.9712, 46.1319], [-89.97115, 46.13191], [-89.97109, 46.13194], [-89.97105, 46.13194], [-89.971, 46.13194], [-89.97099, 46.13194], [-89.97095, 46.13193], [-89.9709, 46.13194], [-89.97085, 46.13193], [-89.97081, 46.13195], [-89.97076, 46.13195], [-89.97071, 46.13194], [-89.97068, 46.13193], [-89.97066, 46.13195], [-89.97059, 46.13194], [-89.97054, 46.13193], [-89.9705, 46.13193], [-89.97046, 46.13191], [-89.97042, 46.13187], [-89.97038, 46.13185], [-89.97034, 46.13184], [-89.97029, 46.13185], [-89.97025, 46.13181], [-89.97024, 46.1318], [-89.97023, 46.13177], [-89.97017, 46.13179], [-89.97017, 46.13179], [-89.97013, 46.13181], [-89.97008, 46.13182], [-89.97004, 46.13183], [-89.97001, 46.13185], [-89.97, 46.13186], [-89.96997, 46.13188], [-89.96995, 46.13191], [-89.96995, 46.13193], [-89.96992, 46.13196], [-89.96992, 46.13197], [-89.96991, 46.13198], [-89.96991, 46.132], [-89.9699, 46.13203], [-89.96987, 46.13205], [-89.96984, 46.13208], [-89.96983, 46.13208], [-89.96981, 46.13212], [-89.96979, 46.13215], [-89.96978, 46.13217], [-89.96976, 46.13221], [-89.96973, 46.13224], [-89.96972, 46.13227], [-89.96967, 46.13228], [-89.96964, 46.13228], [-89.96962, 46.13237], [-89.96962, 46.13237], [-89.96968, 46.13242], [-89.96968, 46.13244], [-89.96966, 46.13247], [-89.96966, 46.1325], [-89.96968, 46.13254], [-89.96969, 46.13256], [-89.96972, 46.13259], [-89.96968, 46.13258], [-89.9697, 46.13261], [-89.96971, 46.13262], [-89.96973, 46.13264], [-89.96977, 46.13266], [-89.96978, 46.13269], [-89.96981, 46.1327], [-89.96985, 46.13272], [-89.96986, 46.13272], [-89.96986, 46.13273], [-89.96988, 46.13274], [-89.96991, 46.13275], [-89.96992, 46.13275], [-89.96995, 46.13277], [-89.96999, 46.13278], [-89.97003, 46.1328], [-89.97003, 46.13281], [-89.97004, 46.13283], [-89.97007, 46.13284], [-89.97009, 46.13284], [-89.97012, 46.13287], [-89.97015, 46.13289], [-89.97017, 46.13293], [-89.97018, 46.13297], [-89.97019, 46.133], [-89.9702, 46.13304], [-89.97018, 46.13306], [-89.97018, 46.13308], [-89.97018, 46.13309], [-89.97018, 46.13309], [-89.97017, 46.13312], [-89.97017, 46.13313], [-89.97017, 46.13316], [-89.97017, 46.13319], [-89.97016, 46.13323], [-89.97015, 46.13325], [-89.97014, 46.13328], [-89.97015, 46.13332], [-89.97015, 46.13332], [-89.97014, 46.13334], [-89.97014, 46.13335], [-89.97008, 46.13337], [-89.97003, 46.13338], [-89.97001, 46.13339], [-89.96999, 46.1334], [-89.96996, 46.13342], [-89.96992, 46.13343], [-89.96988, 46.13344], [-89.96987, 46.13343], [-89.96985, 46.13342], [-89.96981, 46.13341], [-89.96976, 46.13342], [-89.96972, 46.13344], [-89.96968, 46.13345], [-89.96963, 46.13346], [-89.96958, 46.13346], [-89.96953, 46.13347], [-89.96948, 46.13347], [-89.96943, 46.13347], [-89.96938, 46.13347], [-89.96934, 46.13347], [-89.9693, 46.1335], [-89.96925, 46.13351], [-89.96921, 46.13351], [-89.96917, 46.13353], [-89.96911, 46.13354], [-89.96907, 46.13355], [-89.96902, 46.13355], [-89.96897, 46.13357], [-89.9689, 46.13357], [-89.96885, 46.13357], [-89.96881, 46.13357], [-89.96882, 46.13354], [-89.96879, 46.13352], [-89.96873, 46.13351], [-89.96868, 46.13351], [-89.96863, 46.13351], [-89.96862, 46.13351], [-89.96859, 46.13351], [-89.96857, 46.13355], [-89.96854, 46.13357], [-89.96851, 46.13359], [-89.96845, 46.1336], [-89.96839, 46.13361], [-89.96837, 46.13365], [-89.96834, 46.13367], [-89.96833, 46.13371], [-89.96833, 46.13374], [-89.9683, 46.13377], [-89.96827, 46.13378], [-89.96823, 46.13379], [-89.96819, 46.1338], [-89.96814, 46.13382], [-89.96808, 46.1338], [-89.96804, 46.1338], [-89.96798, 46.1338], [-89.96793, 46.13378], [-89.96791, 46.13378], [-89.96788, 46.13378], [-89.96784, 46.13378], [-89.96779, 46.13375], [-89.96775, 46.13374], [-89.96773, 46.13373], [-89.96772, 46.13372], [-89.96772, 46.13372], [-89.96767, 46.13373], [-89.96763, 46.13371], [-89.96759, 46.13371], [-89.96752, 46.1337], [-89.96746, 46.1337], [-89.96742, 46.13371], [-89.96739, 46.13373], [-89.96734, 46.13375], [-89.96732, 46.13379], [-89.96729, 46.13381], [-89.96726, 46.13384], [-89.96725, 46.13387], [-89.96723, 46.1339], [-89.96719, 46.13392], [-89.96717, 46.13396], [-89.96712, 46.13396], [-89.96699, 46.13399], [-89.96698, 46.13399], [-89.96694, 46.134], [-89.9669, 46.13402], [-89.96685, 46.13403], [-89.96684, 46.13403], [-89.96669, 46.1341], [-89.96666, 46.13412], [-89.96661, 46.13414], [-89.96658, 46.13416], [-89.96657, 46.13416], [-89.96653, 46.13418], [-89.96649, 46.13419], [-89.96644, 46.13421], [-89.96639, 46.13423], [-89.96635, 46.13423], [-89.96631, 46.13422], [-89.96627, 46.13422], [-89.96622, 46.13422], [-89.96617, 46.13424], [-89.96611, 46.13425], [-89.9661, 46.13425], [-89.96606, 46.13425], [-89.96601, 46.13425], [-89.96596, 46.13426], [-89.96593, 46.13424], [-89.96588, 46.13423], [-89.96583, 46.13423], [-89.96577, 46.13422], [-89.96573, 46.13422], [-89.96569, 46.13421], [-89.96565, 46.13419], [-89.9656, 46.13418], [-89.96555, 46.13418], [-89.96552, 46.1342], [-89.96547, 46.13422], [-89.96543, 46.13423], [-89.96539, 46.13425], [-89.96532, 46.13426], [-89.96529, 46.13424], [-89.96528, 46.13421], [-89.96527, 46.13418], [-89.96527, 46.13415], [-89.96527, 46.13414], [-89.96527, 46.1341], [-89.96527, 46.13407], [-89.96525, 46.13405], [-89.96521, 46.13402], [-89.96518, 46.134], [-89.96515, 46.13397], [-89.9651, 46.13394], [-89.96507, 46.13391], [-89.96502, 46.13391], [-89.96497, 46.13389], [-89.96494, 46.13388], [-89.96492, 46.13384], [-89.96492, 46.13381], [-89.96491, 46.1338], [-89.9649, 46.13378], [-89.96489, 46.13377], [-89.96487, 46.13375], [-89.96484, 46.13373], [-89.96483, 46.1337], [-89.96483, 46.1337], [-89.96481, 46.13367], [-89.96482, 46.13366], [-89.96482, 46.13364], [-89.96483, 46.13361], [-89.96478, 46.13359], [-89.96476, 46.13357], [-89.96475, 46.13357], [-89.96473, 46.13356], [-89.96471, 46.13355], [-89.96467, 46.13353], [-89.96463, 46.13352], [-89.96457, 46.13353], [-89.96453, 46.13351], [-89.96445, 46.13334], [-89.96445, 46.13333], [-89.96444, 46.13333], [-89.96436, 46.13329], [-89.96442, 46.13323], [-89.96439, 46.13319], [-89.96439, 46.13317], [-89.96438, 46.13307], [-89.96443, 46.13303], [-89.96456, 46.13306], [-89.96458, 46.13303], [-89.96468, 46.13293], [-89.96471, 46.13292], [-89.96472, 46.13291], [-89.96473, 46.1329], [-89.96473, 46.1329], [-89.96478, 46.13285], [-89.96478, 46.1328], [-89.96482, 46.13279], [-89.96486, 46.13278], [-89.96488, 46.13278], [-89.96491, 46.13278], [-89.96495, 46.13278], [-89.965, 46.13277], [-89.96505, 46.13277], [-89.96512, 46.13276], [-89.96514, 46.13276], [-89.96519, 46.13277], [-89.96523, 46.13277], [-89.96527, 46.13277], [-89.9653, 46.13276], [-89.96531, 46.13276], [-89.96536, 46.13276], [-89.9654, 46.13277], [-89.9654, 46.13277], [-89.96545, 46.13276], [-89.96551, 46.13276], [-89.96556, 46.13276], [-89.9656, 46.13274], [-89.9656, 46.13274], [-89.9656, 46.13274], [-89.9656, 46.13274], [-89.9656, 46.13274], [-89.96561, 46.13274], [-89.96567, 46.13274], [-89.96571, 46.13273], [-89.96576, 46.13273], [-89.96581, 46.13272], [-89.9658, 46.13268], [-89.96584, 46.13267], [-89.96583, 46.13264], [-89.96584, 46.13262], [-89.96586, 46.13261], [-89.96589, 46.13256], [-89.96594, 46.13255], [-89.96596, 46.13254], [-89.96598, 46.13253], [-89.96599, 46.13254], [-89.96603, 46.13254], [-89.96606, 46.13251], [-89.96606, 46.13251], [-89.96611, 46.13249], [-89.96614, 46.13248], [-89.96619, 46.13248], [-89.96625, 46.13248], [-89.9663, 46.13247], [-89.96633, 46.13246], [-89.96635, 46.13246], [-89.96636, 46.13244], [-89.96637, 46.13242], [-89.96634, 46.1324], [-89.9664, 46.13237], [-89.96642, 46.13236], [-89.96645, 46.13234], [-89.96647, 46.13232], [-89.96649, 46.13231], [-89.96652, 46.1323], [-89.96653, 46.13229], [-89.96656, 46.13228], [-89.96661, 46.13227], [-89.96667, 46.13227], [-89.9667, 46.13227], [-89.96671, 46.13228], [-89.96671, 46.13228], [-89.96675, 46.1323], [-89.96679, 46.13232], [-89.96683, 46.13234], [-89.96687, 46.13233], [-89.96693, 46.13234], [-89.96694, 46.13234], [-89.96694, 46.13234], [-89.96699, 46.13235], [-89.96702, 46.13237], [-89.96705, 46.13238], [-89.96706, 46.13239], [-89.96707, 46.13239], [-89.96707, 46.13239], [-89.96707, 46.1324], [-89.96707, 46.13241], [-89.96708, 46.13241], [-89.96712, 46.13242], [-89.96717, 46.13242], [-89.96722, 46.13244], [-89.96728, 46.13246], [-89.96733, 46.13246], [-89.96737, 46.13247], [-89.96742, 46.13246], [-89.96746, 46.13246], [-89.96749, 46.13244], [-89.96752, 46.13241], [-89.96759, 46.13241], [-89.96762, 46.13238], [-89.96762, 46.13235], [-89.96762, 46.13232], [-89.96759, 46.13229], [-89.96757, 46.13226], [-89.96756, 46.13223], [-89.96756, 46.13219], [-89.96755, 46.13215], [-89.96756, 46.1321], [-89.96754, 46.13207], [-89.96752, 46.13204], [-89.96749, 46.13201], [-89.96745, 46.13199], [-89.9674, 46.13199], [-89.96736, 46.13199], [-89.96732, 46.13196], [-89.96731, 46.13193], [-89.96727, 46.13191], [-89.96723, 46.1319], [-89.96719, 46.1319], [-89.96714, 46.13189], [-89.96709, 46.13189], [-89.96704, 46.1319], [-89.96701, 46.1319], [-89.96698, 46.1319], [-89.96694, 46.1319], [-89.9669, 46.13191], [-89.96684, 46.1319], [-89.9668, 46.13187], [-89.96678, 46.13185], [-89.96677, 46.13183], [-89.96678, 46.1318], [-89.96678, 46.13179], [-89.96679, 46.13176], [-89.96677, 46.13174], [-89.96675, 46.13171], [-89.9667, 46.13171], [-89.96666, 46.13171], [-89.9666, 46.13172], [-89.96659, 46.13172], [-89.96659, 46.1317], [-89.96654, 46.13169], [-89.96654, 46.13168], [-89.9665, 46.13166], [-89.96646, 46.13165], [-89.96641, 46.13164], [-89.96636, 46.13162], [-89.96632, 46.1316], [-89.96629, 46.13158], [-89.96627, 46.13156], [-89.96623, 46.13153], [-89.96619, 46.13149], [-89.96619, 46.13145], [-89.96623, 46.13143], [-89.96626, 46.13141], [-89.9663, 46.13141], [-89.96636, 46.13142], [-89.9664, 46.13143], [-89.96645, 46.13144], [-89.96649, 46.13142], [-89.96653, 46.13141], [-89.96657, 46.13142], [-89.96662, 46.13143], [-89.96666, 46.13144], [-89.96671, 46.13145], [-89.96674, 46.13144], [-89.96678, 46.13146], [-89.96685, 46.13145], [-89.96689, 46.13145], [-89.96694, 46.13145], [-89.96697, 46.13144], [-89.96697, 46.1314], [-89.96695, 46.13137], [-89.96694, 46.13135], [-89.96693, 46.13132], [-89.96695, 46.13128], [-89.96695, 46.13125], [-89.967, 46.13123], [-89.96703, 46.13121], [-89.96708, 46.13121], [-89.96713, 46.13122], [-89.96718, 46.13122], [-89.96721, 46.13124], [-89.96726, 46.13122], [-89.96732, 46.13122], [-89.96737, 46.13122], [-89.96741, 46.13121], [-89.96745, 46.1312], [-89.9675, 46.1312], [-89.96755, 46.13119], [-89.9676, 46.13118], [-89.96765, 46.13117], [-89.96769, 46.13116], [-89.96774, 46.13116], [-89.96778, 46.13115], [-89.96783, 46.13114], [-89.96788, 46.13111], [-89.96793, 46.13111], [-89.96797, 46.13112], [-89.96802, 46.13113], [-89.96807, 46.13114], [-89.96812, 46.13115], [-89.96816, 46.13114], [-89.9682, 46.13116], [-89.96824, 46.13118], [-89.96827, 46.1312], [-89.96828, 46.13123], [-89.9683, 46.13127], [-89.96831, 46.1313], [-89.96829, 46.13134], [-89.96827, 46.13136], [-89.96825, 46.13139], [-89.96824, 46.13141], [-89.96822, 46.13145], [-89.96823, 46.13148], [-89.96823, 46.13152], [-89.96824, 46.13152], [-89.96824, 46.13155], [-89.96824, 46.13158], [-89.96825, 46.13161], [-89.96828, 46.13164], [-89.96831, 46.13166], [-89.96834, 46.13168], [-89.96839, 46.13168], [-89.9684, 46.13171], [-89.96842, 46.13171], [-89.96845, 46.1317], [-89.96847, 46.1317], [-89.96849, 46.1317], [-89.96855, 46.13169], [-89.96855, 46.13169], [-89.96858, 46.13167], [-89.96861, 46.13164], [-89.96864, 46.13161], [-89.96866, 46.13165], [-89.96868, 46.13161], [-89.96867, 46.13157], [-89.96872, 46.13158], [-89.96876, 46.13156], [-89.96879, 46.13155], [-89.96882, 46.13151], [-89.96886, 46.13151], [-89.96889, 46.13146], [-89.96889, 46.13143], [-89.96894, 46.13143], [-89.96895, 46.13141], [-89.96895, 46.1314], [-89.96899, 46.13138], [-89.96901, 46.13135], [-89.96904, 46.13132], [-89.96908, 46.13132], [-89.96906, 46.13129], [-89.96911, 46.13128], [-89.96914, 46.13128], [-89.96916, 46.13129], [-89.96918, 46.13127], [-89.9692, 46.13126], [-89.96922, 46.13122], [-89.96924, 46.13122], [-89.96927, 46.1312], [-89.96929, 46.13121], [-89.96934, 46.13121], [-89.96936, 46.13117], [-89.96936, 46.13117], [-89.96941, 46.13116], [-89.96947, 46.13116], [-89.96951, 46.13114], [-89.96953, 46.1311], [-89.96955, 46.1311], [-89.96958, 46.13109], [-89.96963, 46.13108], [-89.96968, 46.13106], [-89.96971, 46.13105], [-89.96975, 46.13103], [-89.96979, 46.13106], [-89.96977, 46.13109], [-89.96981, 46.13108], [-89.9698, 46.13105], [-89.96984, 46.13104], [-89.96988, 46.13102], [-89.9699, 46.13099], [-89.96984, 46.13096], [-89.96981, 46.13094], [-89.96978, 46.13091], [-89.96976, 46.1309], [-89.96971, 46.13089], [-89.96967, 46.13088], [-89.96962, 46.13087], [-89.96956, 46.13086], [-89.96949, 46.13087], [-89.96949, 46.13084], [-89.96946, 46.13082], [-89.96944, 46.13079], [-89.9694, 46.13076], [-89.96935, 46.13075], [-89.96931, 46.13075], [-89.96928, 46.13073], [-89.96926, 46.1307], [-89.96925, 46.13066], [-89.96924, 46.13066], [-89.96924, 46.13063], [-89.96919, 46.13062], [-89.96918, 46.13058], [-89.96915, 46.13056], [-89.96912, 46.13053], [-89.96909, 46.13051], [-89.96904, 46.13049], [-89.969, 46.13048], [-89.96901, 46.13044], [-89.96903, 46.13042], [-89.96903, 46.13039], [-89.96903, 46.13036], [-89.96897, 46.13035], [-89.96892, 46.13031], [-89.96887, 46.13031], [-89.96883, 46.1303], [-89.96879, 46.13028], [-89.96875, 46.13026], [-89.96871, 46.13024], [-89.96866, 46.13023], [-89.96863, 46.13019], [-89.96862, 46.13015], [-89.96857, 46.13016], [-89.96854, 46.13013], [-89.9685, 46.13012], [-89.96846, 46.1301], [-89.96843, 46.13008], [-89.96839, 46.13006], [-89.96837, 46.13003], [-89.96837, 46.12998], [-89.96841, 46.12998], [-89.96845, 46.12997], [-89.96844, 46.12993], [-89.96847, 46.12991], [-89.96844, 46.12986], [-89.96848, 46.12984], [-89.96849, 46.12981], [-89.96852, 46.12979], [-89.96856, 46.12978], [-89.9686, 46.12975], [-89.96861, 46.12972], [-89.96857, 46.1297], [-89.96852, 46.1297], [-89.96852, 46.12967], [-89.96848, 46.12965], [-89.96843, 46.12964], [-89.9684, 46.12962], [-89.96835, 46.1296], [-89.9683, 46.12959], [-89.96825, 46.1296], [-89.96828, 46.12962], [-89.96825, 46.12965], [-89.96822, 46.12967], [-89.96818, 46.12968], [-89.96814, 46.12969], [-89.9681, 46.1297], [-89.96806, 46.12972], [-89.96804, 46.12975], [-89.96802, 46.12977], [-89.96797, 46.12979], [-89.96793, 46.1298], [-89.96789, 46.12984], [-89.96784, 46.12986], [-89.96783, 46.12988], [-89.96779, 46.1299], [-89.9678, 46.12992], [-89.96777, 46.12995], [-89.96774, 46.12997], [-89.96769, 46.12995], [-89.96764, 46.12994], [-89.96761, 46.12998], [-89.9676, 46.13001], [-89.9676, 46.13004], [-89.96758, 46.13009], [-89.96753, 46.13009], [-89.96749, 46.13007], [-89.96745, 46.13008], [-89.96741, 46.13008], [-89.96736, 46.13009], [-89.96729, 46.13009], [-89.96723, 46.13012], [-89.96723, 46.13015], [-89.96718, 46.13016], [-89.96714, 46.13018], [-89.96709, 46.13018], [-89.96705, 46.13021], [-89.96701, 46.13021], [-89.96698, 46.13023], [-89.96693, 46.13022], [-89.96688, 46.13022], [-89.96683, 46.13021], [-89.96682, 46.13021], [-89.96675, 46.13021], [-89.96673, 46.13021], [-89.96668, 46.13022], [-89.96664, 46.1302], [-89.96662, 46.13017], [-89.96661, 46.13013], [-89.96661, 46.1301], [-89.96661, 46.13006], [-89.9666, 46.13002], [-89.9666, 46.12998], [-89.96658, 46.12996], [-89.96664, 46.12995], [-89.96663, 46.1299], [-89.96664, 46.12987], [-89.96667, 46.12985], [-89.96667, 46.12981], [-89.96668, 46.12977], [-89.96669, 46.12975], [-89.96672, 46.12971], [-89.96674, 46.12967], [-89.96676, 46.12965], [-89.96675, 46.12961], [-89.96672, 46.12959], [-89.96668, 46.12956], [-89.96662, 46.12956], [-89.96658, 46.12952], [-89.96653, 46.12951], [-89.96649, 46.12948], [-89.96646, 46.12946], [-89.9664, 46.12945], [-89.96636, 46.12942], [-89.96634, 46.12939], [-89.96631, 46.12934], [-89.96634, 46.12932], [-89.96638, 46.12931], [-89.9664, 46.12928], [-89.96642, 46.12922], [-89.96648, 46.12925], [-89.96652, 46.12923], [-89.96655, 46.12919], [-89.96652, 46.12916], [-89.96656, 46.12916], [-89.96662, 46.12916], [-89.96665, 46.12914], [-89.96668, 46.1291], [-89.96674, 46.12909], [-89.96677, 46.12905], [-89.96684, 46.12905], [-89.96689, 46.12906], [-89.96692, 46.12907], [-89.96696, 46.12908], [-89.96699, 46.1291], [-89.96703, 46.12912], [-89.96708, 46.12912], [-89.96712, 46.12914], [-89.96715, 46.1291], [-89.96718, 46.12909], [-89.96719, 46.12906], [-89.96724, 46.12906], [-89.96729, 46.12904], [-89.96733, 46.12903], [-89.96738, 46.12901], [-89.96742, 46.12899], [-89.96744, 46.12896], [-89.96747, 46.12892], [-89.96753, 46.12892], [-89.9675, 46.12891], [-89.96747, 46.12888], [-89.96746, 46.12883], [-89.96751, 46.12881], [-89.96756, 46.12881], [-89.96759, 46.12878], [-89.96765, 46.12877], [-89.9677, 46.12876], [-89.96769, 46.12873], [-89.96771, 46.12868], [-89.96775, 46.12866], [-89.96777, 46.12863], [-89.96781, 46.12862], [-89.96784, 46.12858], [-89.96784, 46.12856], [-89.96783, 46.12853], [-89.96784, 46.1285], [-89.96784, 46.12846], [-89.96788, 46.12844], [-89.96791, 46.12842], [-89.9679, 46.12839], [-89.96787, 46.12837], [-89.96783, 46.12836], [-89.96779, 46.12833], [-89.96777, 46.12829], [-89.96778, 46.12825], [-89.96779, 46.12821], [-89.96779, 46.12818], [-89.96778, 46.12816], [-89.9678, 46.12813], [-89.96778, 46.12809], [-89.96778, 46.12805], [-89.96779, 46.12802], [-89.9678, 46.12801], [-89.96779, 46.12798], [-89.96779, 46.12795], [-89.96775, 46.12792], [-89.9677, 46.12795], [-89.96763, 46.12796], [-89.9676, 46.12796], [-89.96755, 46.12796], [-89.96751, 46.12795], [-89.96747, 46.12792], [-89.96741, 46.12793], [-89.96739, 46.12791], [-89.96736, 46.12788], [-89.96733, 46.12785], [-89.96728, 46.12782], [-89.96728, 46.12779], [-89.96724, 46.1278], [-89.9672, 46.1278], [-89.96718, 46.12779], [-89.96714, 46.12779], [-89.96714, 46.12778], [-89.96714, 46.12779], [-89.9671, 46.12779], [-89.96706, 46.12782], [-89.96703, 46.12783], [-89.96699, 46.12786], [-89.96698, 46.12787], [-89.96696, 46.12789], [-89.96693, 46.12792], [-89.96689, 46.12794], [-89.96686, 46.12797], [-89.96683, 46.12799], [-89.96679, 46.12801], [-89.96675, 46.12803], [-89.9667, 46.12807], [-89.96668, 46.12809], [-89.96666, 46.12812], [-89.96661, 46.12813], [-89.96658, 46.12814], [-89.96653, 46.12814], [-89.96648, 46.12814], [-89.96644, 46.12812], [-89.96643, 46.12808], [-89.96645, 46.12805], [-89.96646, 46.12802], [-89.96646, 46.12799], [-89.96648, 46.12796], [-89.9665, 46.12792], [-89.96651, 46.12789], [-89.96653, 46.12785], [-89.96655, 46.12783], [-89.96658, 46.1278], [-89.96658, 46.12777], [-89.96661, 46.12774], [-89.9666, 46.12771], [-89.96659, 46.12768], [-89.96662, 46.12766], [-89.96663, 46.12762], [-89.96663, 46.12759], [-89.96661, 46.12756], [-89.96658, 46.12754], [-89.96655, 46.12751], [-89.96651, 46.12749], [-89.96647, 46.12748], [-89.96643, 46.12746], [-89.9664, 46.12742], [-89.9664, 46.12738], [-89.96639, 46.12735], [-89.96635, 46.12732], [-89.96632, 46.1273], [-89.96629, 46.12728], [-89.96629, 46.12728], [-89.96627, 46.12727], [-89.96626, 46.12726], [-89.96623, 46.12724], [-89.96619, 46.12722], [-89.96616, 46.1272], [-89.96612, 46.12718], [-89.96608, 46.12716], [-89.96603, 46.12714], [-89.96599, 46.12712], [-89.96596, 46.12708], [-89.9659, 46.12696], [-89.96591, 46.12696], [-89.96593, 46.12693], [-89.96596, 46.12692], [-89.96598, 46.12691], [-89.96599, 46.1269], [-89.96603, 46.12687], [-89.96606, 46.12684]]]}, "properties": {"poly_IncidentName": "Bog", "poly_GISAcres": 94.08, "poly_DateCurrent": 1789497051000}}, {"type": "Feature", "geometry": {"type": "Polygon", "coordinates": [[[-88.92426, 30.63215], [-88.92178, 30.63106], [-88.92343, 30.62919], [-88.92437, 30.62944], [-88.925, 30.6297], [-88.92514, 30.63052], [-88.92474, 30.63164], [-88.92474, 30.63191], [-88.92426, 30.63215]]]}, "properties": {"poly_IncidentName": "Hurricane", "poly_GISAcres": 16, "poly_DateCurrent": 1787313022620}}, {"type": "Feature", "geometry": {"type": "Polygon", "coordinates": [[[-92.58087, 33.59099], [-92.5786, 33.59083], [-92.57638, 33.58971], [-92.57417, 33.5891], [-92.57122, 33.58928], [-92.57133, 33.58504], [-92.57146, 33.58073], [-92.57148, 33.57882], [-92.57153, 33.57689], [-92.57243, 33.57662], [-92.57243, 33.5758], [-92.57218, 33.57477], [-92.57268, 33.57351], [-92.57398, 33.57236], [-92.57591, 33.57182], [-92.5773, 33.57186], [-92.57859, 33.57189], [-92.5793, 33.57091], [-92.58078, 33.56971], [-92.58261, 33.56989], [-92.58641, 33.57002], [-92.58846, 33.57085], [-92.60118, 33.56508], [-92.6033, 33.56425], [-92.60543, 33.56342], [-92.60725, 33.56272], [-92.60724, 33.56533], [-92.60718, 33.56667], [-92.60744, 33.5682], [-92.60883, 33.56807], [-92.6105, 33.56921], [-92.61159, 33.57032], [-92.6125, 33.57027], [-92.6135, 33.5698], [-92.61473, 33.56972], [-92.6159, 33.56975], [-92.61569, 33.57169], [-92.61514, 33.57269], [-92.61551, 33.57366], [-92.61794, 33.57375], [-92.61922, 33.57364], [-92.62376, 33.57395], [-92.62118, 33.57648], [-92.61805, 33.58005], [-92.61365, 33.58517], [-92.61182, 33.58621], [-92.61149, 33.5866], [-92.61052, 33.587], [-92.60738, 33.58911], [-92.60612, 33.58994], [-92.60596, 33.58985], [-92.60501, 33.58898], [-92.60456, 33.58885], [-92.60291, 33.58882], [-92.60278, 33.58892], [-92.60261, 33.589], [-92.60236, 33.58908], [-92.60218, 33.58899], [-92.60193, 33.589], [-92.60176, 33.5891], [-92.6015, 33.58929], [-92.60127, 33.58945], [-92.601, 33.58952], [-92.60069, 33.58945], [-92.60053, 33.58953], [-92.60045, 33.58965], [-92.60049, 33.58977], [-92.60037, 33.58991], [-92.60024, 33.58988], [-92.60003, 33.59003], [-92.60005, 33.59009], [-92.60003, 33.59014], [-92.59992, 33.5901], [-92.59986, 33.59016], [-92.59985, 33.59056], [-92.5998, 33.59082], [-92.5999, 33.59093], [-92.60009, 33.59098], [-92.6004, 33.59102], [-92.60045, 33.59117], [-92.60061, 33.59129], [-92.60062, 33.59136], [-92.60061, 33.59151], [-92.60047, 33.59158], [-92.60027, 33.59162], [-92.60012, 33.59162], [-92.59993, 33.59169], [-92.59975, 33.59168], [-92.59975, 33.59222], [-92.59974, 33.59273], [-92.59972, 33.59299], [-92.59969, 33.5933], [-92.59975, 33.59352], [-92.59993, 33.59368], [-92.59991, 33.59376], [-92.59998, 33.59402], [-92.6001, 33.59418], [-92.6001, 33.59433], [-92.60006, 33.59443], [-92.59994, 33.59446], [-92.59975, 33.59454], [-92.59962, 33.59454], [-92.59947, 33.59787], [-92.59944, 33.60139], [-92.59929, 33.60258], [-92.59737, 33.60252], [-92.5969, 33.6026], [-92.59676, 33.60293], [-92.59619, 33.60344], [-92.59536, 33.60355], [-92.59522, 33.60336], [-92.59451, 33.60361], [-92.59328, 33.60428], [-92.59258, 33.60448], [-92.59206, 33.60439], [-92.59142, 33.60415], [-92.59135, 33.60517], [-92.59128, 33.60555], [-92.59114, 33.6055], [-92.59096, 33.60524], [-92.59082, 33.60508], [-92.59069, 33.60498], [-92.59023, 33.60481], [-92.58942, 33.6047], [-92.58953, 33.60365], [-92.58932, 33.60337], [-92.58924, 33.60314], [-92.58927, 33.60289], [-92.58921, 33.60272], [-92.58905, 33.60269], [-92.58898, 33.60242], [-92.58795, 33.60232], [-92.58752, 33.60233], [-92.58747, 33.60118], [-92.58752, 33.59956], [-92.58762, 33.59732], [-92.58705, 33.59717], [-92.58635, 33.59686], [-92.58627, 33.5965], [-92.58597, 33.5964], [-92.58575, 33.59616], [-92.58506, 33.59622], [-92.58491, 33.5962], [-92.58504, 33.59591], [-92.58513, 33.59576], [-92.58497, 33.5956], [-92.58466, 33.59551], [-92.58436, 33.59537], [-92.58419, 33.59511], [-92.58573, 33.5952], [-92.58578, 33.5947], [-92.58565, 33.59448], [-92.58549, 33.59409], [-92.58553, 33.59397], [-92.58382, 33.59393], [-92.58377, 33.59354], [-92.58355, 33.59342], [-92.58336, 33.59332], [-92.58316, 33.59315], [-92.58298, 33.59283], [-92.58257, 33.59257], [-92.5823, 33.59238], [-92.58223, 33.59214], [-92.58557, 33.59215], [-92.5856, 33.59197], [-92.58493, 33.59193], [-92.58483, 33.59173], [-92.58378, 33.5917], [-92.5835, 33.5916], [-92.58309, 33.59148], [-92.58282, 33.59108], [-92.58087, 33.59099]]]}, "properties": {"poly_IncidentName": "Bunker Fire", "poly_GISAcres": 1, "poly_DateCurrent": 1789667462773}}]}