{"type": "FeatureCollection", "crs": {"type": "name", "properties": {"name": "EPSG:4326"}}, "features": [{"type": "Feature", "geometry": {"type": "Polygon", "coordinates": [[[-85.63886, 33.62692], [-85.63892, 33.62691], [-85.63897, 33.62689], [-85.63902, 33.62687], [-85.63905, 33.62685], [-85.63913, 33.62686], [-85.63917, 33.62685], [-85.63925, 33.62685], [-85.63929, 33.62683], [-85.63934, 33.62681], [-85.63941, 33.62682], [-85.63947, 33.62683], [-85.63951, 33.62685], [-85.63955, 33.62684], [-85.63959, 33.62681], [-85.63964, 33.62684], [-85.6397, 33.62686], [-85.63973, 33.62685], [-85.63977, 33.62685], [-85.63981, 33.62686], [-85.63986, 33.62686], [-85.63992, 33.62685], [-85.64009, 33.62685], [-85.64015, 33.62686], [-85.64023, 33.62683], [-85.64027, 33.62683], [-85.64032, 33.62685], [-85.64038, 33.62686], [-85.64045, 33.62687], [-85.6405, 33.62686], [-85.64056, 33.62686], [-85.64063, 33.62686], [-85.64068, 33.62686], [-85.64071, 33.62686], [-85.64075, 33.62687], [-85.64079, 33.62687], [-85.64088, 33.62689], [-85.64098, 33.62688], [-85.64104, 33.62689], [-85.64109, 33.62687], [-85.64113, 33.62684], [-85.64118, 33.62688], [-85.6412, 33.62684], [-85.64125, 33.62679], [-85.64133, 33.62678], [-85.64137, 33.62679], [-85.64141, 33.6268], [-85.64144, 33.62685], [-85.64147, 33.62688], [-85.64149, 33.62691], [-85.64152, 33.62692], [-85.64154, 33.62693], [-85.64157, 33.62693], [-85.6416, 33.62694], [-85.64162, 33.62695], [-85.64163, 33.62696], [-85.64167, 33.62698], [-85.64171, 33.62698], [-85.64176, 33.62701], [-85.6418, 33.62704], [-85.64185, 33.62707], [-85.64187, 33.62709], [-85.6419, 33.62711], [-85.64191, 33.62712], [-85.64195, 33.62715], [-85.64199, 33.62714], [-85.64203, 33.62713], [-85.64206, 33.62713], [-85.64208, 33.62714], [-85.64211, 33.62715], [-85.64213, 33.62715], [-85.64215, 33.62716], [-85.64219, 33.62716], [-85.64224, 33.62716], [-85.64231, 33.62717], [-85.64241, 33.62723], [-85.64245, 33.62728], [-85.64249, 33.62732], [-85.64255, 33.62741], [-85.64259, 33.62752], [-85.6426, 33.62771], [-85.64257, 33.62779], [-85.64245, 33.62791], [-85.64242, 33.62809], [-85.64245, 33.62819], [-85.64246, 33.62822], [-85.64248, 33.62827], [-85.64252, 33.62828], [-85.64254, 33.62832], [-85.64254, 33.62834], [-85.64258, 33.62839], [-85.64262, 33.62845], [-85.64265, 33.62853], [-85.64267, 33.6286], [-85.64266, 33.62868], [-85.64265, 33.6287], [-85.64263, 33.62873], [-85.64259, 33.6288], [-85.6426, 33.62893], [-85.64259, 33.62897], [-85.64259, 33.62904], [-85.64256, 33.62908], [-85.64253, 33.62927], [-85.64253, 33.6293], [-85.64255, 33.62935], [-85.64252, 33.62942], [-85.64252, 33.62955], [-85.64251, 33.6296], [-85.64253, 33.62965], [-85.64248, 33.62968], [-85.64239, 33.62967], [-85.64235, 33.62967], [-85.64227, 33.62965], [-85.64215, 33.62966], [-85.64205, 33.62969], [-85.64196, 33.62968], [-85.64187, 33.62968], [-85.64177, 33.62967], [-85.64169, 33.62966], [-85.64159, 33.62963], [-85.64152, 33.62959], [-85.64147, 33.62956], [-85.6414, 33.62954], [-85.64132, 33.62952], [-85.64123, 33.62949], [-85.64117, 33.62951], [-85.64115, 33.62952], [-85.6411, 33.62952], [-85.64107, 33.62953], [-85.64103, 33.62952], [-85.641, 33.62953], [-85.64098, 33.62953], [-85.64095, 33.62953], [-85.64092, 33.62953], [-85.64089, 33.62954], [-85.64082, 33.62954], [-85.64071, 33.62953], [-85.64065, 33.62954], [-85.64061, 33.62954], [-85.64056, 33.62955], [-85.64054, 33.62955], [-85.64051, 33.62955], [-85.64048, 33.62955], [-85.64046, 33.62955], [-85.64044, 33.62955], [-85.64042, 33.62956], [-85.64039, 33.62956], [-85.64034, 33.62957], [-85.64028, 33.62957], [-85.64026, 33.62958], [-85.64011, 33.62959], [-85.64008, 33.62958], [-85.64002, 33.6296], [-85.63999, 33.6296], [-85.63995, 33.62958], [-85.63992, 33.62958], [-85.6398, 33.62956], [-85.63968, 33.62953], [-85.63962, 33.62948], [-85.63958, 33.62948], [-85.63957, 33.62946], [-85.63954, 33.62944], [-85.63952, 33.62941], [-85.63949, 33.62939], [-85.63946, 33.62937], [-85.63943, 33.62932], [-85.63942, 33.6293], [-85.6394, 33.62929], [-85.63935, 33.62926], [-85.63932, 33.62923], [-85.63929, 33.62921], [-85.63919, 33.62921], [-85.6391, 33.62922], [-85.63905, 33.62923], [-85.63902, 33.62924], [-85.63898, 33.62925], [-85.63894, 33.62924], [-85.63892, 33.62926], [-85.6389, 33.62927], [-85.63887, 33.62928], [-85.63884, 33.6293], [-85.6388, 33.62931], [-85.63874, 33.62932], [-85.6387, 33.62934], [-85.63867, 33.62935], [-85.63863, 33.62934], [-85.63858, 33.62936], [-85.63853, 33.62937], [-85.63848, 33.62937], [-85.63846, 33.62935], [-85.63847, 33.62932], [-85.63848, 33.62928], [-85.63848, 33.62925], [-85.63848, 33.62922], [-85.63848, 33.62916], [-85.63848, 33.62913], [-85.63846, 33.62906], [-85.63842, 33.62899], [-85.63844, 33.62891], [-85.63843, 33.62882], [-85.63845, 33.62878], [-85.63847, 33.62876], [-85.6385, 33.62868], [-85.6385, 33.62858], [-85.63849, 33.62853], [-85.63849, 33.62845], [-85.6385, 33.62838], [-85.63848, 33.62828], [-85.63844, 33.62825], [-85.63843, 33.62818], [-85.63848, 33.62816], [-85.63847, 33.62809], [-85.63845, 33.62803], [-85.63849, 33.62795], [-85.63853, 33.62792], [-85.63854, 33.62787], [-85.63851, 33.62781], [-85.63851, 33.62776], [-85.6385, 33.62771], [-85.6385, 33.62766], [-85.63848, 33.62758], [-85.63849, 33.62752], [-85.63851, 33.6274], [-85.63851, 33.62737], [-85.6385, 33.62731], [-85.63851, 33.62726], [-85.6385, 33.62722], [-85.63851, 33.62715], [-85.6385, 33.62712], [-85.63848, 33.62709], [-85.63847, 33.62705], [-85.63849, 33.62703], [-85.6385, 33.62701], [-85.63851, 33.627], [-85.63853, 33.62697], [-85.6386, 33.62692], [-85.63866, 33.62693], [-85.63872, 33.62694], [-85.6388, 33.62693], [-85.63886, 33.62692]]]}, "properties": {"poly_IncidentName": "Bobo", "poly_GISAcres": 26, "poly_DateCurrent": 1789165988540}}]}