{"type": "FeatureCollection", "crs": {"type": "name", "properties": {"name": "EPSG:4326"}}, "features": [{"type": "Feature", "geometry": {"type": "Polygon", "coordinates": [[[-89.19803, 32.7861], [-89.1979, 32.78608], [-89.19764, 32.78617], [-89.19756, 32.78619], [-89.19743, 32.78627], [-89.19724, 32.78635], [-89.19713, 32.78636], [-89.19698, 32.7864], [-89.19677, 32.7865], [-89.19649, 32.78663], [-89.19622, 32.7868], [-89.19594, 32.78688], [-89.19571, 32.78691], [-89.19547, 32.78696], [-89.19516, 32.78691], [-89.19479, 32.78695], [-89.19428, 32.78699], [-89.19374, 32.78694], [-89.19351, 32.78685], [-89.1929, 32.78662], [-89.19237, 32.7864], [-89.19165, 32.78608], [-89.19142, 32.78592], [-89.19124, 32.78582], [-89.19134, 32.78569], [-89.19145, 32.78563], [-89.19166, 32.78548], [-89.19178, 32.78534], [-89.1919, 32.78525], [-89.19197, 32.7852], [-89.19195, 32.78512], [-89.19169, 32.78505], [-89.19137, 32.78493], [-89.19125, 32.7849], [-89.19102, 32.78472], [-89.19105, 32.7847], [-89.19109, 32.78468], [-89.19117, 32.78457], [-89.19116, 32.78454], [-89.19115, 32.78451], [-89.19114, 32.78448], [-89.19113, 32.78445], [-89.19111, 32.78442], [-89.1911, 32.78436], [-89.1911, 32.78431], [-89.19109, 32.78429], [-89.19109, 32.78425], [-89.19108, 32.78416], [-89.19108, 32.78412], [-89.19108, 32.7841], [-89.19108, 32.78405], [-89.19107, 32.78398], [-89.19106, 32.78393], [-89.19104, 32.7838], [-89.19104, 32.78377], [-89.19103, 32.78371], [-89.19101, 32.78367], [-89.19099, 32.78363], [-89.19099, 32.78362], [-89.19097, 32.78359], [-89.19095, 32.78355], [-89.19095, 32.78354], [-89.19093, 32.78349], [-89.19092, 32.78347], [-89.1909, 32.78343], [-89.19089, 32.78341], [-89.19088, 32.78338], [-89.19087, 32.78336], [-89.19085, 32.78332], [-89.19084, 32.7833], [-89.19081, 32.78323], [-89.19079, 32.7832], [-89.19078, 32.78317], [-89.19079, 32.78312], [-89.19079, 32.78309], [-89.1908, 32.78306], [-89.19081, 32.78301], [-89.19081, 32.783], [-89.19082, 32.78295], [-89.19083, 32.78291], [-89.19082, 32.78286], [-89.19082, 32.78278], [-89.19081, 32.78278], [-89.19081, 32.78276], [-89.19081, 32.78271], [-89.1908, 32.78267], [-89.19078, 32.78262], [-89.19077, 32.78259], [-89.19077, 32.78255], [-89.19075, 32.7825], [-89.19069, 32.78244], [-89.19065, 32.7824], [-89.19063, 32.78233], [-89.19063, 32.78228], [-89.19063, 32.78227], [-89.19062, 32.78223], [-89.19064, 32.78219], [-89.1906, 32.78204], [-89.19056, 32.78187], [-89.19053, 32.78177], [-89.19052, 32.78172], [-89.19052, 32.78169], [-89.19052, 32.78166], [-89.19053, 32.78162], [-89.19049, 32.78144], [-89.19045, 32.78142], [-89.1904, 32.7814], [-89.19035, 32.78135], [-89.1902, 32.78119], [-89.19016, 32.78113], [-89.19011, 32.78107], [-89.18997, 32.78094], [-89.18994, 32.7809], [-89.1899, 32.78075], [-89.19087, 32.78031], [-89.19106, 32.78004], [-89.19159, 32.77929], [-89.19188, 32.77919], [-89.19236, 32.77931], [-89.19366, 32.77981], [-89.1959, 32.78053], [-89.19713, 32.78083], [-89.19796, 32.78086], [-89.19799, 32.78406], [-89.19803, 32.7861]]]}, "properties": {"poly_IncidentName": "Wolf Creek RX", "poly_GISAcres": 118.49389643021277, "poly_DateCurrent": 1776458531767}}, {"type": "Feature", "geometry": {"type": "Polygon", "coordinates": [[[-80.98643, 31.87514], [-80.9846, 31.87586], [-80.98386, 31.87629], [-80.98287, 31.87724], [-80.98269, 31.87779], [-80.98172, 31.87724], [-80.97972, 31.87863], [-80.97993, 31.88], [-80.97889, 31.8814], [-80.97761, 31.88176], [-80.97689, 31.88069], [-80.97368, 31.88276], [-80.97427, 31.88341], [-80.97361, 31.88458], [-80.97259, 31.88359], [-80.97215, 31.88387], [-80.96884, 31.88489], [-80.96708, 31.88219], [-80.97388, 31.87633], [-80.98611, 31.86444], [-80.9888, 31.86181], [-80.99077, 31.85988], [-80.9917, 31.85895], [-80.99354, 31.85812], [-80.99412, 31.85762], [-80.99511, 31.85752], [-80.99901, 31.85805], [-81.00084, 31.85852], [-81.00173, 31.85889], [-81.00258, 31.85948], [-81.00303, 31.86024], [-81.00313, 31.86119], [-81.00277, 31.86158], [-81.00091, 31.86342], [-80.99966, 31.86494], [-80.99696, 31.86942], [-80.99652, 31.87188], [-80.99521, 31.87111], [-80.99235, 31.87264], [-80.98942, 31.87482], [-80.98907, 31.87584], [-80.98828, 31.8756], [-80.98643, 31.87514]]]}, "properties": {"poly_IncidentName": "Main Trail", "poly_GISAcres": 200, "poly_DateCurrent": 1787500121208}}, {"type": "Feature", "geometry": {"type": "Polygon", "coordinates": [[[-94.70579, 36.28222], [-94.70634, 36.28221], [-94.7063, 36.28288], [-94.70633, 36.28498], [-94.70627, 36.28648], [-94.70625, 36.2875], [-94.70625, 36.28778], [-94.70625, 36.28794], [-94.70624, 36.28806], [-94.70624, 36.28809], [-94.70625, 36.28812], [-94.70623, 36.28816], [-94.70624, 36.28819], [-94.70624, 36.28822], [-94.70623, 36.28825], [-94.70623, 36.28828], [-94.70624, 36.28831], [-94.70623, 36.28834], [-94.70622, 36.28837], [-94.70621, 36.2884], [-94.7062, 36.28842], [-94.70618, 36.28845], [-94.70617, 36.28848], [-94.70616, 36.28851], [-94.70616, 36.28854], [-94.70615, 36.28858], [-94.70615, 36.28861], [-94.70614, 36.28864], [-94.70614, 36.28867], [-94.70614, 36.2887], [-94.70613, 36.28874], [-94.70613, 36.28877], [-94.70612, 36.2888], [-94.70611, 36.28883], [-94.70609, 36.28886], [-94.70607, 36.28889], [-94.70605, 36.28891], [-94.70601, 36.28891], [-94.70596, 36.28891], [-94.70592, 36.28893], [-94.7059, 36.28896], [-94.7059, 36.289], [-94.70589, 36.28902], [-94.70589, 36.28905], [-94.70588, 36.28908], [-94.70587, 36.28912], [-94.70587, 36.28916], [-94.70578, 36.28925], [-94.70575, 36.28924], [-94.70571, 36.28923], [-94.70567, 36.28923], [-94.70564, 36.28925], [-94.70564, 36.28923], [-94.70563, 36.2892], [-94.70559, 36.28922], [-94.70556, 36.28922], [-94.70553, 36.28924], [-94.70549, 36.28925], [-94.70545, 36.28925], [-94.7054, 36.28924], [-94.70536, 36.28925], [-94.70532, 36.28924], [-94.70529, 36.28923], [-94.70525, 36.28925], [-94.70522, 36.28927], [-94.70519, 36.28931], [-94.70516, 36.28934], [-94.70515, 36.28938], [-94.70514, 36.28942], [-94.70512, 36.28945], [-94.70511, 36.28949], [-94.7051, 36.28953], [-94.70509, 36.28957], [-94.70509, 36.28961], [-94.7051, 36.28965], [-94.70509, 36.28969], [-94.70508, 36.28973], [-94.70507, 36.28976], [-94.70505, 36.2898], [-94.70504, 36.28983], [-94.70501, 36.28986], [-94.70499, 36.2899], [-94.70499, 36.28994], [-94.70499, 36.28998], [-94.70499, 36.29002], [-94.70499, 36.29006], [-94.705, 36.29008], [-94.70502, 36.29012], [-94.70502, 36.29016], [-94.70503, 36.2902], [-94.70501, 36.29023], [-94.70497, 36.29024], [-94.70494, 36.29025], [-94.7049, 36.29026], [-94.70487, 36.29025], [-94.70483, 36.29027], [-94.70483, 36.2903], [-94.70482, 36.29033], [-94.70482, 36.29036], [-94.70482, 36.29039], [-94.7048, 36.29042], [-94.70478, 36.29046], [-94.70476, 36.29049], [-94.70473, 36.29052], [-94.70471, 36.29054], [-94.70468, 36.29057], [-94.70466, 36.2906], [-94.70463, 36.29063], [-94.70461, 36.29065], [-94.70457, 36.29068], [-94.70454, 36.2907], [-94.7045, 36.29073], [-94.70447, 36.29074], [-94.70444, 36.29076], [-94.7044, 36.29076], [-94.70436, 36.29076], [-94.70432, 36.29076], [-94.70427, 36.29077], [-94.70423, 36.29077], [-94.70418, 36.29076], [-94.70415, 36.29078], [-94.70412, 36.2908], [-94.70408, 36.29081], [-94.70408, 36.29084], [-94.70404, 36.29086], [-94.704, 36.29087], [-94.70397, 36.29089], [-94.70394, 36.29091], [-94.70393, 36.29094], [-94.70393, 36.29097], [-94.70392, 36.291], [-94.7039, 36.29103], [-94.70386, 36.29105], [-94.70382, 36.29107], [-94.7038, 36.29111], [-94.70378, 36.29113], [-94.70375, 36.29115], [-94.70371, 36.29116], [-94.70366, 36.29116], [-94.70362, 36.29118], [-94.70359, 36.29119], [-94.70356, 36.29122], [-94.70354, 36.29124], [-94.70352, 36.29127], [-94.70351, 36.2913], [-94.70348, 36.29133], [-94.70346, 36.29135], [-94.70341, 36.29136], [-94.70338, 36.29137], [-94.70333, 36.29137], [-94.7033, 36.29139], [-94.70326, 36.2914], [-94.70323, 36.29141], [-94.70319, 36.29142], [-94.70315, 36.2914], [-94.70313, 36.29136], [-94.70309, 36.29135], [-94.70305, 36.29135], [-94.70301, 36.29135], [-94.70298, 36.29134], [-94.70294, 36.29133], [-94.7029, 36.29132], [-94.70286, 36.29131], [-94.70283, 36.29128], [-94.7028, 36.29126], [-94.70278, 36.29123], [-94.70276, 36.2912], [-94.70276, 36.29118], [-94.70274, 36.29115], [-94.7027, 36.29113], [-94.70266, 36.29111], [-94.70262, 36.2911], [-94.70259, 36.29107], [-94.70254, 36.29107], [-94.70251, 36.2911], [-94.70248, 36.2911], [-94.70245, 36.29111], [-94.7024, 36.2911], [-94.70236, 36.2911], [-94.70232, 36.29111], [-94.70229, 36.29113], [-94.70227, 36.29116], [-94.70224, 36.29119], [-94.70223, 36.29122], [-94.70223, 36.29124], [-94.7022, 36.29127], [-94.70216, 36.29128], [-94.70212, 36.29128], [-94.70208, 36.29127], [-94.70205, 36.29124], [-94.70202, 36.29122], [-94.70199, 36.29121], [-94.70195, 36.2912], [-94.70191, 36.29119], [-94.70188, 36.29118], [-94.70185, 36.29116], [-94.70182, 36.29114], [-94.7018, 36.29111], [-94.70179, 36.29108], [-94.70176, 36.29109], [-94.70173, 36.29112], [-94.70169, 36.29113], [-94.70167, 36.29115], [-94.70163, 36.29117], [-94.70161, 36.2912], [-94.70158, 36.29122], [-94.70156, 36.29125], [-94.70153, 36.29127], [-94.70151, 36.29129], [-94.70149, 36.29131], [-94.70146, 36.29134], [-94.70143, 36.29137], [-94.7014, 36.29139], [-94.70139, 36.29136], [-94.70137, 36.29133], [-94.70136, 36.29129], [-94.70135, 36.29125], [-94.70133, 36.29122], [-94.70133, 36.29118], [-94.70132, 36.29115], [-94.70131, 36.29111], [-94.70128, 36.29108], [-94.70128, 36.29105], [-94.70125, 36.29102], [-94.70122, 36.29099], [-94.70122, 36.29096], [-94.7012, 36.29093], [-94.70118, 36.29091], [-94.70115, 36.29089], [-94.70112, 36.29086], [-94.70108, 36.29085], [-94.70105, 36.29084], [-94.70102, 36.29082], [-94.70099, 36.29081], [-94.70095, 36.2908], [-94.7009, 36.29079], [-94.70086, 36.29079], [-94.70083, 36.29078], [-94.70079, 36.29076], [-94.70075, 36.29075], [-94.70072, 36.29074], [-94.70068, 36.29072], [-94.70065, 36.2907], [-94.70063, 36.29067], [-94.70061, 36.29065], [-94.70057, 36.29062], [-94.70055, 36.2906], [-94.70052, 36.29059], [-94.70047, 36.29056], [-94.70044, 36.29054], [-94.70043, 36.29051], [-94.70043, 36.29048], [-94.70043, 36.29045], [-94.70042, 36.29042], [-94.7004, 36.29038], [-94.70039, 36.29035], [-94.70038, 36.29031], [-94.70039, 36.29027], [-94.70041, 36.29024], [-94.70043, 36.29022], [-94.70045, 36.29019], [-94.70047, 36.29015], [-94.70049, 36.29013], [-94.70052, 36.2901], [-94.70053, 36.29006], [-94.70055, 36.29003], [-94.70054, 36.28999], [-94.70053, 36.28996], [-94.70053, 36.28993], [-94.70052, 36.2899], [-94.70052, 36.28987], [-94.70051, 36.28983], [-94.70053, 36.28981], [-94.70054, 36.28977], [-94.70056, 36.28974], [-94.70058, 36.28972], [-94.70061, 36.28969], [-94.70062, 36.28966], [-94.70065, 36.28962], [-94.70068, 36.28959], [-94.7007, 36.28957], [-94.70072, 36.28954], [-94.70074, 36.28951], [-94.70075, 36.28947], [-94.70075, 36.28944], [-94.70073, 36.28941], [-94.70072, 36.28937], [-94.70069, 36.28934], [-94.70067, 36.28931], [-94.70066, 36.28928], [-94.70066, 36.28924], [-94.70064, 36.2892], [-94.70062, 36.28918], [-94.70062, 36.28915], [-94.70061, 36.28912], [-94.7006, 36.2891], [-94.70057, 36.28906], [-94.70056, 36.28902], [-94.70056, 36.289], [-94.70057, 36.28896], [-94.70059, 36.28892], [-94.70062, 36.28889], [-94.70065, 36.28886], [-94.70068, 36.28883], [-94.70071, 36.28881], [-94.70074, 36.28878], [-94.70076, 36.28875], [-94.70079, 36.28871], [-94.70081, 36.28867], [-94.70082, 36.28864], [-94.70083, 36.28859], [-94.70084, 36.28856], [-94.70088, 36.28853], [-94.70091, 36.2885], [-94.70093, 36.28846], [-94.70096, 36.28843], [-94.701, 36.28841], [-94.70104, 36.2884], [-94.70108, 36.28838], [-94.70112, 36.28835], [-94.70114, 36.28833], [-94.70117, 36.28831], [-94.7012, 36.2883], [-94.70123, 36.28829], [-94.70126, 36.28827], [-94.70129, 36.28825], [-94.70131, 36.28824], [-94.70134, 36.28822], [-94.70136, 36.28819], [-94.70137, 36.28817], [-94.70138, 36.28814], [-94.70139, 36.28811], [-94.7014, 36.28809], [-94.70141, 36.28805], [-94.70143, 36.28801], [-94.70144, 36.28798], [-94.70147, 36.28795], [-94.70149, 36.28792], [-94.70151, 36.28788], [-94.70151, 36.28785], [-94.70151, 36.28782], [-94.70154, 36.28779], [-94.70157, 36.28777], [-94.7016, 36.28775], [-94.70162, 36.28773], [-94.70164, 36.28771], [-94.70166, 36.28768], [-94.70168, 36.28766], [-94.70171, 36.28764], [-94.70175, 36.28761], [-94.70178, 36.28759], [-94.70181, 36.28758], [-94.70307, 36.28224], [-94.70579, 36.28222]]]}, "properties": {"poly_IncidentName": "Chicken Coop", "poly_GISAcres": 91.16711883721395, "poly_DateCurrent": 1789955375000}}, {"type": "Feature", "geometry": {"type": "Polygon", "coordinates": [[[-96.35142, 36.40505], [-96.35124, 36.40494], [-96.35121, 36.40492], [-96.3512, 36.40489], [-96.35118, 36.40485], [-96.35118, 36.40482], [-96.35116, 36.40479], [-96.35113, 36.40477], [-96.35114, 36.40474], [-96.35112, 36.40471], [-96.35109, 36.40467], [-96.35108, 36.40464], [-96.35109, 36.40461], [-96.35109, 36.40458], [-96.3511, 36.40455], [-96.3511, 36.40452], [-96.35109, 36.40448], [-96.35107, 36.40444], [-96.35104, 36.40442], [-96.35108, 36.40441], [-96.35104, 36.40441], [-96.35088, 36.4044], [-96.35085, 36.40437], [-96.35081, 36.40434], [-96.35077, 36.40435], [-96.35074, 36.40432], [-96.35074, 36.40429], [-96.3507, 36.40428], [-96.35068, 36.40424], [-96.3507, 36.40422], [-96.35068, 36.40418], [-96.35066, 36.40415], [-96.35064, 36.40412], [-96.35062, 36.40409], [-96.35062, 36.40405], [-96.35061, 36.40401], [-96.35058, 36.40398], [-96.35057, 36.40395], [-96.35055, 36.40393], [-96.35055, 36.4039], [-96.35056, 36.40387], [-96.35054, 36.40384], [-96.35051, 36.40382], [-96.35053, 36.40379], [-96.35051, 36.40375], [-96.35052, 36.40373], [-96.35053, 36.4037], [-96.35054, 36.40367], [-96.35053, 36.40364], [-96.3505, 36.40362], [-96.35049, 36.40358], [-96.35048, 36.40354], [-96.35047, 36.40352], [-96.35046, 36.40349], [-96.35045, 36.40346], [-96.35045, 36.40344], [-96.35046, 36.4034], [-96.35049, 36.40337], [-96.35047, 36.40333], [-96.35048, 36.40331], [-96.35048, 36.40327], [-96.35047, 36.40324], [-96.35049, 36.40322], [-96.35049, 36.40318], [-96.35049, 36.40315], [-96.35047, 36.40312], [-96.35043, 36.40313], [-96.35039, 36.40311], [-96.35038, 36.40308], [-96.35036, 36.40306], [-96.35032, 36.40306], [-96.35029, 36.40303], [-96.35029, 36.40299], [-96.35029, 36.40295], [-96.3503, 36.40291], [-96.35028, 36.40289], [-96.35024, 36.40288], [-96.3502, 36.4029], [-96.35015, 36.40291], [-96.35012, 36.40291], [-96.35009, 36.40289], [-96.35005, 36.40288], [-96.35, 36.40288], [-96.34997, 36.40287], [-96.34993, 36.40286], [-96.34989, 36.40287], [-96.34985, 36.40288], [-96.3498, 36.40287], [-96.34976, 36.40285], [-96.34973, 36.40284], [-96.3497, 36.40282], [-96.34966, 36.40282], [-96.34963, 36.40282], [-96.34959, 36.4028], [-96.34955, 36.40277], [-96.34952, 36.40276], [-96.34947, 36.40274], [-96.34944, 36.40273], [-96.34939, 36.40272], [-96.34936, 36.40269], [-96.34932, 36.40267], [-96.3493, 36.40265], [-96.34927, 36.40263], [-96.34924, 36.40262], [-96.3492, 36.4026], [-96.34916, 36.40257], [-96.34913, 36.40256], [-96.3491, 36.40254], [-96.34906, 36.40252], [-96.34903, 36.40251], [-96.34901, 36.40249], [-96.34897, 36.40246], [-96.34893, 36.40244], [-96.34889, 36.40241], [-96.34886, 36.40238], [-96.34886, 36.40236], [-96.34883, 36.40233], [-96.3488, 36.40229], [-96.34877, 36.40227], [-96.34876, 36.40224], [-96.34873, 36.4022], [-96.34871, 36.40217], [-96.34869, 36.40214], [-96.34867, 36.4021], [-96.34864, 36.40207], [-96.34862, 36.40203], [-96.34859, 36.40201], [-96.34857, 36.40198], [-96.34855, 36.40194], [-96.34853, 36.40191], [-96.34851, 36.40187], [-96.34848, 36.40184], [-96.34846, 36.40181], [-96.34843, 36.40177], [-96.34842, 36.40174], [-96.3484, 36.40172], [-96.34839, 36.40169], [-96.34837, 36.40166], [-96.34836, 36.40163], [-96.34835, 36.40159], [-96.34835, 36.40155], [-96.34833, 36.40153], [-96.34832, 36.40149], [-96.34832, 36.40146], [-96.3483, 36.40144], [-96.34828, 36.4014], [-96.34827, 36.40137], [-96.34827, 36.40134], [-96.34827, 36.40131], [-96.34827, 36.40128], [-96.34829, 36.40124], [-96.34831, 36.4012], [-96.34834, 36.40119], [-96.34836, 36.40116], [-96.3484, 36.40115], [-96.34842, 36.40112], [-96.34845, 36.4011], [-96.34849, 36.40109], [-96.34854, 36.40108], [-96.34857, 36.40106], [-96.34861, 36.40105], [-96.34864, 36.40103], [-96.34867, 36.40101], [-96.3487, 36.40098], [-96.34874, 36.40095], [-96.34875, 36.40092], [-96.34877, 36.40089], [-96.34877, 36.40086], [-96.34879, 36.40083], [-96.34882, 36.4008], [-96.34884, 36.40077], [-96.34886, 36.40075], [-96.34888, 36.40073], [-96.34892, 36.4007], [-96.34896, 36.40068], [-96.34899, 36.40067], [-96.34903, 36.40065], [-96.34907, 36.40063], [-96.3491, 36.40061], [-96.34914, 36.4006], [-96.34918, 36.4006], [-96.34922, 36.40058], [-96.34926, 36.40058], [-96.34931, 36.40057], [-96.34935, 36.40056], [-96.34938, 36.40056], [-96.34942, 36.40054], [-96.34947, 36.40054], [-96.34952, 36.40054], [-96.34955, 36.40054], [-96.34959, 36.40054], [-96.34963, 36.40054], [-96.34966, 36.40054], [-96.3497, 36.40053], [-96.34974, 36.40054], [-96.34978, 36.40053], [-96.34983, 36.40054], [-96.34986, 36.40055], [-96.3499, 36.40056], [-96.34994, 36.40057], [-96.34999, 36.40059], [-96.35002, 36.4006], [-96.35006, 36.40061], [-96.35009, 36.40064], [-96.35011, 36.40066], [-96.35014, 36.40068], [-96.35018, 36.40071], [-96.3502, 36.40073], [-96.35023, 36.40076], [-96.35026, 36.40079], [-96.3503, 36.40081], [-96.35033, 36.40083], [-96.35037, 36.40086], [-96.3504, 36.40087], [-96.35046, 36.40087], [-96.3505, 36.40087], [-96.35054, 36.40087], [-96.35057, 36.40087], [-96.35062, 36.40088], [-96.35065, 36.40089], [-96.35069, 36.40092], [-96.35072, 36.40092], [-96.35077, 36.40092], [-96.35081, 36.40094], [-96.35086, 36.40095], [-96.3509, 36.40097], [-96.35093, 36.40097], [-96.35097, 36.40098], [-96.351, 36.40098], [-96.35105, 36.40099], [-96.3511, 36.401], [-96.35114, 36.40101], [-96.35118, 36.40102], [-96.35121, 36.40102], [-96.35126, 36.40103], [-96.35131, 36.40103], [-96.35135, 36.40103], [-96.35138, 36.40103], [-96.35142, 36.40103], [-96.35145, 36.40103], [-96.35149, 36.40103], [-96.35153, 36.40105], [-96.35157, 36.40106], [-96.35161, 36.40107], [-96.35165, 36.40108], [-96.35169, 36.4011], [-96.35172, 36.40113], [-96.35175, 36.40115], [-96.35178, 36.40117], [-96.3518, 36.40119], [-96.35182, 36.40123], [-96.35185, 36.40126], [-96.35188, 36.40128], [-96.3519, 36.4013], [-96.35194, 36.40132], [-96.35199, 36.40133], [-96.35204, 36.40133], [-96.35204, 36.40133], [-96.35208, 36.40132], [-96.35211, 36.40132], [-96.35215, 36.40131], [-96.35219, 36.40132], [-96.35222, 36.40134], [-96.35222, 36.40137], [-96.35219, 36.40141], [-96.35217, 36.40144], [-96.35214, 36.40146], [-96.35213, 36.40149], [-96.35211, 36.40152], [-96.3521, 36.40154], [-96.35209, 36.40157], [-96.35208, 36.4016], [-96.35207, 36.40163], [-96.35206, 36.40165], [-96.35204, 36.40168], [-96.35201, 36.40171], [-96.35199, 36.40174], [-96.35198, 36.40176], [-96.35196, 36.40178], [-96.35193, 36.40181], [-96.35191, 36.40183], [-96.35189, 36.40185], [-96.35186, 36.40187], [-96.35183, 36.40191], [-96.3518, 36.40193], [-96.35177, 36.40197], [-96.35175, 36.40199], [-96.35173, 36.40202], [-96.35169, 36.40205], [-96.35167, 36.40208], [-96.35164, 36.40211], [-96.35162, 36.40214], [-96.3516, 36.40217], [-96.35158, 36.40219], [-96.35156, 36.40221], [-96.35155, 36.40224], [-96.35153, 36.40226], [-96.35151, 36.4023], [-96.35149, 36.40232], [-96.35146, 36.40235], [-96.35142, 36.40238], [-96.35141, 36.40241], [-96.35142, 36.40244], [-96.35143, 36.40247], [-96.35144, 36.40249], [-96.35146, 36.40252], [-96.35147, 36.40255], [-96.35149, 36.40259], [-96.35152, 36.40262], [-96.35155, 36.40265], [-96.35158, 36.40268], [-96.35159, 36.40271], [-96.35161, 36.40274], [-96.35164, 36.40277], [-96.35165, 36.40281], [-96.35167, 36.40284], [-96.35166, 36.40287], [-96.35168, 36.4029], [-96.35171, 36.40292], [-96.35174, 36.40296], [-96.35175, 36.403], [-96.35175, 36.40302], [-96.35177, 36.40306], [-96.35177, 36.4031], [-96.35178, 36.40314], [-96.35178, 36.40318], [-96.35179, 36.40322], [-96.35179, 36.40326], [-96.3518, 36.4033], [-96.35181, 36.40334], [-96.35182, 36.40336], [-96.35183, 36.40339], [-96.35183, 36.40342], [-96.35186, 36.40346], [-96.35188, 36.40348], [-96.35189, 36.40352], [-96.3519, 36.40355], [-96.35189, 36.40359], [-96.35188, 36.40362], [-96.3519, 36.40365], [-96.3519, 36.40369], [-96.35191, 36.40371], [-96.35191, 36.40375], [-96.35192, 36.40379], [-96.35192, 36.40382], [-96.35194, 36.40385], [-96.35193, 36.40388], [-96.35193, 36.40391], [-96.35193, 36.40394], [-96.35194, 36.40398], [-96.35194, 36.40402], [-96.35194, 36.40405], [-96.35194, 36.40407], [-96.35194, 36.4041], [-96.35194, 36.40413], [-96.35194, 36.40416], [-96.35195, 36.40419], [-96.35194, 36.40423], [-96.35195, 36.40427], [-96.35196, 36.40429], [-96.35197, 36.40432], [-96.35196, 36.40435], [-96.35197, 36.40439], [-96.35196, 36.40443], [-96.35197, 36.40447], [-96.35198, 36.40451], [-96.35197, 36.40454], [-96.35199, 36.40457], [-96.35199, 36.40461], [-96.35199, 36.40465], [-96.352, 36.40469], [-96.352, 36.40473], [-96.352, 36.40477], [-96.352, 36.4048], [-96.352, 36.40484], [-96.35198, 36.40488], [-96.35198, 36.40492], [-96.35199, 36.40495], [-96.35199, 36.40498], [-96.35198, 36.40502], [-96.35198, 36.40505], [-96.35198, 36.40508], [-96.35197, 36.40511], [-96.35198, 36.40514], [-96.35199, 36.40517], [-96.35198, 36.4052], [-96.35197, 36.40522], [-96.35196, 36.40527], [-96.35195, 36.4053], [-96.35192, 36.40534], [-96.3519, 36.40537], [-96.35187, 36.40539], [-96.35183, 36.40539], [-96.35178, 36.40538], [-96.35176, 36.4054], [-96.35172, 36.40541], [-96.35168, 36.40542], [-96.35165, 36.40543], [-96.35161, 36.40543], [-96.35158, 36.40542], [-96.35155, 36.4054], [-96.35152, 36.40537], [-96.3515, 36.40535], [-96.35149, 36.40532], [-96.35144, 36.40525], [-96.35141, 36.40522], [-96.35139, 36.40519], [-96.35142, 36.40505]], [[-96.35204, 36.40133], [-96.35203, 36.40133], [-96.35205, 36.40136], [-96.35204, 36.40133]]]}, "properties": {"poly_IncidentName": "BRONCO", "poly_GISAcres": 23.1, "poly_DateCurrent": 1789486038638}}, {"type": "Feature", "geometry": {"type": "Polygon", "coordinates": [[[-96.11049, 34.44123], [-96.11038, 34.4463], [-96.11225, 34.44659], [-96.11167, 34.44831], [-96.11006, 34.44833], [-96.11036, 34.45274], [-96.1091, 34.45196], [-96.1092, 34.45076], [-96.10908, 34.45055], [-96.10796, 34.44996], [-96.10761, 34.44949], [-96.10598, 34.44932], [-96.10455, 34.45003], [-96.10389, 34.45017], [-96.10299, 34.45021], [-96.10157, 34.45126], [-96.10149, 34.4515], [-96.10051, 34.45273], [-96.09989, 34.45286], [-96.09903, 34.45279], [-96.09869, 34.45222], [-96.09853, 34.45112], [-96.09871, 34.44931], [-96.09858, 34.44896], [-96.09893, 34.44865], [-96.09937, 34.44639], [-96.10043, 34.44567], [-96.10152, 34.4445], [-96.10245, 34.44326], [-96.1031, 34.44226], [-96.1038, 34.44159], [-96.10412, 34.44025], [-96.10225, 34.44162], [-96.10129, 34.44253], [-96.09956, 34.44368], [-96.09888, 34.44366], [-96.09926, 34.44302], [-96.09811, 34.4433], [-96.09703, 34.44242], [-96.09591, 34.4431], [-96.09519, 34.44312], [-96.09489, 34.44261], [-96.09542, 34.44146], [-96.0968, 34.44105], [-96.09862, 34.43835], [-96.09929, 34.43809], [-96.09991, 34.43717], [-96.10062, 34.43145], [-96.10057, 34.42817], [-96.09993, 34.42781], [-96.09976, 34.42765], [-96.09976, 34.42751], [-96.10031, 34.42706], [-96.10057, 34.42619], [-96.10024, 34.42594], [-96.10048, 34.42565], [-96.10166, 34.42495], [-96.10165, 34.42401], [-96.10048, 34.42326], [-96.10087, 34.42237], [-96.10111, 34.42096], [-96.10163, 34.41956], [-96.10147, 34.41918], [-96.10193, 34.41836], [-96.10258, 34.41759], [-96.10303, 34.41645], [-96.10375, 34.41595], [-96.10368, 34.41528], [-96.1042, 34.41442], [-96.10757, 34.41782], [-96.10833, 34.42308], [-96.10646, 34.42674], [-96.10672, 34.43041], [-96.10755, 34.43394], [-96.10672, 34.4351], [-96.10766, 34.43569], [-96.10795, 34.43748], [-96.10766, 34.43806], [-96.10763, 34.43818], [-96.10764, 34.43818], [-96.10768, 34.43817], [-96.10771, 34.43816], [-96.10773, 34.43813], [-96.10775, 34.43811], [-96.10777, 34.4381], [-96.10779, 34.43809], [-96.10783, 34.43808], [-96.10785, 34.43806], [-96.10788, 34.43805], [-96.10791, 34.43803], [-96.10794, 34.43801], [-96.10795, 34.43799], [-96.10796, 34.43795], [-96.10798, 34.43793], [-96.10799, 34.4379], [-96.10799, 34.43787], [-96.10799, 34.43784], [-96.108, 34.4378], [-96.10802, 34.43779], [-96.10805, 34.43776], [-96.10808, 34.43774], [-96.1081, 34.43772], [-96.10813, 34.43769], [-96.10816, 34.43767], [-96.10816, 34.43764], [-96.10817, 34.43762], [-96.1082, 34.43759], [-96.10823, 34.43757], [-96.10826, 34.43757], [-96.1083, 34.43756], [-96.10833, 34.43755], [-96.10836, 34.43753], [-96.10838, 34.43751], [-96.10839, 34.43749], [-96.10816, 34.43853], [-96.1079, 34.4397], [-96.10791, 34.43969], [-96.10791, 34.43971], [-96.10792, 34.43972], [-96.1079, 34.43974], [-96.10798, 34.43978], [-96.10803, 34.43978], [-96.10806, 34.43976], [-96.10809, 34.43974], [-96.10812, 34.43973], [-96.10816, 34.43972], [-96.1082, 34.43971], [-96.10824, 34.4397], [-96.10829, 34.4397], [-96.10832, 34.4397], [-96.10836, 34.43969], [-96.10838, 34.43967], [-96.1084, 34.43964], [-96.10843, 34.43962], [-96.10846, 34.43959], [-96.10849, 34.43958], [-96.10852, 34.43956], [-96.10855, 34.43954], [-96.10859, 34.43953], [-96.10862, 34.43952], [-96.10865, 34.4395], [-96.10868, 34.43947], [-96.1087, 34.43945], [-96.10873, 34.43943], [-96.10877, 34.43941], [-96.1088, 34.4394], [-96.10884, 34.43938], [-96.10888, 34.43937], [-96.10892, 34.43937], [-96.10895, 34.43937], [-96.10899, 34.43936], [-96.10902, 34.43936], [-96.10906, 34.43937], [-96.1091, 34.43938], [-96.10913, 34.43937], [-96.10917, 34.43938], [-96.10921, 34.43937], [-96.10925, 34.43938], [-96.10928, 34.43939], [-96.10931, 34.43941], [-96.10934, 34.43943], [-96.10937, 34.43944], [-96.1094, 34.43945], [-96.10941, 34.43949], [-96.10944, 34.43951], [-96.10948, 34.43952], [-96.1095, 34.43954], [-96.1095, 34.43958], [-96.1095, 34.43961], [-96.10952, 34.43964], [-96.10952, 34.43967], [-96.1095, 34.43969], [-96.10952, 34.43972], [-96.10952, 34.43975], [-96.10952, 34.43978], [-96.10953, 34.43981], [-96.10956, 34.43982], [-96.10956, 34.43985], [-96.10956, 34.43988], [-96.10957, 34.43991], [-96.10954, 34.43993], [-96.10955, 34.43996], [-96.10956, 34.43999], [-96.10957, 34.44002], [-96.10958, 34.44005], [-96.1096, 34.44008], [-96.1096, 34.44011], [-96.10961, 34.44014], [-96.10961, 34.44017], [-96.10961, 34.4402], [-96.10961, 34.44023], [-96.10959, 34.44025], [-96.10955, 34.44026], [-96.10954, 34.44029], [-96.10954, 34.44032], [-96.10954, 34.44035], [-96.10954, 34.44038], [-96.10953, 34.44041], [-96.1095, 34.44042], [-96.10948, 34.44044], [-96.10947, 34.44047], [-96.10947, 34.4405], [-96.10947, 34.44053], [-96.10945, 34.44056], [-96.10945, 34.44059], [-96.10944, 34.44062], [-96.10945, 34.44065], [-96.10947, 34.44068], [-96.10988, 34.44093], [-96.11049, 34.44123]]]}, "properties": {"poly_IncidentName": "Atoka Lake", "poly_GISAcres": 727.4404774782511, "poly_DateCurrent": 1789480056907}}, {"type": "Feature", "geometry": {"type": "Polygon", "coordinates": [[[-95.37197, 34.29653], [-95.37167, 34.29713], [-95.37166, 34.29846], [-95.37203, 34.29953], [-95.37242, 34.30099], [-95.37242, 34.30178], [-95.37271, 34.30269], [-95.37244, 34.30298], [-95.37202, 34.30307], [-95.37171, 34.30329], [-95.3718, 34.3035], [-95.37257, 34.30387], [-95.37319, 34.30418], [-95.37379, 34.3048], [-95.37379, 34.30542], [-95.37311, 34.30594], [-95.3721, 34.30632], [-95.3708, 34.30649], [-95.36905, 34.30725], [-95.36724, 34.30832], [-95.36653, 34.30886], [-95.36628, 34.31004], [-95.36581, 34.3104], [-95.36411, 34.30971], [-95.36291, 34.30946], [-95.3613, 34.30984], [-95.35854, 34.30696], [-95.35879, 34.30642], [-95.35959, 34.30559], [-95.36098, 34.30453], [-95.36038, 34.30423], [-95.36073, 34.30193], [-95.36118, 34.30077], [-95.36199, 34.30044], [-95.36246, 34.2997], [-95.36294, 34.29925], [-95.36276, 34.29807], [-95.36218, 34.29773], [-95.36104, 34.29806], [-95.36006, 34.29779], [-95.35943, 34.29725], [-95.36015, 34.29688], [-95.36027, 34.29559], [-95.3597, 34.29456], [-95.36017, 34.29427], [-95.36197, 34.29333], [-95.36214, 34.29273], [-95.36237, 34.29206], [-95.36285, 34.29122], [-95.36356, 34.29063], [-95.36427, 34.28985], [-95.36473, 34.28887], [-95.36483, 34.28802], [-95.36557, 34.28729], [-95.36609, 34.28648], [-95.36666, 34.28629], [-95.36686, 34.28578], [-95.36759, 34.28541], [-95.36847, 34.285], [-95.36862, 34.28452], [-95.36902, 34.28374], [-95.36957, 34.28325], [-95.36993, 34.28283], [-95.37131, 34.28251], [-95.37153, 34.28307], [-95.37339, 34.28333], [-95.37427, 34.28349], [-95.37291, 34.28414], [-95.37223, 34.28455], [-95.37234, 34.28563], [-95.37269, 34.28721], [-95.3719, 34.28882], [-95.37153, 34.28931], [-95.37097, 34.29019], [-95.37142, 34.29191], [-95.37176, 34.29395], [-95.37243, 34.29573], [-95.37197, 34.29653]]]}, "properties": {"poly_IncidentName": "Tram Trail", "poly_GISAcres": 625.9345811737693, "poly_DateCurrent": 1789480355728}}, {"type": "Feature", "geometry": {"type": "MultiPolygon", "coordinates": [[[[-94.15983, 29.67518], [-94.15979, 29.67552], [-94.15865, 29.67529], [-94.15829, 29.67521], [-94.15792, 29.67519], [-94.15754, 29.67522], [-94.15717, 29.67532], [-94.15682, 29.67546], [-94.15649, 29.67562], [-94.15617, 29.67582], [-94.15586, 29.67601], [-94.15556, 29.67622], [-94.15527, 29.67643], [-94.15498, 29.67664], [-94.15468, 29.67682], [-94.15436, 29.67696], [-94.15403, 29.67705], [-94.15369, 29.67708], [-94.15336, 29.67705], [-94.15307, 29.67695], [-94.15283, 29.67678], [-94.15265, 29.67656], [-94.15252, 29.67632], [-94.15241, 29.67607], [-94.15229, 29.67581], [-94.15217, 29.67554], [-94.15204, 29.67526], [-94.1519, 29.67498], [-94.15176, 29.67468], [-94.15161, 29.67439], [-94.15147, 29.67408], [-94.15132, 29.67378], [-94.15117, 29.67347], [-94.15101, 29.67316], [-94.15085, 29.67285], [-94.15069, 29.67253], [-94.15053, 29.67221], [-94.15036, 29.67188], [-94.15019, 29.67155], [-94.15002, 29.67122], [-94.14986, 29.67089], [-94.14969, 29.67055], [-94.14952, 29.67021], [-94.14935, 29.66988], [-94.14919, 29.66954], [-94.14902, 29.6692], [-94.14884, 29.66888], [-94.14865, 29.66856], [-94.14845, 29.66825], [-94.14824, 29.66794], [-94.14803, 29.66764], [-94.14784, 29.66733], [-94.14766, 29.66702], [-94.1475, 29.66671], [-94.14736, 29.66639], [-94.14722, 29.66607], [-94.14709, 29.66575], [-94.14694, 29.66543], [-94.14677, 29.66513], [-94.14658, 29.66483], [-94.14638, 29.66454], [-94.14617, 29.66425], [-94.14598, 29.66395], [-94.1458, 29.66365], [-94.14564, 29.66334], [-94.14549, 29.66303], [-94.14534, 29.66272], [-94.14519, 29.66241], [-94.14504, 29.6621], [-94.14489, 29.66179], [-94.14474, 29.66148], [-94.14461, 29.66116], [-94.14449, 29.66084], [-94.14438, 29.66051], [-94.14427, 29.66019], [-94.14416, 29.65987], [-94.14403, 29.65955], [-94.14389, 29.65924], [-94.14374, 29.65893], [-94.14359, 29.65863], [-94.14344, 29.65832], [-94.14329, 29.65801], [-94.14314, 29.65771], [-94.14298, 29.65741], [-94.14282, 29.6571], [-94.14266, 29.6568], [-94.14251, 29.6565], [-94.14235, 29.65619], [-94.14219, 29.65589], [-94.14204, 29.65558], [-94.14188, 29.65527], [-94.14172, 29.65497], [-94.14156, 29.65466], [-94.1414, 29.65436], [-94.14124, 29.65406], [-94.14108, 29.65375], [-94.14092, 29.65345], [-94.14076, 29.65315], [-94.1406, 29.65285], [-94.14045, 29.65255], [-94.14029, 29.65225], [-94.14014, 29.65196], [-94.13999, 29.65166], [-94.13984, 29.65136], [-94.13969, 29.65107], [-94.13954, 29.65077], [-94.13939, 29.65048], [-94.13925, 29.6502], [-94.13911, 29.64993], [-94.13897, 29.64966], [-94.13884, 29.6494], [-94.13871, 29.64915], [-94.13859, 29.64892], [-94.13849, 29.64869], [-94.13843, 29.64847], [-94.13843, 29.64824], [-94.13851, 29.64803], [-94.13865, 29.64784], [-94.13885, 29.64769], [-94.13909, 29.64756], [-94.13934, 29.64744], [-94.13961, 29.64733], [-94.13989, 29.64724], [-94.14018, 29.64715], [-94.14047, 29.64706], [-94.14075, 29.64696], [-94.14104, 29.64685], [-94.14132, 29.64675], [-94.14161, 29.64664], [-94.1419, 29.64653], [-94.14219, 29.64643], [-94.14247, 29.64632], [-94.14276, 29.64621], [-94.14304, 29.64611], [-94.14334, 29.64603], [-94.14363, 29.646], [-94.14393, 29.64604], [-94.14422, 29.64614], [-94.14449, 29.64628], [-94.14475, 29.64643], [-94.14501, 29.64656], [-94.14531, 29.64665], [-94.1456, 29.6467], [-94.14591, 29.6467], [-94.14621, 29.64668], [-94.14651, 29.64662], [-94.14681, 29.64655], [-94.14711, 29.64648], [-94.14743, 29.64642], [-94.14775, 29.64636], [-94.14808, 29.6463], [-94.14842, 29.64624], [-94.14876, 29.64617], [-94.14911, 29.6461], [-94.14946, 29.64603], [-94.14981, 29.64595], [-94.15016, 29.64586], [-94.15051, 29.64576], [-94.15086, 29.64566], [-94.15121, 29.64555], [-94.15155, 29.64543], [-94.1519, 29.6453], [-94.15223, 29.64517], [-94.15257, 29.64502], [-94.15289, 29.64487], [-94.15322, 29.6447], [-94.15354, 29.64454], [-94.15386, 29.64438], [-94.15421, 29.64423], [-94.15457, 29.64412], [-94.15494, 29.64404], [-94.15533, 29.64401], [-94.15572, 29.64399], [-94.1561, 29.64396], [-94.15646, 29.64389], [-94.1568, 29.64377], [-94.15712, 29.64361], [-94.15738, 29.64341], [-94.15759, 29.64317], [-94.15776, 29.64291], [-94.15789, 29.64263], [-94.15802, 29.64235], [-94.15817, 29.64207], [-94.15832, 29.64179], [-94.15849, 29.64153], [-94.15868, 29.64127], [-94.1589, 29.64102], [-94.15914, 29.64078], [-94.1594, 29.64056], [-94.15967, 29.64035], [-94.15997, 29.64016], [-94.16028, 29.63999], [-94.16061, 29.63986], [-94.16097, 29.63977], [-94.16134, 29.63974], [-94.16172, 29.63977], [-94.16208, 29.63985], [-94.16244, 29.63994], [-94.1628, 29.64003], [-94.16317, 29.64011], [-94.16353, 29.64018], [-94.1639, 29.64023], [-94.16427, 29.64025], [-94.16464, 29.64024], [-94.16501, 29.64019], [-94.16536, 29.64012], [-94.16571, 29.64002], [-94.16604, 29.63989], [-94.16636, 29.63973], [-94.16666, 29.63956], [-94.16693, 29.63936], [-94.16719, 29.63914], [-94.16743, 29.6389], [-94.16765, 29.63866], [-94.16788, 29.63841], [-94.16811, 29.63817], [-94.16836, 29.63793], [-94.16864, 29.63771], [-94.16893, 29.63751], [-94.16924, 29.63732], [-94.16957, 29.63716], [-94.1699, 29.637], [-94.17024, 29.63685], [-94.17058, 29.6367], [-94.17093, 29.63655], [-94.17128, 29.63641], [-94.17163, 29.63627], [-94.17199, 29.63613], [-94.17235, 29.63598], [-94.1727, 29.63584], [-94.17307, 29.63569], [-94.17343, 29.63554], [-94.17379, 29.63538], [-94.17415, 29.63523], [-94.17451, 29.63507], [-94.1749, 29.63491], [-94.17527, 29.63473], [-94.17563, 29.63456], [-94.176, 29.63438], [-94.17637, 29.63421], [-94.17675, 29.63403], [-94.17713, 29.63386], [-94.17752, 29.63369], [-94.1779, 29.63352], [-94.1783, 29.63335], [-94.17869, 29.63319], [-94.17909, 29.63303], [-94.17949, 29.63287], [-94.17988, 29.6327], [-94.18028, 29.63253], [-94.18068, 29.63236], [-94.18107, 29.63219], [-94.18146, 29.63201], [-94.18185, 29.63183], [-94.18222, 29.63164], [-94.1826, 29.63144], [-94.18297, 29.63124], [-94.18334, 29.63104], [-94.18372, 29.63085], [-94.1841, 29.63066], [-94.1845, 29.63048], [-94.18489, 29.63031], [-94.1853, 29.63015], [-94.1857, 29.63], [-94.18611, 29.62984], [-94.18653, 29.6297], [-94.18693, 29.62955], [-94.18734, 29.6294], [-94.18775, 29.62925], [-94.18815, 29.6291], [-94.18855, 29.62895], [-94.18896, 29.6288], [-94.18937, 29.62867], [-94.18979, 29.62854], [-94.19021, 29.62843], [-94.19064, 29.62833], [-94.19107, 29.62823], [-94.19149, 29.62814], [-94.19192, 29.62803], [-94.19233, 29.6279], [-94.19272, 29.62775], [-94.1931, 29.62758], [-94.19346, 29.62741], [-94.19382, 29.62722], [-94.19417, 29.62703], [-94.19453, 29.62684], [-94.19488, 29.62666], [-94.19525, 29.62649], [-94.19563, 29.62633], [-94.19603, 29.62622], [-94.19644, 29.62613], [-94.19685, 29.62607], [-94.19726, 29.62604], [-94.19768, 29.62602], [-94.1981, 29.62602], [-94.19852, 29.62602], [-94.19894, 29.62599], [-94.19934, 29.62593], [-94.19973, 29.62582], [-94.20009, 29.62568], [-94.20041, 29.6255], [-94.2007, 29.62528], [-94.20095, 29.62503], [-94.2012, 29.62477], [-94.20145, 29.62452], [-94.20172, 29.62428], [-94.20202, 29.62406], [-94.20235, 29.62387], [-94.2027, 29.6237], [-94.20304, 29.62354], [-94.20338, 29.62337], [-94.20372, 29.62319], [-94.20404, 29.623], [-94.20436, 29.6228], [-94.20467, 29.62259], [-94.20498, 29.62238], [-94.20529, 29.62217], [-94.20561, 29.62197], [-94.20593, 29.62177], [-94.20628, 29.62159], [-94.20663, 29.62143], [-94.207, 29.62129], [-94.20739, 29.62117], [-94.20779, 29.62109], [-94.2082, 29.62102], [-94.20862, 29.62097], [-94.20903, 29.62093], [-94.20944, 29.62087], [-94.20985, 29.62079], [-94.21024, 29.62069], [-94.21063, 29.62057], [-94.211, 29.62042], [-94.21136, 29.62027], [-94.21171, 29.62011], [-94.21206, 29.61994], [-94.21242, 29.61978], [-94.21277, 29.61963], [-94.21314, 29.61948], [-94.21351, 29.61935], [-94.21389, 29.61922], [-94.21428, 29.6191], [-94.21467, 29.61897], [-94.21506, 29.61884], [-94.21544, 29.61871], [-94.21583, 29.61857], [-94.2162, 29.61843], [-94.21658, 29.61828], [-94.21695, 29.61812], [-94.21732, 29.61797], [-94.21769, 29.61781], [-94.21805, 29.61764], [-94.21842, 29.61748], [-94.21878, 29.61731], [-94.21915, 29.61715], [-94.21952, 29.61699], [-94.21989, 29.61684], [-94.22026, 29.61668], [-94.22063, 29.61653], [-94.221, 29.61637], [-94.22137, 29.6162], [-94.22173, 29.61603], [-94.22209, 29.61586], [-94.22245, 29.61569], [-94.22281, 29.61551], [-94.22316, 29.61533], [-94.22352, 29.61514], [-94.22387, 29.61495], [-94.22422, 29.61477], [-94.22458, 29.61458], [-94.22494, 29.61441], [-94.22531, 29.61423], [-94.22569, 29.61407], [-94.22607, 29.61392], [-94.22645, 29.61377], [-94.22684, 29.61362], [-94.22723, 29.61347], [-94.22762, 29.61332], [-94.22801, 29.61317], [-94.2284, 29.61303], [-94.22878, 29.61288], [-94.22917, 29.61273], [-94.22955, 29.61258], [-94.22994, 29.61243], [-94.23032, 29.61228], [-94.2307, 29.61213], [-94.23109, 29.61198], [-94.23147, 29.61183], [-94.23186, 29.61168], [-94.23224, 29.61153], [-94.23262, 29.61138], [-94.233, 29.61124], [-94.23339, 29.61109], [-94.23377, 29.61094], [-94.23415, 29.61079], [-94.23453, 29.61065], [-94.23491, 29.6105], [-94.23529, 29.61035], [-94.23566, 29.6102], [-94.23604, 29.61006], [-94.23641, 29.60991], [-94.23678, 29.60976], [-94.23716, 29.60961], [-94.23754, 29.60946], [-94.23791, 29.60932], [-94.2383, 29.60917], [-94.23868, 29.60903], [-94.23906, 29.60889], [-94.23945, 29.60874], [-94.23983, 29.6086], [-94.24021, 29.60845], [-94.2406, 29.60831], [-94.24098, 29.60816], [-94.24136, 29.60802], [-94.24174, 29.60787], [-94.24212, 29.60772], [-94.2425, 29.60758], [-94.24287, 29.60743], [-94.24325, 29.60729], [-94.24363, 29.60714], [-94.244, 29.60699], [-94.24438, 29.60684], [-94.24476, 29.6067], [-94.24514, 29.60655], [-94.24552, 29.60641], [-94.24589, 29.60626], [-94.24627, 29.60611], [-94.24664, 29.60596], [-94.247, 29.60582], [-94.24736, 29.60567], [-94.24772, 29.60553], [-94.24807, 29.60539], [-94.24842, 29.60525], [-94.24877, 29.60512], [-94.24913, 29.60498], [-94.24948, 29.60485], [-94.24984, 29.60471], [-94.2502, 29.60458], [-94.25056, 29.60444], [-94.25093, 29.6043], [-94.2513, 29.60416], [-94.25167, 29.60403], [-94.25204, 29.6039], [-94.25242, 29.60377], [-94.2528, 29.60364], [-94.25317, 29.60351], [-94.25355, 29.60338], [-94.25393, 29.60325], [-94.25432, 29.60313], [-94.25471, 29.60303], [-94.25511, 29.60293], [-94.25551, 29.60286], [-94.25592, 29.60282], [-94.25633, 29.60285], [-94.25672, 29.60293], [-94.25708, 29.60308], [-94.25738, 29.60328], [-94.25761, 29.60354], [-94.25778, 29.60383], [-94.25787, 29.60414], [-94.25792, 29.60446], [-94.2579, 29.60479], [-94.25781, 29.6051], [-94.2577, 29.60542], [-94.25756, 29.60572], [-94.25738, 29.606], [-94.25717, 29.60628], [-94.25695, 29.60656], [-94.25674, 29.60684], [-94.25652, 29.60712], [-94.2563, 29.6074], [-94.25607, 29.60768], [-94.25584, 29.60796], [-94.2556, 29.60825], [-94.25536, 29.60854], [-94.25514, 29.60884], [-94.25494, 29.60916], [-94.25479, 29.60949], [-94.25469, 29.60984], [-94.25467, 29.61019], [-94.25473, 29.61052], [-94.25488, 29.61083], [-94.25511, 29.61108], [-94.25541, 29.61126], [-94.25573, 29.61136], [-94.25608, 29.61138], [-94.25641, 29.61132], [-94.25672, 29.6112], [-94.257, 29.61103], [-94.25725, 29.61083], [-94.2575, 29.61061], [-94.25773, 29.61039], [-94.25797, 29.61016], [-94.2582, 29.60993], [-94.25844, 29.60969], [-94.25868, 29.60946], [-94.25893, 29.60922], [-94.25918, 29.60898], [-94.25946, 29.60875], [-94.25977, 29.60855], [-94.26012, 29.60839], [-94.2605, 29.60828], [-94.2609, 29.60821], [-94.26131, 29.60817], [-94.26173, 29.60816], [-94.26215, 29.60815], [-94.26258, 29.60814], [-94.26301, 29.60813], [-94.26344, 29.60812], [-94.26387, 29.6081], [-94.2643, 29.60807], [-94.26472, 29.60801], [-94.26512, 29.60791], [-94.26556, 29.60786], [-94.26755, 29.60873], [-94.26807, 29.6097], [-94.26856, 29.61081], [-94.26875, 29.61199], [-94.26855, 29.61275], [-94.26812, 29.61344], [-94.26723, 29.61431], [-94.26646, 29.61527], [-94.26582, 29.61635], [-94.26525, 29.61749], [-94.26479, 29.61867], [-94.26463, 29.61993], [-94.26468, 29.6212], [-94.26476, 29.62248], [-94.26475, 29.62377], [-94.2647, 29.62504], [-94.26485, 29.62632], [-94.26552, 29.62742], [-94.2666, 29.6282], [-94.26771, 29.62897], [-94.2686, 29.62994], [-94.26904, 29.63113], [-94.26906, 29.63363], [-94.26925, 29.63489], [-94.2697, 29.6361], [-94.27045, 29.63722], [-94.27146, 29.63813], [-94.27261, 29.63891], [-94.27384, 29.63955], [-94.27516, 29.6398], [-94.27541, 29.63986], [-94.2768, 29.6392], [-94.2781, 29.63846], [-94.27904, 29.63743], [-94.27953, 29.63625], [-94.27978, 29.63502], [-94.28013, 29.63382], [-94.28046, 29.63262], [-94.28058, 29.63142], [-94.2805, 29.63023], [-94.28032, 29.62904], [-94.28018, 29.62826], [-94.28009, 29.6275], [-94.28012, 29.62675], [-94.2804, 29.62608], [-94.28095, 29.62558], [-94.28165, 29.62527], [-94.28244, 29.62511], [-94.28328, 29.62505], [-94.28413, 29.62501], [-94.28497, 29.62488], [-94.28574, 29.62462], [-94.28646, 29.62427], [-94.28716, 29.62387], [-94.28826, 29.62332], [-94.28945, 29.62286], [-94.29071, 29.6225], [-94.29195, 29.62212], [-94.2932, 29.62179], [-94.29449, 29.6219], [-94.29562, 29.62255], [-94.2967, 29.62332], [-94.29786, 29.62402], [-94.29905, 29.62467], [-94.30009, 29.62549], [-94.30084, 29.62646], [-94.30145, 29.62741], [-94.30225, 29.62818], [-94.30364, 29.63009], [-94.30373, 29.63044], [-94.30384, 29.6308], [-94.30395, 29.63115], [-94.30402, 29.63151], [-94.30403, 29.63188], [-94.30399, 29.63224], [-94.30387, 29.63259], [-94.30369, 29.63291], [-94.30345, 29.6332], [-94.30316, 29.63346], [-94.30284, 29.63367], [-94.30249, 29.63386], [-94.30213, 29.63401], [-94.30176, 29.63415], [-94.30138, 29.63428], [-94.301, 29.63442], [-94.30024, 29.63472], [-94.29985, 29.63488], [-94.29947, 29.63504], [-94.29908, 29.63522], [-94.29869, 29.63539], [-94.2983, 29.63556], [-94.29793, 29.63572], [-94.29756, 29.63589], [-94.29719, 29.63605], [-94.29681, 29.63621], [-94.29643, 29.63637], [-94.29605, 29.63653], [-94.29566, 29.6367], [-94.29527, 29.63687], [-94.29488, 29.63704], [-94.29448, 29.63722], [-94.29409, 29.6374], [-94.2937, 29.63758], [-94.29331, 29.63777], [-94.29292, 29.63796], [-94.29252, 29.63815], [-94.29213, 29.63833], [-94.29173, 29.63851], [-94.29133, 29.63869], [-94.29093, 29.63887], [-94.29053, 29.63905], [-94.29013, 29.63922], [-94.28972, 29.6394], [-94.28932, 29.63958], [-94.28891, 29.63976], [-94.28849, 29.63993], [-94.28808, 29.64011], [-94.28767, 29.64029], [-94.28725, 29.64047], [-94.28684, 29.64065], [-94.28642, 29.64083], [-94.28601, 29.64101], [-94.2856, 29.64119], [-94.28518, 29.64137], [-94.28476, 29.64155], [-94.28435, 29.64174], [-94.28393, 29.64192], [-94.28352, 29.64211], [-94.28311, 29.64229], [-94.28269, 29.64248], [-94.28228, 29.64267], [-94.28187, 29.64286], [-94.28147, 29.64306], [-94.28106, 29.64326], [-94.28065, 29.64345], [-94.28023, 29.64365], [-94.27982, 29.64385], [-94.2794, 29.64405], [-94.27897, 29.64425], [-94.27855, 29.64445], [-94.27813, 29.64465], [-94.27771, 29.64485], [-94.27729, 29.64505], [-94.27687, 29.64526], [-94.27645, 29.64547], [-94.27604, 29.64567], [-94.27563, 29.64588], [-94.27523, 29.64608], [-94.27484, 29.64626], [-94.27445, 29.64644], [-94.27408, 29.6466], [-94.27371, 29.64672], [-94.27333, 29.64679], [-94.27298, 29.64677], [-94.27267, 29.64665], [-94.27245, 29.64647], [-94.27233, 29.64623], [-94.27232, 29.64597], [-94.27239, 29.64572], [-94.27253, 29.64548], [-94.27274, 29.64527], [-94.27296, 29.64507], [-94.27319, 29.64486], [-94.27341, 29.64464], [-94.27361, 29.6444], [-94.27378, 29.64415], [-94.27391, 29.64388], [-94.27398, 29.64359], [-94.27399, 29.6433], [-94.27394, 29.64302], [-94.27382, 29.64275], [-94.27365, 29.64249], [-94.27342, 29.64227], [-94.27314, 29.64211], [-94.27281, 29.642], [-94.27246, 29.64197], [-94.2721, 29.642], [-94.27174, 29.64208], [-94.27139, 29.6422], [-94.27103, 29.64233], [-94.27067, 29.64247], [-94.2703, 29.6426], [-94.26993, 29.64275], [-94.26955, 29.64289], [-94.26916, 29.64304], [-94.26877, 29.64319], [-94.26838, 29.64333], [-94.26798, 29.64348], [-94.26757, 29.64362], [-94.26714, 29.64374], [-94.26671, 29.64384], [-94.26626, 29.6439], [-94.26582, 29.64394], [-94.26537, 29.64397], [-94.26493, 29.64399], [-94.26448, 29.64402], [-94.26403, 29.64405], [-94.26358, 29.64408], [-94.26313, 29.64412], [-94.26267, 29.64417], [-94.26221, 29.64422], [-94.26176, 29.64429], [-94.2613, 29.64435], [-94.26085, 29.64443], [-94.2604, 29.64453], [-94.25996, 29.64465], [-94.25952, 29.64481], [-94.2591, 29.64499], [-94.25869, 29.64519], [-94.25829, 29.64543], [-94.25792, 29.64569], [-94.25757, 29.64596], [-94.25723, 29.64626], [-94.25692, 29.64657], [-94.25662, 29.64689], [-94.25635, 29.64723], [-94.2561, 29.64758], [-94.25586, 29.64794], [-94.25563, 29.64832], [-94.25542, 29.64869], [-94.25521, 29.64908], [-94.25501, 29.64946], [-94.25482, 29.64985], [-94.25464, 29.65024], [-94.25446, 29.65064], [-94.25428, 29.65103], [-94.25408, 29.65142], [-94.25387, 29.65179], [-94.25364, 29.65216], [-94.25338, 29.6525], [-94.25309, 29.65282], [-94.25277, 29.65312], [-94.25242, 29.65337], [-94.25204, 29.6536], [-94.25165, 29.65379], [-94.25124, 29.65395], [-94.25083, 29.65408], [-94.25042, 29.65419], [-94.25, 29.6543], [-94.24959, 29.6544], [-94.24917, 29.6545], [-94.24875, 29.6546], [-94.24833, 29.6547], [-94.24791, 29.65481], [-94.24749, 29.65492], [-94.24706, 29.65503], [-94.24662, 29.65515], [-94.24619, 29.65528], [-94.24576, 29.65542], [-94.24533, 29.65556], [-94.2449, 29.6557], [-94.24447, 29.65585], [-94.24404, 29.65601], [-94.24362, 29.65617], [-94.2432, 29.65634], [-94.24278, 29.65654], [-94.24239, 29.65676], [-94.242, 29.657], [-94.24164, 29.65727], [-94.24129, 29.65756], [-94.24097, 29.65788], [-94.24067, 29.65821], [-94.24038, 29.65856], [-94.2401, 29.6589], [-94.2398, 29.65923], [-94.23949, 29.65955], [-94.23917, 29.65986], [-94.23882, 29.66014], [-94.23846, 29.66041], [-94.23808, 29.66065], [-94.2377, 29.66088], [-94.23731, 29.66111], [-94.23693, 29.66134], [-94.23655, 29.66157], [-94.23617, 29.66181], [-94.23579, 29.66204], [-94.23542, 29.66228], [-94.23505, 29.66252], [-94.23467, 29.66275], [-94.23429, 29.66299], [-94.23392, 29.66323], [-94.23354, 29.66347], [-94.23316, 29.66372], [-94.23279, 29.66397], [-94.23242, 29.66421], [-94.23204, 29.66446], [-94.23167, 29.66472], [-94.23129, 29.66497], [-94.23091, 29.66522], [-94.23052, 29.66546], [-94.23013, 29.6657], [-94.22973, 29.66592], [-94.22933, 29.66614], [-94.22893, 29.66635], [-94.22852, 29.66655], [-94.2281, 29.66674], [-94.22769, 29.66693], [-94.22727, 29.66711], [-94.22686, 29.6673], [-94.22644, 29.66748], [-94.22603, 29.66767], [-94.22562, 29.66785], [-94.22521, 29.66804], [-94.22481, 29.66823], [-94.2244, 29.66843], [-94.224, 29.66863], [-94.2236, 29.66884], [-94.22319, 29.66904], [-94.22278, 29.66923], [-94.22236, 29.66943], [-94.22195, 29.66963], [-94.22155, 29.66983], [-94.22116, 29.67005], [-94.22077, 29.67028], [-94.22039, 29.67051], [-94.22001, 29.67074], [-94.21961, 29.67096], [-94.21921, 29.67117], [-94.2188, 29.67137], [-94.21839, 29.67155], [-94.21797, 29.67173], [-94.21755, 29.6719], [-94.21713, 29.67208], [-94.21671, 29.67225], [-94.2163, 29.67243], [-94.21589, 29.67261], [-94.21549, 29.67279], [-94.21509, 29.67297], [-94.21468, 29.67315], [-94.21428, 29.67333], [-94.21387, 29.67351], [-94.21347, 29.67369], [-94.21306, 29.67387], [-94.21264, 29.67405], [-94.21222, 29.67423], [-94.2118, 29.6744], [-94.21138, 29.67457], [-94.21095, 29.67474], [-94.21053, 29.67491], [-94.21011, 29.67508], [-94.20969, 29.67525], [-94.20927, 29.67542], [-94.20885, 29.67559], [-94.20843, 29.67577], [-94.20801, 29.67594], [-94.2076, 29.67612], [-94.20719, 29.6763], [-94.20678, 29.67649], [-94.20638, 29.67669], [-94.20597, 29.67689], [-94.20557, 29.67709], [-94.20517, 29.6773], [-94.20477, 29.67751], [-94.20437, 29.67771], [-94.20396, 29.67791], [-94.20355, 29.6781], [-94.20314, 29.67829], [-94.20273, 29.67848], [-94.20232, 29.67866], [-94.20191, 29.67885], [-94.2015, 29.67904], [-94.20109, 29.67924], [-94.20069, 29.67945], [-94.20029, 29.67965], [-94.19989, 29.67986], [-94.19948, 29.68006], [-94.19907, 29.68025], [-94.19865, 29.68043], [-94.19822, 29.68061], [-94.1978, 29.68079], [-94.19739, 29.68097], [-94.19697, 29.68115], [-94.19656, 29.68134], [-94.19614, 29.68152], [-94.18989, 29.68411], [-94.18951, 29.68253], [-94.18939, 29.68216], [-94.18918, 29.68123], [-94.18896, 29.6805], [-94.18866, 29.68058], [-94.18814, 29.68076], [-94.18742, 29.68097], [-94.18685, 29.68114], [-94.18632, 29.68128], [-94.18591, 29.68141], [-94.18546, 29.68152], [-94.18498, 29.68165], [-94.18439, 29.68185], [-94.18468, 29.68298], [-94.18499, 29.684], [-94.18477, 29.68437], [-94.18391, 29.68419], [-94.18368, 29.68396], [-94.18343, 29.68445], [-94.1831, 29.68484], [-94.1824, 29.68479], [-94.18223, 29.68449], [-94.18205, 29.68426], [-94.18196, 29.68378], [-94.18164, 29.68387], [-94.18138, 29.68356], [-94.18088, 29.68352], [-94.18067, 29.6833], [-94.1801, 29.68305], [-94.17919, 29.68279], [-94.17916, 29.68208], [-94.17926, 29.6816], [-94.17913, 29.68103], [-94.17988, 29.68033], [-94.18031, 29.68017], [-94.18051, 29.67969], [-94.18098, 29.67829], [-94.18147, 29.67766], [-94.18248, 29.67779], [-94.1834, 29.67705], [-94.18305, 29.67596], [-94.18122, 29.67539], [-94.18077, 29.67509], [-94.18041, 29.67491], [-94.17725, 29.67434], [-94.17689, 29.6742], [-94.17655, 29.67403], [-94.17623, 29.67382], [-94.17596, 29.67357], [-94.17572, 29.6733], [-94.17555, 29.673], [-94.1754, 29.67269], [-94.17529, 29.67237], [-94.17518, 29.67205], [-94.17508, 29.67172], [-94.17499, 29.6714], [-94.17489, 29.67107], [-94.1748, 29.67074], [-94.17472, 29.67041], [-94.17462, 29.67007], [-94.17451, 29.66974], [-94.17438, 29.66941], [-94.17421, 29.6691], [-94.17399, 29.66881], [-94.17373, 29.66856], [-94.17342, 29.66834], [-94.17308, 29.66818], [-94.1727, 29.66808], [-94.1723, 29.66805], [-94.17189, 29.66807], [-94.17147, 29.66814], [-94.17105, 29.66826], [-94.17063, 29.6684], [-94.17021, 29.66854], [-94.16979, 29.66869], [-94.16936, 29.66884], [-94.16892, 29.66899], [-94.16848, 29.66914], [-94.16804, 29.66929], [-94.16759, 29.66942], [-94.16713, 29.66954], [-94.16667, 29.66965], [-94.16621, 29.66975], [-94.16574, 29.66983], [-94.16528, 29.66991], [-94.16482, 29.66999], [-94.16436, 29.67007], [-94.16391, 29.67017], [-94.16346, 29.67028], [-94.16301, 29.6704], [-94.16256, 29.67054], [-94.16213, 29.6707], [-94.1617, 29.67089], [-94.16129, 29.6711], [-94.1609, 29.67134], [-94.16054, 29.67161], [-94.16021, 29.67192], [-94.15992, 29.67226], [-94.15969, 29.67264], [-94.1595, 29.67303], [-94.15937, 29.67344], [-94.15928, 29.67387], [-94.15922, 29.6743], [-94.15924, 29.67466], [-94.15975, 29.67481], [-94.15983, 29.67518]]], [[[-94.15843, 29.68943], [-94.1583, 29.68938], [-94.15804, 29.68901], [-94.15793, 29.68868], [-94.15776, 29.68829], [-94.15804, 29.68805], [-94.1582, 29.68777], [-94.15829, 29.68746], [-94.15846, 29.68718], [-94.15858, 29.68687], [-94.15873, 29.68662], [-94.15891, 29.68635], [-94.159, 29.68604], [-94.15905, 29.68573], [-94.15906, 29.68542], [-94.15903, 29.68511], [-94.15894, 29.68481], [-94.15882, 29.68452], [-94.15868, 29.68424], [-94.15852, 29.68397], [-94.15835, 29.68371], [-94.15819, 29.68345], [-94.15804, 29.68318], [-94.15792, 29.6829], [-94.15784, 29.68261], [-94.15779, 29.68231], [-94.15778, 29.682], [-94.15782, 29.68169], [-94.15789, 29.68138], [-94.15797, 29.68107], [-94.15809, 29.68077], [-94.15822, 29.68047], [-94.15838, 29.68017], [-94.15857, 29.67989], [-94.15878, 29.67961], [-94.159, 29.67934], [-94.15923, 29.67908], [-94.15944, 29.6788], [-94.1599, 29.67875], [-94.16301, 29.67835], [-94.16279, 29.67693], [-94.16262, 29.67657], [-94.16271, 29.67595], [-94.16291, 29.67575], [-94.16338, 29.67581], [-94.16378, 29.67579], [-94.16442, 29.67615], [-94.16482, 29.67625], [-94.16524, 29.67644], [-94.16557, 29.67628], [-94.16598, 29.6758], [-94.16675, 29.67556], [-94.16774, 29.67595], [-94.16854, 29.67692], [-94.16881, 29.67785], [-94.16763, 29.67923], [-94.16676, 29.67942], [-94.16684, 29.68005], [-94.16663, 29.68043], [-94.1668, 29.68087], [-94.16825, 29.68068], [-94.16932, 29.68065], [-94.17054, 29.68063], [-94.17203, 29.68049], [-94.17235, 29.6802], [-94.17146, 29.6793], [-94.17167, 29.6789], [-94.17197, 29.67879], [-94.17233, 29.6787], [-94.17269, 29.67871], [-94.17308, 29.67851], [-94.17377, 29.67823], [-94.17406, 29.67785], [-94.17422, 29.67763], [-94.17453, 29.67766], [-94.1749, 29.67771], [-94.1754, 29.67775], [-94.17582, 29.67782], [-94.1763, 29.67799], [-94.17685, 29.67805], [-94.17734, 29.67801], [-94.17766, 29.67804], [-94.1781, 29.67815], [-94.17825, 29.67881], [-94.17833, 29.67911], [-94.17843, 29.67951], [-94.17858, 29.6799], [-94.17856, 29.68048], [-94.1773, 29.6824], [-94.17749, 29.68296], [-94.17798, 29.68349], [-94.17843, 29.68362], [-94.17887, 29.68377], [-94.17951, 29.68391], [-94.1797, 29.68418], [-94.18, 29.68403], [-94.18033, 29.68393], [-94.1805, 29.68417], [-94.18079, 29.68418], [-94.18106, 29.68442], [-94.18147, 29.6847], [-94.18158, 29.68495], [-94.15843, 29.68943]]]]}, "properties": {"poly_IncidentName": "Star Lake", "poly_GISAcres": 1129, "poly_DateCurrent": 1789576954354}}, {"type": "Feature", "geometry": {"type": "Polygon", "coordinates": [[[-89.46315, 32.63494], [-89.45962, 32.63488], [-89.45962, 32.63483], [-89.45962, 32.63481], [-89.45963, 32.6348], [-89.45963, 32.63471], [-89.45964, 32.63469], [-89.45964, 32.63467], [-89.45965, 32.63464], [-89.45965, 32.63455], [-89.45966, 32.63454], [-89.45966, 32.63445], [-89.45967, 32.63444], [-89.45967, 32.63442], [-89.45968, 32.63441], [-89.45968, 32.63439], [-89.45969, 32.63439], [-89.45969, 32.63435], [-89.4597, 32.63434], [-89.4597, 32.63432], [-89.4597, 32.63427], [-89.45972, 32.63425], [-89.45972, 32.63424], [-89.45974, 32.63421], [-89.45974, 32.63419], [-89.45975, 32.63419], [-89.45975, 32.6341], [-89.45976, 32.63408], [-89.45976, 32.63405], [-89.45977, 32.63403], [-89.45977, 32.63394], [-89.45978, 32.63393], [-89.45978, 32.63382], [-89.45979, 32.63381], [-89.45979, 32.63372], [-89.4598, 32.63369], [-89.4598, 32.63365], [-89.45981, 32.63364], [-89.45981, 32.63355], [-89.45982, 32.63354], [-89.45982, 32.63348], [-89.45983, 32.63347], [-89.45984, 32.63344], [-89.45985, 32.63342], [-89.45986, 32.63342], [-89.45986, 32.6334], [-89.45989, 32.63338], [-89.4599, 32.63337], [-89.45991, 32.63336], [-89.45992, 32.63335], [-89.45993, 32.63334], [-89.45997, 32.63332], [-89.46001, 32.63329], [-89.46003, 32.63328], [-89.46005, 32.63328], [-89.46008, 32.63326], [-89.46009, 32.63325], [-89.46013, 32.63323], [-89.46015, 32.63323], [-89.46017, 32.63322], [-89.46019, 32.63322], [-89.46025, 32.6332], [-89.46029, 32.6332], [-89.46031, 32.63319], [-89.46033, 32.63319], [-89.46039, 32.63316], [-89.46043, 32.63315], [-89.46045, 32.63315], [-89.46049, 32.63314], [-89.46064, 32.63314], [-89.46066, 32.63314], [-89.46067, 32.63315], [-89.46069, 32.63315], [-89.4607, 32.63316], [-89.46072, 32.63317], [-89.46074, 32.63317], [-89.46076, 32.63318], [-89.46078, 32.63318], [-89.4608, 32.63319], [-89.46086, 32.63319], [-89.46089, 32.63321], [-89.46091, 32.63321], [-89.46095, 32.63322], [-89.46097, 32.63322], [-89.46098, 32.63323], [-89.461, 32.63323], [-89.46101, 32.63325], [-89.46107, 32.63326], [-89.4611, 32.63328], [-89.46112, 32.63328], [-89.46115, 32.6333], [-89.46118, 32.6333], [-89.46123, 32.63331], [-89.4613, 32.63332], [-89.46132, 32.63332], [-89.46161, 32.63332], [-89.46163, 32.63333], [-89.46169, 32.63334], [-89.46171, 32.63334], [-89.46175, 32.63335], [-89.46176, 32.63336], [-89.4618, 32.63336], [-89.46182, 32.63337], [-89.46184, 32.63337], [-89.46188, 32.63337], [-89.4619, 32.63338], [-89.46197, 32.63338], [-89.46198, 32.63339], [-89.46206, 32.63339], [-89.4621, 32.6334], [-89.46212, 32.63341], [-89.46214, 32.63341], [-89.46215, 32.63342], [-89.46217, 32.63342], [-89.46222, 32.63344], [-89.46224, 32.63344], [-89.46227, 32.63347], [-89.46229, 32.63348], [-89.46233, 32.63348], [-89.46239, 32.63349], [-89.46241, 32.6335], [-89.46244, 32.63352], [-89.46245, 32.63353], [-89.46247, 32.63355], [-89.46249, 32.63358], [-89.46251, 32.63361], [-89.46257, 32.63366], [-89.46259, 32.6337], [-89.46261, 32.63372], [-89.46262, 32.63374], [-89.46265, 32.63376], [-89.46267, 32.63379], [-89.46269, 32.63382], [-89.4627, 32.63383], [-89.46271, 32.63386], [-89.46272, 32.63387], [-89.46274, 32.63389], [-89.46275, 32.63392], [-89.46278, 32.63395], [-89.4628, 32.63398], [-89.46281, 32.63401], [-89.46282, 32.63402], [-89.46282, 32.63403], [-89.46284, 32.63406], [-89.46284, 32.63409], [-89.46285, 32.63411], [-89.46287, 32.63412], [-89.4629, 32.63416], [-89.4629, 32.63418], [-89.46293, 32.6342], [-89.46295, 32.63423], [-89.46299, 32.63427], [-89.46299, 32.63429], [-89.463, 32.6343], [-89.46302, 32.63433], [-89.46303, 32.63435], [-89.46305, 32.63436], [-89.46306, 32.63439], [-89.46307, 32.6344], [-89.46309, 32.63442], [-89.46309, 32.63448], [-89.46313, 32.63453], [-89.46314, 32.63454], [-89.46316, 32.63459], [-89.46316, 32.63472], [-89.46315, 32.63473], [-89.46315, 32.63482], [-89.46315, 32.63494]]]}, "properties": {"poly_IncidentName": "Ester Mill Rd", "poly_GISAcres": 12.86652646378678, "poly_DateCurrent": 1773067580000}}, {"type": "Feature", "geometry": {"type": "Polygon", "coordinates": [[[-92.58087, 33.59099], [-92.5786, 33.59083], [-92.57638, 33.58971], [-92.57417, 33.5891], [-92.57122, 33.58928], [-92.57133, 33.58504], [-92.57146, 33.58073], [-92.57148, 33.57882], [-92.57153, 33.57689], [-92.57243, 33.57662], [-92.57243, 33.5758], [-92.57218, 33.57477], [-92.57268, 33.57351], [-92.57398, 33.57236], [-92.57591, 33.57182], [-92.5773, 33.57186], [-92.57859, 33.57189], [-92.5793, 33.57091], [-92.58078, 33.56971], [-92.58261, 33.56989], [-92.58641, 33.57002], [-92.58846, 33.57085], [-92.60118, 33.56508], [-92.6033, 33.56425], [-92.60543, 33.56342], [-92.60725, 33.56272], [-92.60724, 33.56533], [-92.60718, 33.56667], [-92.60744, 33.5682], [-92.60883, 33.56807], [-92.6105, 33.56921], [-92.61159, 33.57032], [-92.6125, 33.57027], [-92.6135, 33.5698], [-92.61473, 33.56972], [-92.6159, 33.56975], [-92.61569, 33.57169], [-92.61514, 33.57269], [-92.61551, 33.57366], [-92.61794, 33.57375], [-92.61922, 33.57364], [-92.62376, 33.57395], [-92.62118, 33.57648], [-92.61805, 33.58005], [-92.61365, 33.58517], [-92.61182, 33.58621], [-92.61149, 33.5866], [-92.61052, 33.587], [-92.60738, 33.58911], [-92.60612, 33.58994], [-92.60596, 33.58985], [-92.60501, 33.58898], [-92.60456, 33.58885], [-92.60291, 33.58882], [-92.60278, 33.58892], [-92.60261, 33.589], [-92.60236, 33.58908], [-92.60218, 33.58899], [-92.60193, 33.589], [-92.60176, 33.5891], [-92.6015, 33.58929], [-92.60127, 33.58945], [-92.601, 33.58952], [-92.60069, 33.58945], [-92.60053, 33.58953], [-92.60045, 33.58965], [-92.60049, 33.58977], [-92.60037, 33.58991], [-92.60024, 33.58988], [-92.60003, 33.59003], [-92.60005, 33.59009], [-92.60003, 33.59014], [-92.59992, 33.5901], [-92.59986, 33.59016], [-92.59985, 33.59056], [-92.5998, 33.59082], [-92.5999, 33.59093], [-92.60009, 33.59098], [-92.6004, 33.59102], [-92.60045, 33.59117], [-92.60061, 33.59129], [-92.60062, 33.59136], [-92.60061, 33.59151], [-92.60047, 33.59158], [-92.60027, 33.59162], [-92.60012, 33.59162], [-92.59993, 33.59169], [-92.59975, 33.59168], [-92.59975, 33.59222], [-92.59974, 33.59273], [-92.59972, 33.59299], [-92.59969, 33.5933], [-92.59975, 33.59352], [-92.59993, 33.59368], [-92.59991, 33.59376], [-92.59998, 33.59402], [-92.6001, 33.59418], [-92.6001, 33.59433], [-92.60006, 33.59443], [-92.59994, 33.59446], [-92.59975, 33.59454], [-92.59962, 33.59454], [-92.59947, 33.59787], [-92.59944, 33.60139], [-92.59929, 33.60258], [-92.59737, 33.60252], [-92.5969, 33.6026], [-92.59676, 33.60293], [-92.59619, 33.60344], [-92.59536, 33.60355], [-92.59522, 33.60336], [-92.59451, 33.60361], [-92.59328, 33.60428], [-92.59258, 33.60448], [-92.59206, 33.60439], [-92.59142, 33.60415], [-92.59135, 33.60517], [-92.59128, 33.60555], [-92.59114, 33.6055], [-92.59096, 33.60524], [-92.59082, 33.60508], [-92.59069, 33.60498], [-92.59023, 33.60481], [-92.58942, 33.6047], [-92.58953, 33.60365], [-92.58932, 33.60337], [-92.58924, 33.60314], [-92.58927, 33.60289], [-92.58921, 33.60272], [-92.58905, 33.60269], [-92.58898, 33.60242], [-92.58795, 33.60232], [-92.58752, 33.60233], [-92.58747, 33.60118], [-92.58752, 33.59956], [-92.58762, 33.59732], [-92.58705, 33.59717], [-92.58635, 33.59686], [-92.58627, 33.5965], [-92.58597, 33.5964], [-92.58575, 33.59616], [-92.58506, 33.59622], [-92.58491, 33.5962], [-92.58504, 33.59591], [-92.58513, 33.59576], [-92.58497, 33.5956], [-92.58466, 33.59551], [-92.58436, 33.59537], [-92.58419, 33.59511], [-92.58573, 33.5952], [-92.58578, 33.5947], [-92.58565, 33.59448], [-92.58549, 33.59409], [-92.58553, 33.59397], [-92.58382, 33.59393], [-92.58377, 33.59354], [-92.58355, 33.59342], [-92.58336, 33.59332], [-92.58316, 33.59315], [-92.58298, 33.59283], [-92.58257, 33.59257], [-92.5823, 33.59238], [-92.58223, 33.59214], [-92.58557, 33.59215], [-92.5856, 33.59197], [-92.58493, 33.59193], [-92.58483, 33.59173], [-92.58378, 33.5917], [-92.5835, 33.5916], [-92.58309, 33.59148], [-92.58282, 33.59108], [-92.58087, 33.59099]]]}, "properties": {"poly_IncidentName": "Bunker Fire", "poly_GISAcres": 1, "poly_DateCurrent": 1789667462773}}, {"type": "Feature", "geometry": {"type": "Polygon", "coordinates": [[[-94.9391, 34.18592], [-94.93911, 34.18595], [-94.93909, 34.18598], [-94.93909, 34.18601], [-94.93909, 34.18604], [-94.93906, 34.18606], [-94.93904, 34.18608], [-94.93904, 34.18611], [-94.93902, 34.18614], [-94.93902, 34.18617], [-94.939, 34.18619], [-94.93897, 34.18621], [-94.93895, 34.18623], [-94.93893, 34.18626], [-94.93889, 34.18626], [-94.93885, 34.18625], [-94.93882, 34.18627], [-94.9388, 34.18629], [-94.93877, 34.1863], [-94.93873, 34.18628], [-94.9387, 34.1863], [-94.93867, 34.18631], [-94.93863, 34.18629], [-94.93861, 34.18627], [-94.93857, 34.18626], [-94.93855, 34.18624], [-94.93852, 34.18622], [-94.93849, 34.18625], [-94.93846, 34.18626], [-94.93842, 34.18625], [-94.9384, 34.18623], [-94.9384, 34.1862], [-94.93844, 34.18618], [-94.93845, 34.18615], [-94.93845, 34.18612], [-94.93847, 34.1861], [-94.93847, 34.18607], [-94.93848, 34.18603], [-94.93852, 34.18602], [-94.93855, 34.186], [-94.93859, 34.18601], [-94.93863, 34.18602], [-94.93866, 34.18604], [-94.93869, 34.18604], [-94.93871, 34.18606], [-94.93875, 34.18606], [-94.93878, 34.18605], [-94.93879, 34.18602], [-94.93879, 34.18598], [-94.93882, 34.18597], [-94.93883, 34.18594], [-94.9388, 34.18592], [-94.93883, 34.18589], [-94.93886, 34.18587], [-94.93885, 34.18584], [-94.93888, 34.18583], [-94.93891, 34.18581], [-94.93895, 34.18581], [-94.93899, 34.1858], [-94.93903, 34.1858], [-94.93905, 34.18582], [-94.93903, 34.18585], [-94.93903, 34.18588], [-94.93903, 34.18591], [-94.93906, 34.18593], [-94.93909, 34.18592], [-94.9391, 34.18592]]]}, "properties": {"poly_IncidentName": "Wolf Hollow", "poly_GISAcres": 0.5, "poly_DateCurrent": 1789316702005}}]}