{"type": "FeatureCollection", "crs": {"type": "name", "properties": {"name": "EPSG:4326"}}, "features": [{"type": "Feature", "geometry": {"type": "Polygon", "coordinates": [[[-80.98643, 31.87514], [-80.9846, 31.87586], [-80.98386, 31.87629], [-80.98287, 31.87724], [-80.98269, 31.87779], [-80.98172, 31.87724], [-80.97972, 31.87863], [-80.97993, 31.88], [-80.97889, 31.8814], [-80.97761, 31.88176], [-80.97689, 31.88069], [-80.97368, 31.88276], [-80.97427, 31.88341], [-80.97361, 31.88458], [-80.97259, 31.88359], [-80.97215, 31.88387], [-80.96884, 31.88489], [-80.96708, 31.88219], [-80.97388, 31.87633], [-80.98611, 31.86444], [-80.9888, 31.86181], [-80.99077, 31.85988], [-80.9917, 31.85895], [-80.99354, 31.85812], [-80.99412, 31.85762], [-80.99511, 31.85752], [-80.99901, 31.85805], [-81.00084, 31.85852], [-81.00173, 31.85889], [-81.00258, 31.85948], [-81.00303, 31.86024], [-81.00313, 31.86119], [-81.00277, 31.86158], [-81.00091, 31.86342], [-80.99966, 31.86494], [-80.99696, 31.86942], [-80.99652, 31.87188], [-80.99521, 31.87111], [-80.99235, 31.87264], [-80.98942, 31.87482], [-80.98907, 31.87584], [-80.98828, 31.8756], [-80.98643, 31.87514]]]}, "properties": {"poly_IncidentName": "Main Trail", "poly_GISAcres": 200, "poly_DateCurrent": 1787500121208}}, {"type": "Feature", "geometry": {"type": "Polygon", "coordinates": [[[-90.16468, 46.04668], [-90.16458, 46.04656], [-90.16458, 46.04643], [-90.16454, 46.04634], [-90.16456, 46.04629], [-90.16467, 46.04625], [-90.16491, 46.04619], [-90.16515, 46.04629], [-90.16526, 46.04631], [-90.16533, 46.04626], [-90.16551, 46.04631], [-90.1657, 46.04632], [-90.16579, 46.04619], [-90.16591, 46.04619], [-90.16607, 46.04616], [-90.16609, 46.0461], [-90.16607, 46.04608], [-90.16595, 46.04599], [-90.16586, 46.0459], [-90.166, 46.04587], [-90.16605, 46.04586], [-90.16603, 46.04582], [-90.16609, 46.04582], [-90.16634, 46.04589], [-90.16642, 46.04585], [-90.16648, 46.04602], [-90.16659, 46.04604], [-90.16668, 46.04595], [-90.16675, 46.04603], [-90.16677, 46.04616], [-90.16688, 46.04618], [-90.16697, 46.0462], [-90.16702, 46.04627], [-90.16705, 46.04639], [-90.16711, 46.04646], [-90.16683, 46.04652], [-90.16657, 46.04641], [-90.16659, 46.04653], [-90.16646, 46.04647], [-90.16628, 46.04643], [-90.16619, 46.04646], [-90.16616, 46.04654], [-90.16614, 46.04665], [-90.16607, 46.04681], [-90.16605, 46.04691], [-90.16599, 46.04706], [-90.16599, 46.04717], [-90.16603, 46.04729], [-90.16613, 46.04738], [-90.1662, 46.04744], [-90.16618, 46.0475], [-90.16618, 46.04763], [-90.16611, 46.04773], [-90.16586, 46.04781], [-90.16566, 46.04786], [-90.16547, 46.04791], [-90.1654, 46.04796], [-90.16539, 46.0481], [-90.16544, 46.04818], [-90.16539, 46.04824], [-90.16514, 46.0483], [-90.16505, 46.04825], [-90.16497, 46.04823], [-90.1648, 46.04826], [-90.16471, 46.04826], [-90.16455, 46.04828], [-90.16443, 46.04827], [-90.1644, 46.04819], [-90.16441, 46.0481], [-90.16452, 46.04805], [-90.16442, 46.04795], [-90.16439, 46.04782], [-90.16436, 46.04771], [-90.16429, 46.04759], [-90.16437, 46.04746], [-90.16436, 46.04735], [-90.1644, 46.04728], [-90.16437, 46.04722], [-90.16426, 46.04714], [-90.16419, 46.04704], [-90.16406, 46.04702], [-90.16398, 46.04702], [-90.16385, 46.04701], [-90.16387, 46.04698], [-90.16401, 46.0469], [-90.16415, 46.04686], [-90.16417, 46.04679], [-90.16436, 46.04674], [-90.16456, 46.04679], [-90.16468, 46.04668]]]}, "properties": {"poly_IncidentName": "Flowage", "poly_GISAcres": 7.73, "poly_DateCurrent": 1788972050000}}, {"type": "Feature", "geometry": {"type": "Polygon", "coordinates": [[[-91.17383, 45.72505], [-91.17384, 45.72511], [-91.17382, 45.72525], [-91.17382, 45.72529], [-91.17382, 45.72532], [-91.17373, 45.72532], [-91.17372, 45.72518], [-91.17371, 45.72513], [-91.1737, 45.72505], [-91.1737, 45.72501], [-91.17378, 45.72499], [-91.17379, 45.725], [-91.17383, 45.72503], [-91.17383, 45.72505]]]}, "properties": {"poly_IncidentName": "Hoffman", "poly_GISAcres": 0.08, "poly_DateCurrent": 1788444852000}}, {"type": "Feature", "geometry": {"type": "Polygon", "coordinates": [[[-90.25463, 45.38831], [-90.25464, 45.38832], [-90.25466, 45.38834], [-90.25468, 45.38837], [-90.2546, 45.38837], [-90.25454, 45.38837], [-90.25454, 45.38837], [-90.25453, 45.38838], [-90.2545, 45.38838], [-90.25444, 45.38839], [-90.25445, 45.38833], [-90.25446, 45.38833], [-90.25451, 45.38831], [-90.25454, 45.38829], [-90.25459, 45.38831], [-90.25463, 45.38831]]]}, "properties": {"poly_IncidentName": "Hultman 2", "poly_GISAcres": 0.03, "poly_DateCurrent": 1788269995000}}, {"type": "Feature", "geometry": {"type": "Polygon", "coordinates": [[[-88.08921, 45.74944], [-88.08921, 45.74947], [-88.08923, 45.74971], [-88.089, 45.74984], [-88.08895, 45.74992], [-88.08881, 45.74992], [-88.08877, 45.74992], [-88.08862, 45.74993], [-88.08851, 45.74993], [-88.0885, 45.74993], [-88.08839, 45.74995], [-88.08839, 45.74995], [-88.08833, 45.74996], [-88.08785, 45.74998], [-88.08772, 45.74997], [-88.08774, 45.74984], [-88.08795, 45.74972], [-88.08806, 45.74966], [-88.08806, 45.74956], [-88.08805, 45.74926], [-88.0884, 45.74917], [-88.08847, 45.74917], [-88.0886, 45.74915], [-88.08864, 45.74913], [-88.08871, 45.74909], [-88.08888, 45.74905], [-88.08899, 45.74913], [-88.08903, 45.74916], [-88.08906, 45.74919], [-88.08919, 45.7493], [-88.08921, 45.74944]]]}, "properties": {"poly_IncidentName": "Tractor", "poly_GISAcres": 1.99, "poly_DateCurrent": 1789044107000}}, {"type": "Feature", "geometry": {"type": "Polygon", "coordinates": [[[-89.47133, 44.19192], [-89.47144, 44.19193], [-89.47144, 44.19194], [-89.47151, 44.19197], [-89.47159, 44.19193], [-89.47164, 44.19198], [-89.47162, 44.192], [-89.47155, 44.19201], [-89.47163, 44.19202], [-89.47176, 44.19205], [-89.47177, 44.19207], [-89.47172, 44.19208], [-89.47167, 44.19207], [-89.47158, 44.19207], [-89.47154, 44.19208], [-89.47146, 44.19207], [-89.47133, 44.19207], [-89.47129, 44.19207], [-89.47121, 44.19207], [-89.47115, 44.19209], [-89.47113, 44.1921], [-89.47108, 44.1921], [-89.47107, 44.19211], [-89.471, 44.19213], [-89.47101, 44.19209], [-89.471, 44.19203], [-89.471, 44.19203], [-89.47111, 44.19196], [-89.47099, 44.19199], [-89.47097, 44.19199], [-89.47096, 44.19199], [-89.47095, 44.19197], [-89.47092, 44.19194], [-89.4709, 44.1919], [-89.4709, 44.1919], [-89.47094, 44.19184], [-89.47093, 44.19179], [-89.47089, 44.19177], [-89.47085, 44.19176], [-89.47085, 44.19173], [-89.47087, 44.19172], [-89.47095, 44.1917], [-89.47097, 44.19172], [-89.471, 44.19168], [-89.471, 44.19167], [-89.47104, 44.19164], [-89.47103, 44.19159], [-89.47105, 44.19154], [-89.47106, 44.19153], [-89.4711, 44.19152], [-89.47113, 44.19154], [-89.47116, 44.19159], [-89.47114, 44.19162], [-89.47114, 44.19163], [-89.47112, 44.19167], [-89.47109, 44.19171], [-89.4711, 44.19174], [-89.47114, 44.19178], [-89.47121, 44.19179], [-89.47119, 44.19183], [-89.47117, 44.19184], [-89.47118, 44.19185], [-89.47121, 44.19187], [-89.47125, 44.19189], [-89.47129, 44.1919], [-89.47133, 44.19192]]]}, "properties": {"poly_IncidentName": "8th Ave", "poly_GISAcres": 0.39, "poly_DateCurrent": 1787081835000}}, {"type": "Feature", "geometry": {"type": "Polygon", "coordinates": [[[-89.58023, 43.53319], [-89.5802, 43.53317], [-89.58016, 43.53316], [-89.58012, 43.53316], [-89.58009, 43.53313], [-89.58013, 43.53314], [-89.58017, 43.53316], [-89.58021, 43.53317], [-89.58023, 43.53319]]]}, "properties": {"poly_IncidentName": "Ghost", "poly_GISAcres": 0.01, "poly_DateCurrent": 1788970640000}}, {"type": "Feature", "geometry": {"type": "Polygon", "coordinates": [[[-91.50638, 45.38765], [-91.5064, 45.38764], [-91.5064, 45.38767], [-91.50643, 45.3877], [-91.50647, 45.38771], [-91.50651, 45.38773], [-91.50652, 45.38776], [-91.50653, 45.38779], [-91.50654, 45.38782], [-91.50654, 45.38785], [-91.50654, 45.38788], [-91.50655, 45.38791], [-91.50656, 45.38794], [-91.50656, 45.38797], [-91.50657, 45.38801], [-91.50658, 45.38804], [-91.50655, 45.38806], [-91.50651, 45.38808], [-91.50648, 45.38809], [-91.50644, 45.38811], [-91.50639, 45.38811], [-91.50635, 45.38811], [-91.5063, 45.3881], [-91.50626, 45.38809], [-91.50622, 45.38808], [-91.50618, 45.38805], [-91.50618, 45.38803], [-91.50616, 45.388], [-91.50616, 45.38797], [-91.50616, 45.38794], [-91.50619, 45.3879], [-91.50621, 45.38787], [-91.50623, 45.38785], [-91.50626, 45.38782], [-91.5063, 45.3878], [-91.50632, 45.38776], [-91.50632, 45.38773], [-91.50634, 45.3877], [-91.50637, 45.38768], [-91.50638, 45.38765]]]}, "properties": {"poly_IncidentName": "Pit", "poly_GISAcres": 0.3, "poly_DateCurrent": 1788192554000}}, {"type": "Feature", "geometry": {"type": "Polygon", "coordinates": [[[-90.68656, 44.47466], [-90.68655, 44.4747], [-90.68656, 44.47473], [-90.68656, 44.47473], [-90.68656, 44.47481], [-90.68651, 44.47472], [-90.6865, 44.47469], [-90.68652, 44.47466], [-90.68651, 44.47462], [-90.68654, 44.47459], [-90.68654, 44.47455], [-90.68651, 44.47454], [-90.68647, 44.47452], [-90.6864, 44.4745], [-90.6864, 44.47445], [-90.68637, 44.47443], [-90.68637, 44.4744], [-90.68642, 44.4744], [-90.68646, 44.4744], [-90.6865, 44.47439], [-90.68652, 44.47436], [-90.68655, 44.47433], [-90.68655, 44.4743], [-90.68652, 44.47428], [-90.68655, 44.47426], [-90.68658, 44.47424], [-90.68662, 44.47421], [-90.68666, 44.47422], [-90.68671, 44.47425], [-90.68674, 44.47427], [-90.68676, 44.4743], [-90.68677, 44.47433], [-90.68681, 44.47435], [-90.68684, 44.47437], [-90.68687, 44.47439], [-90.68691, 44.47441], [-90.68694, 44.47443], [-90.68698, 44.47445], [-90.68702, 44.47447], [-90.68705, 44.4745], [-90.68709, 44.4745], [-90.68712, 44.47452], [-90.68716, 44.47452], [-90.68719, 44.47455], [-90.68722, 44.47457], [-90.68724, 44.47455], [-90.68728, 44.47455], [-90.68732, 44.47457], [-90.68735, 44.47461], [-90.68732, 44.47464], [-90.6873, 44.47467], [-90.68734, 44.47469], [-90.68737, 44.47472], [-90.68742, 44.47473], [-90.68744, 44.47475], [-90.68747, 44.47477], [-90.68752, 44.47478], [-90.68754, 44.4748], [-90.68757, 44.47482], [-90.68762, 44.47479], [-90.68764, 44.47476], [-90.68767, 44.47475], [-90.68772, 44.47474], [-90.68775, 44.47476], [-90.68781, 44.47477], [-90.68784, 44.47473], [-90.68788, 44.47474], [-90.68792, 44.47472], [-90.68794, 44.47469], [-90.68798, 44.47468], [-90.688, 44.47465], [-90.68804, 44.47465], [-90.68809, 44.47465], [-90.68812, 44.47463], [-90.68816, 44.47461], [-90.68819, 44.47459], [-90.68821, 44.47456], [-90.68824, 44.47454], [-90.68825, 44.4745], [-90.68827, 44.47447], [-90.68825, 44.47445], [-90.68823, 44.47442], [-90.6882, 44.4744], [-90.68815, 44.47441], [-90.68811, 44.47439], [-90.68807, 44.47439], [-90.68803, 44.47439], [-90.68803, 44.47436], [-90.68799, 44.47436], [-90.68794, 44.47436], [-90.6879, 44.47435], [-90.68786, 44.47432], [-90.68782, 44.47429], [-90.68778, 44.47431], [-90.68776, 44.47434], [-90.68772, 44.47434], [-90.68768, 44.47434], [-90.68766, 44.47431], [-90.68765, 44.47428], [-90.68767, 44.47426], [-90.68765, 44.47423], [-90.68761, 44.47422], [-90.6876, 44.47419], [-90.68759, 44.47416], [-90.68761, 44.47413], [-90.68759, 44.47409], [-90.68755, 44.47407], [-90.68752, 44.47405], [-90.68745, 44.47403], [-90.6874, 44.47402], [-90.68737, 44.47401], [-90.68733, 44.47398], [-90.68735, 44.47395], [-90.68735, 44.47393], [-90.68732, 44.47391], [-90.68727, 44.4739], [-90.68729, 44.47387], [-90.68731, 44.47385], [-90.68729, 44.47381], [-90.68733, 44.47379], [-90.68734, 44.47377], [-90.68735, 44.47373], [-90.68738, 44.47371], [-90.6874, 44.47369], [-90.68741, 44.47365], [-90.68744, 44.47363], [-90.68745, 44.47359], [-90.68747, 44.47357], [-90.68748, 44.47353], [-90.68744, 44.47353], [-90.68741, 44.4735], [-90.68738, 44.47348], [-90.68741, 44.47346], [-90.6874, 44.47343], [-90.6874, 44.4734], [-90.68737, 44.47338], [-90.6874, 44.47335], [-90.68745, 44.47336], [-90.68747, 44.47333], [-90.68751, 44.47335], [-90.68753, 44.47338], [-90.68754, 44.47342], [-90.68755, 44.47345], [-90.6876, 44.47346], [-90.68765, 44.47346], [-90.6877, 44.47345], [-90.68774, 44.47344], [-90.68778, 44.47341], [-90.68783, 44.4734], [-90.68785, 44.47337], [-90.68787, 44.47334], [-90.68791, 44.47331], [-90.68794, 44.47329], [-90.68799, 44.4733], [-90.68804, 44.47331], [-90.68804, 44.47335], [-90.68805, 44.47338], [-90.68806, 44.47341], [-90.68807, 44.47344], [-90.68808, 44.47347], [-90.68807, 44.4735], [-90.68808, 44.47352], [-90.6881, 44.47356], [-90.68811, 44.47359], [-90.68814, 44.47361], [-90.68817, 44.47363], [-90.6882, 44.47365], [-90.68824, 44.47368], [-90.68826, 44.4737], [-90.68822, 44.47372], [-90.68823, 44.47376], [-90.68828, 44.47373], [-90.68831, 44.47374], [-90.68834, 44.47377], [-90.68833, 44.4738], [-90.6883, 44.47382], [-90.68832, 44.47385], [-90.68835, 44.47388], [-90.6883, 44.4739], [-90.68826, 44.47393], [-90.68823, 44.47395], [-90.68823, 44.47399], [-90.68824, 44.47402], [-90.68828, 44.47401], [-90.68833, 44.47401], [-90.68831, 44.47405], [-90.6883, 44.47408], [-90.68825, 44.47405], [-90.68821, 44.47406], [-90.68818, 44.47408], [-90.68814, 44.4741], [-90.6881, 44.47411], [-90.68809, 44.47414], [-90.68811, 44.47417], [-90.68812, 44.47421], [-90.68817, 44.4742], [-90.68821, 44.47421], [-90.68826, 44.4742], [-90.68828, 44.47423], [-90.68832, 44.47422], [-90.68835, 44.47425], [-90.68839, 44.47426], [-90.68843, 44.47425], [-90.68849, 44.47425], [-90.68853, 44.47425], [-90.68857, 44.47422], [-90.68858, 44.47419], [-90.68861, 44.47415], [-90.68865, 44.47414], [-90.6887, 44.47413], [-90.68873, 44.4741], [-90.68877, 44.47408], [-90.68881, 44.47407], [-90.68886, 44.4741], [-90.68887, 44.47413], [-90.68891, 44.47414], [-90.68894, 44.47416], [-90.68896, 44.47419], [-90.68899, 44.47421], [-90.68903, 44.47422], [-90.68905, 44.47425], [-90.68907, 44.47428], [-90.68908, 44.47431], [-90.68909, 44.47434], [-90.68912, 44.47437], [-90.68915, 44.4744], [-90.68916, 44.47443], [-90.68914, 44.47446], [-90.68912, 44.47449], [-90.68908, 44.47451], [-90.68903, 44.47451], [-90.689, 44.47452], [-90.68897, 44.47455], [-90.68895, 44.47457], [-90.68896, 44.47461], [-90.68898, 44.47463], [-90.68902, 44.47466], [-90.68902, 44.47469], [-90.689, 44.47472], [-90.68898, 44.47474], [-90.68894, 44.47475], [-90.68889, 44.47476], [-90.68886, 44.47478], [-90.68883, 44.4748], [-90.68879, 44.47481], [-90.68875, 44.47484], [-90.68873, 44.47486], [-90.68872, 44.47489], [-90.68872, 44.47492], [-90.6887, 44.47495], [-90.68868, 44.47497], [-90.68865, 44.475], [-90.68863, 44.47503], [-90.6886, 44.47506], [-90.68856, 44.47507], [-90.6885, 44.47505], [-90.68846, 44.47504], [-90.68847, 44.47508], [-90.68845, 44.47511], [-90.68843, 44.47514], [-90.68838, 44.47513], [-90.68836, 44.47516], [-90.68832, 44.47518], [-90.68828, 44.47519], [-90.68824, 44.4752], [-90.68819, 44.47521], [-90.68814, 44.47523], [-90.6881, 44.47523], [-90.68806, 44.47523], [-90.68802, 44.47525], [-90.68797, 44.47526], [-90.68792, 44.47526], [-90.68789, 44.47524], [-90.68785, 44.47526], [-90.6878, 44.47527], [-90.68778, 44.47525], [-90.68774, 44.47523], [-90.68769, 44.47523], [-90.68764, 44.47524], [-90.68759, 44.47525], [-90.68755, 44.47525], [-90.6875, 44.47524], [-90.68746, 44.47525], [-90.68742, 44.47525], [-90.68737, 44.47524], [-90.68733, 44.47523], [-90.68728, 44.47524], [-90.68723, 44.47524], [-90.6872, 44.47523], [-90.68715, 44.47523], [-90.68711, 44.47522], [-90.6871, 44.47525], [-90.68706, 44.47526], [-90.68703, 44.47524], [-90.68698, 44.47523], [-90.68693, 44.47523], [-90.68687, 44.47522], [-90.68684, 44.4752], [-90.68681, 44.47518], [-90.68678, 44.47515], [-90.68676, 44.47513], [-90.68672, 44.47514], [-90.68669, 44.47516], [-90.68664, 44.47516], [-90.68659, 44.47515], [-90.68654, 44.47514], [-90.6865, 44.47514], [-90.68649, 44.47511], [-90.68648, 44.47508], [-90.68648, 44.47505], [-90.68644, 44.47502], [-90.68643, 44.47498], [-90.68644, 44.47494], [-90.68647, 44.4749], [-90.68652, 44.47487], [-90.68656, 44.47487], [-90.68659, 44.4749], [-90.68662, 44.47492], [-90.68665, 44.47494], [-90.68669, 44.47494], [-90.68674, 44.47495], [-90.68676, 44.47498], [-90.6868, 44.47498], [-90.68684, 44.47499], [-90.68687, 44.47501], [-90.6869, 44.47499], [-90.68693, 44.47496], [-90.68697, 44.47496], [-90.68701, 44.47493], [-90.68697, 44.47491], [-90.687, 44.47489], [-90.68704, 44.47487], [-90.68706, 44.47484], [-90.68706, 44.4748], [-90.68703, 44.47479], [-90.687, 44.47476], [-90.68695, 44.47473], [-90.68692, 44.47471], [-90.68687, 44.47472], [-90.68682, 44.47475], [-90.68676, 44.47472], [-90.68673, 44.4747], [-90.68672, 44.47466], [-90.68672, 44.47463], [-90.68668, 44.47461], [-90.68663, 44.47461], [-90.68661, 44.47464], [-90.6866, 44.47467], [-90.6866, 44.47471], [-90.6866, 44.47473], [-90.68656, 44.47473], [-90.68656, 44.47466]]]}, "properties": {"poly_IncidentName": "Marsh Runner", "poly_GISAcres": 5.24, "poly_DateCurrent": 1787596712000}}, {"type": "Feature", "geometry": {"type": "Polygon", "coordinates": [[[-89.85279, 45.89137], [-89.85275, 45.89136], [-89.85271, 45.89137], [-89.85268, 45.8914], [-89.85266, 45.89142], [-89.85262, 45.89145], [-89.85257, 45.89145], [-89.85258, 45.89142], [-89.8526, 45.89139], [-89.85263, 45.89137], [-89.85263, 45.89133], [-89.85265, 45.89131], [-89.85263, 45.89128], [-89.85265, 45.89124], [-89.85269, 45.89122], [-89.85272, 45.8912], [-89.85276, 45.89118], [-89.8528, 45.89116], [-89.85282, 45.89113], [-89.85284, 45.89111], [-89.85287, 45.89109], [-89.85292, 45.89109], [-89.85296, 45.89107], [-89.85301, 45.89108], [-89.85306, 45.89108], [-89.8531, 45.89109], [-89.85314, 45.89109], [-89.85318, 45.89109], [-89.85323, 45.89111], [-89.85329, 45.8911], [-89.85333, 45.89111], [-89.85329, 45.89114], [-89.85329, 45.89117], [-89.85334, 45.89119], [-89.85334, 45.89122], [-89.85336, 45.89125], [-89.85336, 45.89129], [-89.85331, 45.8913], [-89.85326, 45.89131], [-89.85322, 45.89132], [-89.85319, 45.89136], [-89.85314, 45.89138], [-89.85314, 45.89142], [-89.85316, 45.89146], [-89.85315, 45.89149], [-89.85314, 45.89152], [-89.85312, 45.89154], [-89.8531, 45.89157], [-89.85306, 45.89158], [-89.85302, 45.89157], [-89.85298, 45.89156], [-89.85296, 45.89153], [-89.85294, 45.89149], [-89.85292, 45.89146], [-89.85289, 45.89143], [-89.85286, 45.89141], [-89.85284, 45.89137], [-89.85279, 45.89137]]]}, "properties": {"poly_IncidentName": "Sunday Lake", "poly_GISAcres": 0.5, "poly_DateCurrent": 1786997495000}}, {"type": "Feature", "geometry": {"type": "Polygon", "coordinates": [[[-90.18755, 46.10046], [-90.18748, 46.10047], [-90.18754, 46.10045], [-90.1876, 46.10045], [-90.18763, 46.10047], [-90.18765, 46.10049], [-90.18769, 46.10051], [-90.1877, 46.10054], [-90.18766, 46.10054], [-90.18764, 46.10051], [-90.1876, 46.10051], [-90.18756, 46.10049], [-90.18755, 46.10046]]]}, "properties": {"poly_IncidentName": "Turtle", "poly_GISAcres": 0.01, "poly_DateCurrent": 1786980521000}}, {"type": "Feature", "geometry": {"type": "Polygon", "coordinates": [[[-90.25415, 45.38834], [-90.25415, 45.38835], [-90.25415, 45.38836], [-90.25416, 45.3884], [-90.25405, 45.3884], [-90.25395, 45.38841], [-90.25383, 45.38841], [-90.25381, 45.38841], [-90.25377, 45.38841], [-90.25373, 45.38838], [-90.25374, 45.38831], [-90.25375, 45.38831], [-90.2538, 45.38829], [-90.25384, 45.38828], [-90.25395, 45.38828], [-90.25398, 45.38828], [-90.25413, 45.38828], [-90.25413, 45.38829], [-90.25413, 45.3883], [-90.25415, 45.38834]]]}, "properties": {"poly_IncidentName": "Hultman", "poly_GISAcres": 0.11, "poly_DateCurrent": 1788269949000}}, {"type": "Feature", "geometry": {"type": "Polygon", "coordinates": [[[-87.96284, 45.44242], [-87.96285, 45.44242], [-87.96283, 45.44238], [-87.9628, 45.44237], [-87.96279, 45.44237], [-87.96282, 45.44235], [-87.96285, 45.44235], [-87.96287, 45.44234], [-87.96286, 45.44231], [-87.96286, 45.4423], [-87.9629, 45.44229], [-87.96294, 45.44229], [-87.96295, 45.44232], [-87.96296, 45.44235], [-87.96297, 45.44235], [-87.96298, 45.44237], [-87.96298, 45.44238], [-87.96301, 45.44239], [-87.96304, 45.44239], [-87.96305, 45.44239], [-87.96305, 45.44238], [-87.96308, 45.44237], [-87.96309, 45.44237], [-87.96309, 45.44236], [-87.96312, 45.44239], [-87.96312, 45.44243], [-87.96315, 45.44245], [-87.96316, 45.44248], [-87.96317, 45.44252], [-87.96319, 45.44255], [-87.96321, 45.4426], [-87.9632, 45.44262], [-87.96321, 45.44266], [-87.96321, 45.44269], [-87.96321, 45.44273], [-87.96322, 45.44277], [-87.96325, 45.44275], [-87.96326, 45.44272], [-87.96328, 45.4427], [-87.96329, 45.44268], [-87.96332, 45.44269], [-87.96335, 45.44271], [-87.96339, 45.44272], [-87.96344, 45.44272], [-87.96348, 45.44272], [-87.96352, 45.44272], [-87.96355, 45.44272], [-87.9636, 45.44273], [-87.96365, 45.44271], [-87.96368, 45.4427], [-87.96374, 45.44271], [-87.96375, 45.44274], [-87.96375, 45.44276], [-87.96376, 45.44279], [-87.96377, 45.44282], [-87.96378, 45.44285], [-87.96379, 45.44288], [-87.96381, 45.4429], [-87.96382, 45.44293], [-87.96381, 45.44296], [-87.96381, 45.44299], [-87.96383, 45.44303], [-87.9638, 45.44305], [-87.96376, 45.44308], [-87.96377, 45.4431], [-87.96378, 45.44311], [-87.96383, 45.44314], [-87.96384, 45.44314], [-87.96388, 45.44313], [-87.9639, 45.44313], [-87.96392, 45.44312], [-87.96393, 45.44311], [-87.96395, 45.44308], [-87.96394, 45.44307], [-87.96399, 45.44307], [-87.96397, 45.44309], [-87.96393, 45.44317], [-87.96389, 45.44317], [-87.96384, 45.44317], [-87.96381, 45.44317], [-87.96378, 45.44317], [-87.96372, 45.44318], [-87.96367, 45.44318], [-87.96367, 45.44322], [-87.9637, 45.44324], [-87.96373, 45.44326], [-87.96374, 45.4433], [-87.96374, 45.44333], [-87.96373, 45.44335], [-87.96376, 45.44338], [-87.96379, 45.44341], [-87.9638, 45.44342], [-87.96382, 45.44344], [-87.96382, 45.44347], [-87.96383, 45.44347], [-87.96384, 45.44349], [-87.96388, 45.4435], [-87.96392, 45.44352], [-87.96396, 45.44355], [-87.96398, 45.44359], [-87.96399, 45.44363], [-87.96398, 45.44366], [-87.96396, 45.44369], [-87.96394, 45.44372], [-87.96391, 45.44375], [-87.96386, 45.44378], [-87.96383, 45.4438], [-87.96382, 45.44381], [-87.96381, 45.44381], [-87.96371, 45.44387], [-87.96362, 45.44385], [-87.96361, 45.44386], [-87.9636, 45.44389], [-87.96357, 45.44392], [-87.96355, 45.44394], [-87.9635, 45.44396], [-87.96348, 45.44397], [-87.96346, 45.44398], [-87.96341, 45.44398], [-87.96339, 45.44396], [-87.96336, 45.44396], [-87.96329, 45.44395], [-87.96329, 45.44394], [-87.96328, 45.44393], [-87.96328, 45.44392], [-87.96328, 45.44392], [-87.96327, 45.4439], [-87.96326, 45.44389], [-87.96323, 45.44387], [-87.96318, 45.44386], [-87.96314, 45.44389], [-87.9631, 45.44389], [-87.96306, 45.4439], [-87.96303, 45.44388], [-87.963, 45.4439], [-87.96296, 45.44389], [-87.96295, 45.44386], [-87.96297, 45.44383], [-87.963, 45.4438], [-87.963, 45.44377], [-87.96301, 45.44373], [-87.96297, 45.44371], [-87.96295, 45.44368], [-87.96297, 45.44365], [-87.96299, 45.44363], [-87.96298, 45.44361], [-87.96297, 45.4436], [-87.96297, 45.44357], [-87.96297, 45.44357], [-87.96297, 45.44357], [-87.96298, 45.44357], [-87.96298, 45.44356], [-87.96298, 45.44356], [-87.96301, 45.44355], [-87.96301, 45.44353], [-87.96301, 45.44351], [-87.96303, 45.44347], [-87.96304, 45.44345], [-87.96303, 45.44342], [-87.96302, 45.44339], [-87.96302, 45.44336], [-87.96298, 45.44334], [-87.96294, 45.44332], [-87.96289, 45.4433], [-87.96285, 45.44328], [-87.96281, 45.44326], [-87.96275, 45.44324], [-87.96271, 45.44325], [-87.96266, 45.44327], [-87.96261, 45.44327], [-87.96256, 45.44325], [-87.96251, 45.44324], [-87.96248, 45.44322], [-87.96247, 45.44319], [-87.96249, 45.44315], [-87.9625, 45.44311], [-87.96248, 45.44308], [-87.96245, 45.44307], [-87.9624, 45.44305], [-87.96239, 45.44301], [-87.96238, 45.44297], [-87.96236, 45.44294], [-87.96233, 45.44293], [-87.96232, 45.44295], [-87.96229, 45.44298], [-87.96225, 45.443], [-87.96221, 45.443], [-87.96218, 45.44301], [-87.96213, 45.443], [-87.96208, 45.44301], [-87.96203, 45.44301], [-87.96205, 45.44304], [-87.96207, 45.44307], [-87.96204, 45.44309], [-87.962, 45.44307], [-87.96196, 45.44305], [-87.96191, 45.44304], [-87.96188, 45.44306], [-87.96184, 45.44307], [-87.9618, 45.44307], [-87.96176, 45.4431], [-87.96175, 45.44307], [-87.96175, 45.44304], [-87.96173, 45.44301], [-87.96174, 45.44298], [-87.96178, 45.44296], [-87.96182, 45.44296], [-87.96187, 45.44295], [-87.96193, 45.44293], [-87.96195, 45.44291], [-87.96196, 45.44288], [-87.96194, 45.44285], [-87.96196, 45.44283], [-87.96201, 45.44281], [-87.96203, 45.44278], [-87.96206, 45.44275], [-87.96209, 45.44274], [-87.96214, 45.44272], [-87.96215, 45.44275], [-87.96216, 45.44278], [-87.96217, 45.44281], [-87.96218, 45.44284], [-87.96221, 45.44286], [-87.96225, 45.44286], [-87.96229, 45.44285], [-87.96231, 45.44282], [-87.96233, 45.44279], [-87.96232, 45.44276], [-87.96228, 45.44273], [-87.96224, 45.44269], [-87.96228, 45.44268], [-87.96232, 45.4427], [-87.96236, 45.44273], [-87.96238, 45.44275], [-87.96241, 45.44277], [-87.96245, 45.44279], [-87.96249, 45.4428], [-87.96253, 45.44281], [-87.96257, 45.44283], [-87.96262, 45.44283], [-87.96266, 45.44283], [-87.96269, 45.4428], [-87.96268, 45.44276], [-87.96272, 45.44276], [-87.96276, 45.44276], [-87.96279, 45.44278], [-87.96282, 45.4428], [-87.96283, 45.44278], [-87.96284, 45.44275], [-87.96286, 45.44272], [-87.96286, 45.44269], [-87.96285, 45.44266], [-87.96289, 45.44265], [-87.96292, 45.44262], [-87.96296, 45.44265], [-87.96299, 45.44269], [-87.96303, 45.44271], [-87.96307, 45.44272], [-87.9631, 45.44274], [-87.96313, 45.44271], [-87.96315, 45.44268], [-87.96313, 45.44265], [-87.96311, 45.44262], [-87.9631, 45.44259], [-87.96313, 45.44257], [-87.96315, 45.44254], [-87.96314, 45.44251], [-87.96312, 45.44249], [-87.96307, 45.44241], [-87.96306, 45.44241], [-87.96306, 45.44241], [-87.96304, 45.44241], [-87.96304, 45.44241], [-87.96302, 45.44242], [-87.96298, 45.44241], [-87.96297, 45.44244], [-87.96293, 45.44246], [-87.96293, 45.4425], [-87.96291, 45.44253], [-87.96285, 45.44253], [-87.96281, 45.44252], [-87.96276, 45.44252], [-87.96271, 45.4425], [-87.9627, 45.44247], [-87.96271, 45.44244], [-87.96275, 45.44245], [-87.96279, 45.44245], [-87.9628, 45.44245], [-87.96285, 45.44246], [-87.96284, 45.44242]]]}, "properties": {"poly_IncidentName": "Quartz", "poly_GISAcres": 3.13, "poly_DateCurrent": 1789047653000}}]}