{"type": "FeatureCollection", "crs": {"type": "name", "properties": {"name": "EPSG:4326"}}, "features": [{"type": "Feature", "geometry": {"type": "Polygon", "coordinates": [[[-82.38602, 30.32402], [-82.38601, 30.32404], [-82.38601, 30.32406], [-82.386, 30.32405], [-82.38599, 30.32405], [-82.38596, 30.32402], [-82.38594, 30.32401], [-82.38591, 30.32397], [-82.38589, 30.32395], [-82.38587, 30.32392], [-82.38585, 30.3239], [-82.38583, 30.32388], [-82.38581, 30.32385], [-82.38577, 30.32381], [-82.38574, 30.32379], [-82.38571, 30.32377], [-82.38569, 30.32375], [-82.38566, 30.32373], [-82.38563, 30.32371], [-82.3856, 30.3237], [-82.38557, 30.32368], [-82.38554, 30.32366], [-82.38551, 30.32363], [-82.38549, 30.32361], [-82.38545, 30.3236], [-82.38542, 30.32362], [-82.38539, 30.32363], [-82.38535, 30.32365], [-82.3853, 30.32365], [-82.38527, 30.32362], [-82.38522, 30.32358], [-82.3852, 30.32356], [-82.38517, 30.32353], [-82.38515, 30.32351], [-82.38512, 30.32349], [-82.3851, 30.32347], [-82.38506, 30.32343], [-82.38501, 30.3234], [-82.38498, 30.32338], [-82.38495, 30.32336], [-82.38492, 30.32334], [-82.38487, 30.32331], [-82.38485, 30.32329], [-82.38483, 30.32327], [-82.3848, 30.32325], [-82.38478, 30.32323], [-82.38476, 30.32321], [-82.38474, 30.32318], [-82.38472, 30.32316], [-82.38469, 30.32312], [-82.38466, 30.32308], [-82.38463, 30.32304], [-82.38461, 30.32302], [-82.38465, 30.32299], [-82.38469, 30.32299], [-82.38472, 30.32298], [-82.38473, 30.32295], [-82.38474, 30.32291], [-82.38474, 30.32287], [-82.38477, 30.32282], [-82.3848, 30.32278], [-82.38485, 30.32276], [-82.3849, 30.32275], [-82.38495, 30.32274], [-82.38499, 30.32274], [-82.38503, 30.32271], [-82.38507, 30.32267], [-82.38509, 30.32263], [-82.3851, 30.3226], [-82.38511, 30.32257], [-82.3851, 30.32255], [-82.38508, 30.32252], [-82.38504, 30.32249], [-82.38498, 30.32248], [-82.38493, 30.32247], [-82.38488, 30.32246], [-82.38483, 30.32245], [-82.38478, 30.32245], [-82.38473, 30.32245], [-82.38468, 30.32245], [-82.38462, 30.32245], [-82.38456, 30.32246], [-82.38451, 30.32247], [-82.38446, 30.32249], [-82.3844, 30.3225], [-82.38436, 30.32251], [-82.38432, 30.32251], [-82.38429, 30.32251], [-82.38426, 30.32251], [-82.3842, 30.3225], [-82.38415, 30.3225], [-82.38411, 30.3225], [-82.38407, 30.32249], [-82.38404, 30.32247], [-82.38399, 30.32244], [-82.38394, 30.32242], [-82.38388, 30.3224], [-82.38385, 30.32238], [-82.38382, 30.32237], [-82.38379, 30.32236], [-82.38376, 30.32234], [-82.38374, 30.32232], [-82.38353, 30.3221], [-82.38348, 30.32206], [-82.38345, 30.32205], [-82.38341, 30.32202], [-82.3834, 30.32197], [-82.38339, 30.32192], [-82.38338, 30.3219], [-82.38337, 30.32184], [-82.38336, 30.32182], [-82.38335, 30.32179], [-82.38332, 30.32175], [-82.38329, 30.32172], [-82.38325, 30.32168], [-82.38323, 30.32166], [-82.38321, 30.32161], [-82.38321, 30.32155], [-82.3832, 30.32152], [-82.38318, 30.32147], [-82.38316, 30.32144], [-82.38315, 30.32142], [-82.38313, 30.32139], [-82.38312, 30.32136], [-82.38311, 30.32133], [-82.38311, 30.32129], [-82.38311, 30.32123], [-82.38311, 30.3212], [-82.38311, 30.32116], [-82.38312, 30.32112], [-82.38312, 30.32109], [-82.38313, 30.32105], [-82.38313, 30.32102], [-82.38314, 30.32097], [-82.38316, 30.32093], [-82.38321, 30.32091], [-82.38325, 30.32089], [-82.38329, 30.32087], [-82.38331, 30.32084], [-82.38333, 30.32081], [-82.38336, 30.32078], [-82.38336, 30.32074], [-82.38335, 30.3207], [-82.38333, 30.32066], [-82.3833, 30.32063], [-82.38326, 30.3206], [-82.38324, 30.32058], [-82.38323, 30.32054], [-82.38324, 30.32049], [-82.38327, 30.32045], [-82.38329, 30.32042], [-82.38331, 30.3204], [-82.38333, 30.32037], [-82.38335, 30.32034], [-82.38336, 30.32032], [-82.38339, 30.32027], [-82.38341, 30.32024], [-82.38344, 30.32022], [-82.38347, 30.3202], [-82.38351, 30.32016], [-82.38353, 30.32014], [-82.38355, 30.32011], [-82.38356, 30.32009], [-82.38358, 30.32006], [-82.38359, 30.32003], [-82.3836, 30.32], [-82.38362, 30.31996], [-82.38364, 30.31993], [-82.38366, 30.3199], [-82.38367, 30.31987], [-82.38369, 30.31985], [-82.3837, 30.31985], [-82.38369, 30.31984], [-82.38369, 30.31984], [-82.38368, 30.31982], [-82.38386, 30.31965], [-82.38386, 30.31965], [-82.38389, 30.31962], [-82.38392, 30.31958], [-82.38394, 30.31954], [-82.38397, 30.3195], [-82.38402, 30.31948], [-82.38407, 30.31946], [-82.38411, 30.31943], [-82.38412, 30.31938], [-82.38414, 30.31934], [-82.38418, 30.31928], [-82.38419, 30.31926], [-82.38421, 30.31924], [-82.38424, 30.31921], [-82.38427, 30.3192], [-82.38429, 30.31919], [-82.38432, 30.31916], [-82.38434, 30.31914], [-82.38439, 30.31911], [-82.38442, 30.31909], [-82.38444, 30.31907], [-82.38448, 30.31906], [-82.38452, 30.31905], [-82.38456, 30.31904], [-82.38459, 30.31904], [-82.38465, 30.31902], [-82.38467, 30.31897], [-82.38468, 30.31894], [-82.38469, 30.31891], [-82.38472, 30.31887], [-82.38477, 30.31885], [-82.38481, 30.31884], [-82.38485, 30.31884], [-82.38488, 30.31884], [-82.38492, 30.31884], [-82.38497, 30.31885], [-82.38502, 30.31885], [-82.38508, 30.31884], [-82.3851, 30.31882], [-82.38512, 30.3188], [-82.38517, 30.31877], [-82.38523, 30.31876], [-82.38526, 30.31875], [-82.38532, 30.31873], [-82.38545, 30.31869], [-82.3855, 30.31868], [-82.38555, 30.31867], [-82.38559, 30.31865], [-82.38562, 30.31864], [-82.38565, 30.31862], [-82.38571, 30.31859], [-82.38574, 30.31857], [-82.38577, 30.31855], [-82.3858, 30.31853], [-82.38582, 30.31851], [-82.38585, 30.31849], [-82.3859, 30.31847], [-82.38593, 30.31849], [-82.38598, 30.31851], [-82.38603, 30.31854], [-82.38607, 30.31855], [-82.38611, 30.31857], [-82.38615, 30.3186], [-82.38618, 30.31861], [-82.38624, 30.31862], [-82.38629, 30.31861], [-82.38634, 30.31861], [-82.38638, 30.3186], [-82.38644, 30.3186], [-82.38649, 30.31861], [-82.38653, 30.31863], [-82.38658, 30.31865], [-82.38664, 30.31867], [-82.38669, 30.31869], [-82.38675, 30.3187], [-82.38679, 30.31871], [-82.38682, 30.31872], [-82.38687, 30.31874], [-82.38692, 30.31875], [-82.38698, 30.31874], [-82.38703, 30.31871], [-82.38708, 30.31869], [-82.38713, 30.31866], [-82.38719, 30.31864], [-82.38724, 30.31862], [-82.38727, 30.3186], [-82.3873, 30.31859], [-82.38736, 30.31857], [-82.38741, 30.31856], [-82.38744, 30.31854], [-82.38747, 30.31852], [-82.38752, 30.31849], [-82.38756, 30.31845], [-82.38759, 30.31842], [-82.38764, 30.31839], [-82.38767, 30.31837], [-82.38771, 30.31835], [-82.38776, 30.31835], [-82.38781, 30.31834], [-82.38787, 30.31835], [-82.38792, 30.31837], [-82.38795, 30.31838], [-82.38799, 30.31839], [-82.38803, 30.3184], [-82.38807, 30.31843], [-82.3881, 30.31843], [-82.38813, 30.31843], [-82.38816, 30.31841], [-82.38819, 30.3184], [-82.38825, 30.31838], [-82.3883, 30.31839], [-82.38835, 30.3184], [-82.38837, 30.31843], [-82.38842, 30.31844], [-82.38845, 30.31845], [-82.38848, 30.31847], [-82.38853, 30.3185], [-82.38856, 30.31853], [-82.3886, 30.31855], [-82.38865, 30.31857], [-82.3887, 30.31859], [-82.38874, 30.31862], [-82.38877, 30.31865], [-82.3888, 30.3187], [-82.38881, 30.31873], [-82.38883, 30.31877], [-82.38886, 30.31881], [-82.3889, 30.31883], [-82.38894, 30.31883], [-82.38898, 30.31883], [-82.38901, 30.31886], [-82.38902, 30.31889], [-82.38905, 30.31892], [-82.38908, 30.31893], [-82.38911, 30.31891], [-82.38913, 30.31901], [-82.38914, 30.31903], [-82.38914, 30.31906], [-82.38916, 30.31909], [-82.38918, 30.31912], [-82.38919, 30.31916], [-82.38919, 30.31919], [-82.38918, 30.31923], [-82.38918, 30.31926], [-82.38918, 30.31929], [-82.38918, 30.31933], [-82.38919, 30.31937], [-82.38919, 30.3194], [-82.38921, 30.31944], [-82.38922, 30.31947], [-82.38924, 30.3195], [-82.38927, 30.31953], [-82.38929, 30.31955], [-82.38931, 30.31958], [-82.38933, 30.3196], [-82.38935, 30.31964], [-82.38936, 30.31968], [-82.38934, 30.3197], [-82.38931, 30.31973], [-82.38929, 30.31976], [-82.38927, 30.31979], [-82.38925, 30.31982], [-82.38925, 30.31986], [-82.38924, 30.3199], [-82.38922, 30.31993], [-82.38917, 30.31994], [-82.38912, 30.31998], [-82.38907, 30.32001], [-82.38904, 30.32003], [-82.38901, 30.32004], [-82.38898, 30.32006], [-82.38894, 30.32007], [-82.38891, 30.32008], [-82.38886, 30.3201], [-82.38881, 30.32011], [-82.38876, 30.32013], [-82.38874, 30.32016], [-82.38874, 30.3202], [-82.38878, 30.32022], [-82.38882, 30.32024], [-82.38889, 30.32036], [-82.38889, 30.32036], [-82.3889, 30.32039], [-82.38888, 30.32042], [-82.38887, 30.32044], [-82.38886, 30.32048], [-82.38884, 30.32051], [-82.38883, 30.32054], [-82.38882, 30.32059], [-82.38882, 30.32063], [-82.3888, 30.32068], [-82.38878, 30.32071], [-82.38878, 30.32075], [-82.38877, 30.32079], [-82.38874, 30.32083], [-82.38872, 30.32085], [-82.38867, 30.32088], [-82.38862, 30.3209], [-82.38857, 30.32093], [-82.38852, 30.32096], [-82.38848, 30.32097], [-82.38844, 30.32098], [-82.3884, 30.32101], [-82.38837, 30.32103], [-82.38834, 30.32103], [-82.3883, 30.32103], [-82.38825, 30.32104], [-82.3882, 30.32104], [-82.38816, 30.32104], [-82.38813, 30.32106], [-82.38809, 30.32108], [-82.38806, 30.3211], [-82.38803, 30.32113], [-82.38774, 30.32119], [-82.38728, 30.32128], [-82.38723, 30.3213], [-82.38719, 30.32133], [-82.38713, 30.32134], [-82.38707, 30.32134], [-82.38702, 30.32134], [-82.38697, 30.32134], [-82.38692, 30.32134], [-82.38687, 30.32136], [-82.38684, 30.32138], [-82.3868, 30.32139], [-82.38674, 30.32141], [-82.38669, 30.32142], [-82.38663, 30.32144], [-82.3866, 30.32145], [-82.38656, 30.32148], [-82.38655, 30.32152], [-82.38657, 30.32155], [-82.38661, 30.32157], [-82.38663, 30.32159], [-82.38667, 30.32163], [-82.38667, 30.32167], [-82.38666, 30.32171], [-82.38666, 30.32176], [-82.3867, 30.3218], [-82.38673, 30.32182], [-82.38676, 30.32184], [-82.3868, 30.32185], [-82.38682, 30.32187], [-82.38685, 30.32189], [-82.38688, 30.32191], [-82.38691, 30.32193], [-82.38695, 30.32196], [-82.387, 30.322], [-82.38702, 30.32202], [-82.38706, 30.32206], [-82.38707, 30.32209], [-82.38706, 30.32212], [-82.38701, 30.32214], [-82.38696, 30.32214], [-82.38691, 30.32213], [-82.38688, 30.32213], [-82.38682, 30.32215], [-82.38679, 30.32218], [-82.38677, 30.32221], [-82.38676, 30.32225], [-82.38675, 30.32229], [-82.38675, 30.32232], [-82.38674, 30.32235], [-82.3867, 30.32236], [-82.38666, 30.32237], [-82.38662, 30.32238], [-82.38659, 30.3224], [-82.3865, 30.3225], [-82.38647, 30.32252], [-82.38644, 30.32255], [-82.38641, 30.32258], [-82.38638, 30.32261], [-82.38636, 30.32265], [-82.38634, 30.32269], [-82.38633, 30.32273], [-82.38633, 30.32276], [-82.38634, 30.3228], [-82.38634, 30.32283], [-82.38635, 30.32286], [-82.38637, 30.3229], [-82.38639, 30.32294], [-82.38644, 30.32302], [-82.38647, 30.32304], [-82.3865, 30.32305], [-82.38654, 30.32306], [-82.38658, 30.32307], [-82.38659, 30.32307], [-82.3866, 30.32307], [-82.38663, 30.32308], [-82.38667, 30.32308], [-82.38671, 30.32309], [-82.38674, 30.32311], [-82.38678, 30.32314], [-82.38681, 30.32316], [-82.38685, 30.32316], [-82.38688, 30.32317], [-82.38692, 30.32318], [-82.38694, 30.32319], [-82.38699, 30.32321], [-82.38704, 30.32323], [-82.3871, 30.32323], [-82.38716, 30.32323], [-82.38721, 30.32322], [-82.38726, 30.32322], [-82.3873, 30.32325], [-82.38733, 30.32329], [-82.38738, 30.32333], [-82.38739, 30.32335], [-82.38741, 30.32337], [-82.38743, 30.32342], [-82.38746, 30.32346], [-82.38749, 30.32349], [-82.3875, 30.32353], [-82.38749, 30.32356], [-82.38748, 30.3236], [-82.38744, 30.32362], [-82.38741, 30.32363], [-82.38735, 30.32363], [-82.38729, 30.32365], [-82.38726, 30.32365], [-82.38723, 30.32364], [-82.38717, 30.32363], [-82.38711, 30.32362], [-82.38705, 30.32363], [-82.387, 30.32364], [-82.38697, 30.32364], [-82.38693, 30.32365], [-82.3869, 30.32366], [-82.38685, 30.32368], [-82.38681, 30.32372], [-82.38678, 30.32374], [-82.38675, 30.32375], [-82.38672, 30.32376], [-82.38668, 30.32377], [-82.38664, 30.3238], [-82.3866, 30.32385], [-82.38655, 30.32388], [-82.3865, 30.32387], [-82.38645, 30.32387], [-82.3864, 30.32389], [-82.38635, 30.32392], [-82.38633, 30.32394], [-82.3863, 30.32399], [-82.38627, 30.32401], [-82.38623, 30.32402], [-82.3862, 30.324], [-82.38617, 30.32397], [-82.38612, 30.32398], [-82.38608, 30.324], [-82.38603, 30.32402], [-82.38602, 30.32402]]]}, "properties": {"poly_IncidentName": "Waterhole", "poly_GISAcres": 53.2926498540862, "poly_DateCurrent": 1790257803000}}, {"type": "Feature", "geometry": {"type": "Polygon", "coordinates": [[[-89.19803, 32.7861], [-89.1979, 32.78608], [-89.19764, 32.78617], [-89.19756, 32.78619], [-89.19743, 32.78627], [-89.19724, 32.78635], [-89.19713, 32.78636], [-89.19698, 32.7864], [-89.19677, 32.7865], [-89.19649, 32.78663], [-89.19622, 32.7868], [-89.19594, 32.78688], [-89.19571, 32.78691], [-89.19547, 32.78696], [-89.19516, 32.78691], [-89.19479, 32.78695], [-89.19428, 32.78699], [-89.19374, 32.78694], [-89.19351, 32.78685], [-89.1929, 32.78662], [-89.19237, 32.7864], [-89.19165, 32.78608], [-89.19142, 32.78592], [-89.19124, 32.78582], [-89.19134, 32.78569], [-89.19145, 32.78563], [-89.19166, 32.78548], [-89.19178, 32.78534], [-89.1919, 32.78525], [-89.19197, 32.7852], [-89.19195, 32.78512], [-89.19169, 32.78505], [-89.19137, 32.78493], [-89.19125, 32.7849], [-89.19102, 32.78472], [-89.19105, 32.7847], [-89.19109, 32.78468], [-89.19117, 32.78457], [-89.19116, 32.78454], [-89.19115, 32.78451], [-89.19114, 32.78448], [-89.19113, 32.78445], [-89.19111, 32.78442], [-89.1911, 32.78436], [-89.1911, 32.78431], [-89.19109, 32.78429], [-89.19109, 32.78425], [-89.19108, 32.78416], [-89.19108, 32.78412], [-89.19108, 32.7841], [-89.19108, 32.78405], [-89.19107, 32.78398], [-89.19106, 32.78393], [-89.19104, 32.7838], [-89.19104, 32.78377], [-89.19103, 32.78371], [-89.19101, 32.78367], [-89.19099, 32.78363], [-89.19099, 32.78362], [-89.19097, 32.78359], [-89.19095, 32.78355], [-89.19095, 32.78354], [-89.19093, 32.78349], [-89.19092, 32.78347], [-89.1909, 32.78343], [-89.19089, 32.78341], [-89.19088, 32.78338], [-89.19087, 32.78336], [-89.19085, 32.78332], [-89.19084, 32.7833], [-89.19081, 32.78323], [-89.19079, 32.7832], [-89.19078, 32.78317], [-89.19079, 32.78312], [-89.19079, 32.78309], [-89.1908, 32.78306], [-89.19081, 32.78301], [-89.19081, 32.783], [-89.19082, 32.78295], [-89.19083, 32.78291], [-89.19082, 32.78286], [-89.19082, 32.78278], [-89.19081, 32.78278], [-89.19081, 32.78276], [-89.19081, 32.78271], [-89.1908, 32.78267], [-89.19078, 32.78262], [-89.19077, 32.78259], [-89.19077, 32.78255], [-89.19075, 32.7825], [-89.19069, 32.78244], [-89.19065, 32.7824], [-89.19063, 32.78233], [-89.19063, 32.78228], [-89.19063, 32.78227], [-89.19062, 32.78223], [-89.19064, 32.78219], [-89.1906, 32.78204], [-89.19056, 32.78187], [-89.19053, 32.78177], [-89.19052, 32.78172], [-89.19052, 32.78169], [-89.19052, 32.78166], [-89.19053, 32.78162], [-89.19049, 32.78144], [-89.19045, 32.78142], [-89.1904, 32.7814], [-89.19035, 32.78135], [-89.1902, 32.78119], [-89.19016, 32.78113], [-89.19011, 32.78107], [-89.18997, 32.78094], [-89.18994, 32.7809], [-89.1899, 32.78075], [-89.19087, 32.78031], [-89.19106, 32.78004], [-89.19159, 32.77929], [-89.19188, 32.77919], [-89.19236, 32.77931], [-89.19366, 32.77981], [-89.1959, 32.78053], [-89.19713, 32.78083], [-89.19796, 32.78086], [-89.19799, 32.78406], [-89.19803, 32.7861]]]}, "properties": {"poly_IncidentName": "Wolf Creek RX", "poly_GISAcres": 118.49389643021277, "poly_DateCurrent": 1776458531767}}, {"type": "Feature", "geometry": {"type": "Polygon", "coordinates": [[[-80.98643, 31.87514], [-80.9846, 31.87586], [-80.98386, 31.87629], [-80.98287, 31.87724], [-80.98269, 31.87779], [-80.98172, 31.87724], [-80.97972, 31.87863], [-80.97993, 31.88], [-80.97889, 31.8814], [-80.97761, 31.88176], [-80.97689, 31.88069], [-80.97368, 31.88276], [-80.97427, 31.88341], [-80.97361, 31.88458], [-80.97259, 31.88359], [-80.97215, 31.88387], [-80.96884, 31.88489], [-80.96708, 31.88219], [-80.97388, 31.87633], [-80.98611, 31.86444], [-80.9888, 31.86181], [-80.99077, 31.85988], [-80.9917, 31.85895], [-80.99354, 31.85812], [-80.99412, 31.85762], [-80.99511, 31.85752], [-80.99901, 31.85805], [-81.00084, 31.85852], [-81.00173, 31.85889], [-81.00258, 31.85948], [-81.00303, 31.86024], [-81.00313, 31.86119], [-81.00277, 31.86158], [-81.00091, 31.86342], [-80.99966, 31.86494], [-80.99696, 31.86942], [-80.99652, 31.87188], [-80.99521, 31.87111], [-80.99235, 31.87264], [-80.98942, 31.87482], [-80.98907, 31.87584], [-80.98828, 31.8756], [-80.98643, 31.87514]]]}, "properties": {"poly_IncidentName": "Main Trail", "poly_GISAcres": 200, "poly_DateCurrent": 1787500121208}}, {"type": "Feature", "geometry": {"type": "Polygon", "coordinates": [[[-88.84682, 31.05584], [-88.84534, 31.05651], [-88.84355, 31.05724], [-88.84224, 31.05871], [-88.83971, 31.06218], [-88.83664, 31.06637], [-88.83381, 31.06892], [-88.83063, 31.07019], [-88.8281, 31.06987], [-88.82381, 31.06993], [-88.82392, 31.06623], [-88.82503, 31.06313], [-88.82645, 31.0605], [-88.82915, 31.05773], [-88.82898, 31.05535], [-88.8307, 31.05365], [-88.831, 31.05052], [-88.83344, 31.04772], [-88.83543, 31.04769], [-88.83782, 31.04856], [-88.83951, 31.04809], [-88.8415, 31.04624], [-88.8435, 31.04818], [-88.84569, 31.04772], [-88.84694, 31.04702], [-88.84682, 31.05584]]]}, "properties": {"poly_IncidentName": "Merit Creek", "poly_GISAcres": 1, "poly_DateCurrent": 1790214284561}}, {"type": "Feature", "geometry": {"type": "Polygon", "coordinates": [[[-92.58087, 33.59099], [-92.5786, 33.59083], [-92.57638, 33.58971], [-92.57417, 33.5891], [-92.57122, 33.58928], [-92.57133, 33.58504], [-92.57146, 33.58073], [-92.57148, 33.57882], [-92.57153, 33.57689], [-92.57243, 33.57662], [-92.57243, 33.5758], [-92.57218, 33.57477], [-92.57268, 33.57351], [-92.57398, 33.57236], [-92.57591, 33.57182], [-92.5773, 33.57186], [-92.57859, 33.57189], [-92.5793, 33.57091], [-92.58078, 33.56971], [-92.58261, 33.56989], [-92.58641, 33.57002], [-92.58846, 33.57085], [-92.60118, 33.56508], [-92.6033, 33.56425], [-92.60543, 33.56342], [-92.60725, 33.56272], [-92.60724, 33.56533], [-92.60718, 33.56667], [-92.60744, 33.5682], [-92.60883, 33.56807], [-92.6105, 33.56921], [-92.61159, 33.57032], [-92.6125, 33.57027], [-92.6135, 33.5698], [-92.61473, 33.56972], [-92.6159, 33.56975], [-92.61569, 33.57169], [-92.61514, 33.57269], [-92.61551, 33.57366], [-92.61794, 33.57375], [-92.61922, 33.57364], [-92.62376, 33.57395], [-92.62118, 33.57648], [-92.61805, 33.58005], [-92.61365, 33.58517], [-92.61182, 33.58621], [-92.61149, 33.5866], [-92.61052, 33.587], [-92.60738, 33.58911], [-92.60612, 33.58994], [-92.60596, 33.58985], [-92.60501, 33.58898], [-92.60456, 33.58885], [-92.60291, 33.58882], [-92.60278, 33.58892], [-92.60261, 33.589], [-92.60236, 33.58908], [-92.60218, 33.58899], [-92.60193, 33.589], [-92.60176, 33.5891], [-92.6015, 33.58929], [-92.60127, 33.58945], [-92.601, 33.58952], [-92.60069, 33.58945], [-92.60053, 33.58953], [-92.60045, 33.58965], [-92.60049, 33.58977], [-92.60037, 33.58991], [-92.60024, 33.58988], [-92.60003, 33.59003], [-92.60005, 33.59009], [-92.60003, 33.59014], [-92.59992, 33.5901], [-92.59986, 33.59016], [-92.59985, 33.59056], [-92.5998, 33.59082], [-92.5999, 33.59093], [-92.60009, 33.59098], [-92.6004, 33.59102], [-92.60045, 33.59117], [-92.60061, 33.59129], [-92.60062, 33.59136], [-92.60061, 33.59151], [-92.60047, 33.59158], [-92.60027, 33.59162], [-92.60012, 33.59162], [-92.59993, 33.59169], [-92.59975, 33.59168], [-92.59975, 33.59222], [-92.59974, 33.59273], [-92.59972, 33.59299], [-92.59969, 33.5933], [-92.59975, 33.59352], [-92.59993, 33.59368], [-92.59991, 33.59376], [-92.59998, 33.59402], [-92.6001, 33.59418], [-92.6001, 33.59433], [-92.60006, 33.59443], [-92.59994, 33.59446], [-92.59975, 33.59454], [-92.59962, 33.59454], [-92.59947, 33.59787], [-92.59944, 33.60139], [-92.59929, 33.60258], [-92.59737, 33.60252], [-92.5969, 33.6026], [-92.59676, 33.60293], [-92.59619, 33.60344], [-92.59536, 33.60355], [-92.59522, 33.60336], [-92.59451, 33.60361], [-92.59328, 33.60428], [-92.59258, 33.60448], [-92.59206, 33.60439], [-92.59142, 33.60415], [-92.59135, 33.60517], [-92.59128, 33.60555], [-92.59114, 33.6055], [-92.59096, 33.60524], [-92.59082, 33.60508], [-92.59069, 33.60498], [-92.59023, 33.60481], [-92.58942, 33.6047], [-92.58953, 33.60365], [-92.58932, 33.60337], [-92.58924, 33.60314], [-92.58927, 33.60289], [-92.58921, 33.60272], [-92.58905, 33.60269], [-92.58898, 33.60242], [-92.58795, 33.60232], [-92.58752, 33.60233], [-92.58747, 33.60118], [-92.58752, 33.59956], [-92.58762, 33.59732], [-92.58705, 33.59717], [-92.58635, 33.59686], [-92.58627, 33.5965], [-92.58597, 33.5964], [-92.58575, 33.59616], [-92.58506, 33.59622], [-92.58491, 33.5962], [-92.58504, 33.59591], [-92.58513, 33.59576], [-92.58497, 33.5956], [-92.58466, 33.59551], [-92.58436, 33.59537], [-92.58419, 33.59511], [-92.58573, 33.5952], [-92.58578, 33.5947], [-92.58565, 33.59448], [-92.58549, 33.59409], [-92.58553, 33.59397], [-92.58382, 33.59393], [-92.58377, 33.59354], [-92.58355, 33.59342], [-92.58336, 33.59332], [-92.58316, 33.59315], [-92.58298, 33.59283], [-92.58257, 33.59257], [-92.5823, 33.59238], [-92.58223, 33.59214], [-92.58557, 33.59215], [-92.5856, 33.59197], [-92.58493, 33.59193], [-92.58483, 33.59173], [-92.58378, 33.5917], [-92.5835, 33.5916], [-92.58309, 33.59148], [-92.58282, 33.59108], [-92.58087, 33.59099]]]}, "properties": {"poly_IncidentName": "Bunker Fire", "poly_GISAcres": 1, "poly_DateCurrent": 1789667462773}}]}