{"type": "FeatureCollection", "crs": {"type": "name", "properties": {"name": "EPSG:4326"}}, "features": [{"type": "Feature", "geometry": {"type": "Polygon", "coordinates": [[[-89.19803, 32.7861], [-89.1979, 32.78608], [-89.19764, 32.78617], [-89.19756, 32.78619], [-89.19743, 32.78627], [-89.19724, 32.78635], [-89.19713, 32.78636], [-89.19698, 32.7864], [-89.19677, 32.7865], [-89.19649, 32.78663], [-89.19622, 32.7868], [-89.19594, 32.78688], [-89.19571, 32.78691], [-89.19547, 32.78696], [-89.19516, 32.78691], [-89.19479, 32.78695], [-89.19428, 32.78699], [-89.19374, 32.78694], [-89.19351, 32.78685], [-89.1929, 32.78662], [-89.19237, 32.7864], [-89.19165, 32.78608], [-89.19142, 32.78592], [-89.19124, 32.78582], [-89.19134, 32.78569], [-89.19145, 32.78563], [-89.19166, 32.78548], [-89.19178, 32.78534], [-89.1919, 32.78525], [-89.19197, 32.7852], [-89.19195, 32.78512], [-89.19169, 32.78505], [-89.19137, 32.78493], [-89.19125, 32.7849], [-89.19102, 32.78472], [-89.19105, 32.7847], [-89.19109, 32.78468], [-89.19117, 32.78457], [-89.19116, 32.78454], [-89.19115, 32.78451], [-89.19114, 32.78448], [-89.19113, 32.78445], [-89.19111, 32.78442], [-89.1911, 32.78436], [-89.1911, 32.78431], [-89.19109, 32.78429], [-89.19109, 32.78425], [-89.19108, 32.78416], [-89.19108, 32.78412], [-89.19108, 32.7841], [-89.19108, 32.78405], [-89.19107, 32.78398], [-89.19106, 32.78393], [-89.19104, 32.7838], [-89.19104, 32.78377], [-89.19103, 32.78371], [-89.19101, 32.78367], [-89.19099, 32.78363], [-89.19099, 32.78362], [-89.19097, 32.78359], [-89.19095, 32.78355], [-89.19095, 32.78354], [-89.19093, 32.78349], [-89.19092, 32.78347], [-89.1909, 32.78343], [-89.19089, 32.78341], [-89.19088, 32.78338], [-89.19087, 32.78336], [-89.19085, 32.78332], [-89.19084, 32.7833], [-89.19081, 32.78323], [-89.19079, 32.7832], [-89.19078, 32.78317], [-89.19079, 32.78312], [-89.19079, 32.78309], [-89.1908, 32.78306], [-89.19081, 32.78301], [-89.19081, 32.783], [-89.19082, 32.78295], [-89.19083, 32.78291], [-89.19082, 32.78286], [-89.19082, 32.78278], [-89.19081, 32.78278], [-89.19081, 32.78276], [-89.19081, 32.78271], [-89.1908, 32.78267], [-89.19078, 32.78262], [-89.19077, 32.78259], [-89.19077, 32.78255], [-89.19075, 32.7825], [-89.19069, 32.78244], [-89.19065, 32.7824], [-89.19063, 32.78233], [-89.19063, 32.78228], [-89.19063, 32.78227], [-89.19062, 32.78223], [-89.19064, 32.78219], [-89.1906, 32.78204], [-89.19056, 32.78187], [-89.19053, 32.78177], [-89.19052, 32.78172], [-89.19052, 32.78169], [-89.19052, 32.78166], [-89.19053, 32.78162], [-89.19049, 32.78144], [-89.19045, 32.78142], [-89.1904, 32.7814], [-89.19035, 32.78135], [-89.1902, 32.78119], [-89.19016, 32.78113], [-89.19011, 32.78107], [-89.18997, 32.78094], [-89.18994, 32.7809], [-89.1899, 32.78075], [-89.19087, 32.78031], [-89.19106, 32.78004], [-89.19159, 32.77929], [-89.19188, 32.77919], [-89.19236, 32.77931], [-89.19366, 32.77981], [-89.1959, 32.78053], [-89.19713, 32.78083], [-89.19796, 32.78086], [-89.19799, 32.78406], [-89.19803, 32.7861]]]}, "properties": {"poly_IncidentName": "Wolf Creek RX", "poly_GISAcres": 118.49389643021277, "poly_DateCurrent": 1776458531767}}, {"type": "Feature", "geometry": {"type": "Polygon", "coordinates": [[[-80.98643, 31.87514], [-80.9846, 31.87586], [-80.98386, 31.87629], [-80.98287, 31.87724], [-80.98269, 31.87779], [-80.98172, 31.87724], [-80.97972, 31.87863], [-80.97993, 31.88], [-80.97889, 31.8814], [-80.97761, 31.88176], [-80.97689, 31.88069], [-80.97368, 31.88276], [-80.97427, 31.88341], [-80.97361, 31.88458], [-80.97259, 31.88359], [-80.97215, 31.88387], [-80.96884, 31.88489], [-80.96708, 31.88219], [-80.97388, 31.87633], [-80.98611, 31.86444], [-80.9888, 31.86181], [-80.99077, 31.85988], [-80.9917, 31.85895], [-80.99354, 31.85812], [-80.99412, 31.85762], [-80.99511, 31.85752], [-80.99901, 31.85805], [-81.00084, 31.85852], [-81.00173, 31.85889], [-81.00258, 31.85948], [-81.00303, 31.86024], [-81.00313, 31.86119], [-81.00277, 31.86158], [-81.00091, 31.86342], [-80.99966, 31.86494], [-80.99696, 31.86942], [-80.99652, 31.87188], [-80.99521, 31.87111], [-80.99235, 31.87264], [-80.98942, 31.87482], [-80.98907, 31.87584], [-80.98828, 31.8756], [-80.98643, 31.87514]]]}, "properties": {"poly_IncidentName": "Main Trail", "poly_GISAcres": 200, "poly_DateCurrent": 1787500121208}}, {"type": "Feature", "geometry": {"type": "Polygon", "coordinates": [[[-90.16468, 46.04668], [-90.16458, 46.04656], [-90.16458, 46.04643], [-90.16454, 46.04634], [-90.16456, 46.04629], [-90.16467, 46.04625], [-90.16491, 46.04619], [-90.16515, 46.04629], [-90.16526, 46.04631], [-90.16533, 46.04626], [-90.16551, 46.04631], [-90.1657, 46.04632], [-90.16579, 46.04619], [-90.16591, 46.04619], [-90.16607, 46.04616], [-90.16609, 46.0461], [-90.16607, 46.04608], [-90.16595, 46.04599], [-90.16586, 46.0459], [-90.166, 46.04587], [-90.16605, 46.04586], [-90.16603, 46.04582], [-90.16609, 46.04582], [-90.16634, 46.04589], [-90.16642, 46.04585], [-90.16648, 46.04602], [-90.16659, 46.04604], [-90.16668, 46.04595], [-90.16675, 46.04603], [-90.16677, 46.04616], [-90.16688, 46.04618], [-90.16697, 46.0462], [-90.16702, 46.04627], [-90.16705, 46.04639], [-90.16711, 46.04646], [-90.16683, 46.04652], [-90.16657, 46.04641], [-90.16659, 46.04653], [-90.16646, 46.04647], [-90.16628, 46.04643], [-90.16619, 46.04646], [-90.16616, 46.04654], [-90.16614, 46.04665], [-90.16607, 46.04681], [-90.16605, 46.04691], [-90.16599, 46.04706], [-90.16599, 46.04717], [-90.16603, 46.04729], [-90.16613, 46.04738], [-90.1662, 46.04744], [-90.16618, 46.0475], [-90.16618, 46.04763], [-90.16611, 46.04773], [-90.16586, 46.04781], [-90.16566, 46.04786], [-90.16547, 46.04791], [-90.1654, 46.04796], [-90.16539, 46.0481], [-90.16544, 46.04818], [-90.16539, 46.04824], [-90.16514, 46.0483], [-90.16505, 46.04825], [-90.16497, 46.04823], [-90.1648, 46.04826], [-90.16471, 46.04826], [-90.16455, 46.04828], [-90.16443, 46.04827], [-90.1644, 46.04819], [-90.16441, 46.0481], [-90.16452, 46.04805], [-90.16442, 46.04795], [-90.16439, 46.04782], [-90.16436, 46.04771], [-90.16429, 46.04759], [-90.16437, 46.04746], [-90.16436, 46.04735], [-90.1644, 46.04728], [-90.16437, 46.04722], [-90.16426, 46.04714], [-90.16419, 46.04704], [-90.16406, 46.04702], [-90.16398, 46.04702], [-90.16385, 46.04701], [-90.16387, 46.04698], [-90.16401, 46.0469], [-90.16415, 46.04686], [-90.16417, 46.04679], [-90.16436, 46.04674], [-90.16456, 46.04679], [-90.16468, 46.04668]]]}, "properties": {"poly_IncidentName": "Flowage", "poly_GISAcres": 7.73, "poly_DateCurrent": 1788972050000}}, {"type": "Feature", "geometry": {"type": "Polygon", "coordinates": [[[-89.96606, 46.12684], [-89.96607, 46.12684], [-89.96611, 46.12683], [-89.96612, 46.12682], [-89.96614, 46.12679], [-89.96619, 46.12676], [-89.96621, 46.12674], [-89.96624, 46.12671], [-89.96628, 46.12668], [-89.96633, 46.12665], [-89.96637, 46.12662], [-89.96641, 46.12659], [-89.96644, 46.12657], [-89.96648, 46.12653], [-89.96652, 46.12654], [-89.96656, 46.12653], [-89.96658, 46.12656], [-89.96662, 46.12657], [-89.96666, 46.12657], [-89.96672, 46.12657], [-89.96678, 46.12658], [-89.96683, 46.12659], [-89.96687, 46.12658], [-89.96689, 46.12658], [-89.96696, 46.12657], [-89.96701, 46.12657], [-89.96705, 46.12656], [-89.96709, 46.12657], [-89.96714, 46.12658], [-89.96721, 46.1266], [-89.96726, 46.12664], [-89.96729, 46.12667], [-89.96729, 46.12671], [-89.96731, 46.12674], [-89.96733, 46.12677], [-89.96735, 46.12681], [-89.96737, 46.12684], [-89.96739, 46.12689], [-89.96741, 46.12693], [-89.96743, 46.12696], [-89.96744, 46.127], [-89.96744, 46.12702], [-89.96745, 46.12705], [-89.96748, 46.12708], [-89.96752, 46.1271], [-89.96752, 46.1271], [-89.96754, 46.12711], [-89.96754, 46.12711], [-89.96757, 46.12713], [-89.96762, 46.12714], [-89.96766, 46.12715], [-89.96771, 46.12717], [-89.96775, 46.12717], [-89.9678, 46.12719], [-89.96786, 46.12722], [-89.96789, 46.12725], [-89.96795, 46.12728], [-89.968, 46.1273], [-89.96806, 46.12732], [-89.9681, 46.12729], [-89.96863, 46.12688], [-89.96868, 46.12687], [-89.96869, 46.1269], [-89.96871, 46.12687], [-89.96875, 46.12683], [-89.96879, 46.1268], [-89.96884, 46.12677], [-89.96884, 46.12676], [-89.96885, 46.12675], [-89.96885, 46.12676], [-89.9689, 46.12675], [-89.96896, 46.12674], [-89.96903, 46.12673], [-89.96907, 46.12672], [-89.96911, 46.12671], [-89.96916, 46.1267], [-89.96922, 46.12666], [-89.96928, 46.12665], [-89.96935, 46.12664], [-89.96941, 46.12663], [-89.96948, 46.12663], [-89.96952, 46.12662], [-89.96956, 46.12661], [-89.96962, 46.12659], [-89.96967, 46.12656], [-89.96974, 46.12657], [-89.96983, 46.12654], [-89.96987, 46.12653], [-89.96992, 46.12653], [-89.97, 46.12653], [-89.97006, 46.12655], [-89.9701, 46.12657], [-89.97017, 46.12659], [-89.97025, 46.1266], [-89.97029, 46.12662], [-89.97036, 46.12663], [-89.9704, 46.12665], [-89.97046, 46.12665], [-89.97052, 46.12666], [-89.97057, 46.12666], [-89.97066, 46.12667], [-89.97071, 46.12666], [-89.97075, 46.12668], [-89.97077, 46.1267], [-89.97083, 46.12673], [-89.97086, 46.12675], [-89.97088, 46.12677], [-89.97091, 46.1268], [-89.97094, 46.12682], [-89.97097, 46.12685], [-89.971, 46.1269], [-89.97099, 46.12695], [-89.97096, 46.12698], [-89.97092, 46.127], [-89.9709, 46.12704], [-89.97088, 46.12707], [-89.97086, 46.12711], [-89.97087, 46.12716], [-89.97087, 46.12722], [-89.97087, 46.12725], [-89.97089, 46.12728], [-89.97093, 46.12731], [-89.97097, 46.12733], [-89.97103, 46.12734], [-89.97109, 46.12736], [-89.97117, 46.12737], [-89.97122, 46.12738], [-89.97127, 46.12739], [-89.97133, 46.1274], [-89.9714, 46.12743], [-89.97143, 46.12745], [-89.97149, 46.12748], [-89.97154, 46.1275], [-89.97158, 46.12752], [-89.97162, 46.12755], [-89.97164, 46.12759], [-89.97166, 46.12763], [-89.97171, 46.12767], [-89.97175, 46.12768], [-89.97179, 46.1277], [-89.97184, 46.1277], [-89.97188, 46.12771], [-89.97192, 46.12773], [-89.97196, 46.12775], [-89.97201, 46.12774], [-89.97206, 46.12775], [-89.97209, 46.12773], [-89.97214, 46.12773], [-89.9722, 46.12774], [-89.97226, 46.12776], [-89.97232, 46.12776], [-89.97238, 46.12778], [-89.97244, 46.12779], [-89.97248, 46.1278], [-89.97256, 46.1278], [-89.97262, 46.12781], [-89.97265, 46.12783], [-89.97269, 46.12785], [-89.97273, 46.12786], [-89.9728, 46.12786], [-89.97285, 46.12788], [-89.9729, 46.1279], [-89.97294, 46.12791], [-89.97299, 46.12795], [-89.97304, 46.12794], [-89.97311, 46.12794], [-89.97317, 46.12795], [-89.97323, 46.12796], [-89.9733, 46.12795], [-89.97336, 46.12794], [-89.9734, 46.12794], [-89.97347, 46.12792], [-89.97354, 46.12789], [-89.97358, 46.12786], [-89.97363, 46.12782], [-89.97366, 46.1278], [-89.9737, 46.12777], [-89.97374, 46.12775], [-89.97379, 46.12773], [-89.97384, 46.12772], [-89.97392, 46.12772], [-89.97397, 46.12774], [-89.97403, 46.12776], [-89.97408, 46.12776], [-89.97413, 46.12774], [-89.97416, 46.1277], [-89.97417, 46.12767], [-89.9742, 46.12766], [-89.97428, 46.12766], [-89.97435, 46.12768], [-89.97439, 46.12769], [-89.97444, 46.12769], [-89.9745, 46.12772], [-89.97456, 46.12775], [-89.97462, 46.12777], [-89.97467, 46.12778], [-89.97473, 46.12781], [-89.9748, 46.12779], [-89.97487, 46.12777], [-89.97494, 46.12775], [-89.97501, 46.12774], [-89.97507, 46.12776], [-89.97513, 46.12776], [-89.97518, 46.12779], [-89.97524, 46.1278], [-89.97528, 46.1278], [-89.97533, 46.12777], [-89.97539, 46.12774], [-89.9754, 46.12771], [-89.97542, 46.12766], [-89.97546, 46.12763], [-89.97547, 46.12757], [-89.97549, 46.12754], [-89.97553, 46.12753], [-89.9756, 46.12751], [-89.97566, 46.12751], [-89.9757, 46.1275], [-89.97574, 46.12751], [-89.97579, 46.12752], [-89.97585, 46.12753], [-89.97589, 46.12754], [-89.97595, 46.12754], [-89.976, 46.12755], [-89.97606, 46.12755], [-89.9761, 46.12756], [-89.97611, 46.12756], [-89.97617, 46.12756], [-89.97622, 46.1276], [-89.97626, 46.12763], [-89.97626, 46.12766], [-89.97623, 46.12769], [-89.97622, 46.12772], [-89.97621, 46.12776], [-89.97626, 46.12778], [-89.97631, 46.12782], [-89.97634, 46.12784], [-89.97635, 46.12787], [-89.97635, 46.12791], [-89.97638, 46.12796], [-89.97636, 46.12799], [-89.97634, 46.12802], [-89.97633, 46.12805], [-89.97632, 46.12809], [-89.97632, 46.12813], [-89.97634, 46.12816], [-89.97637, 46.12818], [-89.97643, 46.12818], [-89.97647, 46.1282], [-89.97652, 46.12822], [-89.97657, 46.12823], [-89.97659, 46.12827], [-89.97659, 46.12827], [-89.97662, 46.1283], [-89.97665, 46.12831], [-89.97675, 46.12831], [-89.97676, 46.12834], [-89.97677, 46.12837], [-89.97678, 46.12837], [-89.97679, 46.12838], [-89.97681, 46.12839], [-89.97685, 46.12841], [-89.97688, 46.12842], [-89.97686, 46.12848], [-89.97688, 46.1285], [-89.97691, 46.12853], [-89.97692, 46.12856], [-89.97696, 46.12856], [-89.977, 46.12857], [-89.97705, 46.12857], [-89.9771, 46.12856], [-89.97713, 46.12856], [-89.97714, 46.12856], [-89.97718, 46.12857], [-89.97722, 46.12858], [-89.97727, 46.12859], [-89.97728, 46.12859], [-89.97729, 46.12859], [-89.97732, 46.12859], [-89.97736, 46.12861], [-89.97741, 46.12861], [-89.97743, 46.12862], [-89.97747, 46.12865], [-89.97749, 46.12866], [-89.9775, 46.12868], [-89.97753, 46.1287], [-89.97754, 46.12871], [-89.97754, 46.12873], [-89.97757, 46.12875], [-89.9776, 46.12878], [-89.97765, 46.12879], [-89.97768, 46.12881], [-89.97768, 46.12881], [-89.97768, 46.12882], [-89.97769, 46.12884], [-89.97769, 46.12884], [-89.97768, 46.12888], [-89.97767, 46.12888], [-89.97768, 46.12892], [-89.97767, 46.12893], [-89.97767, 46.12895], [-89.97768, 46.12898], [-89.97765, 46.12901], [-89.97764, 46.12903], [-89.97762, 46.12906], [-89.97762, 46.1291], [-89.97761, 46.12913], [-89.97759, 46.12916], [-89.97758, 46.12919], [-89.97758, 46.12923], [-89.97756, 46.12925], [-89.97756, 46.12929], [-89.97755, 46.12932], [-89.97754, 46.12935], [-89.97747, 46.12936], [-89.97743, 46.12936], [-89.97738, 46.12937], [-89.97734, 46.12937], [-89.9773, 46.12938], [-89.97725, 46.12939], [-89.97722, 46.12942], [-89.97721, 46.12945], [-89.9772, 46.12947], [-89.97717, 46.1295], [-89.97714, 46.12953], [-89.9771, 46.12953], [-89.97705, 46.12952], [-89.97701, 46.12952], [-89.97696, 46.1295], [-89.97692, 46.12948], [-89.97689, 46.12946], [-89.97686, 46.12944], [-89.97683, 46.12941], [-89.9768, 46.12939], [-89.97675, 46.12937], [-89.9767, 46.12938], [-89.97669, 46.12938], [-89.97669, 46.12939], [-89.97668, 46.12941], [-89.97667, 46.12945], [-89.97664, 46.12948], [-89.97663, 46.12948], [-89.97659, 46.12949], [-89.97655, 46.1295], [-89.97649, 46.1295], [-89.97645, 46.12949], [-89.97641, 46.1295], [-89.97636, 46.12951], [-89.97632, 46.12953], [-89.97629, 46.12954], [-89.97628, 46.12954], [-89.97628, 46.12954], [-89.97625, 46.12958], [-89.97621, 46.12959], [-89.97617, 46.12958], [-89.97614, 46.12958], [-89.97612, 46.12958], [-89.9761, 46.1296], [-89.97606, 46.12959], [-89.97604, 46.12962], [-89.97601, 46.12964], [-89.97597, 46.12965], [-89.97593, 46.12965], [-89.97589, 46.12968], [-89.97585, 46.12969], [-89.9758, 46.12969], [-89.97579, 46.12969], [-89.97576, 46.12969], [-89.97576, 46.12969], [-89.97571, 46.12969], [-89.97568, 46.12968], [-89.97563, 46.12967], [-89.97559, 46.12965], [-89.97556, 46.12966], [-89.97551, 46.12966], [-89.97547, 46.12966], [-89.97543, 46.12965], [-89.97539, 46.12964], [-89.97534, 46.12964], [-89.97528, 46.12964], [-89.97526, 46.1296], [-89.97522, 46.12959], [-89.9752, 46.12957], [-89.97518, 46.12955], [-89.97516, 46.12954], [-89.97512, 46.12952], [-89.97508, 46.12952], [-89.97506, 46.12952], [-89.97503, 46.12952], [-89.97498, 46.12953], [-89.97493, 46.12954], [-89.9749, 46.12956], [-89.97486, 46.12958], [-89.97481, 46.12957], [-89.97474, 46.12956], [-89.97472, 46.12956], [-89.97471, 46.12956], [-89.9747, 46.12955], [-89.97466, 46.12957], [-89.97462, 46.12959], [-89.97459, 46.12961], [-89.97455, 46.12964], [-89.97451, 46.12966], [-89.97446, 46.12969], [-89.97443, 46.1297], [-89.97443, 46.12971], [-89.97443, 46.12971], [-89.97445, 46.12973], [-89.97445, 46.12974], [-89.97445, 46.12974], [-89.97446, 46.12976], [-89.97449, 46.1298], [-89.97449, 46.12983], [-89.97445, 46.12986], [-89.9744, 46.12987], [-89.97435, 46.12987], [-89.9743, 46.12987], [-89.97427, 46.12989], [-89.97423, 46.12991], [-89.97418, 46.12993], [-89.97413, 46.12992], [-89.97408, 46.12994], [-89.97403, 46.12993], [-89.97402, 46.12993], [-89.974, 46.12993], [-89.97398, 46.12992], [-89.97395, 46.1299], [-89.97393, 46.12988], [-89.97389, 46.12986], [-89.97385, 46.12986], [-89.97379, 46.12987], [-89.97375, 46.12987], [-89.97373, 46.1299], [-89.9737, 46.12993], [-89.97368, 46.12995], [-89.97367, 46.12999], [-89.97364, 46.13001], [-89.97364, 46.13005], [-89.97363, 46.13008], [-89.97361, 46.13011], [-89.97359, 46.13014], [-89.97355, 46.13016], [-89.97354, 46.13019], [-89.9735, 46.13021], [-89.97346, 46.13024], [-89.97344, 46.13024], [-89.97343, 46.13024], [-89.97341, 46.13025], [-89.97341, 46.13025], [-89.97337, 46.13025], [-89.97332, 46.13027], [-89.9733, 46.1303], [-89.97326, 46.13032], [-89.97321, 46.13032], [-89.97317, 46.13035], [-89.97317, 46.13039], [-89.9732, 46.1304], [-89.97323, 46.13041], [-89.97322, 46.13044], [-89.97321, 46.13046], [-89.97321, 46.13047], [-89.97321, 46.13048], [-89.97324, 46.1305], [-89.97328, 46.13052], [-89.9733, 46.13055], [-89.97333, 46.13058], [-89.97335, 46.13059], [-89.97337, 46.13061], [-89.97339, 46.13063], [-89.97337, 46.13064], [-89.97336, 46.13065], [-89.97339, 46.13068], [-89.97339, 46.13069], [-89.97342, 46.13071], [-89.97346, 46.13074], [-89.97349, 46.13076], [-89.97353, 46.13079], [-89.97356, 46.13081], [-89.9736, 46.13082], [-89.97364, 46.13083], [-89.97365, 46.13084], [-89.97367, 46.13086], [-89.97372, 46.13086], [-89.97376, 46.13087], [-89.97378, 46.13088], [-89.97378, 46.13088], [-89.97383, 46.13089], [-89.97384, 46.13089], [-89.97385, 46.13089], [-89.9739, 46.1309], [-89.97394, 46.13092], [-89.97396, 46.13095], [-89.97397, 46.13099], [-89.974, 46.13101], [-89.97403, 46.13105], [-89.97403, 46.13108], [-89.97405, 46.13112], [-89.97408, 46.13115], [-89.9741, 46.13119], [-89.97411, 46.13122], [-89.97407, 46.13124], [-89.97407, 46.13128], [-89.97408, 46.13131], [-89.97408, 46.13134], [-89.97406, 46.13138], [-89.97406, 46.13139], [-89.97406, 46.13141], [-89.97406, 46.13142], [-89.97404, 46.13145], [-89.97402, 46.13148], [-89.97401, 46.13148], [-89.97397, 46.13149], [-89.97395, 46.13152], [-89.97395, 46.13152], [-89.97393, 46.13154], [-89.97386, 46.13158], [-89.97382, 46.1316], [-89.97376, 46.13158], [-89.97372, 46.13157], [-89.97367, 46.13152], [-89.97362, 46.13153], [-89.97358, 46.13154], [-89.97354, 46.13155], [-89.97349, 46.13155], [-89.97346, 46.13153], [-89.97341, 46.13153], [-89.97336, 46.13152], [-89.97335, 46.13155], [-89.97333, 46.13158], [-89.97329, 46.13159], [-89.97328, 46.13161], [-89.97326, 46.13164], [-89.97324, 46.13168], [-89.97321, 46.13171], [-89.97316, 46.13172], [-89.97313, 46.13173], [-89.97309, 46.13174], [-89.97306, 46.13176], [-89.97302, 46.13178], [-89.97298, 46.13179], [-89.97298, 46.13182], [-89.97295, 46.13185], [-89.97293, 46.1319], [-89.97291, 46.13193], [-89.97291, 46.13196], [-89.9729, 46.13198], [-89.97288, 46.13202], [-89.97287, 46.13202], [-89.97276, 46.13211], [-89.97274, 46.13213], [-89.97271, 46.13215], [-89.97267, 46.13217], [-89.97263, 46.13219], [-89.97258, 46.1322], [-89.97253, 46.13218], [-89.97248, 46.13217], [-89.97242, 46.13216], [-89.97238, 46.13215], [-89.97233, 46.13214], [-89.97229, 46.1321], [-89.97227, 46.13208], [-89.97223, 46.13206], [-89.9722, 46.13203], [-89.97217, 46.13201], [-89.97215, 46.13199], [-89.97211, 46.13197], [-89.97207, 46.13195], [-89.97202, 46.13193], [-89.97199, 46.1319], [-89.97197, 46.13187], [-89.97194, 46.13184], [-89.9719, 46.13181], [-89.9719, 46.13181], [-89.97187, 46.13179], [-89.97183, 46.13179], [-89.97183, 46.13179], [-89.97181, 46.13179], [-89.97181, 46.13179], [-89.97181, 46.13182], [-89.9718, 46.13185], [-89.97179, 46.13187], [-89.97175, 46.13188], [-89.97175, 46.13188], [-89.9717, 46.13188], [-89.97165, 46.13187], [-89.97161, 46.13186], [-89.97156, 46.13186], [-89.97152, 46.13184], [-89.97149, 46.13181], [-89.97145, 46.1318], [-89.97141, 46.13178], [-89.97136, 46.13179], [-89.97135, 46.13182], [-89.97132, 46.13185], [-89.9713, 46.13188], [-89.97124, 46.13188], [-89.9712, 46.1319], [-89.97115, 46.13191], [-89.97109, 46.13194], [-89.97105, 46.13194], [-89.971, 46.13194], [-89.97099, 46.13194], [-89.97095, 46.13193], [-89.9709, 46.13194], [-89.97085, 46.13193], [-89.97081, 46.13195], [-89.97076, 46.13195], [-89.97071, 46.13194], [-89.97068, 46.13193], [-89.97066, 46.13195], [-89.97059, 46.13194], [-89.97054, 46.13193], [-89.9705, 46.13193], [-89.97046, 46.13191], [-89.97042, 46.13187], [-89.97038, 46.13185], [-89.97034, 46.13184], [-89.97029, 46.13185], [-89.97025, 46.13181], [-89.97024, 46.1318], [-89.97023, 46.13177], [-89.97017, 46.13179], [-89.97017, 46.13179], [-89.97013, 46.13181], [-89.97008, 46.13182], [-89.97004, 46.13183], [-89.97001, 46.13185], [-89.97, 46.13186], [-89.96997, 46.13188], [-89.96995, 46.13191], [-89.96995, 46.13193], [-89.96992, 46.13196], [-89.96992, 46.13197], [-89.96991, 46.13198], [-89.96991, 46.132], [-89.9699, 46.13203], [-89.96987, 46.13205], [-89.96984, 46.13208], [-89.96983, 46.13208], [-89.96981, 46.13212], [-89.96979, 46.13215], [-89.96978, 46.13217], [-89.96976, 46.13221], [-89.96973, 46.13224], [-89.96972, 46.13227], [-89.96967, 46.13228], [-89.96964, 46.13228], [-89.96962, 46.13237], [-89.96962, 46.13237], [-89.96968, 46.13242], [-89.96968, 46.13244], [-89.96966, 46.13247], [-89.96966, 46.1325], [-89.96968, 46.13254], [-89.96969, 46.13256], [-89.96972, 46.13259], [-89.96968, 46.13258], [-89.9697, 46.13261], [-89.96971, 46.13262], [-89.96973, 46.13264], [-89.96977, 46.13266], [-89.96978, 46.13269], [-89.96981, 46.1327], [-89.96985, 46.13272], [-89.96986, 46.13272], [-89.96986, 46.13273], [-89.96988, 46.13274], [-89.96991, 46.13275], [-89.96992, 46.13275], [-89.96995, 46.13277], [-89.96999, 46.13278], [-89.97003, 46.1328], [-89.97003, 46.13281], [-89.97004, 46.13283], [-89.97007, 46.13284], [-89.97009, 46.13284], [-89.97012, 46.13287], [-89.97015, 46.13289], [-89.97017, 46.13293], [-89.97018, 46.13297], [-89.97019, 46.133], [-89.9702, 46.13304], [-89.97018, 46.13306], [-89.97018, 46.13308], [-89.97018, 46.13309], [-89.97018, 46.13309], [-89.97017, 46.13312], [-89.97017, 46.13313], [-89.97017, 46.13316], [-89.97017, 46.13319], [-89.97016, 46.13323], [-89.97015, 46.13325], [-89.97014, 46.13328], [-89.97015, 46.13332], [-89.97015, 46.13332], [-89.97014, 46.13334], [-89.97014, 46.13335], [-89.97008, 46.13337], [-89.97003, 46.13338], [-89.97001, 46.13339], [-89.96999, 46.1334], [-89.96996, 46.13342], [-89.96992, 46.13343], [-89.96988, 46.13344], [-89.96987, 46.13343], [-89.96985, 46.13342], [-89.96981, 46.13341], [-89.96976, 46.13342], [-89.96972, 46.13344], [-89.96968, 46.13345], [-89.96963, 46.13346], [-89.96958, 46.13346], [-89.96953, 46.13347], [-89.96948, 46.13347], [-89.96943, 46.13347], [-89.96938, 46.13347], [-89.96934, 46.13347], [-89.9693, 46.1335], [-89.96925, 46.13351], [-89.96921, 46.13351], [-89.96917, 46.13353], [-89.96911, 46.13354], [-89.96907, 46.13355], [-89.96902, 46.13355], [-89.96897, 46.13357], [-89.9689, 46.13357], [-89.96885, 46.13357], [-89.96881, 46.13357], [-89.96882, 46.13354], [-89.96879, 46.13352], [-89.96873, 46.13351], [-89.96868, 46.13351], [-89.96863, 46.13351], [-89.96862, 46.13351], [-89.96859, 46.13351], [-89.96857, 46.13355], [-89.96854, 46.13357], [-89.96851, 46.13359], [-89.96845, 46.1336], [-89.96839, 46.13361], [-89.96837, 46.13365], [-89.96834, 46.13367], [-89.96833, 46.13371], [-89.96833, 46.13374], [-89.9683, 46.13377], [-89.96827, 46.13378], [-89.96823, 46.13379], [-89.96819, 46.1338], [-89.96814, 46.13382], [-89.96808, 46.1338], [-89.96804, 46.1338], [-89.96798, 46.1338], [-89.96793, 46.13378], [-89.96791, 46.13378], [-89.96788, 46.13378], [-89.96784, 46.13378], [-89.96779, 46.13375], [-89.96775, 46.13374], [-89.96773, 46.13373], [-89.96772, 46.13372], [-89.96772, 46.13372], [-89.96767, 46.13373], [-89.96763, 46.13371], [-89.96759, 46.13371], [-89.96752, 46.1337], [-89.96746, 46.1337], [-89.96742, 46.13371], [-89.96739, 46.13373], [-89.96734, 46.13375], [-89.96732, 46.13379], [-89.96729, 46.13381], [-89.96726, 46.13384], [-89.96725, 46.13387], [-89.96723, 46.1339], [-89.96719, 46.13392], [-89.96717, 46.13396], [-89.96712, 46.13396], [-89.96699, 46.13399], [-89.96698, 46.13399], [-89.96694, 46.134], [-89.9669, 46.13402], [-89.96685, 46.13403], [-89.96684, 46.13403], [-89.96669, 46.1341], [-89.96666, 46.13412], [-89.96661, 46.13414], [-89.96658, 46.13416], [-89.96657, 46.13416], [-89.96653, 46.13418], [-89.96649, 46.13419], [-89.96644, 46.13421], [-89.96639, 46.13423], [-89.96635, 46.13423], [-89.96631, 46.13422], [-89.96627, 46.13422], [-89.96622, 46.13422], [-89.96617, 46.13424], [-89.96611, 46.13425], [-89.9661, 46.13425], [-89.96606, 46.13425], [-89.96601, 46.13425], [-89.96596, 46.13426], [-89.96593, 46.13424], [-89.96588, 46.13423], [-89.96583, 46.13423], [-89.96577, 46.13422], [-89.96573, 46.13422], [-89.96569, 46.13421], [-89.96565, 46.13419], [-89.9656, 46.13418], [-89.96555, 46.13418], [-89.96552, 46.1342], [-89.96547, 46.13422], [-89.96543, 46.13423], [-89.96539, 46.13425], [-89.96532, 46.13426], [-89.96529, 46.13424], [-89.96528, 46.13421], [-89.96527, 46.13418], [-89.96527, 46.13415], [-89.96527, 46.13414], [-89.96527, 46.1341], [-89.96527, 46.13407], [-89.96525, 46.13405], [-89.96521, 46.13402], [-89.96518, 46.134], [-89.96515, 46.13397], [-89.9651, 46.13394], [-89.96507, 46.13391], [-89.96502, 46.13391], [-89.96497, 46.13389], [-89.96494, 46.13388], [-89.96492, 46.13384], [-89.96492, 46.13381], [-89.96491, 46.1338], [-89.9649, 46.13378], [-89.96489, 46.13377], [-89.96487, 46.13375], [-89.96484, 46.13373], [-89.96483, 46.1337], [-89.96483, 46.1337], [-89.96481, 46.13367], [-89.96482, 46.13366], [-89.96482, 46.13364], [-89.96483, 46.13361], [-89.96478, 46.13359], [-89.96476, 46.13357], [-89.96475, 46.13357], [-89.96473, 46.13356], [-89.96471, 46.13355], [-89.96467, 46.13353], [-89.96463, 46.13352], [-89.96457, 46.13353], [-89.96453, 46.13351], [-89.96445, 46.13334], [-89.96445, 46.13333], [-89.96444, 46.13333], [-89.96436, 46.13329], [-89.96442, 46.13323], [-89.96439, 46.13319], [-89.96439, 46.13317], [-89.96438, 46.13307], [-89.96443, 46.13303], [-89.96456, 46.13306], [-89.96458, 46.13303], [-89.96468, 46.13293], [-89.96471, 46.13292], [-89.96472, 46.13291], [-89.96473, 46.1329], [-89.96473, 46.1329], [-89.96478, 46.13285], [-89.96478, 46.1328], [-89.96482, 46.13279], [-89.96486, 46.13278], [-89.96488, 46.13278], [-89.96491, 46.13278], [-89.96495, 46.13278], [-89.965, 46.13277], [-89.96505, 46.13277], [-89.96512, 46.13276], [-89.96514, 46.13276], [-89.96519, 46.13277], [-89.96523, 46.13277], [-89.96527, 46.13277], [-89.9653, 46.13276], [-89.96531, 46.13276], [-89.96536, 46.13276], [-89.9654, 46.13277], [-89.9654, 46.13277], [-89.96545, 46.13276], [-89.96551, 46.13276], [-89.96556, 46.13276], [-89.9656, 46.13274], [-89.9656, 46.13274], [-89.9656, 46.13274], [-89.9656, 46.13274], [-89.9656, 46.13274], [-89.96561, 46.13274], [-89.96567, 46.13274], [-89.96571, 46.13273], [-89.96576, 46.13273], [-89.96581, 46.13272], [-89.9658, 46.13268], [-89.96584, 46.13267], [-89.96583, 46.13264], [-89.96584, 46.13262], [-89.96586, 46.13261], [-89.96589, 46.13256], [-89.96594, 46.13255], [-89.96596, 46.13254], [-89.96598, 46.13253], [-89.96599, 46.13254], [-89.96603, 46.13254], [-89.96606, 46.13251], [-89.96606, 46.13251], [-89.96611, 46.13249], [-89.96614, 46.13248], [-89.96619, 46.13248], [-89.96625, 46.13248], [-89.9663, 46.13247], [-89.96633, 46.13246], [-89.96635, 46.13246], [-89.96636, 46.13244], [-89.96637, 46.13242], [-89.96634, 46.1324], [-89.9664, 46.13237], [-89.96642, 46.13236], [-89.96645, 46.13234], [-89.96647, 46.13232], [-89.96649, 46.13231], [-89.96652, 46.1323], [-89.96653, 46.13229], [-89.96656, 46.13228], [-89.96661, 46.13227], [-89.96667, 46.13227], [-89.9667, 46.13227], [-89.96671, 46.13228], [-89.96671, 46.13228], [-89.96675, 46.1323], [-89.96679, 46.13232], [-89.96683, 46.13234], [-89.96687, 46.13233], [-89.96693, 46.13234], [-89.96694, 46.13234], [-89.96694, 46.13234], [-89.96699, 46.13235], [-89.96702, 46.13237], [-89.96705, 46.13238], [-89.96706, 46.13239], [-89.96707, 46.13239], [-89.96707, 46.13239], [-89.96707, 46.1324], [-89.96707, 46.13241], [-89.96708, 46.13241], [-89.96712, 46.13242], [-89.96717, 46.13242], [-89.96722, 46.13244], [-89.96728, 46.13246], [-89.96733, 46.13246], [-89.96737, 46.13247], [-89.96742, 46.13246], [-89.96746, 46.13246], [-89.96749, 46.13244], [-89.96752, 46.13241], [-89.96759, 46.13241], [-89.96762, 46.13238], [-89.96762, 46.13235], [-89.96762, 46.13232], [-89.96759, 46.13229], [-89.96757, 46.13226], [-89.96756, 46.13223], [-89.96756, 46.13219], [-89.96755, 46.13215], [-89.96756, 46.1321], [-89.96754, 46.13207], [-89.96752, 46.13204], [-89.96749, 46.13201], [-89.96745, 46.13199], [-89.9674, 46.13199], [-89.96736, 46.13199], [-89.96732, 46.13196], [-89.96731, 46.13193], [-89.96727, 46.13191], [-89.96723, 46.1319], [-89.96719, 46.1319], [-89.96714, 46.13189], [-89.96709, 46.13189], [-89.96704, 46.1319], [-89.96701, 46.1319], [-89.96698, 46.1319], [-89.96694, 46.1319], [-89.9669, 46.13191], [-89.96684, 46.1319], [-89.9668, 46.13187], [-89.96678, 46.13185], [-89.96677, 46.13183], [-89.96678, 46.1318], [-89.96678, 46.13179], [-89.96679, 46.13176], [-89.96677, 46.13174], [-89.96675, 46.13171], [-89.9667, 46.13171], [-89.96666, 46.13171], [-89.9666, 46.13172], [-89.96659, 46.13172], [-89.96659, 46.1317], [-89.96654, 46.13169], [-89.96654, 46.13168], [-89.9665, 46.13166], [-89.96646, 46.13165], [-89.96641, 46.13164], [-89.96636, 46.13162], [-89.96632, 46.1316], [-89.96629, 46.13158], [-89.96627, 46.13156], [-89.96623, 46.13153], [-89.96619, 46.13149], [-89.96619, 46.13145], [-89.96623, 46.13143], [-89.96626, 46.13141], [-89.9663, 46.13141], [-89.96636, 46.13142], [-89.9664, 46.13143], [-89.96645, 46.13144], [-89.96649, 46.13142], [-89.96653, 46.13141], [-89.96657, 46.13142], [-89.96662, 46.13143], [-89.96666, 46.13144], [-89.96671, 46.13145], [-89.96674, 46.13144], [-89.96678, 46.13146], [-89.96685, 46.13145], [-89.96689, 46.13145], [-89.96694, 46.13145], [-89.96697, 46.13144], [-89.96697, 46.1314], [-89.96695, 46.13137], [-89.96694, 46.13135], [-89.96693, 46.13132], [-89.96695, 46.13128], [-89.96695, 46.13125], [-89.967, 46.13123], [-89.96703, 46.13121], [-89.96708, 46.13121], [-89.96713, 46.13122], [-89.96718, 46.13122], [-89.96721, 46.13124], [-89.96726, 46.13122], [-89.96732, 46.13122], [-89.96737, 46.13122], [-89.96741, 46.13121], [-89.96745, 46.1312], [-89.9675, 46.1312], [-89.96755, 46.13119], [-89.9676, 46.13118], [-89.96765, 46.13117], [-89.96769, 46.13116], [-89.96774, 46.13116], [-89.96778, 46.13115], [-89.96783, 46.13114], [-89.96788, 46.13111], [-89.96793, 46.13111], [-89.96797, 46.13112], [-89.96802, 46.13113], [-89.96807, 46.13114], [-89.96812, 46.13115], [-89.96816, 46.13114], [-89.9682, 46.13116], [-89.96824, 46.13118], [-89.96827, 46.1312], [-89.96828, 46.13123], [-89.9683, 46.13127], [-89.96831, 46.1313], [-89.96829, 46.13134], [-89.96827, 46.13136], [-89.96825, 46.13139], [-89.96824, 46.13141], [-89.96822, 46.13145], [-89.96823, 46.13148], [-89.96823, 46.13152], [-89.96824, 46.13152], [-89.96824, 46.13155], [-89.96824, 46.13158], [-89.96825, 46.13161], [-89.96828, 46.13164], [-89.96831, 46.13166], [-89.96834, 46.13168], [-89.96839, 46.13168], [-89.9684, 46.13171], [-89.96842, 46.13171], [-89.96845, 46.1317], [-89.96847, 46.1317], [-89.96849, 46.1317], [-89.96855, 46.13169], [-89.96855, 46.13169], [-89.96858, 46.13167], [-89.96861, 46.13164], [-89.96864, 46.13161], [-89.96866, 46.13165], [-89.96868, 46.13161], [-89.96867, 46.13157], [-89.96872, 46.13158], [-89.96876, 46.13156], [-89.96879, 46.13155], [-89.96882, 46.13151], [-89.96886, 46.13151], [-89.96889, 46.13146], [-89.96889, 46.13143], [-89.96894, 46.13143], [-89.96895, 46.13141], [-89.96895, 46.1314], [-89.96899, 46.13138], [-89.96901, 46.13135], [-89.96904, 46.13132], [-89.96908, 46.13132], [-89.96906, 46.13129], [-89.96911, 46.13128], [-89.96914, 46.13128], [-89.96916, 46.13129], [-89.96918, 46.13127], [-89.9692, 46.13126], [-89.96922, 46.13122], [-89.96924, 46.13122], [-89.96927, 46.1312], [-89.96929, 46.13121], [-89.96934, 46.13121], [-89.96936, 46.13117], [-89.96936, 46.13117], [-89.96941, 46.13116], [-89.96947, 46.13116], [-89.96951, 46.13114], [-89.96953, 46.1311], [-89.96955, 46.1311], [-89.96958, 46.13109], [-89.96963, 46.13108], [-89.96968, 46.13106], [-89.96971, 46.13105], [-89.96975, 46.13103], [-89.96979, 46.13106], [-89.96977, 46.13109], [-89.96981, 46.13108], [-89.9698, 46.13105], [-89.96984, 46.13104], [-89.96988, 46.13102], [-89.9699, 46.13099], [-89.96984, 46.13096], [-89.96981, 46.13094], [-89.96978, 46.13091], [-89.96976, 46.1309], [-89.96971, 46.13089], [-89.96967, 46.13088], [-89.96962, 46.13087], [-89.96956, 46.13086], [-89.96949, 46.13087], [-89.96949, 46.13084], [-89.96946, 46.13082], [-89.96944, 46.13079], [-89.9694, 46.13076], [-89.96935, 46.13075], [-89.96931, 46.13075], [-89.96928, 46.13073], [-89.96926, 46.1307], [-89.96925, 46.13066], [-89.96924, 46.13066], [-89.96924, 46.13063], [-89.96919, 46.13062], [-89.96918, 46.13058], [-89.96915, 46.13056], [-89.96912, 46.13053], [-89.96909, 46.13051], [-89.96904, 46.13049], [-89.969, 46.13048], [-89.96901, 46.13044], [-89.96903, 46.13042], [-89.96903, 46.13039], [-89.96903, 46.13036], [-89.96897, 46.13035], [-89.96892, 46.13031], [-89.96887, 46.13031], [-89.96883, 46.1303], [-89.96879, 46.13028], [-89.96875, 46.13026], [-89.96871, 46.13024], [-89.96866, 46.13023], [-89.96863, 46.13019], [-89.96862, 46.13015], [-89.96857, 46.13016], [-89.96854, 46.13013], [-89.9685, 46.13012], [-89.96846, 46.1301], [-89.96843, 46.13008], [-89.96839, 46.13006], [-89.96837, 46.13003], [-89.96837, 46.12998], [-89.96841, 46.12998], [-89.96845, 46.12997], [-89.96844, 46.12993], [-89.96847, 46.12991], [-89.96844, 46.12986], [-89.96848, 46.12984], [-89.96849, 46.12981], [-89.96852, 46.12979], [-89.96856, 46.12978], [-89.9686, 46.12975], [-89.96861, 46.12972], [-89.96857, 46.1297], [-89.96852, 46.1297], [-89.96852, 46.12967], [-89.96848, 46.12965], [-89.96843, 46.12964], [-89.9684, 46.12962], [-89.96835, 46.1296], [-89.9683, 46.12959], [-89.96825, 46.1296], [-89.96828, 46.12962], [-89.96825, 46.12965], [-89.96822, 46.12967], [-89.96818, 46.12968], [-89.96814, 46.12969], [-89.9681, 46.1297], [-89.96806, 46.12972], [-89.96804, 46.12975], [-89.96802, 46.12977], [-89.96797, 46.12979], [-89.96793, 46.1298], [-89.96789, 46.12984], [-89.96784, 46.12986], [-89.96783, 46.12988], [-89.96779, 46.1299], [-89.9678, 46.12992], [-89.96777, 46.12995], [-89.96774, 46.12997], [-89.96769, 46.12995], [-89.96764, 46.12994], [-89.96761, 46.12998], [-89.9676, 46.13001], [-89.9676, 46.13004], [-89.96758, 46.13009], [-89.96753, 46.13009], [-89.96749, 46.13007], [-89.96745, 46.13008], [-89.96741, 46.13008], [-89.96736, 46.13009], [-89.96729, 46.13009], [-89.96723, 46.13012], [-89.96723, 46.13015], [-89.96718, 46.13016], [-89.96714, 46.13018], [-89.96709, 46.13018], [-89.96705, 46.13021], [-89.96701, 46.13021], [-89.96698, 46.13023], [-89.96693, 46.13022], [-89.96688, 46.13022], [-89.96683, 46.13021], [-89.96682, 46.13021], [-89.96675, 46.13021], [-89.96673, 46.13021], [-89.96668, 46.13022], [-89.96664, 46.1302], [-89.96662, 46.13017], [-89.96661, 46.13013], [-89.96661, 46.1301], [-89.96661, 46.13006], [-89.9666, 46.13002], [-89.9666, 46.12998], [-89.96658, 46.12996], [-89.96664, 46.12995], [-89.96663, 46.1299], [-89.96664, 46.12987], [-89.96667, 46.12985], [-89.96667, 46.12981], [-89.96668, 46.12977], [-89.96669, 46.12975], [-89.96672, 46.12971], [-89.96674, 46.12967], [-89.96676, 46.12965], [-89.96675, 46.12961], [-89.96672, 46.12959], [-89.96668, 46.12956], [-89.96662, 46.12956], [-89.96658, 46.12952], [-89.96653, 46.12951], [-89.96649, 46.12948], [-89.96646, 46.12946], [-89.9664, 46.12945], [-89.96636, 46.12942], [-89.96634, 46.12939], [-89.96631, 46.12934], [-89.96634, 46.12932], [-89.96638, 46.12931], [-89.9664, 46.12928], [-89.96642, 46.12922], [-89.96648, 46.12925], [-89.96652, 46.12923], [-89.96655, 46.12919], [-89.96652, 46.12916], [-89.96656, 46.12916], [-89.96662, 46.12916], [-89.96665, 46.12914], [-89.96668, 46.1291], [-89.96674, 46.12909], [-89.96677, 46.12905], [-89.96684, 46.12905], [-89.96689, 46.12906], [-89.96692, 46.12907], [-89.96696, 46.12908], [-89.96699, 46.1291], [-89.96703, 46.12912], [-89.96708, 46.12912], [-89.96712, 46.12914], [-89.96715, 46.1291], [-89.96718, 46.12909], [-89.96719, 46.12906], [-89.96724, 46.12906], [-89.96729, 46.12904], [-89.96733, 46.12903], [-89.96738, 46.12901], [-89.96742, 46.12899], [-89.96744, 46.12896], [-89.96747, 46.12892], [-89.96753, 46.12892], [-89.9675, 46.12891], [-89.96747, 46.12888], [-89.96746, 46.12883], [-89.96751, 46.12881], [-89.96756, 46.12881], [-89.96759, 46.12878], [-89.96765, 46.12877], [-89.9677, 46.12876], [-89.96769, 46.12873], [-89.96771, 46.12868], [-89.96775, 46.12866], [-89.96777, 46.12863], [-89.96781, 46.12862], [-89.96784, 46.12858], [-89.96784, 46.12856], [-89.96783, 46.12853], [-89.96784, 46.1285], [-89.96784, 46.12846], [-89.96788, 46.12844], [-89.96791, 46.12842], [-89.9679, 46.12839], [-89.96787, 46.12837], [-89.96783, 46.12836], [-89.96779, 46.12833], [-89.96777, 46.12829], [-89.96778, 46.12825], [-89.96779, 46.12821], [-89.96779, 46.12818], [-89.96778, 46.12816], [-89.9678, 46.12813], [-89.96778, 46.12809], [-89.96778, 46.12805], [-89.96779, 46.12802], [-89.9678, 46.12801], [-89.96779, 46.12798], [-89.96779, 46.12795], [-89.96775, 46.12792], [-89.9677, 46.12795], [-89.96763, 46.12796], [-89.9676, 46.12796], [-89.96755, 46.12796], [-89.96751, 46.12795], [-89.96747, 46.12792], [-89.96741, 46.12793], [-89.96739, 46.12791], [-89.96736, 46.12788], [-89.96733, 46.12785], [-89.96728, 46.12782], [-89.96728, 46.12779], [-89.96724, 46.1278], [-89.9672, 46.1278], [-89.96718, 46.12779], [-89.96714, 46.12779], [-89.96714, 46.12778], [-89.96714, 46.12779], [-89.9671, 46.12779], [-89.96706, 46.12782], [-89.96703, 46.12783], [-89.96699, 46.12786], [-89.96698, 46.12787], [-89.96696, 46.12789], [-89.96693, 46.12792], [-89.96689, 46.12794], [-89.96686, 46.12797], [-89.96683, 46.12799], [-89.96679, 46.12801], [-89.96675, 46.12803], [-89.9667, 46.12807], [-89.96668, 46.12809], [-89.96666, 46.12812], [-89.96661, 46.12813], [-89.96658, 46.12814], [-89.96653, 46.12814], [-89.96648, 46.12814], [-89.96644, 46.12812], [-89.96643, 46.12808], [-89.96645, 46.12805], [-89.96646, 46.12802], [-89.96646, 46.12799], [-89.96648, 46.12796], [-89.9665, 46.12792], [-89.96651, 46.12789], [-89.96653, 46.12785], [-89.96655, 46.12783], [-89.96658, 46.1278], [-89.96658, 46.12777], [-89.96661, 46.12774], [-89.9666, 46.12771], [-89.96659, 46.12768], [-89.96662, 46.12766], [-89.96663, 46.12762], [-89.96663, 46.12759], [-89.96661, 46.12756], [-89.96658, 46.12754], [-89.96655, 46.12751], [-89.96651, 46.12749], [-89.96647, 46.12748], [-89.96643, 46.12746], [-89.9664, 46.12742], [-89.9664, 46.12738], [-89.96639, 46.12735], [-89.96635, 46.12732], [-89.96632, 46.1273], [-89.96629, 46.12728], [-89.96629, 46.12728], [-89.96627, 46.12727], [-89.96626, 46.12726], [-89.96623, 46.12724], [-89.96619, 46.12722], [-89.96616, 46.1272], [-89.96612, 46.12718], [-89.96608, 46.12716], [-89.96603, 46.12714], [-89.96599, 46.12712], [-89.96596, 46.12708], [-89.9659, 46.12696], [-89.96591, 46.12696], [-89.96593, 46.12693], [-89.96596, 46.12692], [-89.96598, 46.12691], [-89.96599, 46.1269], [-89.96603, 46.12687], [-89.96606, 46.12684]]]}, "properties": {"poly_IncidentName": "Bog", "poly_GISAcres": 94.08, "poly_DateCurrent": 1789497051000}}, {"type": "Feature", "geometry": {"type": "Polygon", "coordinates": [[[-87.96188, 45.44294], [-87.96191, 45.44294], [-87.96195, 45.44292], [-87.96197, 45.44289], [-87.96196, 45.44286], [-87.96197, 45.44283], [-87.96201, 45.44281], [-87.96204, 45.44278], [-87.96207, 45.44276], [-87.96211, 45.44274], [-87.96215, 45.44273], [-87.96216, 45.44275], [-87.96216, 45.44278], [-87.96217, 45.44282], [-87.9622, 45.44285], [-87.96225, 45.44286], [-87.96229, 45.44285], [-87.96232, 45.44283], [-87.96234, 45.44279], [-87.96234, 45.44276], [-87.96232, 45.44273], [-87.96229, 45.44271], [-87.96225, 45.44269], [-87.96229, 45.44268], [-87.96234, 45.4427], [-87.96236, 45.44272], [-87.96238, 45.44276], [-87.96242, 45.44277], [-87.96246, 45.44278], [-87.9625, 45.4428], [-87.96254, 45.44283], [-87.96258, 45.44283], [-87.96263, 45.44282], [-87.96268, 45.44284], [-87.9627, 45.44286], [-87.96275, 45.44287], [-87.96275, 45.44284], [-87.96272, 45.44282], [-87.96268, 45.44281], [-87.96271, 45.44279], [-87.96275, 45.44278], [-87.96278, 45.44276], [-87.96281, 45.44279], [-87.96285, 45.4428], [-87.96286, 45.44278], [-87.96288, 45.44275], [-87.96286, 45.44272], [-87.96287, 45.4427], [-87.96288, 45.44266], [-87.9629, 45.44263], [-87.96295, 45.44263], [-87.96297, 45.44265], [-87.96301, 45.44268], [-87.96305, 45.4427], [-87.96308, 45.44272], [-87.96312, 45.4427], [-87.96314, 45.44267], [-87.96312, 45.44264], [-87.9631, 45.4426], [-87.96311, 45.44258], [-87.96312, 45.44255], [-87.96313, 45.44252], [-87.96312, 45.44249], [-87.9631, 45.44246], [-87.96306, 45.44241], [-87.96304, 45.44241], [-87.96298, 45.44241], [-87.96297, 45.44244], [-87.96293, 45.44246], [-87.96294, 45.44248], [-87.96291, 45.4425], [-87.96287, 45.44249], [-87.96282, 45.44251], [-87.96278, 45.4425], [-87.96274, 45.44249], [-87.9627, 45.44247], [-87.96272, 45.44244], [-87.96277, 45.44245], [-87.9628, 45.44243], [-87.96277, 45.44241], [-87.96278, 45.44238], [-87.96277, 45.44234], [-87.96281, 45.44234], [-87.96284, 45.44232], [-87.96283, 45.4423], [-87.96287, 45.4423], [-87.96291, 45.4423], [-87.96295, 45.44232], [-87.96298, 45.44238], [-87.96301, 45.44239], [-87.96305, 45.44239], [-87.96305, 45.44238], [-87.96307, 45.44232], [-87.9631, 45.44235], [-87.96312, 45.44237], [-87.96312, 45.4424], [-87.96314, 45.44243], [-87.96318, 45.44245], [-87.96318, 45.44248], [-87.96318, 45.44251], [-87.9632, 45.44254], [-87.96322, 45.44256], [-87.96323, 45.44259], [-87.96322, 45.44262], [-87.96322, 45.44266], [-87.9632, 45.44269], [-87.9632, 45.44271], [-87.96323, 45.44274], [-87.96325, 45.44271], [-87.96326, 45.44268], [-87.96328, 45.44264], [-87.96333, 45.44263], [-87.96333, 45.44267], [-87.96334, 45.4427], [-87.96339, 45.44271], [-87.96343, 45.44271], [-87.96348, 45.44271], [-87.96352, 45.4427], [-87.96357, 45.4427], [-87.96362, 45.44271], [-87.96365, 45.4427], [-87.9637, 45.44268], [-87.96375, 45.44269], [-87.96377, 45.44272], [-87.96374, 45.44275], [-87.96373, 45.44278], [-87.96377, 45.44279], [-87.96378, 45.44282], [-87.96378, 45.44285], [-87.96378, 45.44288], [-87.96378, 45.44291], [-87.96379, 45.44295], [-87.9638, 45.44298], [-87.96379, 45.44301], [-87.96375, 45.44304], [-87.96372, 45.44305], [-87.96371, 45.44308], [-87.96376, 45.44309], [-87.9638, 45.44311], [-87.96386, 45.44311], [-87.96389, 45.44308], [-87.96393, 45.44307], [-87.96397, 45.44306], [-87.964, 45.44309], [-87.96398, 45.44312], [-87.96398, 45.44316], [-87.96395, 45.44317], [-87.9639, 45.44317], [-87.96386, 45.44317], [-87.96382, 45.44316], [-87.96378, 45.44316], [-87.96374, 45.44317], [-87.9637, 45.44317], [-87.96364, 45.44317], [-87.96363, 45.4432], [-87.96368, 45.44321], [-87.96372, 45.44323], [-87.96371, 45.44327], [-87.96372, 45.4433], [-87.96374, 45.44332], [-87.96376, 45.44335], [-87.96378, 45.44338], [-87.9638, 45.4434], [-87.96382, 45.44343], [-87.96384, 45.44346], [-87.96385, 45.44349], [-87.96388, 45.44352], [-87.96393, 45.44353], [-87.96397, 45.44354], [-87.96399, 45.44357], [-87.964, 45.44361], [-87.96397, 45.44363], [-87.96392, 45.44364], [-87.96391, 45.44368], [-87.96389, 45.4437], [-87.96385, 45.44372], [-87.96381, 45.44374], [-87.96377, 45.44375], [-87.96374, 45.44375], [-87.9637, 45.44376], [-87.96366, 45.44376], [-87.96362, 45.44376], [-87.96359, 45.44378], [-87.96356, 45.4438], [-87.96359, 45.44382], [-87.96361, 45.44385], [-87.96358, 45.44387], [-87.96358, 45.4439], [-87.96355, 45.44393], [-87.96351, 45.44394], [-87.96347, 45.44396], [-87.96343, 45.44397], [-87.96338, 45.44398], [-87.96334, 45.44398], [-87.9633, 45.44398], [-87.96325, 45.44397], [-87.96321, 45.44396], [-87.96316, 45.44395], [-87.96311, 45.44394], [-87.96307, 45.44392], [-87.96303, 45.44391], [-87.96299, 45.4439], [-87.96295, 45.44388], [-87.96295, 45.44384], [-87.96297, 45.44381], [-87.96301, 45.44378], [-87.96301, 45.44374], [-87.96299, 45.44371], [-87.96297, 45.44368], [-87.96297, 45.44365], [-87.96298, 45.44361], [-87.96299, 45.44358], [-87.96301, 45.44355], [-87.96302, 45.44351], [-87.96302, 45.44348], [-87.96303, 45.44344], [-87.96303, 45.44341], [-87.96302, 45.44338], [-87.96301, 45.44335], [-87.96296, 45.44333], [-87.96292, 45.44331], [-87.96288, 45.44329], [-87.96284, 45.44326], [-87.9628, 45.44325], [-87.96275, 45.44324], [-87.96271, 45.44325], [-87.96267, 45.44326], [-87.96262, 45.44326], [-87.96257, 45.44324], [-87.96253, 45.44323], [-87.96249, 45.44322], [-87.96248, 45.44318], [-87.96249, 45.44315], [-87.96251, 45.44313], [-87.96251, 45.44309], [-87.96249, 45.44307], [-87.96245, 45.44305], [-87.96243, 45.44303], [-87.9624, 45.443], [-87.96237, 45.44298], [-87.96231, 45.44297], [-87.96227, 45.44299], [-87.96223, 45.44298], [-87.96217, 45.44298], [-87.96214, 45.443], [-87.96213, 45.44303], [-87.9621, 45.44306], [-87.96207, 45.44308], [-87.96202, 45.44307], [-87.96198, 45.44304], [-87.96195, 45.44303], [-87.96191, 45.44304], [-87.96188, 45.44306], [-87.96183, 45.44307], [-87.96179, 45.44307], [-87.96174, 45.44309], [-87.96173, 45.44306], [-87.96172, 45.44302], [-87.96172, 45.44299], [-87.96174, 45.44296], [-87.96178, 45.44294], [-87.96183, 45.44294], [-87.96188, 45.44294]]]}, "properties": {"poly_IncidentName": "Quartz Fire", "poly_GISAcres": 3.11, "poly_DateCurrent": 1789396508000}}]}