{"type": "FeatureCollection", "crs": {"type": "name", "properties": {"name": "EPSG:4326"}}, "features": [{"type": "Feature", "geometry": {"type": "Polygon", "coordinates": [[[-80.98643, 31.87514], [-80.9846, 31.87586], [-80.98386, 31.87629], [-80.98287, 31.87724], [-80.98269, 31.87779], [-80.98172, 31.87724], [-80.97972, 31.87863], [-80.97993, 31.88], [-80.97889, 31.8814], [-80.97761, 31.88176], [-80.97689, 31.88069], [-80.97368, 31.88276], [-80.97427, 31.88341], [-80.97361, 31.88458], [-80.97259, 31.88359], [-80.97215, 31.88387], [-80.96884, 31.88489], [-80.96708, 31.88219], [-80.97388, 31.87633], [-80.98611, 31.86444], [-80.9888, 31.86181], [-80.99077, 31.85988], [-80.9917, 31.85895], [-80.99354, 31.85812], [-80.99412, 31.85762], [-80.99511, 31.85752], [-80.99901, 31.85805], [-81.00084, 31.85852], [-81.00173, 31.85889], [-81.00258, 31.85948], [-81.00303, 31.86024], [-81.00313, 31.86119], [-81.00277, 31.86158], [-81.00091, 31.86342], [-80.99966, 31.86494], [-80.99696, 31.86942], [-80.99652, 31.87188], [-80.99521, 31.87111], [-80.99235, 31.87264], [-80.98942, 31.87482], [-80.98907, 31.87584], [-80.98828, 31.8756], [-80.98643, 31.87514]]]}, "properties": {"poly_IncidentName": "Main Trail", "poly_GISAcres": 200, "poly_DateCurrent": 1787500121208}}, {"type": "Feature", "geometry": {"type": "Polygon", "coordinates": [[[-76.55596, 36.61251], [-76.55595, 36.61244], [-76.55593, 36.6124], [-76.55589, 36.6124], [-76.55589, 36.61241], [-76.55588, 36.61241], [-76.55584, 36.6124], [-76.55584, 36.6124], [-76.55581, 36.61235], [-76.5558, 36.61231], [-76.55585, 36.6123], [-76.55589, 36.61228], [-76.55594, 36.61228], [-76.55596, 36.61233], [-76.55601, 36.61243], [-76.55603, 36.61249], [-76.55605, 36.61254], [-76.55607, 36.61257], [-76.55608, 36.6126], [-76.55609, 36.61265], [-76.55608, 36.61266], [-76.55605, 36.61268], [-76.556, 36.61268], [-76.556, 36.61268], [-76.55596, 36.61266], [-76.55596, 36.61263], [-76.55596, 36.61263], [-76.55596, 36.61263], [-76.55599, 36.6126], [-76.55597, 36.61252], [-76.55596, 36.61251]]]}, "properties": {"poly_IncidentName": "Maintenance", "poly_GISAcres": 0.1, "poly_DateCurrent": 1789499613323}}, {"type": "Feature", "geometry": {"type": "Polygon", "coordinates": [[[-87.44262, 45.316], [-87.44263, 45.31596], [-87.44261, 45.31593], [-87.4426, 45.3159], [-87.44265, 45.3159], [-87.44269, 45.31591], [-87.44273, 45.3159], [-87.44277, 45.31591], [-87.44281, 45.31591], [-87.44287, 45.31591], [-87.4429, 45.3159], [-87.44294, 45.31587], [-87.44298, 45.31589], [-87.44298, 45.31592], [-87.44298, 45.31596], [-87.44297, 45.31598], [-87.44294, 45.31601], [-87.44291, 45.31604], [-87.44288, 45.31607], [-87.44284, 45.31609], [-87.44282, 45.31612], [-87.4428, 45.31615], [-87.44275, 45.31615], [-87.44274, 45.31619], [-87.4427, 45.31617], [-87.44265, 45.31617], [-87.44261, 45.31617], [-87.44257, 45.31618], [-87.44254, 45.31616], [-87.4425, 45.31618], [-87.44246, 45.31617], [-87.44242, 45.31616], [-87.44237, 45.31616], [-87.44233, 45.31616], [-87.44228, 45.31616], [-87.44225, 45.31617], [-87.44221, 45.31617], [-87.44218, 45.31619], [-87.44214, 45.3162], [-87.4421, 45.31621], [-87.44206, 45.31621], [-87.44208, 45.31617], [-87.44204, 45.31616], [-87.44203, 45.31613], [-87.44206, 45.31611], [-87.44211, 45.31611], [-87.44215, 45.31611], [-87.44219, 45.31611], [-87.44225, 45.31611], [-87.4423, 45.3161], [-87.44234, 45.3161], [-87.44239, 45.31611], [-87.44242, 45.31609], [-87.44246, 45.31606], [-87.44249, 45.31607], [-87.44253, 45.31604], [-87.44257, 45.31603], [-87.44262, 45.31602], [-87.44262, 45.316]]]}, "properties": {"poly_IncidentName": "Kleinke", "poly_GISAcres": null, "poly_DateCurrent": 1789590417360}}, {"type": "Feature", "geometry": {"type": "Polygon", "coordinates": [[[-84.68096, 30.24885], [-84.68101, 30.24885], [-84.68105, 30.24884], [-84.6811, 30.24884], [-84.68114, 30.24884], [-84.68117, 30.24884], [-84.6812, 30.24884], [-84.68124, 30.24883], [-84.68128, 30.24883], [-84.68131, 30.24884], [-84.68131, 30.24887], [-84.68131, 30.24891], [-84.68131, 30.24894], [-84.6813, 30.24898], [-84.68128, 30.24901], [-84.68127, 30.24905], [-84.68125, 30.24908], [-84.68124, 30.24912], [-84.68122, 30.24915], [-84.68119, 30.24917], [-84.68121, 30.2492], [-84.68121, 30.24923], [-84.68118, 30.24926], [-84.68116, 30.24929], [-84.68114, 30.24932], [-84.6811, 30.24932], [-84.6811, 30.24936], [-84.68111, 30.24939], [-84.68107, 30.2494], [-84.68104, 30.24942], [-84.68101, 30.24943], [-84.681, 30.24946], [-84.68101, 30.24949], [-84.68102, 30.24951], [-84.68103, 30.24954], [-84.68104, 30.24957], [-84.68105, 30.2496], [-84.68102, 30.24962], [-84.681, 30.24965], [-84.68099, 30.24969], [-84.68098, 30.24972], [-84.68097, 30.24975], [-84.68094, 30.24977], [-84.68092, 30.24979], [-84.68091, 30.24982], [-84.68093, 30.24985], [-84.68092, 30.24989], [-84.68089, 30.24991], [-84.68087, 30.24993], [-84.68086, 30.24996], [-84.68083, 30.24998], [-84.6808, 30.24999], [-84.68077, 30.24999], [-84.68074, 30.24998], [-84.6807, 30.24999], [-84.68065, 30.24999], [-84.68062, 30.25001], [-84.6806, 30.25003], [-84.68059, 30.25007], [-84.6806, 30.2501], [-84.68058, 30.25013], [-84.68055, 30.25015], [-84.68052, 30.25017], [-84.6805, 30.2502], [-84.68048, 30.25023], [-84.68047, 30.25026], [-84.68045, 30.25028], [-84.68042, 30.2503], [-84.68041, 30.25033], [-84.68039, 30.25035], [-84.68036, 30.25037], [-84.68033, 30.25039], [-84.6803, 30.25042], [-84.68029, 30.25044], [-84.68026, 30.25047], [-84.68022, 30.25047], [-84.6802, 30.25049], [-84.68016, 30.2505], [-84.68014, 30.25052], [-84.68011, 30.25052], [-84.68006, 30.25052], [-84.68003, 30.25051], [-84.67999, 30.25049], [-84.67996, 30.25048], [-84.67992, 30.25048], [-84.67989, 30.25045], [-84.67989, 30.25042], [-84.67988, 30.25039], [-84.67987, 30.25036], [-84.67986, 30.25033], [-84.67986, 30.2503], [-84.67986, 30.25027], [-84.67986, 30.25024], [-84.67985, 30.25021], [-84.67985, 30.25019], [-84.67985, 30.25016], [-84.67986, 30.25013], [-84.67986, 30.25009], [-84.67986, 30.25005], [-84.67986, 30.25001], [-84.67986, 30.24998], [-84.67986, 30.24994], [-84.67986, 30.24991], [-84.67987, 30.24988], [-84.67987, 30.24984], [-84.67988, 30.24979], [-84.67987, 30.24976], [-84.67987, 30.24972], [-84.67988, 30.24969], [-84.67987, 30.24966], [-84.67987, 30.24963], [-84.67987, 30.2496], [-84.67986, 30.24956], [-84.67986, 30.24954], [-84.67986, 30.24951], [-84.67986, 30.24947], [-84.67986, 30.24943], [-84.67986, 30.24939], [-84.67986, 30.24935], [-84.67986, 30.24931], [-84.67984, 30.24927], [-84.67985, 30.24923], [-84.67984, 30.24919], [-84.67985, 30.24915], [-84.67986, 30.24911], [-84.67987, 30.24908], [-84.67987, 30.24904], [-84.67987, 30.249], [-84.67988, 30.24897], [-84.67989, 30.24893], [-84.6799, 30.2489], [-84.67991, 30.24887], [-84.67994, 30.24885], [-84.67996, 30.24883], [-84.68001, 30.24881], [-84.68005, 30.24881], [-84.68009, 30.2488], [-84.68012, 30.2488], [-84.68015, 30.2488], [-84.68019, 30.2488], [-84.68022, 30.2488], [-84.68025, 30.2488], [-84.6803, 30.2488], [-84.68034, 30.2488], [-84.68037, 30.2488], [-84.6804, 30.2488], [-84.68045, 30.2488], [-84.6805, 30.2488], [-84.68054, 30.2488], [-84.68058, 30.2488], [-84.68061, 30.2488], [-84.68066, 30.2488], [-84.68069, 30.2488], [-84.68074, 30.2488], [-84.68077, 30.2488], [-84.6808, 30.2488], [-84.68084, 30.2488], [-84.68088, 30.2488], [-84.68092, 30.24881], [-84.68096, 30.2488], [-84.68096, 30.24885]]]}, "properties": {"poly_IncidentName": "Dobro Fire", "poly_GISAcres": 4.6071247468606575, "poly_DateCurrent": 1789560377698}}, {"type": "Feature", "geometry": {"type": "Polygon", "coordinates": [[[-87.96188, 45.44294], [-87.96191, 45.44294], [-87.96195, 45.44292], [-87.96197, 45.44289], [-87.96196, 45.44286], [-87.96197, 45.44283], [-87.96201, 45.44281], [-87.96204, 45.44278], [-87.96207, 45.44276], [-87.96211, 45.44274], [-87.96215, 45.44273], [-87.96216, 45.44275], [-87.96216, 45.44278], [-87.96217, 45.44282], [-87.9622, 45.44285], [-87.96225, 45.44286], [-87.96229, 45.44285], [-87.96232, 45.44283], [-87.96234, 45.44279], [-87.96234, 45.44276], [-87.96232, 45.44273], [-87.96229, 45.44271], [-87.96225, 45.44269], [-87.96229, 45.44268], [-87.96234, 45.4427], [-87.96236, 45.44272], [-87.96238, 45.44276], [-87.96242, 45.44277], [-87.96246, 45.44278], [-87.9625, 45.4428], [-87.96254, 45.44283], [-87.96258, 45.44283], [-87.96263, 45.44282], [-87.96268, 45.44284], [-87.9627, 45.44286], [-87.96275, 45.44287], [-87.96275, 45.44284], [-87.96272, 45.44282], [-87.96268, 45.44281], [-87.96271, 45.44279], [-87.96275, 45.44278], [-87.96278, 45.44276], [-87.96281, 45.44279], [-87.96285, 45.4428], [-87.96286, 45.44278], [-87.96288, 45.44275], [-87.96286, 45.44272], [-87.96287, 45.4427], [-87.96288, 45.44266], [-87.9629, 45.44263], [-87.96295, 45.44263], [-87.96297, 45.44265], [-87.96301, 45.44268], [-87.96305, 45.4427], [-87.96308, 45.44272], [-87.96312, 45.4427], [-87.96314, 45.44267], [-87.96312, 45.44264], [-87.9631, 45.4426], [-87.96311, 45.44258], [-87.96312, 45.44255], [-87.96313, 45.44252], [-87.96312, 45.44249], [-87.9631, 45.44246], [-87.96306, 45.44241], [-87.96304, 45.44241], [-87.96298, 45.44241], [-87.96297, 45.44244], [-87.96293, 45.44246], [-87.96294, 45.44248], [-87.96291, 45.4425], [-87.96287, 45.44249], [-87.96282, 45.44251], [-87.96278, 45.4425], [-87.96274, 45.44249], [-87.9627, 45.44247], [-87.96272, 45.44244], [-87.96277, 45.44245], [-87.9628, 45.44243], [-87.96277, 45.44241], [-87.96278, 45.44238], [-87.96277, 45.44234], [-87.96281, 45.44234], [-87.96284, 45.44232], [-87.96283, 45.4423], [-87.96287, 45.4423], [-87.96291, 45.4423], [-87.96295, 45.44232], [-87.96298, 45.44238], [-87.96301, 45.44239], [-87.96305, 45.44239], [-87.96305, 45.44238], [-87.96307, 45.44232], [-87.9631, 45.44235], [-87.96312, 45.44237], [-87.96312, 45.4424], [-87.96314, 45.44243], [-87.96318, 45.44245], [-87.96318, 45.44248], [-87.96318, 45.44251], [-87.9632, 45.44254], [-87.96322, 45.44256], [-87.96323, 45.44259], [-87.96322, 45.44262], [-87.96322, 45.44266], [-87.9632, 45.44269], [-87.9632, 45.44271], [-87.96323, 45.44274], [-87.96325, 45.44271], [-87.96326, 45.44268], [-87.96328, 45.44264], [-87.96333, 45.44263], [-87.96333, 45.44267], [-87.96334, 45.4427], [-87.96339, 45.44271], [-87.96343, 45.44271], [-87.96348, 45.44271], [-87.96352, 45.4427], [-87.96357, 45.4427], [-87.96362, 45.44271], [-87.96365, 45.4427], [-87.9637, 45.44268], [-87.96375, 45.44269], [-87.96377, 45.44272], [-87.96374, 45.44275], [-87.96373, 45.44278], [-87.96377, 45.44279], [-87.96378, 45.44282], [-87.96378, 45.44285], [-87.96378, 45.44288], [-87.96378, 45.44291], [-87.96379, 45.44295], [-87.9638, 45.44298], [-87.96379, 45.44301], [-87.96375, 45.44304], [-87.96372, 45.44305], [-87.96371, 45.44308], [-87.96376, 45.44309], [-87.9638, 45.44311], [-87.96386, 45.44311], [-87.96389, 45.44308], [-87.96393, 45.44307], [-87.96397, 45.44306], [-87.964, 45.44309], [-87.96398, 45.44312], [-87.96398, 45.44316], [-87.96395, 45.44317], [-87.9639, 45.44317], [-87.96386, 45.44317], [-87.96382, 45.44316], [-87.96378, 45.44316], [-87.96374, 45.44317], [-87.9637, 45.44317], [-87.96364, 45.44317], [-87.96363, 45.4432], [-87.96368, 45.44321], [-87.96372, 45.44323], [-87.96371, 45.44327], [-87.96372, 45.4433], [-87.96374, 45.44332], [-87.96376, 45.44335], [-87.96378, 45.44338], [-87.9638, 45.4434], [-87.96382, 45.44343], [-87.96384, 45.44346], [-87.96385, 45.44349], [-87.96388, 45.44352], [-87.96393, 45.44353], [-87.96397, 45.44354], [-87.96399, 45.44357], [-87.964, 45.44361], [-87.96397, 45.44363], [-87.96392, 45.44364], [-87.96391, 45.44368], [-87.96389, 45.4437], [-87.96385, 45.44372], [-87.96381, 45.44374], [-87.96377, 45.44375], [-87.96374, 45.44375], [-87.9637, 45.44376], [-87.96366, 45.44376], [-87.96362, 45.44376], [-87.96359, 45.44378], [-87.96356, 45.4438], [-87.96359, 45.44382], [-87.96361, 45.44385], [-87.96358, 45.44387], [-87.96358, 45.4439], [-87.96355, 45.44393], [-87.96351, 45.44394], [-87.96347, 45.44396], [-87.96343, 45.44397], [-87.96338, 45.44398], [-87.96334, 45.44398], [-87.9633, 45.44398], [-87.96325, 45.44397], [-87.96321, 45.44396], [-87.96316, 45.44395], [-87.96311, 45.44394], [-87.96307, 45.44392], [-87.96303, 45.44391], [-87.96299, 45.4439], [-87.96295, 45.44388], [-87.96295, 45.44384], [-87.96297, 45.44381], [-87.96301, 45.44378], [-87.96301, 45.44374], [-87.96299, 45.44371], [-87.96297, 45.44368], [-87.96297, 45.44365], [-87.96298, 45.44361], [-87.96299, 45.44358], [-87.96301, 45.44355], [-87.96302, 45.44351], [-87.96302, 45.44348], [-87.96303, 45.44344], [-87.96303, 45.44341], [-87.96302, 45.44338], [-87.96301, 45.44335], [-87.96296, 45.44333], [-87.96292, 45.44331], [-87.96288, 45.44329], [-87.96284, 45.44326], [-87.9628, 45.44325], [-87.96275, 45.44324], [-87.96271, 45.44325], [-87.96267, 45.44326], [-87.96262, 45.44326], [-87.96257, 45.44324], [-87.96253, 45.44323], [-87.96249, 45.44322], [-87.96248, 45.44318], [-87.96249, 45.44315], [-87.96251, 45.44313], [-87.96251, 45.44309], [-87.96249, 45.44307], [-87.96245, 45.44305], [-87.96243, 45.44303], [-87.9624, 45.443], [-87.96237, 45.44298], [-87.96231, 45.44297], [-87.96227, 45.44299], [-87.96223, 45.44298], [-87.96217, 45.44298], [-87.96214, 45.443], [-87.96213, 45.44303], [-87.9621, 45.44306], [-87.96207, 45.44308], [-87.96202, 45.44307], [-87.96198, 45.44304], [-87.96195, 45.44303], [-87.96191, 45.44304], [-87.96188, 45.44306], [-87.96183, 45.44307], [-87.96179, 45.44307], [-87.96174, 45.44309], [-87.96173, 45.44306], [-87.96172, 45.44302], [-87.96172, 45.44299], [-87.96174, 45.44296], [-87.96178, 45.44294], [-87.96183, 45.44294], [-87.96188, 45.44294]]]}, "properties": {"poly_IncidentName": "Quartz Fire", "poly_GISAcres": 3.11, "poly_DateCurrent": 1789396508000}}]}