{"type": "FeatureCollection", "crs": {"type": "name", "properties": {"name": "EPSG:4326"}}, "features": [{"type": "Feature", "geometry": {"type": "MultiPolygon", "coordinates": [[[[-91.63219, 46.54403], [-91.63222, 46.54404], [-91.63227, 46.54407], [-91.63229, 46.54409], [-91.63235, 46.54412], [-91.63239, 46.54416], [-91.63242, 46.5442], [-91.63243, 46.54423], [-91.63241, 46.54425], [-91.63235, 46.54427], [-91.63231, 46.54429], [-91.63227, 46.54432], [-91.63223, 46.54434], [-91.6322, 46.54438], [-91.63218, 46.54443], [-91.63216, 46.54447], [-91.63214, 46.54452], [-91.6321, 46.54454], [-91.63206, 46.54458], [-91.63202, 46.54461], [-91.63198, 46.54463], [-91.63193, 46.54464], [-91.63187, 46.54465], [-91.6318, 46.54465], [-91.63174, 46.54465], [-91.63168, 46.54466], [-91.63161, 46.54465], [-91.63157, 46.54461], [-91.63154, 46.54459], [-91.6315, 46.54457], [-91.63145, 46.54455], [-91.6314, 46.54453], [-91.63137, 46.54451], [-91.63133, 46.54448], [-91.63128, 46.54446], [-91.63123, 46.54445], [-91.63116, 46.54444], [-91.6311, 46.54444], [-91.63104, 46.54443], [-91.63099, 46.5444], [-91.63096, 46.54436], [-91.63092, 46.54433], [-91.63087, 46.54431], [-91.63085, 46.54427], [-91.63085, 46.54424], [-91.63088, 46.54419], [-91.63089, 46.54415], [-91.63088, 46.54411], [-91.63085, 46.54408], [-91.63081, 46.54406], [-91.63075, 46.54403], [-91.63069, 46.54401], [-91.63063, 46.544], [-91.63058, 46.54396], [-91.63056, 46.54394], [-91.63052, 46.5439], [-91.63048, 46.54385], [-91.63046, 46.54382], [-91.63044, 46.5438], [-91.63042, 46.54377], [-91.6304, 46.54375], [-91.63038, 46.54372], [-91.63035, 46.54367], [-91.63032, 46.54362], [-91.63029, 46.54358], [-91.63027, 46.54355], [-91.63024, 46.54351], [-91.63025, 46.54346], [-91.63026, 46.54343], [-91.63024, 46.54339], [-91.6302, 46.54335], [-91.63015, 46.54333], [-91.63012, 46.54329], [-91.63012, 46.54326], [-91.63016, 46.54322], [-91.63022, 46.5432], [-91.63029, 46.54318], [-91.63036, 46.54316], [-91.6304, 46.54312], [-91.63042, 46.54308], [-91.63043, 46.54304], [-91.63048, 46.54301], [-91.63054, 46.54298], [-91.63061, 46.54297], [-91.63065, 46.54296], [-91.63072, 46.54294], [-91.63076, 46.54294], [-91.6308, 46.54293], [-91.63088, 46.54292], [-91.63094, 46.54291], [-91.63101, 46.5429], [-91.63106, 46.54288], [-91.63111, 46.54285], [-91.63117, 46.54284], [-91.63124, 46.54284], [-91.6313, 46.54284], [-91.63135, 46.54284], [-91.63141, 46.54283], [-91.63145, 46.54284], [-91.63149, 46.54287], [-91.63148, 46.54291], [-91.63145, 46.54295], [-91.63143, 46.54298], [-91.63141, 46.54301], [-91.6314, 46.54306], [-91.63141, 46.54311], [-91.63145, 46.54315], [-91.63151, 46.54318], [-91.63154, 46.5432], [-91.63158, 46.54324], [-91.63161, 46.54328], [-91.63163, 46.54331], [-91.63167, 46.54334], [-91.63169, 46.54337], [-91.63173, 46.54335], [-91.63177, 46.54335], [-91.63181, 46.54335], [-91.63186, 46.54335], [-91.63193, 46.54336], [-91.63198, 46.54338], [-91.63202, 46.54342], [-91.63206, 46.54345], [-91.63209, 46.54351], [-91.63211, 46.54355], [-91.63212, 46.54359], [-91.63213, 46.54363], [-91.63215, 46.54367], [-91.63217, 46.5437], [-91.63218, 46.54374], [-91.63217, 46.54378], [-91.63215, 46.54381], [-91.63212, 46.54383], [-91.63209, 46.54386], [-91.63207, 46.54389], [-91.63207, 46.54393], [-91.63208, 46.54396], [-91.63211, 46.544], [-91.63215, 46.54402], [-91.63219, 46.54403]]], [[[-91.63239, 46.54406], [-91.63219, 46.54403], [-91.63218, 46.54402], [-91.63239, 46.54406]]]]}, "properties": {"poly_IncidentName": "Bell", "poly_GISAcres": 5.07, "poly_DateCurrent": 1788270152000}}, {"type": "Feature", "geometry": {"type": "Polygon", "coordinates": [[[-89.08526, 44.55443], [-89.0853, 44.55442], [-89.08537, 44.55444], [-89.0855, 44.55449], [-89.08555, 44.55455], [-89.08551, 44.55459], [-89.08542, 44.55462], [-89.08537, 44.55461], [-89.08526, 44.55466], [-89.08511, 44.55465], [-89.08502, 44.55461], [-89.08483, 44.55456], [-89.08477, 44.55453], [-89.08479, 44.5545], [-89.08491, 44.55446], [-89.08498, 44.55446], [-89.08508, 44.55446], [-89.08509, 44.55446], [-89.08516, 44.55447], [-89.08518, 44.55446], [-89.08526, 44.55443]]]}, "properties": {"poly_IncidentName": "Honey", "poly_GISAcres": 0.25, "poly_DateCurrent": 1787419289000}}, {"type": "Feature", "geometry": {"type": "Polygon", "coordinates": [[[-80.98643, 31.87514], [-80.9846, 31.87586], [-80.98386, 31.87629], [-80.98287, 31.87724], [-80.98269, 31.87779], [-80.98172, 31.87724], [-80.97972, 31.87863], [-80.97993, 31.88], [-80.97889, 31.8814], [-80.97761, 31.88176], [-80.97689, 31.88069], [-80.97368, 31.88276], [-80.97427, 31.88341], [-80.97361, 31.88458], [-80.97259, 31.88359], [-80.97215, 31.88387], [-80.96884, 31.88489], [-80.96708, 31.88219], [-80.97388, 31.87633], [-80.98611, 31.86444], [-80.9888, 31.86181], [-80.99077, 31.85988], [-80.9917, 31.85895], [-80.99354, 31.85812], [-80.99412, 31.85762], [-80.99511, 31.85752], [-80.99901, 31.85805], [-81.00084, 31.85852], [-81.00173, 31.85889], [-81.00258, 31.85948], [-81.00303, 31.86024], [-81.00313, 31.86119], [-81.00277, 31.86158], [-81.00091, 31.86342], [-80.99966, 31.86494], [-80.99696, 31.86942], [-80.99652, 31.87188], [-80.99521, 31.87111], [-80.99235, 31.87264], [-80.98942, 31.87482], [-80.98907, 31.87584], [-80.98828, 31.8756], [-80.98643, 31.87514]]]}, "properties": {"poly_IncidentName": "Main Trail", "poly_GISAcres": 200, "poly_DateCurrent": 1787500121208}}, {"type": "Feature", "geometry": {"type": "Polygon", "coordinates": [[[-91.17383, 45.72505], [-91.17384, 45.72511], [-91.17382, 45.72525], [-91.17382, 45.72529], [-91.17382, 45.72532], [-91.17373, 45.72532], [-91.17372, 45.72518], [-91.17371, 45.72513], [-91.1737, 45.72505], [-91.1737, 45.72501], [-91.17378, 45.72499], [-91.17379, 45.725], [-91.17383, 45.72503], [-91.17383, 45.72505]]]}, "properties": {"poly_IncidentName": "Hoffman", "poly_GISAcres": 0.08, "poly_DateCurrent": 1788444852000}}, {"type": "Feature", "geometry": {"type": "Polygon", "coordinates": [[[-91.92806, 45.84755], [-91.92806, 45.84753], [-91.92808, 45.84752], [-91.92809, 45.84752], [-91.92813, 45.8475], [-91.92814, 45.84755], [-91.92814, 45.84759], [-91.92815, 45.84761], [-91.92815, 45.84766], [-91.92807, 45.84767], [-91.92807, 45.84761], [-91.92806, 45.84755]]]}, "properties": {"poly_IncidentName": "Dock Lake 3", "poly_GISAcres": 0.02, "poly_DateCurrent": 1786979768000}}, {"type": "Feature", "geometry": {"type": "MultiPolygon", "coordinates": [[[[-82.29885, 30.34327], [-82.29883, 30.34325], [-82.29883, 30.34325], [-82.29885, 30.34327]]], [[[-82.29815, 30.34292], [-82.29814, 30.34292], [-82.29819, 30.34291], [-82.29815, 30.34292]]], [[[-82.29878, 30.3432], [-82.29877, 30.3432], [-82.29876, 30.34319], [-82.29878, 30.3432]]], [[[-82.29883, 30.34325], [-82.29881, 30.34322], [-82.29878, 30.34321], [-82.29878, 30.3432], [-82.2988, 30.34321], [-82.29882, 30.34324], [-82.29883, 30.34325]]], [[[-82.29876, 30.34319], [-82.29875, 30.34319], [-82.29876, 30.34323], [-82.29876, 30.34326], [-82.29878, 30.34329], [-82.29881, 30.34332], [-82.29883, 30.34334], [-82.29887, 30.34335], [-82.29891, 30.34337], [-82.29894, 30.3434], [-82.29896, 30.34344], [-82.29897, 30.34349], [-82.29896, 30.34354], [-82.29894, 30.3436], [-82.29891, 30.34362], [-82.29889, 30.34364], [-82.29885, 30.34368], [-82.29884, 30.34371], [-82.2988, 30.34375], [-82.29878, 30.34377], [-82.29875, 30.3438], [-82.29871, 30.34383], [-82.29867, 30.34384], [-82.29864, 30.34385], [-82.2986, 30.34387], [-82.29856, 30.3439], [-82.29854, 30.34393], [-82.29851, 30.34397], [-82.29849, 30.34401], [-82.29848, 30.34405], [-82.29847, 30.34409], [-82.29843, 30.34411], [-82.29839, 30.34413], [-82.29833, 30.34415], [-82.29829, 30.34416], [-82.29823, 30.34418], [-82.2982, 30.34419], [-82.29817, 30.34419], [-82.29812, 30.34422], [-82.29809, 30.34426], [-82.29807, 30.34432], [-82.29804, 30.34435], [-82.29802, 30.34438], [-82.29798, 30.3444], [-82.29794, 30.34442], [-82.29791, 30.34444], [-82.29788, 30.34446], [-82.29785, 30.34449], [-82.29782, 30.34452], [-82.29778, 30.34456], [-82.29776, 30.34459], [-82.29774, 30.34462], [-82.2977, 30.34465], [-82.29766, 30.34468], [-82.29762, 30.3447], [-82.29758, 30.34472], [-82.29755, 30.34476], [-82.29751, 30.34479], [-82.29746, 30.34481], [-82.29743, 30.34485], [-82.2974, 30.34488], [-82.29736, 30.34491], [-82.29731, 30.34493], [-82.29726, 30.34495], [-82.29721, 30.34497], [-82.29718, 30.34498], [-82.29715, 30.34499], [-82.29712, 30.345], [-82.29709, 30.34502], [-82.29706, 30.34504], [-82.29704, 30.34505], [-82.297, 30.34508], [-82.297, 30.34512], [-82.29699, 30.34516], [-82.297, 30.34519], [-82.297, 30.34522], [-82.29695, 30.34525], [-82.29689, 30.34528], [-82.29685, 30.34529], [-82.29681, 30.3453], [-82.29677, 30.34532], [-82.29673, 30.34533], [-82.29669, 30.34534], [-82.29665, 30.34536], [-82.29661, 30.34537], [-82.29657, 30.34539], [-82.29653, 30.3454], [-82.29648, 30.34542], [-82.29644, 30.34543], [-82.29639, 30.34545], [-82.29635, 30.34546], [-82.2963, 30.34548], [-82.29625, 30.34549], [-82.29621, 30.34551], [-82.29616, 30.34552], [-82.29612, 30.34554], [-82.29608, 30.34555], [-82.29602, 30.34557], [-82.29598, 30.34558], [-82.29595, 30.34558], [-82.29592, 30.34559], [-82.29586, 30.34561], [-82.29582, 30.34562], [-82.29579, 30.34563], [-82.29575, 30.34565], [-82.29571, 30.34566], [-82.29567, 30.34567], [-82.29564, 30.34565], [-82.29559, 30.34563], [-82.29554, 30.3456], [-82.29552, 30.34558], [-82.29549, 30.34557], [-82.29546, 30.34555], [-82.2954, 30.34553], [-82.29535, 30.34551], [-82.29529, 30.34551], [-82.29523, 30.3455], [-82.29517, 30.3455], [-82.29513, 30.34549], [-82.2951, 30.34547], [-82.29505, 30.34545], [-82.29502, 30.34544], [-82.29497, 30.34542], [-82.29493, 30.34542], [-82.2949, 30.3454], [-82.29486, 30.34537], [-82.29483, 30.34534], [-82.29481, 30.34533], [-82.29477, 30.34531], [-82.29474, 30.3453], [-82.29471, 30.34529], [-82.29468, 30.34527], [-82.29465, 30.34525], [-82.29463, 30.34523], [-82.29459, 30.34522], [-82.29454, 30.34518], [-82.29451, 30.34516], [-82.29448, 30.34513], [-82.29445, 30.34511], [-82.29443, 30.34509], [-82.29441, 30.34507], [-82.29438, 30.34504], [-82.29436, 30.34502], [-82.29433, 30.345], [-82.2943, 30.34496], [-82.29427, 30.34492], [-82.29424, 30.34489], [-82.29419, 30.34487], [-82.29415, 30.34486], [-82.29412, 30.34484], [-82.29411, 30.3448], [-82.29407, 30.34476], [-82.29405, 30.34474], [-82.29402, 30.34472], [-82.29398, 30.34468], [-82.29393, 30.34465], [-82.2939, 30.34463], [-82.29386, 30.3446], [-82.29383, 30.34456], [-82.2938, 30.34452], [-82.29376, 30.34448], [-82.29372, 30.34444], [-82.2937, 30.34441], [-82.29367, 30.34438], [-82.29363, 30.34434], [-82.29359, 30.34432], [-82.29357, 30.3443], [-82.29353, 30.34428], [-82.29349, 30.34427], [-82.29345, 30.34425], [-82.29343, 30.34422], [-82.29341, 30.34418], [-82.29336, 30.34415], [-82.29331, 30.34413], [-82.29327, 30.34412], [-82.29322, 30.34411], [-82.29318, 30.3441], [-82.29312, 30.34408], [-82.29309, 30.34406], [-82.29304, 30.34404], [-82.29299, 30.34401], [-82.29294, 30.344], [-82.29289, 30.34402], [-82.29285, 30.34404], [-82.2928, 30.34407], [-82.29275, 30.34409], [-82.29272, 30.34411], [-82.29269, 30.34413], [-82.29266, 30.34414], [-82.29261, 30.34417], [-82.29256, 30.34419], [-82.29253, 30.34421], [-82.2925, 30.34422], [-82.29246, 30.34423], [-82.29243, 30.34424], [-82.2924, 30.34425], [-82.29237, 30.34426], [-82.29232, 30.34428], [-82.29229, 30.34431], [-82.29224, 30.34435], [-82.2922, 30.34438], [-82.29217, 30.3444], [-82.29212, 30.34443], [-82.29209, 30.34444], [-82.29204, 30.34447], [-82.292, 30.34447], [-82.29197, 30.34446], [-82.29178, 30.34439], [-82.29174, 30.34439], [-82.2917, 30.34439], [-82.29166, 30.3444], [-82.29163, 30.3444], [-82.2916, 30.34438], [-82.29156, 30.34434], [-82.29154, 30.34432], [-82.29151, 30.3443], [-82.29146, 30.34428], [-82.29143, 30.34426], [-82.29142, 30.34423], [-82.29142, 30.34419], [-82.29144, 30.34417], [-82.29146, 30.34415], [-82.29149, 30.34413], [-82.29152, 30.3441], [-82.29152, 30.34408], [-82.29152, 30.34406], [-82.2915, 30.34403], [-82.29147, 30.344], [-82.29146, 30.34396], [-82.29145, 30.34393], [-82.29147, 30.34389], [-82.29148, 30.34388], [-82.29145, 30.34387], [-82.29152, 30.34377], [-82.29152, 30.34376], [-82.2915, 30.34373], [-82.29149, 30.34368], [-82.2915, 30.34365], [-82.2915, 30.3436], [-82.29151, 30.34357], [-82.29153, 30.34354], [-82.29154, 30.34352], [-82.29157, 30.34347], [-82.29159, 30.34344], [-82.2916, 30.34342], [-82.2916, 30.34338], [-82.29161, 30.34335], [-82.29162, 30.34332], [-82.29162, 30.34328], [-82.29161, 30.34325], [-82.2916, 30.34322], [-82.29159, 30.34319], [-82.29157, 30.34313], [-82.29156, 30.34309], [-82.29156, 30.34305], [-82.29155, 30.343], [-82.29157, 30.34297], [-82.29159, 30.34293], [-82.2916, 30.3429], [-82.29162, 30.34284], [-82.29161, 30.34284], [-82.29162, 30.3428], [-82.29163, 30.34276], [-82.29164, 30.34271], [-82.29164, 30.34268], [-82.29166, 30.34264], [-82.29166, 30.34261], [-82.29166, 30.34257], [-82.29167, 30.34253], [-82.29167, 30.3425], [-82.29169, 30.34246], [-82.2917, 30.34243], [-82.29172, 30.3424], [-82.29174, 30.34238], [-82.29176, 30.34236], [-82.29179, 30.34234], [-82.29182, 30.34232], [-82.29184, 30.3423], [-82.29186, 30.34228], [-82.29189, 30.34226], [-82.29191, 30.34224], [-82.29193, 30.34221], [-82.29197, 30.34219], [-82.29203, 30.34216], [-82.29206, 30.34214], [-82.29209, 30.34213], [-82.29214, 30.34209], [-82.2922, 30.34205], [-82.29225, 30.34203], [-82.29231, 30.34201], [-82.29236, 30.342], [-82.29241, 30.34199], [-82.29244, 30.34199], [-82.29247, 30.34199], [-82.29251, 30.34198], [-82.29255, 30.34198], [-82.29261, 30.342], [-82.29265, 30.34202], [-82.29268, 30.34203], [-82.29273, 30.34206], [-82.29277, 30.34207], [-82.2928, 30.34208], [-82.29284, 30.34209], [-82.29292, 30.34212], [-82.29295, 30.34212], [-82.293, 30.34211], [-82.29305, 30.34208], [-82.29311, 30.34206], [-82.29315, 30.34204], [-82.29319, 30.34202], [-82.29321, 30.34198], [-82.29323, 30.34195], [-82.29322, 30.34192], [-82.29319, 30.3419], [-82.29316, 30.34188], [-82.29315, 30.34185], [-82.29317, 30.34183], [-82.29318, 30.34179], [-82.29318, 30.34176], [-82.29319, 30.34172], [-82.29319, 30.34166], [-82.2932, 30.34162], [-82.29321, 30.34159], [-82.29325, 30.34157], [-82.29328, 30.34156], [-82.29331, 30.34155], [-82.29336, 30.34152], [-82.2934, 30.34151], [-82.29343, 30.34149], [-82.29346, 30.34149], [-82.2935, 30.34147], [-82.29356, 30.34145], [-82.2936, 30.34145], [-82.29363, 30.34145], [-82.29367, 30.34145], [-82.29371, 30.34145], [-82.29374, 30.34143], [-82.29375, 30.34139], [-82.29378, 30.34137], [-82.29383, 30.34135], [-82.29387, 30.34136], [-82.29391, 30.34136], [-82.29395, 30.34136], [-82.294, 30.34137], [-82.29405, 30.34137], [-82.29409, 30.34137], [-82.29413, 30.34137], [-82.29417, 30.34138], [-82.29421, 30.34137], [-82.29424, 30.34138], [-82.29428, 30.34139], [-82.29431, 30.3414], [-82.29435, 30.3414], [-82.29441, 30.34142], [-82.29446, 30.34141], [-82.2945, 30.34142], [-82.29454, 30.34142], [-82.29458, 30.34143], [-82.29461, 30.34145], [-82.29465, 30.34147], [-82.29469, 30.34149], [-82.29472, 30.34151], [-82.29475, 30.34153], [-82.29479, 30.34155], [-82.29485, 30.34157], [-82.29488, 30.34159], [-82.29493, 30.3416], [-82.29498, 30.34161], [-82.29501, 30.34162], [-82.29503, 30.34165], [-82.29506, 30.34168], [-82.29509, 30.3417], [-82.29513, 30.3417], [-82.29516, 30.34168], [-82.29519, 30.34168], [-82.29523, 30.3417], [-82.29527, 30.34172], [-82.2953, 30.34173], [-82.29534, 30.34176], [-82.29536, 30.34179], [-82.29539, 30.34179], [-82.29542, 30.34181], [-82.29545, 30.34185], [-82.29548, 30.34186], [-82.29551, 30.34188], [-82.29555, 30.34191], [-82.29559, 30.34194], [-82.29562, 30.34197], [-82.29567, 30.342], [-82.29572, 30.34203], [-82.29576, 30.34205], [-82.29578, 30.34207], [-82.2958, 30.34209], [-82.29583, 30.3421], [-82.29587, 30.34212], [-82.29591, 30.34215], [-82.29593, 30.34217], [-82.29596, 30.34219], [-82.29599, 30.34221], [-82.29602, 30.34223], [-82.29604, 30.34225], [-82.29607, 30.34228], [-82.2961, 30.34231], [-82.29612, 30.34234], [-82.29615, 30.34237], [-82.29619, 30.34238], [-82.29623, 30.34241], [-82.29627, 30.34244], [-82.29631, 30.34246], [-82.29633, 30.34248], [-82.29636, 30.3425], [-82.29641, 30.34251], [-82.29645, 30.34253], [-82.29649, 30.34255], [-82.29653, 30.34258], [-82.29657, 30.34261], [-82.29661, 30.34265], [-82.29664, 30.34268], [-82.29668, 30.34271], [-82.29673, 30.34272], [-82.29676, 30.34274], [-82.29679, 30.34276], [-82.29682, 30.34277], [-82.29685, 30.34279], [-82.29687, 30.3428], [-82.29691, 30.34283], [-82.29695, 30.34286], [-82.29698, 30.34287], [-82.29703, 30.34288], [-82.29706, 30.3429], [-82.2971, 30.34292], [-82.29712, 30.34294], [-82.29716, 30.34297], [-82.2972, 30.343], [-82.29723, 30.34301], [-82.29727, 30.34302], [-82.2973, 30.34304], [-82.29733, 30.34304], [-82.29736, 30.34305], [-82.2974, 30.34306], [-82.29743, 30.34307], [-82.29746, 30.34306], [-82.2975, 30.34306], [-82.29753, 30.34304], [-82.29757, 30.34304], [-82.2976, 30.34304], [-82.29763, 30.34305], [-82.29767, 30.34304], [-82.29771, 30.34305], [-82.29775, 30.34304], [-82.29778, 30.34304], [-82.29783, 30.34304], [-82.29787, 30.34303], [-82.2979, 30.34302], [-82.29793, 30.343], [-82.29795, 30.34298], [-82.29798, 30.34296], [-82.29801, 30.34294], [-82.29804, 30.34293], [-82.29808, 30.34292], [-82.29812, 30.34292], [-82.29814, 30.34292], [-82.29812, 30.34292], [-82.29816, 30.34292], [-82.29819, 30.34293], [-82.29823, 30.34294], [-82.29825, 30.34297], [-82.29828, 30.34298], [-82.29831, 30.343], [-82.29834, 30.34302], [-82.29837, 30.34302], [-82.2984, 30.34301], [-82.29844, 30.34302], [-82.29848, 30.34302], [-82.29851, 30.34303], [-82.29854, 30.34304], [-82.29859, 30.34303], [-82.29863, 30.34301], [-82.29867, 30.34303], [-82.2987, 30.34305], [-82.29873, 30.34308], [-82.29874, 30.34313], [-82.29875, 30.34316], [-82.29875, 30.34318], [-82.29874, 30.34317], [-82.29875, 30.3432], [-82.29875, 30.34318], [-82.29876, 30.34319]]], [[[-82.29156, 30.34386], [-82.29155, 30.34383], [-82.29154, 30.3438], [-82.29155, 30.34386], [-82.29156, 30.34386]]], [[[-82.31376, 30.34042], [-82.31378, 30.3404], [-82.3139, 30.34028], [-82.31404, 30.3402], [-82.3141, 30.34026], [-82.31426, 30.34039], [-82.31437, 30.34048], [-82.31439, 30.34061], [-82.31429, 30.34067], [-82.31424, 30.3407], [-82.31378, 30.34097], [-82.31374, 30.341], [-82.3137, 30.34101], [-82.31241, 30.34162], [-82.3092, 30.3429], [-82.3065, 30.34317], [-82.30614, 30.34318], [-82.30614, 30.34317], [-82.30614, 30.34317], [-82.30609, 30.34317], [-82.30605, 30.34317], [-82.306, 30.34318], [-82.306, 30.34318], [-82.30593, 30.34318], [-82.30586, 30.3432], [-82.30586, 30.3432], [-82.30579, 30.34321], [-82.30578, 30.34321], [-82.3057, 30.34322], [-82.3056, 30.34323], [-82.30551, 30.34325], [-82.30541, 30.34326], [-82.30531, 30.34327], [-82.30521, 30.34328], [-82.30511, 30.34329], [-82.30501, 30.3433], [-82.30492, 30.34331], [-82.30483, 30.34332], [-82.30474, 30.34332], [-82.30465, 30.34333], [-82.30456, 30.34334], [-82.30447, 30.34335], [-82.30438, 30.34336], [-82.3043, 30.34337], [-82.30421, 30.34338], [-82.30413, 30.34339], [-82.30405, 30.3434], [-82.30397, 30.34341], [-82.30389, 30.34341], [-82.30382, 30.34342], [-82.30373, 30.34343], [-82.30365, 30.34343], [-82.30357, 30.34344], [-82.30349, 30.34345], [-82.30342, 30.34346], [-82.30334, 30.34346], [-82.30326, 30.34346], [-82.30318, 30.34347], [-82.30311, 30.34347], [-82.30303, 30.34349], [-82.30295, 30.34349], [-82.30288, 30.3435], [-82.30281, 30.3435], [-82.30275, 30.34351], [-82.30268, 30.34353], [-82.30262, 30.34353], [-82.30257, 30.34354], [-82.30252, 30.34354], [-82.30247, 30.34354], [-82.30243, 30.34353], [-82.30237, 30.34351], [-82.30234, 30.34348], [-82.3023, 30.34344], [-82.30227, 30.34341], [-82.30225, 30.34338], [-82.30223, 30.34334], [-82.30219, 30.3433], [-82.30218, 30.3433], [-82.30216, 30.34327], [-82.30214, 30.34323], [-82.3021, 30.3432], [-82.30206, 30.34317], [-82.302, 30.34314], [-82.30195, 30.34312], [-82.30189, 30.3431], [-82.30188, 30.3431], [-82.30188, 30.34309], [-82.30183, 30.34308], [-82.30178, 30.34307], [-82.30177, 30.34307], [-82.30173, 30.34306], [-82.3017, 30.34305], [-82.30166, 30.34304], [-82.30166, 30.34304], [-82.30163, 30.34303], [-82.30162, 30.34302], [-82.30161, 30.34302], [-82.30155, 30.34301], [-82.30154, 30.343], [-82.30153, 30.343], [-82.30146, 30.34298], [-82.30145, 30.34298], [-82.30143, 30.34297], [-82.30137, 30.34295], [-82.30131, 30.34292], [-82.30127, 30.34291], [-82.30122, 30.34288], [-82.30117, 30.34287], [-82.30115, 30.34285], [-82.3011, 30.34281], [-82.30105, 30.34279], [-82.30101, 30.34277], [-82.30098, 30.34274], [-82.30093, 30.34271], [-82.30089, 30.34269], [-82.30086, 30.34267], [-82.30082, 30.34264], [-82.30078, 30.34261], [-82.30077, 30.34261], [-82.30076, 30.3426], [-82.30072, 30.34255], [-82.30065, 30.34252], [-82.3006, 30.34247], [-82.30053, 30.34243], [-82.30048, 30.3424], [-82.3004, 30.34236], [-82.3004, 30.34236], [-82.30039, 30.34235], [-82.30034, 30.34232], [-82.3003, 30.34227], [-82.30029, 30.34225], [-82.30026, 30.34221], [-82.30024, 30.34217], [-82.30019, 30.34206], [-82.30017, 30.34202], [-82.30013, 30.34194], [-82.30011, 30.34191], [-82.30006, 30.34183], [-82.30005, 30.3418], [-82.30005, 30.34179], [-82.30006, 30.34176], [-82.30006, 30.34171], [-82.30007, 30.3417], [-82.30008, 30.34165], [-82.30008, 30.34163], [-82.30009, 30.3416], [-82.30009, 30.34158], [-82.30009, 30.34157], [-82.3001, 30.34152], [-82.30011, 30.34147], [-82.30013, 30.34142], [-82.30014, 30.34138], [-82.30014, 30.34137], [-82.30015, 30.34135], [-82.30015, 30.34135], [-82.30015, 30.34133], [-82.30016, 30.34128], [-82.30017, 30.34124], [-82.30017, 30.3412], [-82.30017, 30.34116], [-82.30017, 30.34113], [-82.30017, 30.34108], [-82.30018, 30.34104], [-82.30017, 30.34097], [-82.30016, 30.34095], [-82.30016, 30.34091], [-82.30016, 30.34086], [-82.30016, 30.3408], [-82.30017, 30.34078], [-82.30016, 30.34077], [-82.30016, 30.34073], [-82.30017, 30.34069], [-82.30017, 30.34068], [-82.30017, 30.34063], [-82.30017, 30.34058], [-82.30017, 30.34053], [-82.30017, 30.34048], [-82.30019, 30.34044], [-82.30021, 30.34038], [-82.30024, 30.34032], [-82.30024, 30.34031], [-82.30026, 30.34026], [-82.30027, 30.34022], [-82.30028, 30.34019], [-82.30028, 30.34017], [-82.30028, 30.34016], [-82.30029, 30.34011], [-82.30029, 30.34006], [-82.3003, 30.34], [-82.30032, 30.33994], [-82.30034, 30.33989], [-82.30034, 30.33985], [-82.30039, 30.33977], [-82.30039, 30.33972], [-82.30043, 30.33963], [-82.30044, 30.33956], [-82.30044, 30.33951], [-82.30045, 30.33945], [-82.30045, 30.33939], [-82.30046, 30.33933], [-82.30046, 30.33927], [-82.30047, 30.33921], [-82.30048, 30.33915], [-82.30049, 30.33909], [-82.30057, 30.33887], [-82.30058, 30.3388], [-82.30059, 30.33874], [-82.30059, 30.33869], [-82.30061, 30.33864], [-82.30062, 30.33859], [-82.30063, 30.33857], [-82.30063, 30.33857], [-82.30063, 30.33853], [-82.30064, 30.33849], [-82.30065, 30.33845], [-82.30065, 30.33845], [-82.30065, 30.33843], [-82.30065, 30.33841], [-82.30064, 30.33836], [-82.30065, 30.33834], [-82.30063, 30.33832], [-82.30065, 30.33829], [-82.30065, 30.33825], [-82.30065, 30.33822], [-82.30065, 30.33819], [-82.30065, 30.33815], [-82.30064, 30.33811], [-82.30064, 30.33808], [-82.30063, 30.33805], [-82.30062, 30.33802], [-82.30061, 30.33799], [-82.3006, 30.33797], [-82.30059, 30.33794], [-82.30058, 30.33791], [-82.30057, 30.33787], [-82.30056, 30.33784], [-82.30056, 30.33781], [-82.30056, 30.33778], [-82.30058, 30.33773], [-82.3006, 30.33768], [-82.30062, 30.33765], [-82.30065, 30.3376], [-82.30067, 30.33759], [-82.30069, 30.33756], [-82.30072, 30.33754], [-82.30075, 30.3375], [-82.30077, 30.33748], [-82.30079, 30.33745], [-82.30081, 30.33743], [-82.30083, 30.3374], [-82.30084, 30.33736], [-82.30086, 30.33733], [-82.30086, 30.33732], [-82.30087, 30.3373], [-82.30088, 30.33727], [-82.30089, 30.33726], [-82.30091, 30.33721], [-82.30091, 30.3372], [-82.30092, 30.33719], [-82.30091, 30.33718], [-82.3009, 30.33714], [-82.30087, 30.3371], [-82.30086, 30.33707], [-82.30085, 30.33702], [-82.30082, 30.33698], [-82.3008, 30.3369], [-82.30078, 30.33685], [-82.30074, 30.3368], [-82.30071, 30.33679], [-82.30067, 30.33673], [-82.30064, 30.33672], [-82.30061, 30.33669], [-82.30054, 30.33663], [-82.30051, 30.33661], [-82.30038, 30.33637], [-82.30038, 30.33637], [-82.30038, 30.33637], [-82.3004, 30.33636], [-82.3004, 30.33634], [-82.30038, 30.33629], [-82.30041, 30.33631], [-82.30042, 30.33635], [-82.30042, 30.33636], [-82.30043, 30.33636], [-82.30043, 30.33635], [-82.30041, 30.33632], [-82.3004, 30.33629], [-82.30039, 30.33626], [-82.30038, 30.33624], [-82.30037, 30.3362], [-82.30039, 30.33618], [-82.30042, 30.33615], [-82.30042, 30.33613], [-82.30048, 30.33602], [-82.30053, 30.33601], [-82.30056, 30.33599], [-82.30058, 30.33599], [-82.30062, 30.336], [-82.30065, 30.33601], [-82.30068, 30.336], [-82.30071, 30.33597], [-82.30073, 30.33594], [-82.30074, 30.33592], [-82.30076, 30.3359], [-82.30079, 30.3359], [-82.30078, 30.33587], [-82.30078, 30.33586], [-82.30078, 30.33585], [-82.30079, 30.33584], [-82.3008, 30.33584], [-82.30082, 30.33582], [-82.30084, 30.33579], [-82.30088, 30.3358], [-82.30085, 30.33578], [-82.30086, 30.33574], [-82.30087, 30.3357], [-82.30086, 30.33569], [-82.30087, 30.33568], [-82.30087, 30.33564], [-82.30087, 30.33562], [-82.30088, 30.3356], [-82.30086, 30.33559], [-82.30085, 30.33558], [-82.30085, 30.33554], [-82.30085, 30.33551], [-82.30085, 30.33548], [-82.30087, 30.33545], [-82.30088, 30.33543], [-82.30089, 30.33542], [-82.30089, 30.33539], [-82.30089, 30.33537], [-82.30089, 30.33535], [-82.30089, 30.33535], [-82.3009, 30.33533], [-82.30091, 30.33529], [-82.30093, 30.33526], [-82.30096, 30.33523], [-82.30098, 30.33521], [-82.301, 30.33518], [-82.30102, 30.33516], [-82.30103, 30.33513], [-82.30103, 30.33509], [-82.30102, 30.33507], [-82.30104, 30.33506], [-82.30106, 30.33502], [-82.30105, 30.33497], [-82.30105, 30.33493], [-82.30105, 30.33489], [-82.30103, 30.33486], [-82.30104, 30.33486], [-82.30105, 30.33483], [-82.30105, 30.33479], [-82.30106, 30.33477], [-82.30105, 30.33474], [-82.30104, 30.3347], [-82.30103, 30.33468], [-82.30103, 30.33466], [-82.30103, 30.33465], [-82.30103, 30.3346], [-82.30104, 30.33455], [-82.30105, 30.3345], [-82.30105, 30.33447], [-82.30106, 30.33444], [-82.30107, 30.3344], [-82.30108, 30.33437], [-82.30109, 30.33434], [-82.30109, 30.33432], [-82.30109, 30.33429], [-82.30108, 30.33424], [-82.30106, 30.3342], [-82.30106, 30.33419], [-82.30107, 30.33416], [-82.30108, 30.33415], [-82.30111, 30.33412], [-82.30112, 30.3341], [-82.30115, 30.33408], [-82.30119, 30.33404], [-82.30122, 30.334], [-82.30125, 30.33399], [-82.30128, 30.33397], [-82.30131, 30.33395], [-82.30134, 30.33394], [-82.30139, 30.33393], [-82.30144, 30.33391], [-82.30144, 30.3339], [-82.30146, 30.33386], [-82.30146, 30.33383], [-82.30145, 30.3338], [-82.30145, 30.33376], [-82.30146, 30.33372], [-82.30147, 30.33368], [-82.30147, 30.33367], [-82.30147, 30.33366], [-82.30146, 30.33363], [-82.30146, 30.33362], [-82.30147, 30.33362], [-82.30148, 30.33359], [-82.30153, 30.33359], [-82.30153, 30.33359], [-82.30162, 30.3336], [-82.30165, 30.33358], [-82.30166, 30.33358], [-82.30169, 30.33356], [-82.30186, 30.3334], [-82.30205, 30.33334], [-82.30222, 30.33329], [-82.30238, 30.33321], [-82.30242, 30.33321], [-82.30322, 30.33279], [-82.30344, 30.3327], [-82.30449, 30.33257], [-82.30536, 30.33215], [-82.30635, 30.3321], [-82.30692, 30.33205], [-82.30751, 30.33217], [-82.30789, 30.33216], [-82.308, 30.33216], [-82.30801, 30.33216], [-82.30801, 30.33216], [-82.30814, 30.33216], [-82.30841, 30.33214], [-82.30864, 30.33211], [-82.30883, 30.33201], [-82.30893, 30.33192], [-82.3094, 30.33148], [-82.30948, 30.33143], [-82.30964, 30.33132], [-82.30965, 30.33132], [-82.30965, 30.33132], [-82.30984, 30.33149], [-82.30995, 30.3316], [-82.31002, 30.33168], [-82.31009, 30.33174], [-82.31001, 30.33178], [-82.3099, 30.33181], [-82.30984, 30.33183], [-82.30981, 30.33184], [-82.30976, 30.33185], [-82.30972, 30.33186], [-82.30971, 30.33186], [-82.30969, 30.33186], [-82.30964, 30.33189], [-82.3096, 30.33191], [-82.30957, 30.33195], [-82.30958, 30.33199], [-82.3096, 30.33204], [-82.30961, 30.33206], [-82.30962, 30.33209], [-82.30963, 30.33212], [-82.30964, 30.33216], [-82.30965, 30.33221], [-82.30965, 30.33224], [-82.30965, 30.33228], [-82.30966, 30.33231], [-82.30969, 30.33233], [-82.30972, 30.33236], [-82.30977, 30.33238], [-82.30978, 30.33238], [-82.30982, 30.33241], [-82.30984, 30.33243], [-82.30985, 30.33247], [-82.30987, 30.33252], [-82.30987, 30.33256], [-82.30989, 30.3326], [-82.30989, 30.33266], [-82.30988, 30.33271], [-82.30985, 30.33275], [-82.30985, 30.33279], [-82.30984, 30.33284], [-82.30982, 30.33288], [-82.3098, 30.33291], [-82.30979, 30.33293], [-82.30976, 30.33296], [-82.30973, 30.33298], [-82.3097, 30.33301], [-82.30966, 30.33304], [-82.30963, 30.33305], [-82.30959, 30.33308], [-82.30955, 30.3331], [-82.3095, 30.33312], [-82.30947, 30.33313], [-82.30944, 30.33314], [-82.30941, 30.33316], [-82.30936, 30.33318], [-82.30933, 30.33321], [-82.30933, 30.33322], [-82.30926, 30.3333], [-82.30925, 30.33331], [-82.30925, 30.33331], [-82.30921, 30.33336], [-82.30921, 30.33336], [-82.30918, 30.3334], [-82.30909, 30.33344], [-82.30889, 30.33355], [-82.30886, 30.33356], [-82.3088, 30.33357], [-82.30875, 30.33359], [-82.3087, 30.3336], [-82.30865, 30.33362], [-82.3086, 30.33363], [-82.30855, 30.33364], [-82.3085, 30.33365], [-82.30846, 30.33366], [-82.30841, 30.33366], [-82.30838, 30.33367], [-82.30833, 30.33368], [-82.30832, 30.33368], [-82.30825, 30.33368], [-82.3082, 30.33369], [-82.30814, 30.33368], [-82.30808, 30.33366], [-82.30808, 30.33366], [-82.30803, 30.33364], [-82.30799, 30.33364], [-82.30796, 30.33363], [-82.30793, 30.33362], [-82.3079, 30.33361], [-82.30784, 30.33359], [-82.30782, 30.33358], [-82.30781, 30.33358], [-82.30778, 30.33357], [-82.30773, 30.33354], [-82.3077, 30.33353], [-82.30767, 30.33351], [-82.30764, 30.33349], [-82.30761, 30.33347], [-82.30757, 30.33343], [-82.30756, 30.33343], [-82.30754, 30.33341], [-82.30751, 30.33339], [-82.30749, 30.33337], [-82.30747, 30.33335], [-82.30742, 30.3333], [-82.3074, 30.33328], [-82.30738, 30.33325], [-82.30736, 30.33322], [-82.30735, 30.33319], [-82.30732, 30.33317], [-82.3073, 30.33314], [-82.30728, 30.33312], [-82.30726, 30.33309], [-82.30722, 30.33304], [-82.3072, 30.33302], [-82.30718, 30.33299], [-82.30713, 30.33296], [-82.30707, 30.33294], [-82.30702, 30.33293], [-82.307, 30.33293], [-82.30687, 30.33282], [-82.30686, 30.33282], [-82.30686, 30.33278], [-82.30674, 30.33274], [-82.30626, 30.33259], [-82.30589, 30.33255], [-82.30538, 30.33279], [-82.30462, 30.33327], [-82.30446, 30.3334], [-82.30437, 30.33347], [-82.304, 30.33366], [-82.30399, 30.33366], [-82.30371, 30.33375], [-82.30349, 30.33379], [-82.30313, 30.33419], [-82.30314, 30.3342], [-82.30303, 30.33429], [-82.303, 30.3345], [-82.30299, 30.33505], [-82.30296, 30.33556], [-82.30298, 30.33615], [-82.30305, 30.33673], [-82.30304, 30.33713], [-82.30275, 30.33738], [-82.30274, 30.33738], [-82.30275, 30.33745], [-82.3033, 30.33807], [-82.30414, 30.33821], [-82.3055, 30.33839], [-82.30606, 30.33828], [-82.30682, 30.33793], [-82.30713, 30.33768], [-82.30698, 30.33745], [-82.30683, 30.33729], [-82.30658, 30.33709], [-82.30621, 30.33683], [-82.30594, 30.33678], [-82.30574, 30.33654], [-82.30562, 30.33628], [-82.30568, 30.33577], [-82.30602, 30.33556], [-82.30656, 30.33554], [-82.30733, 30.33563], [-82.30819, 30.3357], [-82.30826, 30.3357], [-82.30837, 30.33556], [-82.30856, 30.33535], [-82.30915, 30.33506], [-82.30947, 30.33482], [-82.30981, 30.33447], [-82.31006, 30.33431], [-82.31035, 30.3341], [-82.31101, 30.3339], [-82.31112, 30.33391], [-82.31121, 30.33387], [-82.31186, 30.33384], [-82.31268, 30.33374], [-82.31288, 30.33374], [-82.3129, 30.33373], [-82.31365, 30.33362], [-82.31427, 30.33378], [-82.31431, 30.33431], [-82.31395, 30.33464], [-82.31355, 30.33467], [-82.31338, 30.33481], [-82.31304, 30.33498], [-82.31286, 30.33501], [-82.31286, 30.33522], [-82.31292, 30.33587], [-82.31303, 30.33636], [-82.31327, 30.33651], [-82.31328, 30.3365], [-82.31331, 30.33648], [-82.31335, 30.33648], [-82.31339, 30.33648], [-82.31342, 30.33646], [-82.31346, 30.33644], [-82.31348, 30.33642], [-82.31349, 30.33639], [-82.31349, 30.33636], [-82.3135, 30.33632], [-82.31351, 30.33629], [-82.31353, 30.33626], [-82.31356, 30.33625], [-82.3136, 30.33625], [-82.31364, 30.33624], [-82.31367, 30.33623], [-82.31371, 30.33622], [-82.31375, 30.33621], [-82.31378, 30.33621], [-82.31382, 30.3362], [-82.31384, 30.33618], [-82.31388, 30.33616], [-82.31389, 30.33613], [-82.31391, 30.33611], [-82.31392, 30.33608], [-82.31391, 30.33605], [-82.31392, 30.33602], [-82.31393, 30.33599], [-82.31395, 30.33596], [-82.31398, 30.33594], [-82.31402, 30.33593], [-82.31405, 30.33591], [-82.31406, 30.33588], [-82.31408, 30.33585], [-82.3141, 30.33582], [-82.31414, 30.33581], [-82.31416, 30.33578], [-82.31415, 30.33574], [-82.31418, 30.33574], [-82.31422, 30.33574], [-82.31425, 30.33572], [-82.31427, 30.33569], [-82.3143, 30.33567], [-82.31433, 30.33566], [-82.31436, 30.33565], [-82.3144, 30.33563], [-82.31442, 30.3356], [-82.31444, 30.33557], [-82.31447, 30.33556], [-82.31451, 30.33556], [-82.31454, 30.33555], [-82.31458, 30.33554], [-82.31462, 30.33553], [-82.31466, 30.33553], [-82.3147, 30.33551], [-82.31473, 30.33551], [-82.31477, 30.3355], [-82.3148, 30.33548], [-82.31483, 30.33547], [-82.31486, 30.33545], [-82.31489, 30.33544], [-82.31493, 30.33544], [-82.31496, 30.33545], [-82.31497, 30.33548], [-82.31501, 30.3355], [-82.31504, 30.3355], [-82.31507, 30.33549], [-82.3151, 30.33548], [-82.31514, 30.33549], [-82.31517, 30.33549], [-82.31521, 30.33549], [-82.31525, 30.33549], [-82.31528, 30.3355], [-82.31532, 30.33551], [-82.31535, 30.33551], [-82.31539, 30.33552], [-82.31542, 30.33554], [-82.31545, 30.33555], [-82.31547, 30.33558], [-82.3155, 30.33559], [-82.31554, 30.3356], [-82.31556, 30.33562], [-82.31558, 30.33565], [-82.3156, 30.33568], [-82.31564, 30.33569], [-82.31567, 30.3357], [-82.3157, 30.33572], [-82.31575, 30.33574], [-82.31578, 30.33575], [-82.31579, 30.33579], [-82.31579, 30.33581], [-82.31579, 30.33584], [-82.3158, 30.33587], [-82.31583, 30.33589], [-82.31584, 30.33592], [-82.31586, 30.33595], [-82.31589, 30.33597], [-82.31592, 30.33599], [-82.31594, 30.33602], [-82.31595, 30.33605], [-82.31592, 30.33608], [-82.31591, 30.33611], [-82.31591, 30.33615], [-82.3159, 30.33617], [-82.31589, 30.33621], [-82.31588, 30.33624], [-82.31586, 30.33627], [-82.31584, 30.3363], [-82.31583, 30.33633], [-82.31581, 30.33636], [-82.3158, 30.33639], [-82.31579, 30.33642], [-82.31579, 30.33645], [-82.31578, 30.33649], [-82.31576, 30.33652], [-82.31575, 30.33655], [-82.31572, 30.33656], [-82.31568, 30.33657], [-82.31566, 30.33659], [-82.31566, 30.33664], [-82.31565, 30.33668], [-82.31563, 30.33671], [-82.31561, 30.33676], [-82.3156, 30.33681], [-82.31556, 30.33683], [-82.31554, 30.33688], [-82.31553, 30.33693], [-82.31549, 30.33696], [-82.31547, 30.337], [-82.31546, 30.33703], [-82.31544, 30.33707], [-82.31542, 30.33709], [-82.31539, 30.33713], [-82.31536, 30.33716], [-82.31536, 30.33719], [-82.31534, 30.33723], [-82.3153, 30.33725], [-82.31526, 30.33726], [-82.3152, 30.33725], [-82.31516, 30.33725], [-82.31513, 30.33727], [-82.31509, 30.3373], [-82.31505, 30.33734], [-82.31502, 30.33737], [-82.31499, 30.33739], [-82.31497, 30.33742], [-82.31494, 30.33745], [-82.3149, 30.33748], [-82.31487, 30.33749], [-82.31484, 30.33751], [-82.31482, 30.33754], [-82.31478, 30.33757], [-82.31473, 30.3376], [-82.3147, 30.33762], [-82.31464, 30.33764], [-82.31461, 30.33767], [-82.3146, 30.33769], [-82.31459, 30.33773], [-82.31457, 30.33779], [-82.31453, 30.33781], [-82.31448, 30.33782], [-82.31445, 30.33784], [-82.31443, 30.33788], [-82.31442, 30.33791], [-82.3144, 30.33795], [-82.31438, 30.33798], [-82.31436, 30.33801], [-82.31434, 30.33803], [-82.31431, 30.33805], [-82.31428, 30.33807], [-82.31426, 30.33809], [-82.31422, 30.33814], [-82.31419, 30.33815], [-82.31416, 30.33816], [-82.31411, 30.33818], [-82.31406, 30.3382], [-82.31401, 30.33824], [-82.31399, 30.33826], [-82.31395, 30.3383], [-82.31393, 30.33832], [-82.31389, 30.33834], [-82.31385, 30.33837], [-82.3138, 30.33841], [-82.31377, 30.33843], [-82.31375, 30.33844], [-82.31372, 30.33846], [-82.31369, 30.33849], [-82.31367, 30.33851], [-82.31366, 30.33855], [-82.31364, 30.3389], [-82.31365, 30.33893], [-82.31367, 30.339], [-82.31368, 30.33908], [-82.31372, 30.3392], [-82.31375, 30.33924], [-82.31377, 30.33929], [-82.31376, 30.33933], [-82.31374, 30.33937], [-82.31368, 30.33944], [-82.31363, 30.33953], [-82.31356, 30.33953], [-82.31356, 30.33953], [-82.31353, 30.33953], [-82.3135, 30.33953], [-82.31345, 30.33952], [-82.3134, 30.3395], [-82.31334, 30.3395], [-82.31331, 30.33949], [-82.31326, 30.33949], [-82.31321, 30.3395], [-82.31321, 30.3395], [-82.31321, 30.3395], [-82.31318, 30.33948], [-82.31308, 30.33959], [-82.31306, 30.33961], [-82.31303, 30.33963], [-82.313, 30.33966], [-82.31298, 30.33969], [-82.31295, 30.33971], [-82.31293, 30.33974], [-82.31291, 30.33977], [-82.3129, 30.3398], [-82.3129, 30.33983], [-82.31289, 30.33987], [-82.31287, 30.33989], [-82.31288, 30.33994], [-82.31288, 30.33998], [-82.31288, 30.34001], [-82.31288, 30.34005], [-82.3129, 30.34008], [-82.31291, 30.34011], [-82.31293, 30.34015], [-82.31295, 30.34018], [-82.31297, 30.3402], [-82.313, 30.34023], [-82.31303, 30.34026], [-82.31305, 30.34028], [-82.31307, 30.3403], [-82.3131, 30.34033], [-82.31312, 30.34035], [-82.31315, 30.34038], [-82.31318, 30.3404], [-82.31321, 30.34043], [-82.31324, 30.34045], [-82.31327, 30.34048], [-82.3133, 30.34049], [-82.31333, 30.34051], [-82.31336, 30.34052], [-82.3134, 30.34054], [-82.31344, 30.34055], [-82.31348, 30.34055], [-82.31352, 30.34055], [-82.31356, 30.34054], [-82.31359, 30.34053], [-82.31363, 30.34052], [-82.31365, 30.3405], [-82.31368, 30.34048], [-82.31371, 30.34046], [-82.31376, 30.34042], [-82.31376, 30.34042]]]]}, "properties": {"poly_IncidentName": "Mail Box", "poly_GISAcres": 334.11917392400267, "poly_DateCurrent": 1786551272000}}, {"type": "Feature", "geometry": {"type": "Polygon", "coordinates": [[[-89.2848, 45.96221], [-89.2848, 45.96221], [-89.2848, 45.96217], [-89.28479, 45.96214], [-89.28479, 45.9621], [-89.28479, 45.96205], [-89.28479, 45.96202], [-89.28479, 45.962], [-89.28479, 45.96196], [-89.28479, 45.96194], [-89.2848, 45.96188], [-89.28481, 45.96182], [-89.28482, 45.96179], [-89.28484, 45.96174], [-89.28485, 45.96171], [-89.28485, 45.96168], [-89.28485, 45.96163], [-89.28484, 45.96159], [-89.28484, 45.96154], [-89.28483, 45.96149], [-89.28483, 45.96145], [-89.28482, 45.96142], [-89.28482, 45.96138], [-89.28482, 45.96131], [-89.28483, 45.96125], [-89.28482, 45.96122], [-89.28482, 45.96117], [-89.28483, 45.96113], [-89.28483, 45.96108], [-89.28484, 45.96104], [-89.28484, 45.96096], [-89.28483, 45.9609], [-89.28483, 45.96087], [-89.28483, 45.96084], [-89.28483, 45.96081], [-89.28482, 45.96076], [-89.28481, 45.96072], [-89.2848, 45.96068], [-89.2848, 45.96064], [-89.28479, 45.9606], [-89.28479, 45.96057], [-89.28479, 45.96054], [-89.28478, 45.9605], [-89.28478, 45.96046], [-89.28478, 45.96041], [-89.28478, 45.96037], [-89.28478, 45.96033], [-89.28477, 45.96029], [-89.28477, 45.96025], [-89.28479, 45.9602], [-89.28481, 45.96017], [-89.28486, 45.96013], [-89.2849, 45.96012], [-89.28494, 45.96011], [-89.285, 45.96008], [-89.28505, 45.96007], [-89.2851, 45.96007], [-89.28516, 45.96007], [-89.2852, 45.96006], [-89.28525, 45.96006], [-89.28529, 45.96005], [-89.28538, 45.96004], [-89.28544, 45.96003], [-89.28548, 45.96003], [-89.28552, 45.96002], [-89.28559, 45.96], [-89.28566, 45.95996], [-89.2857, 45.95995], [-89.28573, 45.95993], [-89.28577, 45.95992], [-89.28582, 45.9599], [-89.28587, 45.95988], [-89.28591, 45.95987], [-89.28598, 45.95987], [-89.28602, 45.95987], [-89.28606, 45.95986], [-89.28611, 45.95985], [-89.28616, 45.95984], [-89.28621, 45.95983], [-89.28626, 45.95983], [-89.28632, 45.95982], [-89.28637, 45.95981], [-89.28642, 45.95981], [-89.28648, 45.95981], [-89.28654, 45.95982], [-89.28659, 45.95983], [-89.28664, 45.95983], [-89.28669, 45.95985], [-89.28673, 45.95985], [-89.28681, 45.95984], [-89.28686, 45.95984], [-89.2869, 45.95986], [-89.28693, 45.95987], [-89.28697, 45.95989], [-89.28704, 45.95991], [-89.28709, 45.95994], [-89.28712, 45.95999], [-89.28713, 45.96003], [-89.28714, 45.96006], [-89.28712, 45.96011], [-89.28711, 45.96014], [-89.28706, 45.96017], [-89.28703, 45.96019], [-89.28699, 45.96021], [-89.28696, 45.96022], [-89.28692, 45.96024], [-89.28688, 45.96025], [-89.28684, 45.96027], [-89.28682, 45.9603], [-89.28681, 45.96033], [-89.28681, 45.96037], [-89.28682, 45.96042], [-89.28682, 45.96046], [-89.28682, 45.96049], [-89.28682, 45.96053], [-89.28683, 45.96057], [-89.28683, 45.96061], [-89.28684, 45.96066], [-89.28684, 45.9607], [-89.28682, 45.96075], [-89.28682, 45.96079], [-89.28682, 45.96083], [-89.28681, 45.96086], [-89.28681, 45.9609], [-89.28684, 45.96093], [-89.28688, 45.96095], [-89.28694, 45.96098], [-89.28698, 45.96102], [-89.287, 45.96107], [-89.28699, 45.9611], [-89.28694, 45.96114], [-89.28691, 45.96116], [-89.28688, 45.96117], [-89.28681, 45.96121], [-89.28677, 45.96126], [-89.28675, 45.9613], [-89.28674, 45.96133], [-89.28673, 45.96138], [-89.28671, 45.96142], [-89.28671, 45.96146], [-89.2867, 45.96149], [-89.28667, 45.96153], [-89.28664, 45.96154], [-89.28659, 45.96157], [-89.28655, 45.96159], [-89.2865, 45.96161], [-89.28643, 45.96164], [-89.28638, 45.96167], [-89.28634, 45.96169], [-89.28631, 45.96171], [-89.28628, 45.96173], [-89.28625, 45.96175], [-89.28618, 45.96178], [-89.28614, 45.9618], [-89.2861, 45.9618], [-89.28602, 45.96182], [-89.28594, 45.96183], [-89.28587, 45.96185], [-89.28583, 45.96187], [-89.2858, 45.9619], [-89.28579, 45.96193], [-89.28578, 45.96196], [-89.28579, 45.96199], [-89.2858, 45.96202], [-89.28584, 45.96207], [-89.28587, 45.96209], [-89.28591, 45.96212], [-89.28595, 45.96217], [-89.28597, 45.9622], [-89.28599, 45.96224], [-89.28601, 45.96228], [-89.28602, 45.96232], [-89.28603, 45.96237], [-89.28603, 45.9624], [-89.28606, 45.96244], [-89.2861, 45.96246], [-89.28614, 45.96247], [-89.28619, 45.96247], [-89.28623, 45.96246], [-89.28627, 45.96244], [-89.2863, 45.96242], [-89.28631, 45.9624], [-89.28632, 45.96237], [-89.28634, 45.96234], [-89.28635, 45.96231], [-89.28636, 45.96227], [-89.28638, 45.96224], [-89.28641, 45.96221], [-89.28644, 45.96218], [-89.28647, 45.96217], [-89.28651, 45.96214], [-89.28655, 45.96212], [-89.28659, 45.9621], [-89.28663, 45.96209], [-89.28667, 45.96209], [-89.28672, 45.96211], [-89.28676, 45.96215], [-89.28678, 45.96217], [-89.28679, 45.96221], [-89.28679, 45.96224], [-89.28679, 45.96227], [-89.28679, 45.9623], [-89.2868, 45.96233], [-89.28681, 45.96236], [-89.28683, 45.96239], [-89.28685, 45.96242], [-89.28687, 45.96245], [-89.28689, 45.96248], [-89.28692, 45.9625], [-89.28694, 45.96253], [-89.28697, 45.96256], [-89.28699, 45.96259], [-89.28701, 45.96261], [-89.28703, 45.96264], [-89.28704, 45.96267], [-89.28705, 45.9627], [-89.28706, 45.96273], [-89.28706, 45.96277], [-89.28705, 45.9628], [-89.28704, 45.96283], [-89.28702, 45.96288], [-89.287, 45.96292], [-89.28698, 45.96296], [-89.28695, 45.963], [-89.28691, 45.96305], [-89.28688, 45.96309], [-89.28687, 45.96312], [-89.28686, 45.96315], [-89.28683, 45.96319], [-89.28678, 45.96321], [-89.28671, 45.96322], [-89.28665, 45.96323], [-89.28659, 45.96323], [-89.28654, 45.96322], [-89.28651, 45.96319], [-89.2865, 45.96315], [-89.2865, 45.9631], [-89.2865, 45.96307], [-89.2865, 45.96302], [-89.28649, 45.96299], [-89.28649, 45.96293], [-89.28649, 45.9629], [-89.28648, 45.96285], [-89.28647, 45.96282], [-89.28643, 45.96277], [-89.28639, 45.96274], [-89.28636, 45.96272], [-89.2863, 45.96271], [-89.28625, 45.9627], [-89.2862, 45.9627], [-89.28613, 45.9627], [-89.28606, 45.96269], [-89.28597, 45.96269], [-89.2859, 45.96269], [-89.28586, 45.96268], [-89.28578, 45.96269], [-89.28573, 45.96269], [-89.28569, 45.96269], [-89.28564, 45.96269], [-89.28559, 45.96269], [-89.28554, 45.96268], [-89.28549, 45.96267], [-89.28544, 45.96266], [-89.28539, 45.96266], [-89.28532, 45.96264], [-89.28528, 45.96264], [-89.28524, 45.96262], [-89.28519, 45.9626], [-89.28515, 45.96258], [-89.28513, 45.96256], [-89.28507, 45.96253], [-89.28504, 45.96251], [-89.285, 45.96249], [-89.28498, 45.96246], [-89.28492, 45.96243], [-89.28488, 45.96241], [-89.28485, 45.96235], [-89.28482, 45.96232], [-89.28482, 45.96228], [-89.28482, 45.96225], [-89.2848, 45.96221]]]}, "properties": {"poly_IncidentName": "White Whale", "poly_GISAcres": 11.2, "poly_DateCurrent": 1787079706000}}, {"type": "Feature", "geometry": {"type": "Polygon", "coordinates": [[[-87.98985, 45.62133], [-87.9898, 45.62133], [-87.98975, 45.62132], [-87.9897, 45.62132], [-87.98965, 45.62131], [-87.98961, 45.62129], [-87.98957, 45.62126], [-87.98953, 45.62124], [-87.98949, 45.62121], [-87.98947, 45.62119], [-87.98944, 45.62115], [-87.98942, 45.62111], [-87.98941, 45.62108], [-87.98942, 45.62105], [-87.98944, 45.62102], [-87.98946, 45.62099], [-87.98949, 45.62096], [-87.98951, 45.62093], [-87.98952, 45.6209], [-87.98952, 45.62086], [-87.98953, 45.62083], [-87.98953, 45.6208], [-87.98955, 45.62077], [-87.98957, 45.62074], [-87.98959, 45.62071], [-87.9896, 45.62069], [-87.98963, 45.62066], [-87.98966, 45.62063], [-87.98968, 45.62061], [-87.98972, 45.62059], [-87.98976, 45.62058], [-87.98978, 45.62055], [-87.9898, 45.62052], [-87.98984, 45.6205], [-87.98991, 45.62048], [-87.98995, 45.62047], [-87.98999, 45.62046], [-87.99003, 45.62046], [-87.99008, 45.62046], [-87.99013, 45.62046], [-87.99018, 45.62045], [-87.99023, 45.62043], [-87.99027, 45.62041], [-87.99032, 45.6204], [-87.99036, 45.62039], [-87.99041, 45.62038], [-87.99045, 45.62037], [-87.99048, 45.62035], [-87.99052, 45.62033], [-87.99057, 45.62033], [-87.99061, 45.62032], [-87.99065, 45.62032], [-87.99069, 45.6203], [-87.99074, 45.62029], [-87.99077, 45.62027], [-87.99081, 45.62027], [-87.99086, 45.62027], [-87.99089, 45.6203], [-87.99093, 45.62031], [-87.99099, 45.6203], [-87.99103, 45.62028], [-87.99107, 45.62026], [-87.9911, 45.62025], [-87.99115, 45.62023], [-87.99118, 45.62022], [-87.99123, 45.6202], [-87.99127, 45.6202], [-87.99132, 45.6202], [-87.99137, 45.62019], [-87.99142, 45.6202], [-87.99147, 45.62021], [-87.99151, 45.62022], [-87.99155, 45.62024], [-87.9916, 45.62024], [-87.99165, 45.62023], [-87.99169, 45.62023], [-87.99174, 45.62023], [-87.99179, 45.62023], [-87.99183, 45.62023], [-87.99185, 45.62026], [-87.9919, 45.62026], [-87.99193, 45.62027], [-87.99195, 45.6203], [-87.99198, 45.62031], [-87.99201, 45.62035], [-87.99204, 45.62036], [-87.99206, 45.62039], [-87.99209, 45.62041], [-87.99213, 45.62043], [-87.99217, 45.62042], [-87.99221, 45.62043], [-87.99227, 45.62044], [-87.99231, 45.62045], [-87.99235, 45.62046], [-87.99241, 45.62047], [-87.99246, 45.62049], [-87.9925, 45.6205], [-87.99255, 45.62051], [-87.99261, 45.62051], [-87.99266, 45.62053], [-87.99268, 45.62056], [-87.9927, 45.62059], [-87.99273, 45.62061], [-87.99274, 45.62065], [-87.99275, 45.62068], [-87.99279, 45.62069], [-87.9928, 45.62072], [-87.99282, 45.62075], [-87.99283, 45.62078], [-87.99283, 45.6208], [-87.99284, 45.62083], [-87.99285, 45.62086], [-87.99288, 45.62088], [-87.9929, 45.62091], [-87.99293, 45.62093], [-87.99295, 45.62096], [-87.99296, 45.62099], [-87.99299, 45.62102], [-87.99302, 45.62104], [-87.99306, 45.62106], [-87.99306, 45.6211], [-87.99307, 45.62113], [-87.99305, 45.62115], [-87.99302, 45.62117], [-87.99299, 45.62119], [-87.99296, 45.62123], [-87.99295, 45.62126], [-87.99294, 45.62129], [-87.99292, 45.62131], [-87.99288, 45.62132], [-87.99284, 45.6213], [-87.99281, 45.62127], [-87.99278, 45.62125], [-87.99274, 45.62124], [-87.99269, 45.62124], [-87.99264, 45.62123], [-87.99262, 45.62126], [-87.99263, 45.6213], [-87.99259, 45.62131], [-87.99257, 45.62134], [-87.99256, 45.62137], [-87.99257, 45.62141], [-87.9926, 45.62143], [-87.99264, 45.62146], [-87.99267, 45.62149], [-87.9927, 45.62152], [-87.99274, 45.62155], [-87.99276, 45.62157], [-87.99277, 45.6216], [-87.9928, 45.62164], [-87.99281, 45.62166], [-87.99281, 45.6217], [-87.9928, 45.62173], [-87.99275, 45.62174], [-87.99271, 45.62177], [-87.99268, 45.62179], [-87.99264, 45.62181], [-87.99259, 45.62182], [-87.99255, 45.62182], [-87.9925, 45.62183], [-87.99245, 45.62182], [-87.99241, 45.62182], [-87.99236, 45.62182], [-87.99231, 45.6218], [-87.99228, 45.62178], [-87.99225, 45.62175], [-87.99222, 45.62173], [-87.99217, 45.62173], [-87.99213, 45.62172], [-87.9921, 45.62174], [-87.99206, 45.62176], [-87.99203, 45.62179], [-87.99201, 45.62182], [-87.99198, 45.62185], [-87.99193, 45.62187], [-87.99189, 45.62187], [-87.99185, 45.62186], [-87.99181, 45.62186], [-87.99176, 45.62186], [-87.9917, 45.62186], [-87.99165, 45.62187], [-87.9916, 45.62187], [-87.99155, 45.62188], [-87.99151, 45.62189], [-87.99146, 45.62189], [-87.99141, 45.6219], [-87.99137, 45.62192], [-87.99133, 45.62192], [-87.99128, 45.62193], [-87.99124, 45.62194], [-87.9912, 45.62194], [-87.99116, 45.62193], [-87.99112, 45.62191], [-87.99107, 45.6219], [-87.99103, 45.62189], [-87.99099, 45.62189], [-87.99094, 45.62189], [-87.99089, 45.62188], [-87.99086, 45.62186], [-87.99083, 45.62183], [-87.9908, 45.62181], [-87.99077, 45.62179], [-87.99073, 45.62179], [-87.99068, 45.6218], [-87.99063, 45.62179], [-87.99059, 45.62177], [-87.99056, 45.62175], [-87.99053, 45.62173], [-87.99049, 45.6217], [-87.99045, 45.62167], [-87.99041, 45.62164], [-87.99038, 45.62162], [-87.99034, 45.6216], [-87.99031, 45.62158], [-87.99028, 45.62156], [-87.99028, 45.62153], [-87.99027, 45.6215], [-87.99024, 45.62146], [-87.99022, 45.62143], [-87.99018, 45.62141], [-87.99014, 45.62139], [-87.99009, 45.62138], [-87.99004, 45.62137], [-87.99, 45.62136], [-87.98998, 45.62132], [-87.98995, 45.6213], [-87.98985, 45.62133]]]}, "properties": {"poly_IncidentName": "Field", "poly_GISAcres": 9.41, "poly_DateCurrent": 1786980950000}}, {"type": "Feature", "geometry": {"type": "Polygon", "coordinates": [[[-87.04738, 32.7633], [-87.04606, 32.76388], [-87.04478, 32.76388], [-87.04395, 32.76427], [-87.04327, 32.76484], [-87.04256, 32.76548], [-87.04177, 32.7661], [-87.04021, 32.7686], [-87.03988, 32.7713], [-87.04062, 32.77266], [-87.04063, 32.77337], [-87.03897, 32.77353], [-87.03744, 32.77354], [-87.03551, 32.77315], [-87.03448, 32.77307], [-87.03297, 32.77319], [-87.03223, 32.773], [-87.03031, 32.77213], [-87.02713, 32.7709], [-87.02627, 32.77064], [-87.02485, 32.77042], [-87.02385, 32.76991], [-87.02116, 32.76855], [-87.01788, 32.76857], [-87.01706, 32.76821], [-87.01632, 32.76777], [-87.01606, 32.76724], [-87.01591, 32.76599], [-87.01508, 32.76458], [-87.01425, 32.76402], [-87.01316, 32.76296], [-87.01289, 32.75844], [-87.01251, 32.75663], [-87.01171, 32.75578], [-87.01091, 32.75463], [-87.01096, 32.75294], [-87.0105, 32.75195], [-87.00978, 32.75157], [-87.00864, 32.75131], [-87.00804, 32.75076], [-87.00784, 32.75047], [-87.00946, 32.75016], [-87.00972, 32.74206], [-87.0102, 32.74221], [-87.01117, 32.74205], [-87.01351, 32.7413], [-87.01409, 32.74132], [-87.0149, 32.74202], [-87.01542, 32.74258], [-87.01537, 32.74354], [-87.01579, 32.74429], [-87.01646, 32.74467], [-87.01854, 32.74571], [-87.01907, 32.74679], [-87.01862, 32.74756], [-87.01916, 32.74813], [-87.02153, 32.74935], [-87.02191, 32.74978], [-87.02199, 32.75015], [-87.02879, 32.75008], [-87.02952, 32.75013], [-87.03118, 32.75047], [-87.03405, 32.75188], [-87.03392, 32.75294], [-87.0346, 32.7541], [-87.03706, 32.75449], [-87.03768, 32.75503], [-87.03927, 32.75739], [-87.04347, 32.75776], [-87.04352, 32.76108], [-87.04708, 32.7612], [-87.04728, 32.76277], [-87.04738, 32.7633]]]}, "properties": {"poly_IncidentName": "Williams Creek", "poly_GISAcres": 120, "poly_DateCurrent": 1775493496558}}, {"type": "Feature", "geometry": {"type": "Polygon", "coordinates": [[[-91.50638, 45.38765], [-91.5064, 45.38764], [-91.5064, 45.38767], [-91.50643, 45.3877], [-91.50647, 45.38771], [-91.50651, 45.38773], [-91.50652, 45.38776], [-91.50653, 45.38779], [-91.50654, 45.38782], [-91.50654, 45.38785], [-91.50654, 45.38788], [-91.50655, 45.38791], [-91.50656, 45.38794], [-91.50656, 45.38797], [-91.50657, 45.38801], [-91.50658, 45.38804], [-91.50655, 45.38806], [-91.50651, 45.38808], [-91.50648, 45.38809], [-91.50644, 45.38811], [-91.50639, 45.38811], [-91.50635, 45.38811], [-91.5063, 45.3881], [-91.50626, 45.38809], [-91.50622, 45.38808], [-91.50618, 45.38805], [-91.50618, 45.38803], [-91.50616, 45.388], [-91.50616, 45.38797], [-91.50616, 45.38794], [-91.50619, 45.3879], [-91.50621, 45.38787], [-91.50623, 45.38785], [-91.50626, 45.38782], [-91.5063, 45.3878], [-91.50632, 45.38776], [-91.50632, 45.38773], [-91.50634, 45.3877], [-91.50637, 45.38768], [-91.50638, 45.38765]]]}, "properties": {"poly_IncidentName": "Pit", "poly_GISAcres": 0.3, "poly_DateCurrent": 1788192554000}}, {"type": "Feature", "geometry": {"type": "Polygon", "coordinates": [[[-91.69632, 45.71851], [-91.69636, 45.71853], [-91.69636, 45.71856], [-91.69633, 45.71859], [-91.69633, 45.71861], [-91.69632, 45.71865], [-91.69629, 45.71867], [-91.69624, 45.71868], [-91.6962, 45.71866], [-91.6962, 45.71863], [-91.6962, 45.71859], [-91.69616, 45.71857], [-91.69612, 45.71859], [-91.69609, 45.71862], [-91.69608, 45.7186], [-91.69605, 45.71857], [-91.69601, 45.71856], [-91.69601, 45.71852], [-91.69602, 45.71849], [-91.69603, 45.71845], [-91.69605, 45.71843], [-91.69609, 45.71842], [-91.69613, 45.71841], [-91.69617, 45.71842], [-91.69621, 45.71842], [-91.69621, 45.71847], [-91.69624, 45.71849], [-91.69627, 45.7185], [-91.69631, 45.71851], [-91.69632, 45.71851]]]}, "properties": {"poly_IncidentName": "Morningside", "poly_GISAcres": 0.12, "poly_DateCurrent": 1786996580000}}, {"type": "Feature", "geometry": {"type": "Polygon", "coordinates": [[[-89.89167, 45.98146], [-89.89168, 45.98141], [-89.89167, 45.98137], [-89.89166, 45.98134], [-89.89162, 45.98133], [-89.89158, 45.98133], [-89.89154, 45.98132], [-89.89152, 45.9813], [-89.8915, 45.98127], [-89.89148, 45.98124], [-89.89147, 45.98121], [-89.89148, 45.98118], [-89.89147, 45.98114], [-89.89149, 45.98112], [-89.89153, 45.9811], [-89.89157, 45.98108], [-89.89162, 45.98108], [-89.89166, 45.98108], [-89.89169, 45.98107], [-89.89173, 45.98106], [-89.89176, 45.98103], [-89.89175, 45.981], [-89.89176, 45.98097], [-89.89179, 45.98099], [-89.89182, 45.98101], [-89.89186, 45.98101], [-89.89191, 45.98101], [-89.89193, 45.98099], [-89.89196, 45.98097], [-89.892, 45.98097], [-89.89205, 45.98099], [-89.89208, 45.98098], [-89.89208, 45.98101], [-89.89207, 45.98104], [-89.89207, 45.98107], [-89.8921, 45.98109], [-89.89211, 45.98112], [-89.89213, 45.98115], [-89.89214, 45.98118], [-89.89215, 45.98121], [-89.89212, 45.98123], [-89.89211, 45.98126], [-89.89211, 45.98129], [-89.89209, 45.98132], [-89.89205, 45.98133], [-89.89201, 45.98134], [-89.89196, 45.98135], [-89.89192, 45.98137], [-89.89188, 45.98137], [-89.89184, 45.98138], [-89.89181, 45.98139], [-89.89178, 45.98142], [-89.89177, 45.98146], [-89.89173, 45.98147], [-89.89167, 45.98146]]]}, "properties": {"poly_IncidentName": "Little Pine", "poly_GISAcres": 0.4, "poly_DateCurrent": 1786997763000}}, {"type": "Feature", "geometry": {"type": "Polygon", "coordinates": [[[-91.9293, 45.84363], [-91.92922, 45.84363], [-91.92908, 45.84364], [-91.92906, 45.84364], [-91.92861, 45.84362], [-91.92864, 45.84352], [-91.92888, 45.84352], [-91.92896, 45.84352], [-91.92907, 45.84352], [-91.92926, 45.84352], [-91.92939, 45.84352], [-91.92943, 45.84352], [-91.92948, 45.84359], [-91.92936, 45.84363], [-91.9293, 45.84363]]]}, "properties": {"poly_IncidentName": "Dock Lake 1", "poly_GISAcres": 0.19, "poly_DateCurrent": 1786979694000}}, {"type": "Feature", "geometry": {"type": "Polygon", "coordinates": [[[-89.68317, 43.55935], [-89.68325, 43.55929], [-89.68318, 43.55923], [-89.68313, 43.55919], [-89.68307, 43.55916], [-89.68303, 43.55914], [-89.68298, 43.55909], [-89.68305, 43.55906], [-89.68318, 43.55907], [-89.68333, 43.5591], [-89.68347, 43.55915], [-89.68348, 43.55916], [-89.68351, 43.55918], [-89.6836, 43.55922], [-89.68365, 43.55933], [-89.68367, 43.55938], [-89.68363, 43.55949], [-89.68358, 43.55957], [-89.68343, 43.55962], [-89.68342, 43.55962], [-89.68335, 43.55953], [-89.6833, 43.55952], [-89.68321, 43.55949], [-89.68317, 43.55948], [-89.68305, 43.55943], [-89.68302, 43.55936], [-89.68302, 43.5593], [-89.68307, 43.55931], [-89.68317, 43.55935]]]}, "properties": {"poly_IncidentName": "Dew Drop", "poly_GISAcres": 0.5, "poly_DateCurrent": 1787079623000}}, {"type": "Feature", "geometry": {"type": "Polygon", "coordinates": [[[-92.74303, 45.78763], [-92.74303, 45.78759], [-92.74303, 45.78752], [-92.74314, 45.78743], [-92.74317, 45.78741], [-92.7433, 45.78724], [-92.74328, 45.78703], [-92.74329, 45.78702], [-92.7433, 45.787], [-92.74341, 45.78663], [-92.74342, 45.78657], [-92.74343, 45.78648], [-92.74333, 45.78645], [-92.74328, 45.78641], [-92.7432, 45.78634], [-92.7432, 45.78634], [-92.74317, 45.78628], [-92.74314, 45.7862], [-92.74316, 45.78605], [-92.74335, 45.786], [-92.74336, 45.786], [-92.74385, 45.78607], [-92.74433, 45.78625], [-92.74433, 45.78626], [-92.74439, 45.78744], [-92.7444, 45.78748], [-92.7444, 45.78751], [-92.74441, 45.7876], [-92.74441, 45.78762], [-92.74441, 45.78763], [-92.74407, 45.78763], [-92.74358, 45.78763], [-92.74318, 45.78764], [-92.74303, 45.78764], [-92.74303, 45.78763]]]}, "properties": {"poly_IncidentName": "Soderbeck", "poly_GISAcres": 3.67, "poly_DateCurrent": 1787687033000}}, {"type": "Feature", "geometry": {"type": "Polygon", "coordinates": [[[-91.9281, 45.84728], [-91.92806, 45.84727], [-91.92806, 45.84727], [-91.92806, 45.84723], [-91.92806, 45.84715], [-91.92806, 45.84711], [-91.92807, 45.84709], [-91.92809, 45.84709], [-91.92819, 45.84709], [-91.9282, 45.84711], [-91.92822, 45.84716], [-91.92823, 45.84719], [-91.92824, 45.8472], [-91.9282, 45.84731], [-91.92814, 45.84729], [-91.9281, 45.84728]]]}, "properties": {"poly_IncidentName": "Dock Lake 2", "poly_GISAcres": 0.07, "poly_DateCurrent": 1786979737000}}, {"type": "Feature", "geometry": {"type": "Polygon", "coordinates": [[[-91.36655, 46.11423], [-91.36652, 46.11422], [-91.36647, 46.11421], [-91.36643, 46.11422], [-91.3664, 46.11419], [-91.36636, 46.11418], [-91.36631, 46.11417], [-91.36628, 46.11414], [-91.36629, 46.1141], [-91.3663, 46.11407], [-91.36628, 46.11404], [-91.36629, 46.114], [-91.36631, 46.11398], [-91.36636, 46.11396], [-91.36641, 46.11394], [-91.36645, 46.11394], [-91.36649, 46.11395], [-91.36655, 46.11397], [-91.36657, 46.11399], [-91.3666, 46.11401], [-91.36663, 46.11403], [-91.36665, 46.11407], [-91.36666, 46.1141], [-91.36668, 46.11413], [-91.36667, 46.11416], [-91.36668, 46.11418], [-91.36662, 46.11419], [-91.36658, 46.1142], [-91.36655, 46.11423]]]}, "properties": {"poly_IncidentName": "Stark", "poly_GISAcres": 0.18, "poly_DateCurrent": 1787584122000}}]}