{"type": "FeatureCollection", "crs": {"type": "name", "properties": {"name": "EPSG:4326"}}, "features": [{"type": "Feature", "geometry": {"type": "Polygon", "coordinates": [[[-89.19803, 32.7861], [-89.1979, 32.78608], [-89.19764, 32.78617], [-89.19756, 32.78619], [-89.19743, 32.78627], [-89.19724, 32.78635], [-89.19713, 32.78636], [-89.19698, 32.7864], [-89.19677, 32.7865], [-89.19649, 32.78663], [-89.19622, 32.7868], [-89.19594, 32.78688], [-89.19571, 32.78691], [-89.19547, 32.78696], [-89.19516, 32.78691], [-89.19479, 32.78695], [-89.19428, 32.78699], [-89.19374, 32.78694], [-89.19351, 32.78685], [-89.1929, 32.78662], [-89.19237, 32.7864], [-89.19165, 32.78608], [-89.19142, 32.78592], [-89.19124, 32.78582], [-89.19134, 32.78569], [-89.19145, 32.78563], [-89.19166, 32.78548], [-89.19178, 32.78534], [-89.1919, 32.78525], [-89.19197, 32.7852], [-89.19195, 32.78512], [-89.19169, 32.78505], [-89.19137, 32.78493], [-89.19125, 32.7849], [-89.19102, 32.78472], [-89.19105, 32.7847], [-89.19109, 32.78468], [-89.19117, 32.78457], [-89.19116, 32.78454], [-89.19115, 32.78451], [-89.19114, 32.78448], [-89.19113, 32.78445], [-89.19111, 32.78442], [-89.1911, 32.78436], [-89.1911, 32.78431], [-89.19109, 32.78429], [-89.19109, 32.78425], [-89.19108, 32.78416], [-89.19108, 32.78412], [-89.19108, 32.7841], [-89.19108, 32.78405], [-89.19107, 32.78398], [-89.19106, 32.78393], [-89.19104, 32.7838], [-89.19104, 32.78377], [-89.19103, 32.78371], [-89.19101, 32.78367], [-89.19099, 32.78363], [-89.19099, 32.78362], [-89.19097, 32.78359], [-89.19095, 32.78355], [-89.19095, 32.78354], [-89.19093, 32.78349], [-89.19092, 32.78347], [-89.1909, 32.78343], [-89.19089, 32.78341], [-89.19088, 32.78338], [-89.19087, 32.78336], [-89.19085, 32.78332], [-89.19084, 32.7833], [-89.19081, 32.78323], [-89.19079, 32.7832], [-89.19078, 32.78317], [-89.19079, 32.78312], [-89.19079, 32.78309], [-89.1908, 32.78306], [-89.19081, 32.78301], [-89.19081, 32.783], [-89.19082, 32.78295], [-89.19083, 32.78291], [-89.19082, 32.78286], [-89.19082, 32.78278], [-89.19081, 32.78278], [-89.19081, 32.78276], [-89.19081, 32.78271], [-89.1908, 32.78267], [-89.19078, 32.78262], [-89.19077, 32.78259], [-89.19077, 32.78255], [-89.19075, 32.7825], [-89.19069, 32.78244], [-89.19065, 32.7824], [-89.19063, 32.78233], [-89.19063, 32.78228], [-89.19063, 32.78227], [-89.19062, 32.78223], [-89.19064, 32.78219], [-89.1906, 32.78204], [-89.19056, 32.78187], [-89.19053, 32.78177], [-89.19052, 32.78172], [-89.19052, 32.78169], [-89.19052, 32.78166], [-89.19053, 32.78162], [-89.19049, 32.78144], [-89.19045, 32.78142], [-89.1904, 32.7814], [-89.19035, 32.78135], [-89.1902, 32.78119], [-89.19016, 32.78113], [-89.19011, 32.78107], [-89.18997, 32.78094], [-89.18994, 32.7809], [-89.1899, 32.78075], [-89.19087, 32.78031], [-89.19106, 32.78004], [-89.19159, 32.77929], [-89.19188, 32.77919], [-89.19236, 32.77931], [-89.19366, 32.77981], [-89.1959, 32.78053], [-89.19713, 32.78083], [-89.19796, 32.78086], [-89.19799, 32.78406], [-89.19803, 32.7861]]]}, "properties": {"poly_IncidentName": "Wolf Creek RX", "poly_GISAcres": 118.49389643021277, "poly_DateCurrent": 1776458531767}}, {"type": "Feature", "geometry": {"type": "Polygon", "coordinates": [[[-80.98643, 31.87514], [-80.9846, 31.87586], [-80.98386, 31.87629], [-80.98287, 31.87724], [-80.98269, 31.87779], [-80.98172, 31.87724], [-80.97972, 31.87863], [-80.97993, 31.88], [-80.97889, 31.8814], [-80.97761, 31.88176], [-80.97689, 31.88069], [-80.97368, 31.88276], [-80.97427, 31.88341], [-80.97361, 31.88458], [-80.97259, 31.88359], [-80.97215, 31.88387], [-80.96884, 31.88489], [-80.96708, 31.88219], [-80.97388, 31.87633], [-80.98611, 31.86444], [-80.9888, 31.86181], [-80.99077, 31.85988], [-80.9917, 31.85895], [-80.99354, 31.85812], [-80.99412, 31.85762], [-80.99511, 31.85752], [-80.99901, 31.85805], [-81.00084, 31.85852], [-81.00173, 31.85889], [-81.00258, 31.85948], [-81.00303, 31.86024], [-81.00313, 31.86119], [-81.00277, 31.86158], [-81.00091, 31.86342], [-80.99966, 31.86494], [-80.99696, 31.86942], [-80.99652, 31.87188], [-80.99521, 31.87111], [-80.99235, 31.87264], [-80.98942, 31.87482], [-80.98907, 31.87584], [-80.98828, 31.8756], [-80.98643, 31.87514]]]}, "properties": {"poly_IncidentName": "Main Trail", "poly_GISAcres": 200, "poly_DateCurrent": 1787500121208}}, {"type": "Feature", "geometry": {"type": "MultiPolygon", "coordinates": [[[[-89.24149, 32.80218], [-89.24149, 32.80218], [-89.24146, 32.80218], [-89.24146, 32.80218], [-89.24145, 32.80218], [-89.24144, 32.80218], [-89.24144, 32.80218], [-89.24142, 32.80218], [-89.24141, 32.80218], [-89.2414, 32.80218], [-89.2414, 32.80219], [-89.24132, 32.80219], [-89.24132, 32.80218], [-89.24131, 32.80218], [-89.24131, 32.80218], [-89.2413, 32.80218], [-89.24127, 32.80218], [-89.24127, 32.80218], [-89.24126, 32.80218], [-89.24125, 32.80218], [-89.24125, 32.80218], [-89.24124, 32.80217], [-89.24123, 32.80217], [-89.24122, 32.80217], [-89.24122, 32.80217], [-89.24121, 32.80217], [-89.24121, 32.80217], [-89.24119, 32.80217], [-89.24119, 32.80216], [-89.24118, 32.80216], [-89.24115, 32.80216], [-89.24114, 32.80216], [-89.24114, 32.80216], [-89.24113, 32.80216], [-89.24112, 32.80216], [-89.24112, 32.80215], [-89.24111, 32.80215], [-89.24111, 32.80215], [-89.24111, 32.80215], [-89.24109, 32.80214], [-89.24108, 32.80214], [-89.24107, 32.80214], [-89.24104, 32.80214], [-89.24103, 32.80214], [-89.24103, 32.80213], [-89.24102, 32.80213], [-89.24102, 32.80213], [-89.241, 32.80213], [-89.24099, 32.80213], [-89.24099, 32.80213], [-89.24098, 32.80212], [-89.24098, 32.80212], [-89.24097, 32.80212], [-89.24097, 32.80212], [-89.24096, 32.80212], [-89.24095, 32.80212], [-89.24094, 32.80211], [-89.24094, 32.80211], [-89.24093, 32.8021], [-89.2409, 32.8021], [-89.24089, 32.8021], [-89.24089, 32.8021], [-89.24088, 32.8021], [-89.24087, 32.8021], [-89.24087, 32.8021], [-89.24086, 32.8021], [-89.24086, 32.80209], [-89.24085, 32.80209], [-89.24083, 32.80209], [-89.24082, 32.80209], [-89.24081, 32.80208], [-89.2408, 32.80208], [-89.2408, 32.80208], [-89.24079, 32.80208], [-89.24071, 32.80208], [-89.2407, 32.80208], [-89.24069, 32.80208], [-89.24069, 32.80208], [-89.24068, 32.80208], [-89.24068, 32.80208], [-89.24067, 32.80207], [-89.24067, 32.80207], [-89.24066, 32.80207], [-89.24064, 32.80207], [-89.24064, 32.80207], [-89.24061, 32.80207], [-89.24061, 32.80206], [-89.24059, 32.80206], [-89.24058, 32.80206], [-89.24057, 32.80206], [-89.24057, 32.80206], [-89.24055, 32.80205], [-89.24054, 32.80205], [-89.24053, 32.80204], [-89.24051, 32.80204], [-89.24049, 32.80204], [-89.24048, 32.80204], [-89.24047, 32.80203], [-89.24046, 32.80203], [-89.24045, 32.80203], [-89.24045, 32.80203], [-89.24044, 32.80203], [-89.24044, 32.80203], [-89.24043, 32.80202], [-89.24043, 32.80202], [-89.24042, 32.80202], [-89.24041, 32.80201], [-89.24041, 32.80201], [-89.2404, 32.80201], [-89.2404, 32.802], [-89.24038, 32.80199], [-89.24037, 32.80199], [-89.24037, 32.80198], [-89.24036, 32.80198], [-89.24036, 32.80198], [-89.24035, 32.80197], [-89.24034, 32.80197], [-89.24034, 32.80196], [-89.24033, 32.80196], [-89.24033, 32.80195], [-89.24032, 32.80195], [-89.24032, 32.80195], [-89.24032, 32.80194], [-89.24031, 32.80194], [-89.2403, 32.80194], [-89.2403, 32.80193], [-89.2403, 32.80193], [-89.24029, 32.80193], [-89.24029, 32.80192], [-89.24028, 32.80191], [-89.24027, 32.80191], [-89.24027, 32.80191], [-89.24025, 32.8019], [-89.24025, 32.8019], [-89.24024, 32.80189], [-89.2402, 32.80189], [-89.24018, 32.80187], [-89.24014, 32.80185], [-89.24011, 32.80182], [-89.24007, 32.80179], [-89.24004, 32.80177], [-89.24001, 32.80174], [-89.23997, 32.8017], [-89.23993, 32.80168], [-89.2399, 32.80165], [-89.23986, 32.80163], [-89.23982, 32.8016], [-89.23977, 32.80157], [-89.23973, 32.80155], [-89.23967, 32.80153], [-89.23962, 32.80152], [-89.23955, 32.80149], [-89.23951, 32.80146], [-89.23945, 32.80144], [-89.2394, 32.80142], [-89.23936, 32.80141], [-89.23932, 32.80139], [-89.23927, 32.80137], [-89.23923, 32.80136], [-89.23919, 32.80135], [-89.23914, 32.80133], [-89.23911, 32.80133], [-89.23905, 32.80132], [-89.23902, 32.80131], [-89.23893, 32.80128], [-89.23895, 32.8012], [-89.23897, 32.80117], [-89.23898, 32.80109], [-89.239, 32.80102], [-89.23904, 32.80099], [-89.23906, 32.80096], [-89.23909, 32.80095], [-89.23912, 32.80092], [-89.23914, 32.80086], [-89.23914, 32.8008], [-89.23912, 32.80077], [-89.23912, 32.80073], [-89.23913, 32.8007], [-89.2391, 32.80062], [-89.23911, 32.80058], [-89.23908, 32.80055], [-89.23906, 32.80051], [-89.23903, 32.80049], [-89.239, 32.80046], [-89.23897, 32.80044], [-89.23893, 32.80042], [-89.23888, 32.80043], [-89.23881, 32.80043], [-89.23875, 32.80045], [-89.23871, 32.80047], [-89.23864, 32.80049], [-89.23859, 32.80051], [-89.23854, 32.80054], [-89.2385, 32.80055], [-89.23848, 32.80056], [-89.23846, 32.80059], [-89.23842, 32.8006], [-89.23839, 32.80061], [-89.23835, 32.80063], [-89.2383, 32.80063], [-89.23827, 32.80061], [-89.23824, 32.8006], [-89.23822, 32.80058], [-89.23818, 32.8006], [-89.23815, 32.80062], [-89.23811, 32.80064], [-89.23807, 32.80064], [-89.23803, 32.80065], [-89.23792, 32.80056], [-89.23767, 32.80039], [-89.23733, 32.80019], [-89.23701, 32.79998], [-89.23677, 32.79984], [-89.23646, 32.79964], [-89.23628, 32.79953], [-89.23605, 32.79936], [-89.23586, 32.79924], [-89.23588, 32.7992], [-89.2359, 32.79918], [-89.23593, 32.79914], [-89.23598, 32.79911], [-89.23602, 32.7991], [-89.23605, 32.79908], [-89.23609, 32.79904], [-89.23614, 32.79897], [-89.23616, 32.79895], [-89.23619, 32.79892], [-89.23623, 32.79892], [-89.23627, 32.79889], [-89.23629, 32.79887], [-89.2363, 32.79885], [-89.23635, 32.7988], [-89.23635, 32.79875], [-89.23636, 32.79873], [-89.23634, 32.7987], [-89.23633, 32.79861], [-89.23632, 32.79857], [-89.23629, 32.79851], [-89.23626, 32.79845], [-89.23623, 32.79843], [-89.23621, 32.79841], [-89.23618, 32.79836], [-89.23614, 32.79835], [-89.23609, 32.79832], [-89.23609, 32.79829], [-89.23606, 32.79827], [-89.23603, 32.79825], [-89.23603, 32.79823], [-89.236, 32.79817], [-89.236, 32.79817], [-89.23599, 32.79814], [-89.23599, 32.79814], [-89.236, 32.79814], [-89.236, 32.79814], [-89.23601, 32.79814], [-89.23602, 32.79814], [-89.23602, 32.79815], [-89.23604, 32.79815], [-89.23605, 32.79815], [-89.23607, 32.79815], [-89.23608, 32.79815], [-89.23608, 32.79815], [-89.23608, 32.79815], [-89.23609, 32.79815], [-89.23609, 32.79815], [-89.2361, 32.79815], [-89.2361, 32.79815], [-89.2361, 32.79815], [-89.23613, 32.79816], [-89.23614, 32.79816], [-89.23615, 32.79816], [-89.23616, 32.79817], [-89.23617, 32.79817], [-89.23618, 32.79817], [-89.23619, 32.79817], [-89.23619, 32.79817], [-89.2362, 32.79817], [-89.2362, 32.79818], [-89.23621, 32.79818], [-89.23621, 32.79818], [-89.23626, 32.79818], [-89.23626, 32.79818], [-89.23628, 32.79818], [-89.23629, 32.79818], [-89.23629, 32.79818], [-89.23631, 32.79818], [-89.23631, 32.79818], [-89.23632, 32.79818], [-89.23632, 32.79818], [-89.23633, 32.79818], [-89.23633, 32.79818], [-89.23634, 32.79818], [-89.23634, 32.79818], [-89.23635, 32.79817], [-89.23635, 32.79817], [-89.23635, 32.79817], [-89.23636, 32.79817], [-89.23637, 32.79817], [-89.23637, 32.79817], [-89.23638, 32.79817], [-89.23639, 32.79816], [-89.2364, 32.79816], [-89.2364, 32.79816], [-89.2364, 32.79816], [-89.23641, 32.79816], [-89.23641, 32.79816], [-89.23643, 32.79815], [-89.23647, 32.79815], [-89.23647, 32.79815], [-89.23647, 32.79815], [-89.23648, 32.79815], [-89.23648, 32.79815], [-89.23649, 32.79815], [-89.23649, 32.79814], [-89.2365, 32.79814], [-89.2365, 32.79814], [-89.23651, 32.79814], [-89.23651, 32.79814], [-89.23651, 32.79814], [-89.23652, 32.79813], [-89.23652, 32.79813], [-89.23652, 32.79813], [-89.23653, 32.79813], [-89.23653, 32.79813], [-89.23653, 32.79812], [-89.23653, 32.79812], [-89.23653, 32.79812], [-89.23653, 32.79811], [-89.23654, 32.79811], [-89.23654, 32.79811], [-89.23654, 32.79811], [-89.23654, 32.79811], [-89.23654, 32.79811], [-89.23655, 32.79811], [-89.23655, 32.7981], [-89.23655, 32.79809], [-89.23655, 32.79809], [-89.23655, 32.79809], [-89.23656, 32.79808], [-89.23656, 32.79808], [-89.23656, 32.79808], [-89.23656, 32.79807], [-89.23657, 32.79807], [-89.23657, 32.79807], [-89.23657, 32.79806], [-89.23657, 32.79806], [-89.23657, 32.79806], [-89.23657, 32.79806], [-89.23658, 32.79806], [-89.23658, 32.79805], [-89.23658, 32.79805], [-89.23658, 32.79805], [-89.23658, 32.79805], [-89.23658, 32.79804], [-89.23659, 32.79804], [-89.23659, 32.79803], [-89.2366, 32.79803], [-89.2366, 32.79802], [-89.2366, 32.79802], [-89.2366, 32.79802], [-89.23661, 32.79801], [-89.23662, 32.79801], [-89.23662, 32.798], [-89.23662, 32.798], [-89.23663, 32.798], [-89.23663, 32.798], [-89.23664, 32.79799], [-89.23664, 32.79798], [-89.23664, 32.79798], [-89.23664, 32.79798], [-89.23664, 32.79798], [-89.23665, 32.79797], [-89.23665, 32.79797], [-89.23665, 32.79797], [-89.23665, 32.79797], [-89.23665, 32.79796], [-89.23665, 32.79796], [-89.23665, 32.79795], [-89.23665, 32.79795], [-89.23665, 32.79794], [-89.23665, 32.79794], [-89.23666, 32.79794], [-89.23666, 32.79794], [-89.23666, 32.79793], [-89.23666, 32.79793], [-89.23666, 32.79793], [-89.23667, 32.79793], [-89.23667, 32.79793], [-89.23667, 32.79792], [-89.23667, 32.79792], [-89.23667, 32.79792], [-89.23668, 32.79791], [-89.23668, 32.7979], [-89.23668, 32.7979], [-89.23668, 32.7979], [-89.23668, 32.7979], [-89.23668, 32.7979], [-89.23668, 32.79789], [-89.23669, 32.79789], [-89.23669, 32.79789], [-89.23669, 32.79789], [-89.23669, 32.79788], [-89.23669, 32.79788], [-89.23669, 32.79788], [-89.23669, 32.79787], [-89.23669, 32.79787], [-89.23669, 32.79787], [-89.2367, 32.79786], [-89.2367, 32.79786], [-89.2367, 32.79786], [-89.2367, 32.79785], [-89.2367, 32.79785], [-89.23671, 32.79785], [-89.23671, 32.79785], [-89.23671, 32.79785], [-89.23671, 32.79784], [-89.23672, 32.79784], [-89.23672, 32.79784], [-89.23672, 32.79784], [-89.23672, 32.79784], [-89.23673, 32.79783], [-89.23673, 32.79783], [-89.23673, 32.79783], [-89.23673, 32.79783], [-89.23674, 32.79782], [-89.23674, 32.79782], [-89.23674, 32.79782], [-89.23674, 32.79781], [-89.23674, 32.79781], [-89.23675, 32.79781], [-89.23675, 32.79781], [-89.23675, 32.7978], [-89.23675, 32.7978], [-89.23676, 32.7978], [-89.23676, 32.79779], [-89.23676, 32.79779], [-89.23676, 32.79779], [-89.23676, 32.79778], [-89.23676, 32.79778], [-89.23677, 32.79778], [-89.23677, 32.79778], [-89.23678, 32.79777], [-89.23678, 32.79777], [-89.23678, 32.79777], [-89.23678, 32.79777], [-89.23679, 32.79777], [-89.23679, 32.79777], [-89.23679, 32.79776], [-89.23679, 32.79776], [-89.2368, 32.79776], [-89.2368, 32.79776], [-89.2368, 32.79776], [-89.2368, 32.79775], [-89.2368, 32.79775], [-89.23681, 32.79775], [-89.23681, 32.79775], [-89.23682, 32.79775], [-89.23682, 32.79774], [-89.23682, 32.79774], [-89.23683, 32.79774], [-89.23684, 32.79773], [-89.23684, 32.79773], [-89.23684, 32.79773], [-89.23685, 32.79773], [-89.23685, 32.79773], [-89.23685, 32.79773], [-89.23685, 32.79773], [-89.23686, 32.79772], [-89.23686, 32.79772], [-89.23686, 32.79772], [-89.23686, 32.79772], [-89.23687, 32.79772], [-89.23687, 32.79772], [-89.23688, 32.79772], [-89.23688, 32.79771], [-89.23688, 32.79771], [-89.23689, 32.79771], [-89.23689, 32.79771], [-89.2369, 32.79771], [-89.2369, 32.79771], [-89.23692, 32.79771], [-89.23693, 32.79771], [-89.23693, 32.7977], [-89.23694, 32.7977], [-89.23694, 32.7977], [-89.23694, 32.7977], [-89.23694, 32.7977], [-89.23695, 32.7977], [-89.23695, 32.79769], [-89.23695, 32.79769], [-89.23696, 32.79769], [-89.23696, 32.79769], [-89.23696, 32.79769], [-89.23697, 32.79768], [-89.23697, 32.79768], [-89.23698, 32.79768], [-89.23698, 32.79768], [-89.23699, 32.79768], [-89.23699, 32.79768], [-89.23699, 32.79767], [-89.237, 32.79767], [-89.237, 32.79767], [-89.237, 32.79767], [-89.23701, 32.79767], [-89.23701, 32.79767], [-89.23701, 32.79767], [-89.23702, 32.79767], [-89.23702, 32.79767], [-89.23703, 32.79767], [-89.23703, 32.79767], [-89.23705, 32.79767], [-89.23705, 32.79766], [-89.23705, 32.79766], [-89.23706, 32.79766], [-89.23706, 32.79766], [-89.23706, 32.79766], [-89.23706, 32.79766], [-89.23708, 32.79766], [-89.23708, 32.79766], [-89.23719, 32.79765], [-89.23729, 32.79766], [-89.2373, 32.79766], [-89.23734, 32.79764], [-89.23743, 32.79761], [-89.23748, 32.79759], [-89.23754, 32.79757], [-89.23754, 32.79756], [-89.2376, 32.79754], [-89.23764, 32.79751], [-89.2377, 32.79746], [-89.23771, 32.79744], [-89.23772, 32.79744], [-89.23781, 32.79736], [-89.23782, 32.79735], [-89.23783, 32.79734], [-89.23786, 32.79728], [-89.23789, 32.79722], [-89.23792, 32.79718], [-89.23793, 32.79714], [-89.23796, 32.79711], [-89.23797, 32.79707], [-89.23799, 32.79702], [-89.23801, 32.79697], [-89.23804, 32.79694], [-89.23805, 32.79689], [-89.23807, 32.79684], [-89.2381, 32.79678], [-89.23813, 32.79676], [-89.23813, 32.79672], [-89.23816, 32.79668], [-89.23819, 32.79663], [-89.23821, 32.79661], [-89.23823, 32.79657], [-89.23825, 32.79653], [-89.23827, 32.7965], [-89.2383, 32.79645], [-89.23833, 32.79641], [-89.23832, 32.79638], [-89.23837, 32.79634], [-89.23839, 32.79632], [-89.23842, 32.79628], [-89.23845, 32.79625], [-89.23846, 32.79624], [-89.23852, 32.79614], [-89.23866, 32.79602], [-89.23877, 32.79595], [-89.23888, 32.79589], [-89.23893, 32.79587], [-89.23899, 32.79584], [-89.23904, 32.7958], [-89.23907, 32.79577], [-89.23912, 32.79574], [-89.23921, 32.79566], [-89.23925, 32.79562], [-89.23928, 32.7956], [-89.2393, 32.79555], [-89.23933, 32.79553], [-89.23939, 32.79551], [-89.23942, 32.79547], [-89.23947, 32.79542], [-89.23949, 32.79538], [-89.23953, 32.79533], [-89.23954, 32.79529], [-89.23957, 32.79525], [-89.23966, 32.79516], [-89.23967, 32.79514], [-89.23971, 32.79509], [-89.23975, 32.79504], [-89.23978, 32.795], [-89.23981, 32.79497], [-89.23981, 32.79497], [-89.23984, 32.79496], [-89.23987, 32.79494], [-89.23987, 32.79492], [-89.23993, 32.7947], [-89.23994, 32.79465], [-89.24007, 32.79455], [-89.24011, 32.79454], [-89.24013, 32.79452], [-89.24018, 32.79451], [-89.24026, 32.79452], [-89.24038, 32.7945], [-89.24043, 32.79448], [-89.2405, 32.79448], [-89.24059, 32.79447], [-89.24071, 32.79447], [-89.24076, 32.79442], [-89.24075, 32.79438], [-89.24077, 32.79435], [-89.2408, 32.79427], [-89.24081, 32.79424], [-89.24085, 32.79419], [-89.2409, 32.79417], [-89.24102, 32.79414], [-89.24093, 32.79402], [-89.24092, 32.79396], [-89.24091, 32.79382], [-89.24089, 32.79375], [-89.2409, 32.79366], [-89.24086, 32.79346], [-89.24085, 32.7933], [-89.24086, 32.79318], [-89.24085, 32.79311], [-89.24086, 32.79305], [-89.24084, 32.79294], [-89.24089, 32.79291], [-89.24097, 32.79288], [-89.24104, 32.79283], [-89.24114, 32.79277], [-89.24127, 32.79275], [-89.24134, 32.79271], [-89.24145, 32.79268], [-89.2415, 32.79267], [-89.24155, 32.79269], [-89.24157, 32.7927], [-89.24161, 32.79274], [-89.24163, 32.79279], [-89.24165, 32.79286], [-89.24166, 32.79296], [-89.24165, 32.793], [-89.24162, 32.79304], [-89.24159, 32.79308], [-89.24156, 32.79313], [-89.24156, 32.79321], [-89.24159, 32.79326], [-89.24166, 32.79332], [-89.24171, 32.79338], [-89.24172, 32.79341], [-89.24168, 32.79345], [-89.2416, 32.79346], [-89.24151, 32.79351], [-89.24142, 32.79359], [-89.24134, 32.79367], [-89.24125, 32.79369], [-89.24121, 32.79373], [-89.24127, 32.79379], [-89.2414, 32.79384], [-89.24155, 32.79393], [-89.24165, 32.794], [-89.24171, 32.79402], [-89.24179, 32.79406], [-89.24185, 32.79413], [-89.24181, 32.7942], [-89.24155, 32.79412], [-89.24141, 32.79413], [-89.24134, 32.79414], [-89.24129, 32.79419], [-89.24133, 32.79424], [-89.24144, 32.79439], [-89.24139, 32.79445], [-89.24138, 32.79457], [-89.24142, 32.79462], [-89.24155, 32.79462], [-89.24174, 32.79463], [-89.24179, 32.79461], [-89.24195, 32.79467], [-89.24199, 32.79462], [-89.24205, 32.7946], [-89.2421, 32.79459], [-89.24214, 32.79459], [-89.24213, 32.79467], [-89.2421, 32.7947], [-89.24206, 32.79475], [-89.24205, 32.7948], [-89.24206, 32.79485], [-89.24204, 32.79489], [-89.24201, 32.79492], [-89.24189, 32.79492], [-89.24181, 32.79493], [-89.24173, 32.79496], [-89.24163, 32.795], [-89.24154, 32.79506], [-89.24146, 32.79511], [-89.24135, 32.79514], [-89.24119, 32.79518], [-89.24106, 32.79522], [-89.24093, 32.7953], [-89.24092, 32.79536], [-89.24094, 32.79539], [-89.24098, 32.79541], [-89.24106, 32.7954], [-89.24114, 32.79537], [-89.24131, 32.79532], [-89.24148, 32.79534], [-89.24151, 32.7954], [-89.24154, 32.79546], [-89.2416, 32.79545], [-89.24172, 32.79543], [-89.24185, 32.79541], [-89.24189, 32.79542], [-89.24192, 32.79545], [-89.24199, 32.79551], [-89.24209, 32.79557], [-89.24219, 32.79561], [-89.24222, 32.79568], [-89.24223, 32.79576], [-89.24219, 32.79582], [-89.24211, 32.79588], [-89.24206, 32.79594], [-89.24205, 32.796], [-89.24208, 32.79604], [-89.2421, 32.79607], [-89.24211, 32.79608], [-89.24213, 32.7961], [-89.24214, 32.79614], [-89.24212, 32.79618], [-89.24205, 32.79622], [-89.24205, 32.79623], [-89.24194, 32.7963], [-89.24196, 32.79634], [-89.24202, 32.79636], [-89.24214, 32.79636], [-89.24229, 32.79638], [-89.24228, 32.79643], [-89.24223, 32.79654], [-89.24215, 32.79669], [-89.24204, 32.79683], [-89.24189, 32.79704], [-89.2418, 32.79711], [-89.24176, 32.79712], [-89.24169, 32.7971], [-89.24165, 32.79707], [-89.2415, 32.79694], [-89.2414, 32.79688], [-89.24132, 32.79688], [-89.24124, 32.7969], [-89.24126, 32.79696], [-89.24131, 32.79702], [-89.24136, 32.79709], [-89.24139, 32.79717], [-89.24141, 32.7973], [-89.24139, 32.79741], [-89.24129, 32.79748], [-89.24112, 32.79749], [-89.24084, 32.7975], [-89.24048, 32.7975], [-89.24018, 32.7975], [-89.24011, 32.79742], [-89.23999, 32.79727], [-89.23988, 32.79716], [-89.23974, 32.7971], [-89.23964, 32.79708], [-89.23954, 32.79709], [-89.23951, 32.79712], [-89.23951, 32.79717], [-89.23954, 32.79724], [-89.2396, 32.7973], [-89.23968, 32.79737], [-89.23978, 32.79747], [-89.23986, 32.79756], [-89.23987, 32.79762], [-89.23986, 32.7977], [-89.23981, 32.79776], [-89.23977, 32.79778], [-89.23967, 32.79779], [-89.2396, 32.79781], [-89.23949, 32.79784], [-89.23936, 32.79785], [-89.23927, 32.79791], [-89.23924, 32.79797], [-89.23925, 32.798], [-89.23927, 32.79802], [-89.23932, 32.79804], [-89.23936, 32.79804], [-89.2394, 32.79804], [-89.23947, 32.79802], [-89.23954, 32.798], [-89.23967, 32.798], [-89.23974, 32.79801], [-89.23982, 32.79801], [-89.23997, 32.798], [-89.24002, 32.79801], [-89.24004, 32.79804], [-89.24003, 32.79807], [-89.23997, 32.79814], [-89.23985, 32.79822], [-89.23976, 32.79827], [-89.23968, 32.79831], [-89.23955, 32.79837], [-89.23941, 32.79847], [-89.23937, 32.79853], [-89.23938, 32.79856], [-89.23941, 32.79853], [-89.23944, 32.79851], [-89.23947, 32.79851], [-89.23957, 32.79848], [-89.23975, 32.79848], [-89.23976, 32.79868], [-89.23978, 32.79871], [-89.23983, 32.79869], [-89.23992, 32.79854], [-89.24001, 32.79846], [-89.24013, 32.79837], [-89.2402, 32.79837], [-89.24028, 32.79842], [-89.24034, 32.7984], [-89.24042, 32.79835], [-89.24053, 32.79829], [-89.24071, 32.79823], [-89.24077, 32.79824], [-89.24083, 32.79827], [-89.24089, 32.79831], [-89.24092, 32.79835], [-89.24093, 32.79839], [-89.24095, 32.79849], [-89.24096, 32.79855], [-89.24099, 32.79855], [-89.24103, 32.79852], [-89.24114, 32.79841], [-89.24121, 32.79832], [-89.24124, 32.79827], [-89.24133, 32.79824], [-89.24141, 32.79826], [-89.24149, 32.79829], [-89.24154, 32.79827], [-89.24162, 32.79817], [-89.2417, 32.79812], [-89.2418, 32.79811], [-89.24185, 32.79815], [-89.24194, 32.79817], [-89.24209, 32.79816], [-89.24225, 32.79814], [-89.24234, 32.79808], [-89.24252, 32.79795], [-89.24266, 32.79783], [-89.24273, 32.79772], [-89.24284, 32.79769], [-89.24296, 32.79771], [-89.24309, 32.79775], [-89.24313, 32.79781], [-89.24315, 32.79796], [-89.24319, 32.79801], [-89.24324, 32.79807], [-89.2433, 32.79816], [-89.24331, 32.79831], [-89.24329, 32.79848], [-89.24323, 32.79853], [-89.24303, 32.79857], [-89.24282, 32.79863], [-89.2428, 32.79871], [-89.24281, 32.79877], [-89.24296, 32.7989], [-89.243, 32.79904], [-89.24295, 32.79913], [-89.24285, 32.7992], [-89.2426, 32.79926], [-89.24231, 32.79928], [-89.24208, 32.79928], [-89.2419, 32.79926], [-89.24157, 32.79924], [-89.2415, 32.79927], [-89.24143, 32.79935], [-89.24144, 32.79943], [-89.24151, 32.79942], [-89.2416, 32.79943], [-89.24165, 32.79945], [-89.24171, 32.79948], [-89.2417, 32.79954], [-89.24167, 32.79957], [-89.24162, 32.79964], [-89.24158, 32.79975], [-89.24161, 32.79978], [-89.24165, 32.79975], [-89.24177, 32.79969], [-89.24202, 32.79961], [-89.24219, 32.79962], [-89.24231, 32.79966], [-89.2425, 32.79971], [-89.24264, 32.79975], [-89.24269, 32.7998], [-89.24268, 32.79986], [-89.24264, 32.79992], [-89.24252, 32.80002], [-89.24225, 32.80016], [-89.24217, 32.80022], [-89.24206, 32.8003], [-89.24203, 32.80036], [-89.24205, 32.80037], [-89.24213, 32.80038], [-89.24245, 32.80038], [-89.2425, 32.8004], [-89.2425, 32.80045], [-89.24248, 32.80061], [-89.24242, 32.8007], [-89.24235, 32.80075], [-89.24227, 32.8008], [-89.2421, 32.80085], [-89.24199, 32.8009], [-89.24194, 32.80095], [-89.24195, 32.80101], [-89.24199, 32.80101], [-89.24213, 32.80099], [-89.24217, 32.80101], [-89.24219, 32.80107], [-89.24223, 32.80112], [-89.24226, 32.80111], [-89.24229, 32.80109], [-89.24236, 32.80105], [-89.24242, 32.80105], [-89.24256, 32.80104], [-89.24257, 32.80101], [-89.24261, 32.80094], [-89.2427, 32.80083], [-89.2428, 32.80069], [-89.2429, 32.80056], [-89.24301, 32.80044], [-89.24317, 32.80034], [-89.24335, 32.80028], [-89.24342, 32.80024], [-89.24352, 32.80009], [-89.2436, 32.80004], [-89.24369, 32.80003], [-89.24373, 32.79999], [-89.24389, 32.79985], [-89.2442, 32.79968], [-89.24425, 32.79971], [-89.24434, 32.79989], [-89.24437, 32.80002], [-89.24411, 32.80018], [-89.24381, 32.80037], [-89.24376, 32.80041], [-89.24372, 32.80043], [-89.24367, 32.80046], [-89.24363, 32.8005], [-89.2436, 32.80053], [-89.24348, 32.80062], [-89.24345, 32.80065], [-89.24341, 32.80069], [-89.24336, 32.80072], [-89.24332, 32.80075], [-89.24329, 32.80079], [-89.24325, 32.80083], [-89.2432, 32.80087], [-89.24318, 32.80089], [-89.24315, 32.80092], [-89.24313, 32.80094], [-89.24311, 32.80097], [-89.24306, 32.80101], [-89.24303, 32.80105], [-89.24301, 32.80109], [-89.24298, 32.80112], [-89.24297, 32.80113], [-89.24296, 32.80114], [-89.24296, 32.80114], [-89.24296, 32.80114], [-89.24295, 32.80115], [-89.24295, 32.80116], [-89.24295, 32.80116], [-89.24295, 32.80116], [-89.24294, 32.80117], [-89.24294, 32.80117], [-89.24293, 32.80118], [-89.24293, 32.80119], [-89.24293, 32.80121], [-89.24291, 32.80122], [-89.24291, 32.80123], [-89.24291, 32.80123], [-89.24291, 32.80123], [-89.2429, 32.80124], [-89.2429, 32.80125], [-89.2429, 32.80126], [-89.24289, 32.80126], [-89.24289, 32.80127], [-89.24288, 32.80127], [-89.24288, 32.80128], [-89.24287, 32.80129], [-89.24287, 32.80129], [-89.24286, 32.8013], [-89.24285, 32.8013], [-89.24285, 32.8013], [-89.24285, 32.80131], [-89.24285, 32.80131], [-89.24285, 32.80132], [-89.24284, 32.80132], [-89.24284, 32.80133], [-89.24284, 32.80134], [-89.24284, 32.80134], [-89.24283, 32.80135], [-89.24283, 32.80135], [-89.24283, 32.80136], [-89.24283, 32.80136], [-89.24282, 32.80137], [-89.24282, 32.80137], [-89.24282, 32.80138], [-89.24281, 32.80138], [-89.24281, 32.8014], [-89.24281, 32.80141], [-89.24281, 32.80144], [-89.2428, 32.80145], [-89.2428, 32.80147], [-89.24279, 32.80148], [-89.24279, 32.80149], [-89.24279, 32.80149], [-89.24278, 32.8015], [-89.24278, 32.8015], [-89.24278, 32.8015], [-89.24278, 32.80151], [-89.24277, 32.80151], [-89.24277, 32.80152], [-89.24277, 32.80153], [-89.24276, 32.80153], [-89.24276, 32.80154], [-89.24276, 32.80154], [-89.24276, 32.80154], [-89.24276, 32.80155], [-89.24276, 32.80156], [-89.24275, 32.80156], [-89.24275, 32.80156], [-89.24275, 32.80157], [-89.24274, 32.80157], [-89.24274, 32.80157], [-89.24274, 32.80158], [-89.24274, 32.80159], [-89.24274, 32.8016], [-89.24273, 32.80161], [-89.24273, 32.80161], [-89.24273, 32.80161], [-89.24272, 32.80162], [-89.24272, 32.80162], [-89.24272, 32.80162], [-89.24271, 32.80164], [-89.2427, 32.80165], [-89.2427, 32.80165], [-89.24269, 32.80166], [-89.24269, 32.80167], [-89.24268, 32.80167], [-89.24268, 32.80167], [-89.24268, 32.80168], [-89.24267, 32.80168], [-89.24267, 32.80168], [-89.24267, 32.80168], [-89.24266, 32.80169], [-89.24266, 32.80169], [-89.24266, 32.80169], [-89.24265, 32.80169], [-89.24265, 32.8017], [-89.24264, 32.8017], [-89.24264, 32.8017], [-89.24263, 32.80171], [-89.24263, 32.80171], [-89.24262, 32.80172], [-89.24262, 32.80173], [-89.24262, 32.80174], [-89.24262, 32.80175], [-89.24262, 32.80175], [-89.24262, 32.80176], [-89.24261, 32.80177], [-89.24261, 32.80177], [-89.24261, 32.80178], [-89.24261, 32.80178], [-89.24261, 32.80179], [-89.2426, 32.80179], [-89.2426, 32.8018], [-89.24259, 32.8018], [-89.24259, 32.8018], [-89.24259, 32.80181], [-89.24259, 32.80181], [-89.24258, 32.80182], [-89.24258, 32.80182], [-89.24258, 32.80183], [-89.24257, 32.80184], [-89.24256, 32.80185], [-89.24256, 32.80185], [-89.24256, 32.80185], [-89.24255, 32.80186], [-89.24255, 32.80187], [-89.24255, 32.80187], [-89.24254, 32.80188], [-89.24254, 32.80188], [-89.24253, 32.80189], [-89.24251, 32.80189], [-89.2425, 32.8019], [-89.24249, 32.80191], [-89.24249, 32.80191], [-89.24249, 32.80191], [-89.24248, 32.80192], [-89.24247, 32.80192], [-89.24246, 32.80193], [-89.24245, 32.80193], [-89.24244, 32.80194], [-89.24244, 32.80194], [-89.24244, 32.80194], [-89.24243, 32.80195], [-89.24243, 32.80195], [-89.24242, 32.80195], [-89.24241, 32.80196], [-89.24241, 32.80196], [-89.2424, 32.80196], [-89.2424, 32.80197], [-89.2424, 32.80197], [-89.24239, 32.80198], [-89.24239, 32.80198], [-89.24238, 32.80199], [-89.24238, 32.80199], [-89.24238, 32.80199], [-89.24237, 32.802], [-89.24236, 32.80201], [-89.24235, 32.80201], [-89.24234, 32.80201], [-89.24234, 32.80202], [-89.24234, 32.80202], [-89.24233, 32.80202], [-89.24233, 32.80203], [-89.24232, 32.80203], [-89.24231, 32.80204], [-89.2423, 32.80204], [-89.2423, 32.80204], [-89.24229, 32.80204], [-89.24229, 32.80205], [-89.24228, 32.80205], [-89.24228, 32.80205], [-89.24227, 32.80206], [-89.24227, 32.80206], [-89.24227, 32.80206], [-89.24226, 32.80207], [-89.24225, 32.80207], [-89.24224, 32.80207], [-89.24224, 32.80208], [-89.24223, 32.80208], [-89.24222, 32.80208], [-89.24221, 32.80208], [-89.24221, 32.80208], [-89.24221, 32.80209], [-89.2422, 32.80209], [-89.2422, 32.80209], [-89.24219, 32.80209], [-89.24218, 32.80209], [-89.24217, 32.8021], [-89.24216, 32.8021], [-89.24214, 32.8021], [-89.24214, 32.8021], [-89.24213, 32.8021], [-89.24211, 32.8021], [-89.24209, 32.8021], [-89.24204, 32.80211], [-89.24202, 32.80211], [-89.24202, 32.80212], [-89.24201, 32.80212], [-89.24201, 32.80212], [-89.242, 32.80212], [-89.242, 32.80213], [-89.24199, 32.80213], [-89.24198, 32.80213], [-89.24198, 32.80214], [-89.24197, 32.80214], [-89.24196, 32.80215], [-89.24194, 32.80215], [-89.24193, 32.80215], [-89.24193, 32.80215], [-89.24191, 32.80215], [-89.24191, 32.80215], [-89.24188, 32.80215], [-89.24187, 32.80216], [-89.24187, 32.80216], [-89.24186, 32.80216], [-89.24185, 32.80216], [-89.24184, 32.80216], [-89.24183, 32.80216], [-89.24182, 32.80217], [-89.2418, 32.80217], [-89.2418, 32.80217], [-89.24179, 32.80217], [-89.24177, 32.80217], [-89.24177, 32.80218], [-89.24177, 32.80218], [-89.24176, 32.80218], [-89.24173, 32.80218], [-89.24172, 32.80218], [-89.2417, 32.80218], [-89.24169, 32.80218], [-89.24166, 32.80218], [-89.24165, 32.80218], [-89.24159, 32.80218], [-89.24159, 32.80219], [-89.24158, 32.80219], [-89.24154, 32.80219], [-89.24153, 32.80219], [-89.24153, 32.80219], [-89.24152, 32.80218], [-89.24151, 32.80218], [-89.2415, 32.80218], [-89.24149, 32.80218]]], [[[-89.23892, 32.79197], [-89.23889, 32.79197], [-89.23884, 32.79197], [-89.2388, 32.79197], [-89.23876, 32.79197], [-89.23872, 32.79197], [-89.23868, 32.79197], [-89.23868, 32.79194], [-89.23867, 32.79192], [-89.23866, 32.7919], [-89.23866, 32.79188], [-89.23868, 32.79184], [-89.23867, 32.79181], [-89.23868, 32.79177], [-89.23869, 32.79174], [-89.23868, 32.79171], [-89.23868, 32.79167], [-89.23867, 32.79164], [-89.23866, 32.7916], [-89.23866, 32.79158], [-89.23863, 32.79156], [-89.23861, 32.79153], [-89.23858, 32.79151], [-89.23855, 32.79148], [-89.23852, 32.79146], [-89.23852, 32.79144], [-89.23854, 32.79141], [-89.23857, 32.79139], [-89.2386, 32.79139], [-89.23864, 32.79138], [-89.23868, 32.79136], [-89.23871, 32.79134], [-89.23874, 32.79133], [-89.23878, 32.79131], [-89.23882, 32.79129], [-89.23885, 32.79128], [-89.23888, 32.79126], [-89.23898, 32.79121], [-89.23903, 32.79118], [-89.2391, 32.79114], [-89.23912, 32.79111], [-89.23913, 32.79104], [-89.23911, 32.79098], [-89.23909, 32.79087], [-89.23907, 32.79081], [-89.23907, 32.79073], [-89.23907, 32.79066], [-89.23904, 32.79055], [-89.23901, 32.79044], [-89.23902, 32.79038], [-89.23905, 32.79029], [-89.23906, 32.79021], [-89.23907, 32.79013], [-89.23905, 32.79005], [-89.239, 32.78995], [-89.23891, 32.78986], [-89.23886, 32.78981], [-89.23881, 32.78975], [-89.23878, 32.78968], [-89.23874, 32.78958], [-89.23869, 32.78952], [-89.23865, 32.78945], [-89.23864, 32.78939], [-89.23862, 32.78932], [-89.23861, 32.78924], [-89.2386, 32.78918], [-89.2386, 32.7891], [-89.23856, 32.78909], [-89.23848, 32.78908], [-89.2384, 32.78908], [-89.23827, 32.78907], [-89.23814, 32.78906], [-89.23806, 32.78907], [-89.23788, 32.78908], [-89.23784, 32.78908], [-89.2378, 32.78909], [-89.23775, 32.78909], [-89.23767, 32.78909], [-89.23769, 32.78905], [-89.23771, 32.78902], [-89.2377, 32.78893], [-89.23769, 32.7889], [-89.2377, 32.78883], [-89.23772, 32.78876], [-89.23778, 32.78871], [-89.2378, 32.78864], [-89.23786, 32.7886], [-89.23789, 32.78851], [-89.23792, 32.78843], [-89.23797, 32.78834], [-89.23802, 32.78825], [-89.23831, 32.78805], [-89.23851, 32.78802], [-89.23883, 32.788], [-89.23906, 32.78794], [-89.23927, 32.78791], [-89.23948, 32.78789], [-89.23961, 32.78785], [-89.23972, 32.7879], [-89.23973, 32.78803], [-89.23985, 32.78826], [-89.23982, 32.78843], [-89.23985, 32.78849], [-89.23989, 32.78846], [-89.24004, 32.78838], [-89.24021, 32.78836], [-89.24031, 32.7884], [-89.24036, 32.78853], [-89.24039, 32.78865], [-89.24034, 32.78878], [-89.24049, 32.78885], [-89.24061, 32.78884], [-89.24068, 32.78891], [-89.24074, 32.78902], [-89.24076, 32.78913], [-89.24072, 32.78924], [-89.24054, 32.78946], [-89.24038, 32.78957], [-89.24029, 32.78962], [-89.24023, 32.78966], [-89.24031, 32.7897], [-89.24038, 32.78969], [-89.24055, 32.78971], [-89.24071, 32.78974], [-89.24088, 32.78978], [-89.24096, 32.78978], [-89.24109, 32.78973], [-89.24118, 32.78984], [-89.24122, 32.78997], [-89.2414, 32.79012], [-89.24146, 32.79024], [-89.24158, 32.79035], [-89.24165, 32.79055], [-89.24172, 32.79085], [-89.24181, 32.79111], [-89.24183, 32.79128], [-89.24182, 32.79138], [-89.24174, 32.79147], [-89.24157, 32.79146], [-89.2414, 32.79135], [-89.24125, 32.79123], [-89.24124, 32.7911], [-89.24115, 32.7911], [-89.24102, 32.79111], [-89.24085, 32.79111], [-89.24071, 32.79108], [-89.24067, 32.79112], [-89.24074, 32.79123], [-89.24086, 32.79137], [-89.24095, 32.79153], [-89.24096, 32.79163], [-89.24092, 32.79171], [-89.24082, 32.79175], [-89.24069, 32.79176], [-89.24056, 32.79175], [-89.24032, 32.79168], [-89.24014, 32.79169], [-89.24002, 32.79173], [-89.23992, 32.79173], [-89.23977, 32.79163], [-89.23971, 32.79161], [-89.23971, 32.79173], [-89.23968, 32.7918], [-89.23965, 32.79185], [-89.23959, 32.79188], [-89.23952, 32.79187], [-89.23945, 32.79188], [-89.23942, 32.79197], [-89.23943, 32.79202], [-89.23947, 32.79207], [-89.23947, 32.7921], [-89.23941, 32.79211], [-89.23934, 32.79212], [-89.23928, 32.79215], [-89.23922, 32.79217], [-89.23914, 32.79218], [-89.239, 32.79213], [-89.23887, 32.79213], [-89.23888, 32.79212], [-89.23888, 32.7921], [-89.2389, 32.79207], [-89.23891, 32.79205], [-89.23892, 32.79203], [-89.23894, 32.792], [-89.23892, 32.79197]]]]}, "properties": {"poly_IncidentName": "East Lake RX", "poly_GISAcres": 104.17182913720352, "poly_DateCurrent": 1772996468000}}, {"type": "Feature", "geometry": {"type": "MultiPolygon", "coordinates": [[[[-76.33808, 35.48626], [-76.3382, 35.48447], [-76.33774, 35.48454], [-76.33765, 35.48415], [-76.33792, 35.48419], [-76.33803, 35.48407], [-76.33794, 35.48388], [-76.33822, 35.48363], [-76.33829, 35.48387], [-76.33855, 35.48274], [-76.3386, 35.48251], [-76.33723, 35.48292], [-76.33515, 35.48361], [-76.33498, 35.48367], [-76.3349, 35.4837], [-76.33474, 35.48377], [-76.33469, 35.48379], [-76.33446, 35.48385], [-76.33445, 35.48385], [-76.33439, 35.48387], [-76.33434, 35.48388], [-76.33429, 35.4839], [-76.33424, 35.48392], [-76.33419, 35.48393], [-76.33414, 35.48395], [-76.33409, 35.48397], [-76.33404, 35.48398], [-76.334, 35.484], [-76.33396, 35.48401], [-76.33391, 35.48403], [-76.33386, 35.48404], [-76.33381, 35.48406], [-76.33376, 35.48408], [-76.33371, 35.48409], [-76.33366, 35.48411], [-76.33361, 35.48412], [-76.33357, 35.48414], [-76.33352, 35.48415], [-76.33347, 35.48417], [-76.33343, 35.48419], [-76.33339, 35.4842], [-76.33335, 35.48421], [-76.33331, 35.48422], [-76.33327, 35.48423], [-76.33323, 35.48424], [-76.3332, 35.48425], [-76.33316, 35.48426], [-76.33312, 35.48426], [-76.33308, 35.48426], [-76.33305, 35.48424], [-76.33302, 35.48422], [-76.33301, 35.48419], [-76.33299, 35.48415], [-76.33298, 35.48412], [-76.33296, 35.48408], [-76.33294, 35.48405], [-76.33292, 35.48401], [-76.33291, 35.48397], [-76.33289, 35.48393], [-76.33287, 35.4839], [-76.33285, 35.48386], [-76.33283, 35.48383], [-76.33281, 35.4838], [-76.33279, 35.48376], [-76.33278, 35.48372], [-76.33275, 35.48368], [-76.33273, 35.48363], [-76.33271, 35.48359], [-76.33269, 35.48355], [-76.33267, 35.48351], [-76.33264, 35.48346], [-76.33262, 35.48342], [-76.3326, 35.48338], [-76.33257, 35.48334], [-76.33255, 35.4833], [-76.33253, 35.48326], [-76.33251, 35.48322], [-76.33249, 35.48317], [-76.33246, 35.48313], [-76.33244, 35.48308], [-76.33242, 35.48304], [-76.33239, 35.483], [-76.33237, 35.48295], [-76.33235, 35.48291], [-76.33233, 35.48287], [-76.3323, 35.48282], [-76.33228, 35.48278], [-76.33226, 35.48274], [-76.33224, 35.4827], [-76.33221, 35.48266], [-76.33219, 35.48262], [-76.33217, 35.48258], [-76.33215, 35.48253], [-76.33212, 35.48249], [-76.3321, 35.48245], [-76.33208, 35.48241], [-76.33206, 35.48237], [-76.33204, 35.48232], [-76.33201, 35.48228], [-76.33199, 35.48223], [-76.33196, 35.48219], [-76.33194, 35.48215], [-76.33191, 35.4821], [-76.33189, 35.48206], [-76.33187, 35.48202], [-76.33185, 35.48198], [-76.33183, 35.48194], [-76.3318, 35.48189], [-76.33178, 35.48185], [-76.33176, 35.48181], [-76.33174, 35.48176], [-76.33171, 35.48172], [-76.33169, 35.48168], [-76.33167, 35.48164], [-76.33165, 35.4816], [-76.33162, 35.48156], [-76.3316, 35.48152], [-76.33158, 35.48148], [-76.33156, 35.48144], [-76.33154, 35.4814], [-76.33152, 35.48136], [-76.3315, 35.48132], [-76.33148, 35.48129], [-76.33146, 35.48126], [-76.33145, 35.48123], [-76.33143, 35.4812], [-76.33142, 35.48117], [-76.3314, 35.48114], [-76.33137, 35.48111], [-76.33134, 35.48109], [-76.33129, 35.48108], [-76.33125, 35.48108], [-76.33122, 35.4811], [-76.33119, 35.48112], [-76.33116, 35.48114], [-76.33112, 35.48116], [-76.33108, 35.48117], [-76.33105, 35.48119], [-76.33101, 35.48121], [-76.33098, 35.48122], [-76.33092, 35.48125], [-76.33089, 35.48126], [-76.33085, 35.48128], [-76.3308, 35.4813], [-76.33075, 35.48133], [-76.33071, 35.48135], [-76.33065, 35.48137], [-76.33062, 35.48139], [-76.33058, 35.4814], [-76.33054, 35.48142], [-76.33051, 35.48143], [-76.33045, 35.48146], [-76.3304, 35.48148], [-76.33036, 35.4815], [-76.33033, 35.48152], [-76.33028, 35.48154], [-76.33025, 35.48155], [-76.33022, 35.48156], [-76.33018, 35.48158], [-76.33015, 35.48159], [-76.33012, 35.48161], [-76.33009, 35.48162], [-76.33005, 35.48164], [-76.33002, 35.48165], [-76.32999, 35.48167], [-76.32996, 35.48169], [-76.32993, 35.48171], [-76.32989, 35.48173], [-76.32986, 35.48176], [-76.32982, 35.48178], [-76.32979, 35.4818], [-76.32975, 35.48182], [-76.32972, 35.48185], [-76.32969, 35.48187], [-76.32965, 35.48189], [-76.32962, 35.48192], [-76.32958, 35.48194], [-76.32954, 35.48197], [-76.32951, 35.48199], [-76.32948, 35.48201], [-76.32944, 35.48204], [-76.32941, 35.48206], [-76.32937, 35.48208], [-76.32934, 35.4821], [-76.32931, 35.48213], [-76.32927, 35.48215], [-76.32923, 35.48217], [-76.3292, 35.4822], [-76.32916, 35.48222], [-76.32913, 35.48224], [-76.3291, 35.48227], [-76.32906, 35.48229], [-76.32903, 35.48232], [-76.329, 35.48235], [-76.32897, 35.48238], [-76.32894, 35.48241], [-76.32891, 35.48244], [-76.32889, 35.48247], [-76.32886, 35.4825], [-76.32884, 35.48252], [-76.32882, 35.48255], [-76.32879, 35.48258], [-76.32877, 35.4826], [-76.32873, 35.48265], [-76.32871, 35.48268], [-76.32869, 35.48271], [-76.32867, 35.48273], [-76.32864, 35.48276], [-76.32862, 35.48279], [-76.3286, 35.48281], [-76.32857, 35.48286], [-76.32855, 35.48288], [-76.32852, 35.48292], [-76.3285, 35.48295], [-76.32848, 35.48297], [-76.32845, 35.483], [-76.32843, 35.48302], [-76.32841, 35.48305], [-76.32839, 35.48308], [-76.32837, 35.4831], [-76.32835, 35.48313], [-76.32832, 35.48316], [-76.3283, 35.48318], [-76.32828, 35.4832], [-76.32826, 35.48323], [-76.32824, 35.48325], [-76.32822, 35.48328], [-76.32819, 35.48331], [-76.32817, 35.48334], [-76.32815, 35.48336], [-76.32813, 35.48339], [-76.3281, 35.48342], [-76.32808, 35.48344], [-76.32806, 35.48347], [-76.32804, 35.48349], [-76.32802, 35.48352], [-76.328, 35.48354], [-76.32797, 35.48359], [-76.32795, 35.48362], [-76.32793, 35.48364], [-76.3279, 35.48367], [-76.32788, 35.48369], [-76.32786, 35.48372], [-76.32785, 35.48374], [-76.32783, 35.48377], [-76.32781, 35.48379], [-76.32779, 35.48381], [-76.32777, 35.48387], [-76.32777, 35.4839], [-76.32778, 35.48394], [-76.3278, 35.48398], [-76.32782, 35.48401], [-76.32783, 35.48404], [-76.32785, 35.48407], [-76.32625, 35.48548], [-76.32601, 35.48518], [-76.32616, 35.48396], [-76.32595, 35.48381], [-76.32571, 35.48374], [-76.32847, 35.47694], [-76.3286, 35.47672], [-76.32867, 35.47673], [-76.32876, 35.47672], [-76.32881, 35.47661], [-76.32875, 35.47651], [-76.32863, 35.47643], [-76.32882, 35.47617], [-76.32895, 35.47614], [-76.32922, 35.4761], [-76.3301, 35.47604], [-76.33025, 35.47574], [-76.33167, 35.47568], [-76.33491, 35.47544], [-76.33673, 35.4753], [-76.33701, 35.47528], [-76.33722, 35.47527], [-76.34337, 35.47503], [-76.34651, 35.47504], [-76.34651, 35.47497], [-76.34655, 35.47262], [-76.34656, 35.47228], [-76.34657, 35.47214], [-76.34808, 35.47137], [-76.34819, 35.47131], [-76.34808, 35.47119], [-76.34805, 35.47117], [-76.34801, 35.47116], [-76.34799, 35.47113], [-76.34797, 35.47111], [-76.34796, 35.47108], [-76.34795, 35.47104], [-76.34796, 35.47101], [-76.34795, 35.47099], [-76.34796, 35.47095], [-76.34796, 35.47092], [-76.34798, 35.47089], [-76.34799, 35.47085], [-76.34799, 35.47082], [-76.34799, 35.47079], [-76.348, 35.47075], [-76.34801, 35.47072], [-76.34802, 35.4707], [-76.34803, 35.47067], [-76.34805, 35.47064], [-76.34807, 35.47061], [-76.34811, 35.47059], [-76.34815, 35.47059], [-76.34819, 35.47058], [-76.34823, 35.47058], [-76.34826, 35.47057], [-76.3483, 35.47057], [-76.34833, 35.47059], [-76.34836, 35.47061], [-76.3484, 35.47064], [-76.34841, 35.47068], [-76.34842, 35.47071], [-76.34846, 35.47074], [-76.34849, 35.47075], [-76.34853, 35.47076], [-76.34857, 35.47075], [-76.3486, 35.47073], [-76.34864, 35.47072], [-76.34867, 35.4707], [-76.3487, 35.47067], [-76.34873, 35.47064], [-76.34876, 35.47062], [-76.34878, 35.4706], [-76.34879, 35.47059], [-76.34883, 35.47056], [-76.34886, 35.47054], [-76.34888, 35.47052], [-76.34893, 35.4705], [-76.34896, 35.47047], [-76.349, 35.47045], [-76.34904, 35.47044], [-76.34908, 35.47043], [-76.34912, 35.47043], [-76.34916, 35.47044], [-76.3492, 35.47045], [-76.34924, 35.47045], [-76.34927, 35.47047], [-76.34931, 35.47048], [-76.34936, 35.47047], [-76.3494, 35.47046], [-76.34944, 35.47045], [-76.34944, 35.47045], [-76.34949, 35.47045], [-76.34952, 35.47042], [-76.34952, 35.4704], [-76.34952, 35.47036], [-76.34952, 35.47036], [-76.3495, 35.47032], [-76.34951, 35.47029], [-76.3495, 35.47026], [-76.34949, 35.47023], [-76.34948, 35.47021], [-76.34946, 35.47017], [-76.34945, 35.47014], [-76.34944, 35.4701], [-76.34942, 35.47007], [-76.34942, 35.47003], [-76.34944, 35.47001], [-76.34948, 35.46999], [-76.34951, 35.46997], [-76.34954, 35.46995], [-76.34955, 35.46994], [-76.34958, 35.46991], [-76.34959, 35.46989], [-76.34961, 35.46988], [-76.34963, 35.46986], [-76.34964, 35.46984], [-76.34966, 35.46981], [-76.34968, 35.46979], [-76.3497, 35.46976], [-76.34974, 35.46974], [-76.34978, 35.46973], [-76.34981, 35.46972], [-76.34984, 35.46969], [-76.34987, 35.46968], [-76.34989, 35.46965], [-76.34991, 35.46962], [-76.34992, 35.46959], [-76.34992, 35.46955], [-76.34991, 35.46952], [-76.34992, 35.46949], [-76.34993, 35.46946], [-76.34993, 35.46943], [-76.34993, 35.46942], [-76.34993, 35.46941], [-76.34993, 35.46938], [-76.34996, 35.46934], [-76.34996, 35.46932], [-76.34998, 35.46929], [-76.34999, 35.46926], [-76.35001, 35.46923], [-76.35003, 35.46923], [-76.35005, 35.46922], [-76.35007, 35.4692], [-76.35046, 35.4692], [-76.35051, 35.4692], [-76.35054, 35.46921], [-76.35058, 35.46921], [-76.35061, 35.46922], [-76.35065, 35.46922], [-76.3507, 35.46923], [-76.35075, 35.46924], [-76.35079, 35.46924], [-76.35084, 35.46924], [-76.35087, 35.46923], [-76.3509, 35.46921], [-76.35093, 35.46919], [-76.35096, 35.46916], [-76.35097, 35.46913], [-76.35097, 35.46912], [-76.35097, 35.46909], [-76.35096, 35.46907], [-76.35095, 35.46904], [-76.35094, 35.469], [-76.35093, 35.46897], [-76.35091, 35.46894], [-76.3509, 35.4689], [-76.35087, 35.46887], [-76.35086, 35.46884], [-76.35084, 35.46881], [-76.35084, 35.46878], [-76.35084, 35.46874], [-76.35083, 35.4687], [-76.35083, 35.46866], [-76.35082, 35.46862], [-76.35082, 35.46859], [-76.35082, 35.46855], [-76.35083, 35.46852], [-76.35083, 35.46849], [-76.35083, 35.46845], [-76.35085, 35.46842], [-76.35085, 35.46839], [-76.35086, 35.46837], [-76.35086, 35.46835], [-76.35084, 35.46832], [-76.35083, 35.4683], [-76.3508, 35.46827], [-76.35077, 35.46825], [-76.35074, 35.46822], [-76.35071, 35.4682], [-76.35066, 35.46817], [-76.35063, 35.46815], [-76.3506, 35.46811], [-76.35057, 35.46808], [-76.35053, 35.46805], [-76.35051, 35.46803], [-76.35048, 35.468], [-76.35045, 35.46797], [-76.35041, 35.46795], [-76.35038, 35.46792], [-76.35036, 35.46788], [-76.35035, 35.46785], [-76.35035, 35.46784], [-76.35035, 35.46781], [-76.35038, 35.46778], [-76.35042, 35.46777], [-76.35044, 35.46774], [-76.35047, 35.46771], [-76.35052, 35.46769], [-76.35056, 35.46767], [-76.35059, 35.46765], [-76.35062, 35.46763], [-76.35065, 35.46761], [-76.35069, 35.46758], [-76.35072, 35.46757], [-76.35072, 35.46756], [-76.35076, 35.46754], [-76.35079, 35.46752], [-76.35082, 35.46753], [-76.35086, 35.46754], [-76.3509, 35.46755], [-76.35094, 35.46756], [-76.35099, 35.46757], [-76.35104, 35.46756], [-76.3511, 35.46756], [-76.35114, 35.46756], [-76.35117, 35.46756], [-76.35121, 35.46757], [-76.35126, 35.46756], [-76.3513, 35.46757], [-76.35135, 35.46759], [-76.35139, 35.4676], [-76.35143, 35.46761], [-76.35147, 35.46762], [-76.35152, 35.46764], [-76.35157, 35.46765], [-76.3516, 35.46766], [-76.35164, 35.46767], [-76.35168, 35.46769], [-76.35172, 35.46769], [-76.35177, 35.46771], [-76.35181, 35.46773], [-76.35184, 35.46776], [-76.35189, 35.46776], [-76.35194, 35.46776], [-76.35198, 35.46777], [-76.35203, 35.46778], [-76.35206, 35.46779], [-76.35208, 35.46782], [-76.35211, 35.46785], [-76.35215, 35.46787], [-76.35219, 35.46788], [-76.35223, 35.4679], [-76.35226, 35.46791], [-76.35231, 35.46794], [-76.35236, 35.46795], [-76.3524, 35.46796], [-76.35244, 35.46797], [-76.35248, 35.46799], [-76.35252, 35.468], [-76.35256, 35.46801], [-76.3526, 35.46803], [-76.35264, 35.46802], [-76.35267, 35.46803], [-76.35269, 35.46806], [-76.35271, 35.4681], [-76.35274, 35.46812], [-76.35276, 35.46815], [-76.35278, 35.46817], [-76.35279, 35.4682], [-76.3528, 35.46823], [-76.35281, 35.46827], [-76.3528, 35.46831], [-76.35281, 35.46836], [-76.35282, 35.4684], [-76.35284, 35.46843], [-76.35286, 35.46846], [-76.35288, 35.46849], [-76.35291, 35.46851], [-76.35294, 35.46853], [-76.35295, 35.46857], [-76.35296, 35.4686], [-76.35298, 35.46864], [-76.35299, 35.46866], [-76.35301, 35.4687], [-76.35303, 35.46873], [-76.35303, 35.46876], [-76.35305, 35.46879], [-76.35307, 35.46882], [-76.35305, 35.46885], [-76.35303, 35.46889], [-76.35302, 35.46892], [-76.35301, 35.46896], [-76.353, 35.46898], [-76.353, 35.46902], [-76.35299, 35.46906], [-76.35297, 35.46909], [-76.35293, 35.4691], [-76.35291, 35.46912], [-76.35286, 35.46913], [-76.35282, 35.46916], [-76.3528, 35.46918], [-76.35278, 35.46923], [-76.35278, 35.46926], [-76.3528, 35.4693], [-76.35284, 35.46932], [-76.35287, 35.46935], [-76.35287, 35.46939], [-76.35292, 35.46941], [-76.35292, 35.46945], [-76.35293, 35.46949], [-76.35294, 35.46953], [-76.35296, 35.46956], [-76.35299, 35.4696], [-76.35301, 35.46963], [-76.35302, 35.46967], [-76.35308, 35.46966], [-76.35312, 35.46968], [-76.35314, 35.46972], [-76.35314, 35.46975], [-76.35314, 35.4698], [-76.35311, 35.46982], [-76.35309, 35.46985], [-76.35306, 35.46988], [-76.35303, 35.46991], [-76.35301, 35.46993], [-76.35299, 35.46997], [-76.35296, 35.46999], [-76.35294, 35.47003], [-76.35293, 35.47006], [-76.35291, 35.47009], [-76.35289, 35.47011], [-76.35286, 35.47014], [-76.35283, 35.47016], [-76.3528, 35.47017], [-76.35277, 35.4702], [-76.35276, 35.47023], [-76.35275, 35.47026], [-76.35278, 35.47029], [-76.3528, 35.47031], [-76.35285, 35.47034], [-76.35285, 35.47034], [-76.35309, 35.47055], [-76.35333, 35.47078], [-76.35262, 35.47126], [-76.3527, 35.47141], [-76.35271, 35.47145], [-76.35278, 35.47151], [-76.35335, 35.47212], [-76.35442, 35.47322], [-76.35503, 35.47408], [-76.35515, 35.4747], [-76.35529, 35.47543], [-76.35592, 35.4755], [-76.35609, 35.47604], [-76.3559, 35.47664], [-76.35594, 35.47704], [-76.35572, 35.47752], [-76.3554, 35.47789], [-76.35468, 35.47836], [-76.35421, 35.47842], [-76.35441, 35.47899], [-76.35314, 35.47994], [-76.35308, 35.47992], [-76.35307, 35.47993], [-76.35272, 35.48028], [-76.35231, 35.48008], [-76.35225, 35.48013], [-76.35219, 35.48014], [-76.35211, 35.4802], [-76.35205, 35.48027], [-76.35202, 35.4803], [-76.35197, 35.48036], [-76.35194, 35.48039], [-76.35193, 35.4804], [-76.35186, 35.48047], [-76.35182, 35.48052], [-76.35183, 35.48056], [-76.35184, 35.4806], [-76.35185, 35.48059], [-76.35185, 35.48061], [-76.35186, 35.4806], [-76.35188, 35.48063], [-76.35189, 35.48064], [-76.3519, 35.48067], [-76.3519, 35.48071], [-76.35192, 35.48074], [-76.35192, 35.48076], [-76.35191, 35.48077], [-76.35191, 35.48079], [-76.35191, 35.4808], [-76.35192, 35.48082], [-76.35191, 35.48085], [-76.35188, 35.48088], [-76.35183, 35.48088], [-76.35181, 35.4809], [-76.35177, 35.48089], [-76.35175, 35.48089], [-76.35173, 35.48091], [-76.35172, 35.48095], [-76.35173, 35.48098], [-76.35177, 35.48101], [-76.35182, 35.48102], [-76.35185, 35.48103], [-76.35189, 35.48102], [-76.35193, 35.48102], [-76.35195, 35.48101], [-76.35198, 35.48102], [-76.35206, 35.48103], [-76.35209, 35.48107], [-76.35212, 35.4811], [-76.35214, 35.48111], [-76.35216, 35.48116], [-76.35216, 35.48122], [-76.35215, 35.48123], [-76.35212, 35.48124], [-76.35209, 35.48129], [-76.3521, 35.48132], [-76.3521, 35.48136], [-76.35211, 35.48138], [-76.3521, 35.4814], [-76.3521, 35.4814], [-76.3521, 35.4814], [-76.3521, 35.4814], [-76.35209, 35.4814], [-76.35209, 35.4814], [-76.35209, 35.4814], [-76.35209, 35.4814], [-76.35209, 35.48143], [-76.35209, 35.48144], [-76.35209, 35.48144], [-76.35209, 35.48145], [-76.35209, 35.48145], [-76.35204, 35.48146], [-76.35204, 35.48148], [-76.35198, 35.48146], [-76.35195, 35.48146], [-76.35193, 35.48143], [-76.3519, 35.48146], [-76.35188, 35.48147], [-76.35186, 35.48149], [-76.35183, 35.48151], [-76.35179, 35.48152], [-76.35176, 35.48152], [-76.35175, 35.48155], [-76.35172, 35.48156], [-76.3517, 35.48156], [-76.35166, 35.48155], [-76.35161, 35.48152], [-76.35157, 35.48153], [-76.35156, 35.48157], [-76.35152, 35.48157], [-76.35152, 35.48159], [-76.35151, 35.48164], [-76.35152, 35.4817], [-76.35153, 35.48169], [-76.35156, 35.48171], [-76.35158, 35.48173], [-76.35161, 35.48176], [-76.35161, 35.4818], [-76.35159, 35.48181], [-76.35161, 35.48182], [-76.35161, 35.48183], [-76.35159, 35.48184], [-76.35158, 35.48187], [-76.35157, 35.4819], [-76.35155, 35.48194], [-76.35153, 35.48196], [-76.35152, 35.48195], [-76.35151, 35.48195], [-76.35149, 35.48198], [-76.35146, 35.48198], [-76.35142, 35.48201], [-76.35138, 35.48199], [-76.35132, 35.482], [-76.35129, 35.48197], [-76.35125, 35.48196], [-76.35121, 35.48194], [-76.35119, 35.48192], [-76.35119, 35.48192], [-76.35117, 35.48191], [-76.35117, 35.48192], [-76.35115, 35.48194], [-76.35111, 35.48196], [-76.35109, 35.48198], [-76.35108, 35.48198], [-76.35109, 35.48198], [-76.35108, 35.48199], [-76.35108, 35.48204], [-76.35109, 35.48205], [-76.35108, 35.48206], [-76.35114, 35.48213], [-76.35115, 35.48217], [-76.35117, 35.48221], [-76.35119, 35.48225], [-76.3512, 35.48226], [-76.35121, 35.48226], [-76.35123, 35.48229], [-76.35125, 35.48231], [-76.35125, 35.48232], [-76.35126, 35.48233], [-76.35127, 35.48233], [-76.3513, 35.48234], [-76.35133, 35.48236], [-76.35134, 35.48236], [-76.35138, 35.48237], [-76.35161, 35.48247], [-76.35162, 35.48248], [-76.35163, 35.48249], [-76.35162, 35.48255], [-76.3516, 35.48257], [-76.3516, 35.48258], [-76.35155, 35.48261], [-76.35152, 35.48263], [-76.35151, 35.48264], [-76.35148, 35.4827], [-76.35145, 35.48272], [-76.35145, 35.48273], [-76.35145, 35.48274], [-76.35147, 35.48281], [-76.35148, 35.48285], [-76.35149, 35.48286], [-76.35146, 35.48286], [-76.35148, 35.48288], [-76.35148, 35.48291], [-76.3515, 35.48292], [-76.35149, 35.48293], [-76.35148, 35.48296], [-76.35148, 35.48297], [-76.35146, 35.48298], [-76.35145, 35.483], [-76.35143, 35.48303], [-76.35143, 35.48302], [-76.35142, 35.48304], [-76.35136, 35.48305], [-76.35133, 35.48308], [-76.35132, 35.48309], [-76.35129, 35.4831], [-76.35126, 35.4831], [-76.35123, 35.48311], [-76.35121, 35.48311], [-76.35121, 35.48314], [-76.35122, 35.48318], [-76.35122, 35.48321], [-76.35122, 35.48323], [-76.35122, 35.48327], [-76.35123, 35.48329], [-76.35125, 35.48331], [-76.35125, 35.48332], [-76.35122, 35.48337], [-76.35119, 35.48338], [-76.35119, 35.48339], [-76.35118, 35.48341], [-76.35115, 35.48345], [-76.35113, 35.48348], [-76.35114, 35.4835], [-76.35115, 35.48353], [-76.35115, 35.48356], [-76.35115, 35.48359], [-76.35117, 35.48361], [-76.35117, 35.48362], [-76.35117, 35.48364], [-76.35119, 35.48365], [-76.35118, 35.4837], [-76.35116, 35.48371], [-76.35113, 35.48372], [-76.35113, 35.48371], [-76.3511, 35.48373], [-76.35109, 35.48375], [-76.35105, 35.48375], [-76.35105, 35.48374], [-76.35104, 35.48376], [-76.35102, 35.48379], [-76.35105, 35.48379], [-76.35106, 35.48379], [-76.35105, 35.48382], [-76.35105, 35.48387], [-76.35105, 35.48388], [-76.35103, 35.48391], [-76.351, 35.48394], [-76.35098, 35.48398], [-76.35098, 35.48396], [-76.35097, 35.48397], [-76.35097, 35.48396], [-76.35097, 35.48395], [-76.35096, 35.48397], [-76.35092, 35.484], [-76.35092, 35.48402], [-76.35094, 35.48401], [-76.35097, 35.48398], [-76.35097, 35.48398], [-76.35097, 35.48398], [-76.35098, 35.48401], [-76.35098, 35.48403], [-76.35098, 35.48406], [-76.35097, 35.48409], [-76.35097, 35.4841], [-76.35095, 35.48412], [-76.35093, 35.48414], [-76.35092, 35.48419], [-76.35092, 35.48421], [-76.35092, 35.4842], [-76.3509, 35.48423], [-76.3509, 35.48424], [-76.35087, 35.48426], [-76.35086, 35.48427], [-76.35086, 35.4843], [-76.35085, 35.4843], [-76.35082, 35.4843], [-76.35079, 35.48433], [-76.35076, 35.48434], [-76.35072, 35.48432], [-76.35067, 35.4843], [-76.35063, 35.48429], [-76.35059, 35.48431], [-76.35058, 35.48434], [-76.35059, 35.48438], [-76.35056, 35.48443], [-76.35056, 35.48445], [-76.35054, 35.48446], [-76.35055, 35.48445], [-76.35052, 35.48443], [-76.35053, 35.48445], [-76.35054, 35.48446], [-76.35052, 35.48445], [-76.35055, 35.48448], [-76.35057, 35.4845], [-76.35058, 35.4845], [-76.35058, 35.48457], [-76.35057, 35.48463], [-76.35057, 35.48463], [-76.35061, 35.48467], [-76.3506, 35.48469], [-76.35064, 35.48471], [-76.35066, 35.48472], [-76.35065, 35.48472], [-76.35071, 35.48477], [-76.35071, 35.48479], [-76.35073, 35.48483], [-76.35071, 35.48479], [-76.35074, 35.48481], [-76.35075, 35.48484], [-76.35075, 35.48484], [-76.35075, 35.48486], [-76.35073, 35.48488], [-76.35073, 35.48492], [-76.3507, 35.48491], [-76.35067, 35.48494], [-76.35067, 35.48494], [-76.35067, 35.48494], [-76.35067, 35.48495], [-76.35064, 35.48498], [-76.35064, 35.48497], [-76.35064, 35.48497], [-76.35064, 35.485], [-76.35068, 35.48509], [-76.35068, 35.48511], [-76.35069, 35.48509], [-76.3507, 35.48512], [-76.35071, 35.48512], [-76.35069, 35.48514], [-76.3507, 35.48515], [-76.35069, 35.48515], [-76.35069, 35.48521], [-76.3507, 35.4852], [-76.3507, 35.48521], [-76.35069, 35.48523], [-76.35072, 35.48526], [-76.3507, 35.48526], [-76.3507, 35.4853], [-76.35071, 35.48531], [-76.35071, 35.48531], [-76.35074, 35.48534], [-76.35074, 35.48534], [-76.35074, 35.48537], [-76.35074, 35.4854], [-76.3507, 35.48546], [-76.35069, 35.4855], [-76.35068, 35.48547], [-76.35065, 35.48548], [-76.35064, 35.48549], [-76.35068, 35.48554], [-76.35066, 35.48555], [-76.35065, 35.48551], [-76.35063, 35.48555], [-76.35062, 35.48556], [-76.35061, 35.48557], [-76.35063, 35.48559], [-76.35064, 35.48563], [-76.35064, 35.48568], [-76.35064, 35.4857], [-76.35063, 35.48573], [-76.3506, 35.48573], [-76.3506, 35.48576], [-76.35061, 35.48577], [-76.35061, 35.4858], [-76.35061, 35.48579], [-76.3506, 35.48581], [-76.35059, 35.48584], [-76.35056, 35.48586], [-76.35057, 35.48588], [-76.35053, 35.48589], [-76.35048, 35.48592], [-76.35051, 35.48591], [-76.3505, 35.48597], [-76.35046, 35.48601], [-76.35046, 35.486], [-76.35045, 35.48599], [-76.35043, 35.48602], [-76.35043, 35.48603], [-76.35043, 35.48605], [-76.35042, 35.48607], [-76.35039, 35.48609], [-76.35038, 35.48609], [-76.35039, 35.48605], [-76.35036, 35.48609], [-76.35036, 35.48609], [-76.35036, 35.48609], [-76.35035, 35.48609], [-76.35034, 35.48609], [-76.35035, 35.48608], [-76.35035, 35.48607], [-76.35033, 35.48611], [-76.35034, 35.4861], [-76.35034, 35.48611], [-76.35034, 35.48611], [-76.35034, 35.48614], [-76.3503, 35.48617], [-76.35027, 35.48621], [-76.35023, 35.48623], [-76.35017, 35.48626], [-76.35015, 35.48623], [-76.35013, 35.48617], [-76.35009, 35.48615], [-76.35009, 35.48613], [-76.35007, 35.48613], [-76.35, 35.48612], [-76.34996, 35.48611], [-76.3499, 35.48609], [-76.34984, 35.48608], [-76.34978, 35.48607], [-76.34975, 35.48604], [-76.3497, 35.48602], [-76.34966, 35.48598], [-76.34962, 35.48598], [-76.34957, 35.48598], [-76.3495, 35.486], [-76.34945, 35.48602], [-76.34945, 35.486], [-76.34943, 35.486], [-76.34941, 35.48601], [-76.34937, 35.48602], [-76.34933, 35.48604], [-76.34932, 35.48607], [-76.34933, 35.48606], [-76.34933, 35.4861], [-76.34933, 35.48612], [-76.34933, 35.4861], [-76.34931, 35.48614], [-76.34932, 35.48617], [-76.34929, 35.48621], [-76.34928, 35.48622], [-76.34925, 35.48622], [-76.34924, 35.48624], [-76.34919, 35.48625], [-76.34917, 35.48626], [-76.34914, 35.48628], [-76.34913, 35.48628], [-76.34914, 35.48629], [-76.34914, 35.48629], [-76.34914, 35.48629], [-76.34914, 35.48629], [-76.34916, 35.48631], [-76.34915, 35.48634], [-76.34913, 35.48637], [-76.34913, 35.48642], [-76.3491, 35.48642], [-76.34906, 35.48639], [-76.34903, 35.4864], [-76.34902, 35.48638], [-76.34897, 35.48635], [-76.3489, 35.48633], [-76.34885, 35.48631], [-76.3488, 35.48628], [-76.34873, 35.48627], [-76.34869, 35.48624], [-76.34866, 35.48624], [-76.34858, 35.48625], [-76.34856, 35.48622], [-76.34856, 35.4862], [-76.3485, 35.48617], [-76.34843, 35.48615], [-76.34839, 35.48612], [-76.34834, 35.48609], [-76.34828, 35.4861], [-76.34828, 35.4861], [-76.34824, 35.48609], [-76.34822, 35.48605], [-76.34818, 35.48605], [-76.34813, 35.48604], [-76.34811, 35.48602], [-76.34808, 35.48601], [-76.34806, 35.486], [-76.34804, 35.48599], [-76.348, 35.48595], [-76.34797, 35.48594], [-76.34764, 35.48592], [-76.34758, 35.48587], [-76.34759, 35.48583], [-76.3476, 35.48579], [-76.34759, 35.48575], [-76.34759, 35.48571], [-76.34759, 35.4857], [-76.34759, 35.48571], [-76.34758, 35.48568], [-76.34758, 35.48569], [-76.34746, 35.48391], [-76.34721, 35.48391], [-76.34707, 35.48391], [-76.34426, 35.48393], [-76.34391, 35.48394], [-76.34212, 35.48386], [-76.34181, 35.48387], [-76.34143, 35.48386], [-76.33908, 35.48384], [-76.33908, 35.48455], [-76.33908, 35.48457], [-76.33906, 35.48463], [-76.33901, 35.48486], [-76.33897, 35.48537], [-76.33892, 35.48572], [-76.33851, 35.48637], [-76.33808, 35.48626]]], [[[-76.33507, 35.48539], [-76.33517, 35.48516], [-76.33525, 35.48517], [-76.33569, 35.48521], [-76.33575, 35.48528], [-76.33575, 35.48544], [-76.33571, 35.48565], [-76.33565, 35.48582], [-76.33554, 35.48607], [-76.33544, 35.48623], [-76.33538, 35.4864], [-76.33537, 35.48661], [-76.33554, 35.48679], [-76.33541, 35.48694], [-76.3352, 35.48701], [-76.33491, 35.48701], [-76.33476, 35.48689], [-76.3348, 35.48667], [-76.33489, 35.48655], [-76.335, 35.48642], [-76.33502, 35.48625], [-76.33512, 35.48597], [-76.33512, 35.48581], [-76.33513, 35.48572], [-76.33507, 35.48539]]]]}, "properties": {"poly_IncidentName": "Rose Bay Canal", "poly_GISAcres": 662.0298400138716, "poly_DateCurrent": 1782074600000}}, {"type": "Feature", "geometry": {"type": "Polygon", "coordinates": [[[-89.46315, 32.63494], [-89.45962, 32.63488], [-89.45962, 32.63483], [-89.45962, 32.63481], [-89.45963, 32.6348], [-89.45963, 32.63471], [-89.45964, 32.63469], [-89.45964, 32.63467], [-89.45965, 32.63464], [-89.45965, 32.63455], [-89.45966, 32.63454], [-89.45966, 32.63445], [-89.45967, 32.63444], [-89.45967, 32.63442], [-89.45968, 32.63441], [-89.45968, 32.63439], [-89.45969, 32.63439], [-89.45969, 32.63435], [-89.4597, 32.63434], [-89.4597, 32.63432], [-89.4597, 32.63427], [-89.45972, 32.63425], [-89.45972, 32.63424], [-89.45974, 32.63421], [-89.45974, 32.63419], [-89.45975, 32.63419], [-89.45975, 32.6341], [-89.45976, 32.63408], [-89.45976, 32.63405], [-89.45977, 32.63403], [-89.45977, 32.63394], [-89.45978, 32.63393], [-89.45978, 32.63382], [-89.45979, 32.63381], [-89.45979, 32.63372], [-89.4598, 32.63369], [-89.4598, 32.63365], [-89.45981, 32.63364], [-89.45981, 32.63355], [-89.45982, 32.63354], [-89.45982, 32.63348], [-89.45983, 32.63347], [-89.45984, 32.63344], [-89.45985, 32.63342], [-89.45986, 32.63342], [-89.45986, 32.6334], [-89.45989, 32.63338], [-89.4599, 32.63337], [-89.45991, 32.63336], [-89.45992, 32.63335], [-89.45993, 32.63334], [-89.45997, 32.63332], [-89.46001, 32.63329], [-89.46003, 32.63328], [-89.46005, 32.63328], [-89.46008, 32.63326], [-89.46009, 32.63325], [-89.46013, 32.63323], [-89.46015, 32.63323], [-89.46017, 32.63322], [-89.46019, 32.63322], [-89.46025, 32.6332], [-89.46029, 32.6332], [-89.46031, 32.63319], [-89.46033, 32.63319], [-89.46039, 32.63316], [-89.46043, 32.63315], [-89.46045, 32.63315], [-89.46049, 32.63314], [-89.46064, 32.63314], [-89.46066, 32.63314], [-89.46067, 32.63315], [-89.46069, 32.63315], [-89.4607, 32.63316], [-89.46072, 32.63317], [-89.46074, 32.63317], [-89.46076, 32.63318], [-89.46078, 32.63318], [-89.4608, 32.63319], [-89.46086, 32.63319], [-89.46089, 32.63321], [-89.46091, 32.63321], [-89.46095, 32.63322], [-89.46097, 32.63322], [-89.46098, 32.63323], [-89.461, 32.63323], [-89.46101, 32.63325], [-89.46107, 32.63326], [-89.4611, 32.63328], [-89.46112, 32.63328], [-89.46115, 32.6333], [-89.46118, 32.6333], [-89.46123, 32.63331], [-89.4613, 32.63332], [-89.46132, 32.63332], [-89.46161, 32.63332], [-89.46163, 32.63333], [-89.46169, 32.63334], [-89.46171, 32.63334], [-89.46175, 32.63335], [-89.46176, 32.63336], [-89.4618, 32.63336], [-89.46182, 32.63337], [-89.46184, 32.63337], [-89.46188, 32.63337], [-89.4619, 32.63338], [-89.46197, 32.63338], [-89.46198, 32.63339], [-89.46206, 32.63339], [-89.4621, 32.6334], [-89.46212, 32.63341], [-89.46214, 32.63341], [-89.46215, 32.63342], [-89.46217, 32.63342], [-89.46222, 32.63344], [-89.46224, 32.63344], [-89.46227, 32.63347], [-89.46229, 32.63348], [-89.46233, 32.63348], [-89.46239, 32.63349], [-89.46241, 32.6335], [-89.46244, 32.63352], [-89.46245, 32.63353], [-89.46247, 32.63355], [-89.46249, 32.63358], [-89.46251, 32.63361], [-89.46257, 32.63366], [-89.46259, 32.6337], [-89.46261, 32.63372], [-89.46262, 32.63374], [-89.46265, 32.63376], [-89.46267, 32.63379], [-89.46269, 32.63382], [-89.4627, 32.63383], [-89.46271, 32.63386], [-89.46272, 32.63387], [-89.46274, 32.63389], [-89.46275, 32.63392], [-89.46278, 32.63395], [-89.4628, 32.63398], [-89.46281, 32.63401], [-89.46282, 32.63402], [-89.46282, 32.63403], [-89.46284, 32.63406], [-89.46284, 32.63409], [-89.46285, 32.63411], [-89.46287, 32.63412], [-89.4629, 32.63416], [-89.4629, 32.63418], [-89.46293, 32.6342], [-89.46295, 32.63423], [-89.46299, 32.63427], [-89.46299, 32.63429], [-89.463, 32.6343], [-89.46302, 32.63433], [-89.46303, 32.63435], [-89.46305, 32.63436], [-89.46306, 32.63439], [-89.46307, 32.6344], [-89.46309, 32.63442], [-89.46309, 32.63448], [-89.46313, 32.63453], [-89.46314, 32.63454], [-89.46316, 32.63459], [-89.46316, 32.63472], [-89.46315, 32.63473], [-89.46315, 32.63482], [-89.46315, 32.63494]]]}, "properties": {"poly_IncidentName": "Ester Mill Rd", "poly_GISAcres": 12.86652646378678, "poly_DateCurrent": 1773067580000}}, {"type": "Feature", "geometry": {"type": "Polygon", "coordinates": [[[-89.27229, 32.82319], [-89.27226, 32.82312], [-89.27226, 32.8231], [-89.27223, 32.82306], [-89.27222, 32.82302], [-89.27219, 32.82295], [-89.27217, 32.82293], [-89.27216, 32.82287], [-89.27214, 32.82284], [-89.2721, 32.8228], [-89.27208, 32.82276], [-89.27208, 32.82272], [-89.27207, 32.82268], [-89.27204, 32.82263], [-89.27201, 32.82259], [-89.272, 32.82257], [-89.27197, 32.82252], [-89.27194, 32.82251], [-89.27188, 32.82247], [-89.27184, 32.82245], [-89.27181, 32.82243], [-89.27178, 32.82241], [-89.27175, 32.82239], [-89.27171, 32.82237], [-89.2717, 32.82233], [-89.27169, 32.82229], [-89.27167, 32.82225], [-89.27165, 32.82221], [-89.27165, 32.82217], [-89.27161, 32.82211], [-89.27161, 32.82208], [-89.27158, 32.82206], [-89.27154, 32.82202], [-89.27152, 32.82196], [-89.2715, 32.82192], [-89.27147, 32.82188], [-89.27145, 32.82184], [-89.27144, 32.8218], [-89.27143, 32.82178], [-89.2714, 32.82175], [-89.27138, 32.82172], [-89.27136, 32.82168], [-89.27135, 32.82164], [-89.27134, 32.82159], [-89.27132, 32.82156], [-89.2713, 32.82153], [-89.27129, 32.8215], [-89.27126, 32.82147], [-89.27123, 32.82137], [-89.27117, 32.82123], [-89.27116, 32.8212], [-89.27119, 32.82118], [-89.27141, 32.82102], [-89.27172, 32.82085], [-89.2727, 32.82029], [-89.27275, 32.82036], [-89.27276, 32.82039], [-89.2728, 32.82043], [-89.27285, 32.82046], [-89.27288, 32.82051], [-89.2729, 32.82055], [-89.27297, 32.8206], [-89.273, 32.82062], [-89.27302, 32.82065], [-89.27306, 32.82068], [-89.27312, 32.82072], [-89.27316, 32.82075], [-89.27317, 32.82079], [-89.27324, 32.82084], [-89.27332, 32.82089], [-89.2734, 32.82094], [-89.2734, 32.82097], [-89.27344, 32.82101], [-89.27348, 32.82105], [-89.2735, 32.82108], [-89.27354, 32.82112], [-89.27357, 32.82116], [-89.27364, 32.8212], [-89.2737, 32.82124], [-89.27375, 32.82126], [-89.27381, 32.82127], [-89.27388, 32.82128], [-89.2739, 32.82129], [-89.27394, 32.82129], [-89.27395, 32.82129], [-89.27397, 32.82129], [-89.274, 32.82128], [-89.27403, 32.82126], [-89.27405, 32.82126], [-89.27408, 32.82126], [-89.27411, 32.82127], [-89.27413, 32.82128], [-89.27415, 32.82129], [-89.27419, 32.82129], [-89.27424, 32.8213], [-89.27428, 32.82129], [-89.27434, 32.82128], [-89.27436, 32.82123], [-89.27437, 32.82119], [-89.27439, 32.82117], [-89.27444, 32.82115], [-89.27448, 32.82114], [-89.27455, 32.82113], [-89.27455, 32.8211], [-89.27459, 32.82106], [-89.2746, 32.82105], [-89.27463, 32.82099], [-89.27464, 32.82097], [-89.27468, 32.82094], [-89.2747, 32.8209], [-89.27473, 32.82085], [-89.27476, 32.82084], [-89.27485, 32.82077], [-89.27492, 32.82074], [-89.27498, 32.82068], [-89.27501, 32.82066], [-89.27505, 32.82064], [-89.27507, 32.82056], [-89.27513, 32.82052], [-89.27516, 32.82046], [-89.27519, 32.82039], [-89.2752, 32.82034], [-89.2752, 32.82031], [-89.27523, 32.82028], [-89.27524, 32.82023], [-89.27526, 32.82018], [-89.27523, 32.82014], [-89.27523, 32.82011], [-89.27522, 32.82005], [-89.27521, 32.82001], [-89.27522, 32.81996], [-89.27523, 32.81994], [-89.27522, 32.8199], [-89.27523, 32.81985], [-89.27523, 32.81982], [-89.27524, 32.81974], [-89.27525, 32.81968], [-89.27526, 32.81963], [-89.27526, 32.81958], [-89.27528, 32.81953], [-89.27528, 32.81948], [-89.27528, 32.81944], [-89.27527, 32.8194], [-89.27524, 32.81938], [-89.27524, 32.81927], [-89.27544, 32.81927], [-89.27542, 32.81981], [-89.27562, 32.8199], [-89.27598, 32.81981], [-89.27761, 32.81986], [-89.27804, 32.81987], [-89.27827, 32.81993], [-89.27861, 32.81993], [-89.27883, 32.81988], [-89.27979, 32.8199], [-89.27982, 32.81916], [-89.28019, 32.8193], [-89.28153, 32.81984], [-89.28225, 32.81963], [-89.28341, 32.81956], [-89.28464, 32.82022], [-89.28655, 32.82115], [-89.28683, 32.82118], [-89.287, 32.82109], [-89.28834, 32.82178], [-89.28861, 32.82186], [-89.28887, 32.82249], [-89.28896, 32.82289], [-89.28863, 32.82368], [-89.2884, 32.8241], [-89.28783, 32.82482], [-89.28703, 32.82545], [-89.28661, 32.82586], [-89.28612, 32.82625], [-89.28542, 32.82659], [-89.28442, 32.82685], [-89.28271, 32.827], [-89.27844, 32.82701], [-89.27442, 32.82703], [-89.27226, 32.82702], [-89.27227, 32.82687], [-89.27232, 32.82665], [-89.27168, 32.82663], [-89.27167, 32.82663], [-89.27161, 32.82663], [-89.27159, 32.8266], [-89.27159, 32.82656], [-89.27158, 32.82653], [-89.27158, 32.8265], [-89.27158, 32.82646], [-89.27158, 32.82643], [-89.27159, 32.82638], [-89.2716, 32.82635], [-89.2716, 32.82632], [-89.27159, 32.82626], [-89.27158, 32.82622], [-89.27159, 32.82619], [-89.27161, 32.82613], [-89.2716, 32.8261], [-89.2716, 32.82606], [-89.27159, 32.82603], [-89.27158, 32.82601], [-89.27157, 32.826], [-89.27155, 32.82596], [-89.27156, 32.82594], [-89.27156, 32.8259], [-89.27156, 32.82588], [-89.27156, 32.82585], [-89.27158, 32.82579], [-89.27157, 32.82575], [-89.27157, 32.82571], [-89.27155, 32.82567], [-89.27154, 32.82562], [-89.27154, 32.82557], [-89.27155, 32.82555], [-89.27153, 32.8255], [-89.27154, 32.82545], [-89.27154, 32.82545], [-89.27157, 32.82544], [-89.2716, 32.82543], [-89.2716, 32.82539], [-89.2716, 32.82528], [-89.27132, 32.82462], [-89.27137, 32.82461], [-89.27146, 32.82461], [-89.27147, 32.82461], [-89.27147, 32.8246], [-89.27152, 32.82459], [-89.27155, 32.82459], [-89.27158, 32.8246], [-89.27158, 32.8246], [-89.27163, 32.82461], [-89.27166, 32.8246], [-89.27167, 32.8246], [-89.27172, 32.82459], [-89.27175, 32.82458], [-89.27178, 32.82458], [-89.27179, 32.82458], [-89.27181, 32.82458], [-89.27187, 32.82458], [-89.27206, 32.82455], [-89.27206, 32.82451], [-89.2721, 32.8245], [-89.27213, 32.82448], [-89.27214, 32.82448], [-89.27223, 32.82438], [-89.27225, 32.82435], [-89.27226, 32.8243], [-89.27229, 32.82425], [-89.27232, 32.82421], [-89.27236, 32.82418], [-89.27238, 32.82415], [-89.27239, 32.8241], [-89.27239, 32.82407], [-89.27239, 32.82403], [-89.27238, 32.824], [-89.2724, 32.82396], [-89.27243, 32.82394], [-89.27245, 32.82391], [-89.27251, 32.82385], [-89.27256, 32.82382], [-89.2726, 32.82377], [-89.27262, 32.82375], [-89.27252, 32.82357], [-89.2725, 32.82355], [-89.27246, 32.82351], [-89.27243, 32.82346], [-89.27241, 32.82342], [-89.2724, 32.82337], [-89.27239, 32.82336], [-89.27229, 32.82319]]]}, "properties": {"poly_IncidentName": "Jim Rd Rx", "poly_GISAcres": 276.8821593304708, "poly_DateCurrent": 1772997067000}}, {"type": "Feature", "geometry": {"type": "Polygon", "coordinates": [[[-88.92426, 30.63215], [-88.92178, 30.63106], [-88.92343, 30.62919], [-88.92437, 30.62944], [-88.925, 30.6297], [-88.92514, 30.63052], [-88.92474, 30.63164], [-88.92474, 30.63191], [-88.92426, 30.63215]]]}, "properties": {"poly_IncidentName": "Hurricane", "poly_GISAcres": 16, "poly_DateCurrent": 1787313022620}}, {"type": "Feature", "geometry": {"type": "Polygon", "coordinates": [[[-76.55596, 36.61251], [-76.55595, 36.61244], [-76.55593, 36.6124], [-76.55589, 36.6124], [-76.55589, 36.61241], [-76.55588, 36.61241], [-76.55584, 36.6124], [-76.55584, 36.6124], [-76.55581, 36.61235], [-76.5558, 36.61231], [-76.55585, 36.6123], [-76.55589, 36.61228], [-76.55594, 36.61228], [-76.55596, 36.61233], [-76.55601, 36.61243], [-76.55603, 36.61249], [-76.55605, 36.61254], [-76.55607, 36.61257], [-76.55608, 36.6126], [-76.55609, 36.61265], [-76.55608, 36.61266], [-76.55605, 36.61268], [-76.556, 36.61268], [-76.556, 36.61268], [-76.55596, 36.61266], [-76.55596, 36.61263], [-76.55596, 36.61263], [-76.55596, 36.61263], [-76.55599, 36.6126], [-76.55597, 36.61252], [-76.55596, 36.61251]]]}, "properties": {"poly_IncidentName": "Maintenance", "poly_GISAcres": 0.1, "poly_DateCurrent": 1789499613323}}, {"type": "Feature", "geometry": {"type": "Polygon", "coordinates": [[[-84.68096, 30.24885], [-84.68101, 30.24885], [-84.68105, 30.24884], [-84.6811, 30.24884], [-84.68114, 30.24884], [-84.68117, 30.24884], [-84.6812, 30.24884], [-84.68124, 30.24883], [-84.68128, 30.24883], [-84.68131, 30.24884], [-84.68131, 30.24887], [-84.68131, 30.24891], [-84.68131, 30.24894], [-84.6813, 30.24898], [-84.68128, 30.24901], [-84.68127, 30.24905], [-84.68125, 30.24908], [-84.68124, 30.24912], [-84.68122, 30.24915], [-84.68119, 30.24917], [-84.68121, 30.2492], [-84.68121, 30.24923], [-84.68118, 30.24926], [-84.68116, 30.24929], [-84.68114, 30.24932], [-84.6811, 30.24932], [-84.6811, 30.24936], [-84.68111, 30.24939], [-84.68107, 30.2494], [-84.68104, 30.24942], [-84.68101, 30.24943], [-84.681, 30.24946], [-84.68101, 30.24949], [-84.68102, 30.24951], [-84.68103, 30.24954], [-84.68104, 30.24957], [-84.68105, 30.2496], [-84.68102, 30.24962], [-84.681, 30.24965], [-84.68099, 30.24969], [-84.68098, 30.24972], [-84.68097, 30.24975], [-84.68094, 30.24977], [-84.68092, 30.24979], [-84.68091, 30.24982], [-84.68093, 30.24985], [-84.68092, 30.24989], [-84.68089, 30.24991], [-84.68087, 30.24993], [-84.68086, 30.24996], [-84.68083, 30.24998], [-84.6808, 30.24999], [-84.68077, 30.24999], [-84.68074, 30.24998], [-84.6807, 30.24999], [-84.68065, 30.24999], [-84.68062, 30.25001], [-84.6806, 30.25003], [-84.68059, 30.25007], [-84.6806, 30.2501], [-84.68058, 30.25013], [-84.68055, 30.25015], [-84.68052, 30.25017], [-84.6805, 30.2502], [-84.68048, 30.25023], [-84.68047, 30.25026], [-84.68045, 30.25028], [-84.68042, 30.2503], [-84.68041, 30.25033], [-84.68039, 30.25035], [-84.68036, 30.25037], [-84.68033, 30.25039], [-84.6803, 30.25042], [-84.68029, 30.25044], [-84.68026, 30.25047], [-84.68022, 30.25047], [-84.6802, 30.25049], [-84.68016, 30.2505], [-84.68014, 30.25052], [-84.68011, 30.25052], [-84.68006, 30.25052], [-84.68003, 30.25051], [-84.67999, 30.25049], [-84.67996, 30.25048], [-84.67992, 30.25048], [-84.67989, 30.25045], [-84.67989, 30.25042], [-84.67988, 30.25039], [-84.67987, 30.25036], [-84.67986, 30.25033], [-84.67986, 30.2503], [-84.67986, 30.25027], [-84.67986, 30.25024], [-84.67985, 30.25021], [-84.67985, 30.25019], [-84.67985, 30.25016], [-84.67986, 30.25013], [-84.67986, 30.25009], [-84.67986, 30.25005], [-84.67986, 30.25001], [-84.67986, 30.24998], [-84.67986, 30.24994], [-84.67986, 30.24991], [-84.67987, 30.24988], [-84.67987, 30.24984], [-84.67988, 30.24979], [-84.67987, 30.24976], [-84.67987, 30.24972], [-84.67988, 30.24969], [-84.67987, 30.24966], [-84.67987, 30.24963], [-84.67987, 30.2496], [-84.67986, 30.24956], [-84.67986, 30.24954], [-84.67986, 30.24951], [-84.67986, 30.24947], [-84.67986, 30.24943], [-84.67986, 30.24939], [-84.67986, 30.24935], [-84.67986, 30.24931], [-84.67984, 30.24927], [-84.67985, 30.24923], [-84.67984, 30.24919], [-84.67985, 30.24915], [-84.67986, 30.24911], [-84.67987, 30.24908], [-84.67987, 30.24904], [-84.67987, 30.249], [-84.67988, 30.24897], [-84.67989, 30.24893], [-84.6799, 30.2489], [-84.67991, 30.24887], [-84.67994, 30.24885], [-84.67996, 30.24883], [-84.68001, 30.24881], [-84.68005, 30.24881], [-84.68009, 30.2488], [-84.68012, 30.2488], [-84.68015, 30.2488], [-84.68019, 30.2488], [-84.68022, 30.2488], [-84.68025, 30.2488], [-84.6803, 30.2488], [-84.68034, 30.2488], [-84.68037, 30.2488], [-84.6804, 30.2488], [-84.68045, 30.2488], [-84.6805, 30.2488], [-84.68054, 30.2488], [-84.68058, 30.2488], [-84.68061, 30.2488], [-84.68066, 30.2488], [-84.68069, 30.2488], [-84.68074, 30.2488], [-84.68077, 30.2488], [-84.6808, 30.2488], [-84.68084, 30.2488], [-84.68088, 30.2488], [-84.68092, 30.24881], [-84.68096, 30.2488], [-84.68096, 30.24885]]]}, "properties": {"poly_IncidentName": "Dobro Fire", "poly_GISAcres": 4.6071247468606575, "poly_DateCurrent": 1789560377698}}, {"type": "Feature", "geometry": {"type": "Polygon", "coordinates": [[[-89.05965, 32.73318], [-89.05965, 32.73322], [-89.05964, 32.73324], [-89.0596, 32.73325], [-89.05957, 32.73326], [-89.05953, 32.73327], [-89.0595, 32.73328], [-89.05946, 32.73328], [-89.05942, 32.73329], [-89.05939, 32.73329], [-89.05936, 32.7333], [-89.05932, 32.73331], [-89.05928, 32.73332], [-89.05925, 32.73332], [-89.05922, 32.73333], [-89.05918, 32.73334], [-89.05915, 32.73335], [-89.05911, 32.73336], [-89.05908, 32.73337], [-89.05905, 32.73338], [-89.05901, 32.73339], [-89.05898, 32.7334], [-89.05895, 32.7334], [-89.05891, 32.7334], [-89.05887, 32.7334], [-89.05884, 32.73341], [-89.0588, 32.73341], [-89.05877, 32.73342], [-89.05874, 32.73344], [-89.0587, 32.73344], [-89.05867, 32.73345], [-89.05864, 32.73345], [-89.0586, 32.73346], [-89.05856, 32.73347], [-89.05853, 32.73348], [-89.0585, 32.73348], [-89.05846, 32.73349], [-89.05842, 32.73349], [-89.05839, 32.7335], [-89.05836, 32.73351], [-89.05833, 32.73352], [-89.0583, 32.73354], [-89.05827, 32.73355], [-89.05824, 32.73357], [-89.05821, 32.73358], [-89.05817, 32.73359], [-89.05813, 32.73358], [-89.0581, 32.73356], [-89.05807, 32.73354], [-89.05804, 32.73352], [-89.058, 32.73351], [-89.05796, 32.7335], [-89.05793, 32.7335], [-89.05789, 32.73348], [-89.05787, 32.73347], [-89.05784, 32.73345], [-89.0578, 32.73344], [-89.05777, 32.73344], [-89.05774, 32.73343], [-89.0577, 32.73341], [-89.05768, 32.7334], [-89.05765, 32.73339], [-89.05762, 32.73338], [-89.05758, 32.73337], [-89.05755, 32.73336], [-89.05753, 32.73338], [-89.0575, 32.7334], [-89.05747, 32.73342], [-89.05743, 32.73342], [-89.0574, 32.7334], [-89.05737, 32.73339], [-89.05733, 32.73338], [-89.0573, 32.73338], [-89.05726, 32.73338], [-89.05723, 32.73338], [-89.0572, 32.73339], [-89.05716, 32.73339], [-89.05713, 32.73339], [-89.0571, 32.73339], [-89.05706, 32.7334], [-89.05702, 32.73341], [-89.05699, 32.73342], [-89.05696, 32.73344], [-89.05692, 32.73346], [-89.05689, 32.73347], [-89.05688, 32.7335], [-89.05689, 32.73353], [-89.0569, 32.73356], [-89.0569, 32.73359], [-89.05691, 32.73362], [-89.05692, 32.73365], [-89.05692, 32.73368], [-89.05693, 32.73371], [-89.05693, 32.73373], [-89.05693, 32.73376], [-89.05692, 32.7338], [-89.0569, 32.73382], [-89.05686, 32.73383], [-89.05683, 32.73383], [-89.05678, 32.73384], [-89.05675, 32.73384], [-89.05672, 32.73384], [-89.05668, 32.73385], [-89.05665, 32.73386], [-89.05661, 32.73386], [-89.05657, 32.73387], [-89.05654, 32.73388], [-89.0565, 32.73389], [-89.05647, 32.7339], [-89.05644, 32.73391], [-89.05641, 32.73393], [-89.05638, 32.73394], [-89.05635, 32.73396], [-89.05631, 32.73396], [-89.05628, 32.73397], [-89.05624, 32.73397], [-89.0562, 32.73398], [-89.05617, 32.73399], [-89.05617, 32.73399], [-89.05613, 32.734], [-89.05609, 32.73401], [-89.05606, 32.73401], [-89.05602, 32.73402], [-89.05598, 32.73403], [-89.05595, 32.73403], [-89.05591, 32.73404], [-89.05588, 32.73404], [-89.05584, 32.73404], [-89.05581, 32.73405], [-89.05577, 32.73405], [-89.05574, 32.73406], [-89.05571, 32.73408], [-89.05567, 32.73409], [-89.05563, 32.7341], [-89.0556, 32.73411], [-89.05557, 32.73412], [-89.05553, 32.73413], [-89.0555, 32.73414], [-89.05547, 32.73415], [-89.05543, 32.73416], [-89.0554, 32.73416], [-89.05536, 32.73417], [-89.05533, 32.73417], [-89.05529, 32.73417], [-89.05526, 32.73418], [-89.05522, 32.73419], [-89.05519, 32.7342], [-89.05516, 32.73421], [-89.05513, 32.73422], [-89.05509, 32.73423], [-89.05506, 32.73424], [-89.05502, 32.73425], [-89.05499, 32.73425], [-89.05495, 32.73426], [-89.05491, 32.73427], [-89.05488, 32.73428], [-89.05485, 32.73429], [-89.05482, 32.7343], [-89.05478, 32.73431], [-89.05475, 32.73432], [-89.05472, 32.73432], [-89.05468, 32.73433], [-89.05465, 32.73433], [-89.05461, 32.73434], [-89.05458, 32.73434], [-89.05454, 32.73434], [-89.05451, 32.73435], [-89.05448, 32.73436], [-89.05444, 32.73436], [-89.05441, 32.73437], [-89.05438, 32.73438], [-89.05434, 32.73439], [-89.05431, 32.73439], [-89.05428, 32.7344], [-89.05425, 32.73441], [-89.05422, 32.73442], [-89.05419, 32.73443], [-89.05408, 32.7343], [-89.05406, 32.73427], [-89.05404, 32.73423], [-89.05402, 32.73418], [-89.05399, 32.73413], [-89.05395, 32.73412], [-89.05376, 32.73386], [-89.05367, 32.73379], [-89.05357, 32.73374], [-89.05351, 32.73372], [-89.05347, 32.73368], [-89.05345, 32.73375], [-89.05345, 32.73378], [-89.05332, 32.73379], [-89.05323, 32.73379], [-89.05317, 32.73381], [-89.05308, 32.73386], [-89.05306, 32.73389], [-89.05302, 32.7339], [-89.05297, 32.7339], [-89.05289, 32.73393], [-89.05281, 32.73396], [-89.05273, 32.73399], [-89.05265, 32.73404], [-89.05259, 32.73407], [-89.05247, 32.73408], [-89.05235, 32.7341], [-89.05224, 32.73414], [-89.0521, 32.73419], [-89.05204, 32.73423], [-89.05199, 32.7342], [-89.05196, 32.73416], [-89.05192, 32.73413], [-89.05188, 32.73412], [-89.05185, 32.7341], [-89.05184, 32.73405], [-89.05184, 32.734], [-89.05185, 32.73396], [-89.05184, 32.73393], [-89.05181, 32.73389], [-89.05178, 32.73387], [-89.05174, 32.73384], [-89.05169, 32.7338], [-89.05169, 32.73376], [-89.05166, 32.73372], [-89.05157, 32.73368], [-89.05156, 32.73364], [-89.05149, 32.73358], [-89.05146, 32.73355], [-89.05141, 32.73352], [-89.05137, 32.7335], [-89.05135, 32.73347], [-89.05134, 32.73341], [-89.05132, 32.73339], [-89.05132, 32.73335], [-89.05132, 32.7333], [-89.05132, 32.73322], [-89.05133, 32.73318], [-89.05133, 32.73314], [-89.05132, 32.7331], [-89.05136, 32.73306], [-89.05138, 32.73303], [-89.05141, 32.733], [-89.05143, 32.73295], [-89.05145, 32.73292], [-89.05147, 32.73283], [-89.05147, 32.73277], [-89.05146, 32.73268], [-89.05145, 32.73262], [-89.05143, 32.73259], [-89.05142, 32.73253], [-89.05139, 32.73249], [-89.05135, 32.73245], [-89.05134, 32.73242], [-89.05132, 32.73239], [-89.05126, 32.73238], [-89.05124, 32.73236], [-89.05115, 32.73234], [-89.05116, 32.73231], [-89.05113, 32.73229], [-89.05114, 32.73223], [-89.05117, 32.73222], [-89.05118, 32.73218], [-89.05116, 32.73214], [-89.05115, 32.73211], [-89.05115, 32.73208], [-89.05112, 32.73203], [-89.05111, 32.73195], [-89.05111, 32.7319], [-89.05111, 32.73187], [-89.0511, 32.7318], [-89.05116, 32.73174], [-89.05119, 32.73169], [-89.0512, 32.73164], [-89.0512, 32.73157], [-89.0512, 32.73154], [-89.05119, 32.73149], [-89.0512, 32.73145], [-89.05117, 32.73143], [-89.05118, 32.73139], [-89.05117, 32.73134], [-89.05117, 32.7313], [-89.05116, 32.73127], [-89.05114, 32.73122], [-89.05112, 32.73118], [-89.05112, 32.73115], [-89.05112, 32.73108], [-89.05113, 32.73104], [-89.05112, 32.73098], [-89.05114, 32.73081], [-89.05112, 32.73078], [-89.05113, 32.73068], [-89.05114, 32.73045], [-89.0512, 32.73036], [-89.05118, 32.73029], [-89.05117, 32.73024], [-89.05116, 32.7302], [-89.05116, 32.73011], [-89.05116, 32.7301], [-89.05113, 32.72998], [-89.0511, 32.72978], [-89.05107, 32.72944], [-89.05111, 32.72936], [-89.05111, 32.72908], [-89.05112, 32.72887], [-89.05113, 32.72871], [-89.05113, 32.72854], [-89.0511, 32.72847], [-89.05112, 32.72841], [-89.05113, 32.7283], [-89.05115, 32.72816], [-89.05126, 32.72802], [-89.05132, 32.72799], [-89.05141, 32.728], [-89.05149, 32.72801], [-89.05175, 32.72801], [-89.05202, 32.72806], [-89.05216, 32.72806], [-89.05226, 32.72809], [-89.05238, 32.72817], [-89.05251, 32.72819], [-89.05263, 32.72822], [-89.05271, 32.72829], [-89.05279, 32.72832], [-89.0529, 32.72837], [-89.05302, 32.72846], [-89.05312, 32.72858], [-89.05323, 32.72868], [-89.05328, 32.72873], [-89.05337, 32.72883], [-89.05346, 32.72888], [-89.05354, 32.7289], [-89.05366, 32.72898], [-89.05376, 32.72903], [-89.05379, 32.72912], [-89.05386, 32.72913], [-89.05399, 32.72922], [-89.05413, 32.72931], [-89.05413, 32.72931], [-89.05415, 32.72934], [-89.05417, 32.72936], [-89.05421, 32.72937], [-89.05424, 32.72938], [-89.05427, 32.72938], [-89.05427, 32.72939], [-89.05435, 32.7294], [-89.05442, 32.72941], [-89.05442, 32.72942], [-89.05443, 32.72942], [-89.05446, 32.72943], [-89.05448, 32.72943], [-89.05452, 32.72942], [-89.05453, 32.72942], [-89.05458, 32.72941], [-89.0546, 32.72941], [-89.0546, 32.72941], [-89.05465, 32.7294], [-89.05466, 32.7294], [-89.05467, 32.72939], [-89.05469, 32.72939], [-89.05471, 32.7294], [-89.05474, 32.72939], [-89.05476, 32.72939], [-89.05476, 32.72939], [-89.05476, 32.72938], [-89.05477, 32.72937], [-89.05477, 32.72934], [-89.05477, 32.72933], [-89.05479, 32.72932], [-89.0548, 32.72928], [-89.0548, 32.72928], [-89.05482, 32.72913], [-89.0548, 32.72907], [-89.0548, 32.72907], [-89.05479, 32.72904], [-89.05478, 32.72899], [-89.05475, 32.72892], [-89.05474, 32.72889], [-89.05473, 32.72886], [-89.05472, 32.7288], [-89.05469, 32.72879], [-89.05469, 32.72875], [-89.05472, 32.72874], [-89.05484, 32.72877], [-89.05488, 32.72878], [-89.05493, 32.72878], [-89.05512, 32.72877], [-89.05514, 32.7288], [-89.05518, 32.72881], [-89.05522, 32.72882], [-89.05526, 32.72882], [-89.05529, 32.7288], [-89.05536, 32.7288], [-89.05539, 32.72879], [-89.05544, 32.7288], [-89.05546, 32.72879], [-89.05549, 32.72879], [-89.05553, 32.72879], [-89.05557, 32.72879], [-89.0556, 32.72879], [-89.05565, 32.72878], [-89.05565, 32.72878], [-89.05567, 32.72878], [-89.0557, 32.72878], [-89.05576, 32.72878], [-89.05579, 32.72878], [-89.05579, 32.72878], [-89.0558, 32.72878], [-89.0558, 32.72878], [-89.05581, 32.72879], [-89.05581, 32.72879], [-89.05581, 32.7288], [-89.05582, 32.7288], [-89.05582, 32.7288], [-89.05582, 32.72881], [-89.05583, 32.72882], [-89.05585, 32.72882], [-89.05586, 32.72881], [-89.05586, 32.72881], [-89.05586, 32.72881], [-89.05587, 32.72881], [-89.05588, 32.72881], [-89.05588, 32.7288], [-89.05589, 32.7288], [-89.0559, 32.7288], [-89.0559, 32.7288], [-89.05591, 32.7288], [-89.05591, 32.72879], [-89.05592, 32.72879], [-89.05593, 32.72878], [-89.05594, 32.72878], [-89.05594, 32.72878], [-89.05595, 32.72877], [-89.05595, 32.72877], [-89.05596, 32.72877], [-89.05598, 32.72876], [-89.05599, 32.72876], [-89.05599, 32.72876], [-89.056, 32.72876], [-89.056, 32.72876], [-89.05601, 32.72876], [-89.05601, 32.72876], [-89.05602, 32.72876], [-89.05602, 32.72876], [-89.05602, 32.72876], [-89.05603, 32.72876], [-89.05606, 32.72876], [-89.05606, 32.72876], [-89.05607, 32.72876], [-89.05607, 32.72875], [-89.05608, 32.72875], [-89.0561, 32.72875], [-89.0561, 32.72875], [-89.0561, 32.72875], [-89.0561, 32.72875], [-89.05611, 32.72875], [-89.05611, 32.72875], [-89.05617, 32.72875], [-89.05617, 32.72874], [-89.05618, 32.72874], [-89.05619, 32.72874], [-89.05619, 32.72874], [-89.0562, 32.72874], [-89.0562, 32.72874], [-89.05621, 32.72874], [-89.05621, 32.72874], [-89.05621, 32.72873], [-89.05622, 32.72873], [-89.05622, 32.72873], [-89.05627, 32.72872], [-89.05628, 32.72872], [-89.05629, 32.72872], [-89.05629, 32.72872], [-89.05629, 32.72872], [-89.05634, 32.72872], [-89.05635, 32.72872], [-89.05636, 32.72872], [-89.05636, 32.72871], [-89.05637, 32.72871], [-89.05637, 32.72871], [-89.05639, 32.72871], [-89.05639, 32.72871], [-89.0564, 32.72871], [-89.05641, 32.72871], [-89.05641, 32.72871], [-89.05648, 32.72871], [-89.05649, 32.72871], [-89.05649, 32.72871], [-89.05649, 32.72871], [-89.0565, 32.72871], [-89.0565, 32.72871], [-89.05651, 32.72871], [-89.05652, 32.72871], [-89.05652, 32.72871], [-89.05653, 32.7287], [-89.05653, 32.7287], [-89.05654, 32.7287], [-89.05654, 32.7287], [-89.05655, 32.7287], [-89.05655, 32.7287], [-89.05662, 32.7287], [-89.05662, 32.7287], [-89.05663, 32.7287], [-89.05663, 32.7287], [-89.05666, 32.7287], [-89.05666, 32.7287], [-89.05668, 32.72869], [-89.05668, 32.72869], [-89.05669, 32.72869], [-89.0567, 32.72869], [-89.05671, 32.72869], [-89.05671, 32.72869], [-89.05673, 32.72869], [-89.05674, 32.72869], [-89.05674, 32.72869], [-89.05675, 32.72869], [-89.05675, 32.72869], [-89.05675, 32.7287], [-89.05676, 32.7287], [-89.05676, 32.72869], [-89.05676, 32.72869], [-89.05676, 32.72869], [-89.05678, 32.72869], [-89.05678, 32.72869], [-89.05678, 32.72869], [-89.05685, 32.72869], [-89.05685, 32.72869], [-89.05686, 32.72869], [-89.05686, 32.7287], [-89.0569, 32.7287], [-89.05692, 32.7287], [-89.05692, 32.72869], [-89.05693, 32.72869], [-89.05694, 32.72869], [-89.05695, 32.72869], [-89.05695, 32.72869], [-89.05699, 32.72869], [-89.05699, 32.72869], [-89.05701, 32.72869], [-89.05702, 32.72869], [-89.05702, 32.72869], [-89.05704, 32.72869], [-89.05705, 32.7287], [-89.05708, 32.72873], [-89.05709, 32.72878], [-89.05713, 32.7289], [-89.05715, 32.72895], [-89.05716, 32.72899], [-89.05718, 32.72903], [-89.05716, 32.72918], [-89.05668, 32.72905], [-89.05656, 32.72906], [-89.05653, 32.72919], [-89.05631, 32.72919], [-89.05614, 32.72917], [-89.05607, 32.72932], [-89.05605, 32.72946], [-89.05657, 32.72966], [-89.05669, 32.72971], [-89.05673, 32.72979], [-89.0565, 32.72982], [-89.05627, 32.72982], [-89.05612, 32.72984], [-89.056, 32.72985], [-89.05608, 32.72993], [-89.0562, 32.73001], [-89.05624, 32.73023], [-89.05628, 32.73038], [-89.05634, 32.73055], [-89.05639, 32.73066], [-89.05639, 32.73066], [-89.05642, 32.73066], [-89.05645, 32.73065], [-89.05648, 32.73063], [-89.05656, 32.73065], [-89.05658, 32.73067], [-89.05661, 32.73069], [-89.05662, 32.73069], [-89.05662, 32.73072], [-89.05666, 32.73097], [-89.05659, 32.73109], [-89.05656, 32.73129], [-89.05652, 32.73167], [-89.05654, 32.732], [-89.05664, 32.73218], [-89.05702, 32.73229], [-89.05768, 32.73223], [-89.05875, 32.73224], [-89.05887, 32.73222], [-89.05889, 32.73222], [-89.05893, 32.73224], [-89.05899, 32.73224], [-89.05903, 32.73227], [-89.05905, 32.73232], [-89.05906, 32.73234], [-89.05908, 32.73239], [-89.0591, 32.73243], [-89.05912, 32.73246], [-89.05915, 32.73249], [-89.05918, 32.73252], [-89.05919, 32.73254], [-89.0592, 32.73256], [-89.05922, 32.73259], [-89.05925, 32.73262], [-89.05929, 32.73265], [-89.05931, 32.7327], [-89.05933, 32.73273], [-89.05937, 32.73277], [-89.05942, 32.73281], [-89.05942, 32.73281], [-89.05947, 32.73285], [-89.05954, 32.73288], [-89.05957, 32.7329], [-89.05961, 32.73294], [-89.05963, 32.73297], [-89.05965, 32.73299], [-89.05966, 32.73303], [-89.05965, 32.73316], [-89.05965, 32.73318]]]}, "properties": {"poly_IncidentName": "Tucker RX", "poly_GISAcres": 82.63953518986926, "poly_DateCurrent": 1772994291000}}]}