{"type":"FeatureCollection","features":[{"type":"Feature","geometry":{"type":"Polygon","coordinates":[[[-76.80839669637231,36.35809294661902],[-76.80831526012805,36.35824385027408],[-76.80821559455136,36.358387695746565],[-76.80809865816515,36.35852309947421],[-76.80796557562782,36.35864875908382],[-76.80781762691792,36.35876346591965],[-76.80765623502411,36.35886611667],[-76.80748295225857,36.358955723981],[-76.80729944532561,36.359031425954974],[-76.80710747928907,36.359092494441896],[-76.80690890059294,36.359138342044595],[-76.80670561929831,36.3591685277694],[-76.80649959070799,36.35918276126907],[-76.80629279655548,36.359180905635704],[-76.8060872259395,36.35916297871815],[-76.80588485618759,36.359129152950096],[-76.80568763383292,36.359079753691205],[-76.8054974558879,36.35901525609721],[-76.80531615159417,36.35893628054838],[-76.8051454648255,36.3588435866815],[-76.8049870373121,36.35873806608205],[-76.80484239284861,36.358620733706644],[-76.80471292263715,36.35849271811982],[-76.80459987190672,36.35835525063693],[-76.80450432793754,36.35820965347969],[-76.80442720960555,36.35805732705693],[-76.80436925854745,36.357899736493984],[-76.80433103203121,36.35773839753956],[-76.8043128976005,36.35757486198602],[-76.80431502954428,36.357410702743444],[-76.80433740722552,36.357247498710805],[-76.80438741395287,36.35699749953923],[-76.804437492891,36.356814165300634],[-76.80451309762066,36.35663643045943],[-76.8054131363524,36.35485644447054],[-76.80549875975908,36.35470838621168],[-76.8056021069131,36.35456763669],[-76.80572219885218,36.354435529035335],[-76.80585789803115,36.3543133145182],[-76.80600791909836,36.35420215069975],[-76.80617084107097,36.354103090469245],[-76.80634512079419,36.354017072073084],[-76.80652910755659,36.3539449102293],[-76.80672105872348,36.353887288412366],[-76.80691915624007,36.353844752380944],[-76.80712152384832,36.35381770500949],[-76.80732624485458,36.35380640247344],[-76.80753138027978,36.35381095182299],[-76.80773498722058,36.353831309969756],[-76.80793513724748,36.35386728409442],[-76.80812993466618,36.353918533472935],[-76.80831753446908,36.35398457270304],[-76.80849615980715,36.35406477630061],[-76.80866411881694,36.354158384623155],[-76.80881982064331,36.354264511063306],[-76.80896179050615,36.35438215044525],[-76.8090886836689,36.35451018854341],[-76.80919929817586,36.354647412635046],[-76.80929258623821,36.354792522984894],[-76.80936766416076,36.35494414515491],[-76.80942382071503,36.35510084302092],[-76.80946052387954,36.35526113237458],[-76.80947742588324,36.35542349498069],[-76.80947436650416,36.35558639295715],[-76.80945137459182,36.355748283341406],[-76.8094086677988,36.35590763270538],[-76.80934665052392,36.35606293168044],[-76.80839669637231,36.35809294661902]]]},"properties":{"fire_id":"F1380","date":"2026-09-03","area_ha":20.2,"cumulative_ha":89.2,"frp_sum":5.3,"n_detections":3,"first_seen":"2026-08-31","last_seen":"2026-09-03","centroid":[-76.80689,36.35649],"history":[{"date":"2026-08-31","area_ha":45.3},{"date":"2026-09-01","area_ha":30.5},{"date":"2026-09-02","area_ha":84.2},{"date":"2026-09-03","area_ha":20.2}],"track":[[-76.8083306432523,36.35573203618321],[-76.80612349149828,36.35516691225568],[-76.8091436290025,36.355469487729785],[-76.80688653285175,36.35649404992134]],"growth_24h_ha":-64.01,"speed_km_day":0.23,"bearing_deg":48.67,"direction":"NE"}},{"type":"Feature","geometry":{"type":"Polygon","coordinates":[[[-83.41422857339494,45.07509133524608],[-83.41412698262678,45.07524146666551],[-83.41400494081834,45.07538378208624],[-83.41386363807302,45.07551689354943],[-83.41370445236326,45.07563950285036],[-83.41352893609407,45.07575041420143],[-83.41333880096423,45.07584854589677],[-83.41313590127251,45.07593294086384],[-83.41292221583215,45.076002775999655],[-83.41269982866963,45.07605737020038],[-83.41247090869639,45.076096191005774],[-83.41223768855184,45.07611885979331],[-83.41200244282406,45.07612515547228],[-83.41176746586109,45.07611501664017],[-83.41153504938904,45.076088542182106],[-83.41130746015608,45.07604599030593],[-83.41108691782011,45.07598777602319],[-83.40320676998003,45.0735877118938],[-83.40299868300865,45.07351565736297],[-83.40280147460845,45.073429660278904],[-83.40261700811462,45.07333053321789],[-83.40244702644473,45.07321921281581],[-83.40229313562966,45.073096750915425],[-83.40215678963912,45.07296430462631],[-83.40203927664489,45.07282312538956],[-83.4019417068519,45.07267454715163],[-83.40186500201182,45.07251997375866],[-83.40180988671814,45.07236086569077],[-83.40177688156496,45.07219872626164],[-83.40176629823367,45.072035087413575],[-83.40177823655426,45.071871495242966],[-83.4018125835681,45.07170949539213],[-83.40186901460143,45.07155061844595],[-83.4019469963388,45.07139636547155],[-83.40204579186742,45.07124819383706],[-83.40216446764444,45.071107503443784],[-83.4023019023211,45.07097562350134],[-83.4024567973405,45.0708537999718],[-83.40262768920834,45.070743183799586],[-83.40281296332094,45.07064482003996],[-83.40301086921983,45.07055963798722],[-83.40321953712865,45.07048844239763],[-83.4034369956163,45.07043190588764],[-83.40366119021957,45.07039056258109],[-83.40389000284932,45.07036480306443],[-83.40412127179728,45.07035487069748],[-83.41347103732933,45.07027487302458],[-83.41370672975474,45.070281098466026],[-83.41394039830949,45.07030376103039],[-83.41416975538955,45.07034263885527],[-83.4143925555906,45.07039735133308],[-83.41460661768615,45.070467362836055],[-83.4148098459778,45.07055198795918],[-83.41500025080923,45.07065039822816],[-83.41517596804292,45.07076163020856],[-83.41533527730924,45.070884594935755],[-83.4154766188493,45.071018088573815],[-83.41559860878665,45.07116080419932],[-83.41570005267818,45.0713113445941],[-83.41577995721167,45.07146823592253],[-83.41583753993531,45.07162994215931],[-83.41587223692355,45.07179488012641],[-83.41588370830425,45.07196143499196],[-83.41587184159285,45.07212797607992],[-83.41583675280019,45.07229287283504],[-83.41577878530359,45.07245451078745],[-83.41569850649131,45.0726113073603],[-83.41422857339494,45.07509133524608]]]},"properties":{"fire_id":"F1552","date":"2026-09-03","area_ha":53.2,"cumulative_ha":78.7,"frp_sum":5.3,"n_detections":3,"first_seen":"2026-09-01","last_seen":"2026-09-03","centroid":[-83.40932,45.0727],"history":[{"date":"2026-09-01","area_ha":43.7},{"date":"2026-09-02","area_ha":40.2},{"date":"2026-09-03","area_ha":53.2}],"track":[[-83.40391772112902,45.072506874497314],[-83.40613974708137,45.072754562817984],[-83.40932103285456,45.07270439953285]],"growth_24h_ha":13.01,"speed_km_day":0.25,"bearing_deg":261.13,"direction":"W"}},{"type":"Feature","geometry":{"type":"Polygon","coordinates":[[[-84.0518144795371,41.569207605779056],[-84.05165161655401,41.569319940491624],[-84.0514746263122,41.56941990446829],[-84.05128521945849,41.56950653150091],[-84.05108522667413,41.569578984287006],[-84.05087658097855,41.56963656252412],[-84.0506612990433,41.56967870968011],[-84.05044146169634,41.569705018373746],[-84.05021919380586,41.56971523431295],[-84.0499966437378,41.569709258753335],[-84.0497759625862,41.56968714945309],[-84.04955928337684,41.56964912011405],[-84.04934870044609,41.56959553831627],[-84.04914624919378,41.56952692196395],[-84.04895388640655,41.56944393427844],[-84.0432238204984,41.56668387520565],[-84.04304272982073,41.56658690100911],[-84.04287544676978,41.5664771949975],[-84.04272360101355,41.56635582597316],[-84.04258867180133,41.56622397635856],[-84.0424719735536,41.56608293067425],[-84.04237464305875,41.56593406302343],[-84.04229762840134,41.5657788237033],[-84.04224167972977,41.56561872507458],[-84.04220734195297,41.56545532682665],[-84.04219494943732,41.56529022078241],[-84.04220462275497,41.56512501538999],[-84.04223626751528,41.56496132005316],[-84.04228957529037,41.56480072945303],[-84.04236402662549,41.56464480801374],[-84.04245889610495,41.56449507466264],[-84.04257325942356,41.56435298803509],[-84.0427060023951,41.56421993226634],[-84.0428558318093,41.56409720350937],[-84.04302128803205,41.563985997310404],[-84.04320075922544,41.56388739696441],[-84.04339249704957,41.563802362964246],[-84.04359463369292,41.56373172364558],[-84.04380520006539,41.56367616711999],[-84.04402214497723,41.56363623457287],[-84.04424335511666,41.56361231499306],[-84.04446667563224,41.56360464138431],[-84.0537964532621,41.56362464087352],[-84.05401682090353,41.56363305532254],[-84.05423503599988,41.56365728992111],[-84.05444902767138,41.563697114682334],[-84.05465676511051,41.563752151667856],[-84.05485627685087,41.563821878573506],[-84.05504566947349,41.56390563368519],[-84.05522314557318,41.56400262215712],[-84.05538702081463,41.564111923553654],[-84.05553573991622,41.564232500582534],[-84.05566789141032,41.564363208937756],[-84.05578222103956,41.56450280815719],[-84.05587764366237,41.56464997339358],[-84.05595325355432,41.56480330798631],[-84.05600833300763,41.56496135671506],[-84.05604235914716,41.56512261960928],[-84.0560550088977,41.56528556618309],[-84.0560461620557,41.5654486499601],[-84.05601590243556,41.56561032315014],[-84.05596451707994,41.565769051339316],[-84.05589249354085,41.565923328053216],[-84.05580051525745,41.566071689055505],[-84.05568945507426,41.56621272624611],[-84.05556036696079,41.56634510102657],[-84.05541447601142,41.56646755700644],[-84.0518144795371,41.569207605779056]]]},"properties":{"fire_id":"F1550","date":"2026-09-03","area_ha":56.0,"cumulative_ha":129.1,"frp_sum":7.5,"n_detections":3,"first_seen":"2026-09-01","last_seen":"2026-09-03","centroid":[-84.04928,41.56606],"history":[{"date":"2026-09-01","area_ha":108.3},{"date":"2026-09-02","area_ha":39.6},{"date":"2026-09-03","area_ha":56.0}],"track":[[-84.04842532568767,41.567490691801225],[-84.04766197262,41.567666597390954],[-84.04928187996359,41.5660600602512]],"growth_24h_ha":16.39,"speed_km_day":0.22,"bearing_deg":209.51,"direction":"SSW"}},{"type":"Feature","geometry":{"type":"Polygon","coordinates":[[[-79.88680259710259,33.01139077342482],[-79.88680614366487,33.011396343630246],[-79.89047623809176,33.01718629314278],[-79.8905592053658,33.01733415936469],[-79.8906245382044,33.01748802443491],[-79.89067162013903,33.017646436753516],[-79.89070000687522,33.01780790181294],[-79.8907094304882,33.01797089629704],[-79.89069980195475,33.01813388245234],[-79.89067121199759,33.018295322595534],[-79.89062393023373,33.01845369362093],[-79.89055840263518,33.018607501370305],[-79.89047524732527,33.018755294730454],[-79.89037524875046,33.018895679324466],[-79.89025935028243,33.019027330668024],[-79.89012864532002,33.01914900666682],[-79.88998436697494,33.019259559336064],[-79.88982787643869,33.01935794563327],[-79.88966065013997,33.01944323729984],[-79.88948426581446,33.01951462962044],[-79.88930038761761,33.019571449016446],[-79.88911075042166,33.01961315940207],[-79.88891714344479,33.019639367242924],[-79.888721393367,33.01964982526978],[-79.88852534709235,33.01964443481172],[-79.8842652574724,33.01935442940787],[-79.88407062415953,33.01933321264217],[-79.8838793865583,33.019296375485936],[-79.88369335164921,33.019244266007384],[-79.88351427724409,33.019177376579876],[-79.88334385537408,33.019096339228575],[-79.88318369629994,33.01900191965775],[-79.88303531329547,33.01889501001468],[-79.88290010834815,33.018776620459015],[-79.88277935891207,33.01864786961646],[-79.88267420583837,33.01850997400858],[-79.88258564259715,33.01836423655672],[-79.88251450589283,33.01821203427014],[-79.88246146776117,33.01805480523446],[-79.87936173363646,33.00678475824187],[-79.87932679951527,33.00662067421519],[-79.87931157286485,33.006454517718964],[-79.87931620336012,33.00628792339346],[-79.87934064532179,33.00612253017721],[-79.87938465817065,33.0059599651833],[-79.87944780879914,33.00580182769253],[-79.87952947583669,33.00564967342049],[-79.87962885576655,33.00550499921389],[-79.87974497083411,33.00536922832551],[-79.87987667866835,33.005243696414546],[-79.88002268352211,33.00512963840773],[-79.88018154902007,33.00502817635234],[-79.88035171228948,33.004940308379055],[-79.88053149933423,33.00486689888447],[-79.88071914150137,33.004808670028694],[-79.88091279287792,33.00476619463224],[-79.88111054844707,33.00473989054182],[-79.88131046282534,33.00473001652065],[-79.88151056939645,33.00473666970292],[-79.8817088996538,33.00475978463905],[-79.8819035025616,33.00479913393865],[-79.88209246374427,33.004854330507854],[-79.88227392431556,33.00492483135607],[-79.88244609916225,33.00500994293714],[-79.88260729450283,33.00510882797081],[-79.88275592454842,33.005220513678324],[-79.88289052710209,33.00534390135093],[-79.88300977794349,33.0054777771567],[-79.88311250385671,33.005620824080886],[-79.88680259710259,33.01139077342482]]]},"properties":{"fire_id":"F0088","date":"2026-09-03","area_ha":94.5,"cumulative_ha":195.6,"frp_sum":5.3,"n_detections":4,"first_seen":"2026-08-23","last_seen":"2026-09-03","centroid":[-79.88447,33.01312],"history":[{"date":"2026-08-23","area_ha":35.3},{"date":"2026-08-24","area_ha":132.4},{"date":"2026-08-25","area_ha":64.8},{"date":"2026-08-27","area_ha":74.1},{"date":"2026-08-30","area_ha":57.2},{"date":"2026-09-01","area_ha":117.1},{"date":"2026-09-02","area_ha":130.8},{"date":"2026-09-03","area_ha":94.5}],"track":[[-79.88581782646237,33.01413268239849],[-79.884500926007,33.01124803600929],[-79.88518229911607,33.013759868676374],[-79.88264830783122,33.00818731590651],[-79.88209727640793,33.009835865055194],[-79.88266420330943,33.00991235881736],[-79.88203660600414,33.00973005669367],[-79.88447459339137,33.013117548554895]],"growth_24h_ha":-36.3,"speed_km_day":0.44,"bearing_deg":319.37,"direction":"NW"}}]}