{"type":"FeatureCollection","features":[{"type":"Feature","geometry":{"type":"Polygon","coordinates":[[[-122.41401355096068,40.645272198523095],[-122.42335858859127,40.65311556455951],[-122.42349724054108,40.653244173532],[-122.42361827818819,40.653382391279266],[-122.4237205217278,40.653528870658164],[-122.42380297451382,40.653682183994455],[-122.42386483277636,40.653840836996245],[-122.42390549346027,40.654003283316975],[-122.42392456010808,40.65416793962662],[-122.42392184672974,40.65433320104311],[-122.42389737962111,40.654497456775005],[-122.42385139711378,40.65465910582131],[-122.42378434725751,40.654816572577175],[-122.42369688345867,40.654968322192055],[-122.42358985811642,40.65511287553109],[-122.4234643143182,40.65524882359369],[-122.42332147567625,40.655374841249234],[-122.42316273440301,40.65548970015467],[-122.42298963774246,40.65559228072994],[-122.42280387288896,40.655681583072266],[-122.42260725054096,40.65575673670472],[-122.42240168724983,40.65581700906251],[-122.42218918673588,40.65586181263532],[-122.42197182035409,40.65589071069519],[-122.42175170689951,40.65590342155459],[-122.42153099195033,40.65589982131263],[-122.421311826949,40.65587994506311],[-122.42109634822647,40.65584398655252],[-122.42088665617399,40.655792296290954],[-122.42068479476525,40.65572537813457],[-122.41520451859627,40.653660495535796],[-122.40566775450078,40.661339920970015],[-122.40552354071237,40.66144598411425],[-122.40536712012731,40.66154186418639],[-122.40519977113628,40.66162677754932],[-122.39424963421617,40.66665688349069],[-122.39405860265026,40.66673530236774],[-122.3938582834204,40.66679943544459],[-122.39365057768461,40.666848674047955],[-122.39343745671816,40.66688255086387],[-122.39322094320174,40.6669007443733],[-122.39300309202063,40.66690308190466],[-122.39278597075835,40.66688954127271],[-122.39257164006943,40.666860250989565],[-122.39236213411813,40.666815489044225],[-122.39215944126866,40.666755680263925],[-122.39196548521082,40.66668139228138],[-122.39178210669976,40.66659333014633],[-122.3916110460839,40.666492329632625],[-122.39145392678623,40.666379349304854],[-122.39131223989669,40.66625546141929],[-122.39118733002135,40.66612184174569],[-122.39108038252263,40.66597975840719],[-122.39099241227191,40.665830559843386],[-122.3909242540213,40.66567566201177],[-122.3908765544852,40.66551653494832],[-122.39084976620752,40.665354688815704],[-122.39084414327182,40.66519165957031],[-122.39085973889537,40.665028994385295],[-122.3908964049297,40.66486823696807],[-122.39095379327189,40.664710912909946],[-122.39103135917337,40.66455851520936],[-122.39397009359242,40.6595345380021],[-122.38534936271697,40.64912588961809],[-122.38198160710448,40.64534662664198],[-122.37330469671463,40.63902913100647],[-122.36105037126077,40.6347789720865],[-122.36085198513231,40.63470087985007],[-122.36066503862344,40.63460830415004],[-122.36049141091704,40.63450217558225],[-122.3603328472897,40.634383560974776],[-122.36019094156771,40.63425365266236],[-122.36006712010631,40.63411375649882],[-122.35996262745387,40.633965278728624],[-122.35987851384448,40.63380971184977],[-122.35981562464507,40.63364861960926],[-122.35977459186249,40.633483621283375],[-122.35975582779632,40.63331637539994],[-122.35975952090031,40.633148563066435],[-122.35978563389453,40.63298187107164],[-122.35983390414638,40.63281797493072],[-122.35990384631661,40.63265852204423],[-122.35999475724358,40.63250511513977],[-122.36010572301632,40.6323592961639],[-122.36023562816506,40.63222253078437],[-122.36038316687682,40.63209619366019],[-122.36054685612302,40.63198155462623],[-122.36072505056723,40.631879765931984],[-122.36091595910308,40.63179185066174],[-122.36111766285623,40.63171869245364],[-122.37315261636819,40.627898039821964],[-122.3728562823733,40.62151821689131],[-122.37285959340944,40.621351952297466],[-122.3728849112497,40.62118675399505],[-122.37293198593893,40.62102425194355],[-122.3730003528621,40.62086604948796],[-122.37308933733395,40.62071370753973],[-122.37319806126096,40.62056872917717],[-122.37332545180934,40.620432544816474],[-122.37347025199354,40.62030649810029],[-122.37363103308085,40.62019183264251],[-122.37380620868913,40.620089679760255],[-122.37399405043905,40.62000104731366],[-122.37419270500611,40.619926809764024],[-122.37440021240432,40.6198676995477],[-122.37461452532135,40.61982429985131],[-122.37483352931429,40.619797038859076],[-122.37505506366716,40.619786185529335],[-122.37527694270449,40.61979184694165],[-122.37549697735079,40.619813967240084],[-122.37571299672373,40.61985232818481],[-122.37592286954778,40.61990655130446],[-122.37612452517763,40.61997610162936],[-122.37631597402404,40.62006029296852],[-122.3764953271806,40.62015829467828],[-122.37666081505843,40.62026913985617],[-122.38434000303647,40.62595074064998],[-122.39290292432837,40.627274251901234],[-122.39715235984002,40.62668404597493],[-122.39722233430085,40.62667518405516],[-122.4070921101836,40.62554521162113],[-122.40731184154937,40.62552831495394],[-122.40753272674375,40.625527743206575],[-122.40775260880166,40.625543501962035],[-122.40796934055172,40.62557543733523],[-122.4081808055792,40.62562323747473],[-122.40838493888913,40.625686435607754],[-122.40857974706738,40.6257644145972],[-122.40876332774411,40.62585641296673],[-122.41424328142713,40.62890635255212],[-122.41440346515526,40.629004432295254],[-122.41455085361861,40.62911318389153],[-122.41468418400203,40.629231675611734],[-122.41480231391637,40.629358892272975],[-122.41490423118704,40.62949374393506],[-122.4186843476621,40.63508368159899],[-122.41877094355485,40.63522833969318],[-122.41883887864459,40.63537848309422],[-122.41888754360373,40.63553276539264],[-122.41891650190009,40.635689803054106],[-122.41892549371579,40.635848187825914],[-122.41891443828202,40.63600649936486],[-122.41888343460786,40.63616331797474],[-122.41883276059743,40.63631723733776],[-122.41876287056192,40.636466877126445],[-122.41401355096068,40.645272198523095]]]},"properties":{"fire_id":"F0001","date":"2026-08-20","area_ha":1313.6,"frp_sum":489.1,"n_detections":39,"first_seen":"2026-08-18","last_seen":"2026-08-20","centroid":[-122.39527,40.6411],"history":[{"date":"2026-08-18","area_ha":242.8},{"date":"2026-08-19","area_ha":781.3},{"date":"2026-08-20","area_ha":1313.6}],"track":[[-122.39995862968424,40.62563349869898],[-122.39643271679388,40.62912906561212],[-122.39527118454497,40.64110370086517]],"growth_24h_ha":532.26,"speed_km_day":1.34,"bearing_deg":20.07,"direction":"NNE"}},{"type":"Feature","geometry":{"type":"Polygon","coordinates":[[[-123.3206409875491,41.05113057716612],[-123.32066589897607,41.05116318209295],[-123.32075463645577,41.051310915304185],[-123.32082380978699,41.051464337712375],[-123.32087277275174,41.05162201633158],[-123.32090106788957,41.0517824784121],[-123.32090843077513,41.05194422519545],[-123.32089479249332,41.052105745912776],[-123.32086028028824,41.052265531895834],[-123.32080521637992,41.05242209066885],[-123.32073011495987,41.052573959889095],[-123.32063567739296,41.05271972100733],[-123.32052278567048,41.05285801251832],[-123.32039249417534,41.05298754267969],[-123.32024601983625,41.05310710157935],[-123.32008473076269,41.05321557243804],[-123.31991013346675,41.05331194204297],[-123.31972385879122,41.053395310213475],[-123.31952764667537,41.053464898211104],[-123.31932332990083,41.053520056015216],[-123.31780329428113,41.053869504544174],[-123.31839048725438,41.055944756032076],[-123.31842567346156,41.05610931893183],[-123.31843872200899,41.056275671162105],[-123.31842950353321,41.05644216549621],[-123.31839810916037,41.0566071532879],[-123.31834484960977,41.056769000796955],[-123.31827025212317,41.056926105366955],[-123.31817505524938,41.05707691129628],[-123.31806020153613,41.05721992524426],[-123.31792682820047,41.05735373102017],[-123.3177762558712,41.05747700360872],[-123.31760997551352,41.05758852229276],[-123.31742963366604,41.05768718274333],[-123.31723701613582,41.05777200795736],[-123.31703403031355,41.057842157934225],[-123.31682268628316,41.05789693799574],[-123.31660507691396,41.05793580566666],[-123.31638335713203,41.05795837604794],[-123.31615972257634,41.05796442562931],[-123.3159363878515,41.05795389450272],[-123.31571556459228,41.05792688695607],[-123.31549943955777,41.05788367044016],[-123.315290152972,41.05782467291961],[-123.31508977732584,41.05775047863365],[-123.31490029685054,41.0576618223098],[-123.31472358786577,41.0575595818861],[-123.3145614001977,41.057444769815824],[-123.3144153398503,41.05731852303955],[-123.31428685310239,41.057182091724634],[-123.3119368982413,41.05440205460086],[-123.3118304850165,41.054261579404645],[-123.311742713351,41.05411413238108],[-123.31167439735027,41.053961081342194],[-123.31162617062377,41.053803846076676],[-123.31159848041162,41.0536438851784],[-123.31159158344062,41.05348268251519],[-123.31160554354771,41.053321733463015],[-123.31164023109326,41.053162531034786],[-123.31254032489413,41.050002547468644],[-123.31260121379911,41.049833065162645],[-123.31268557886474,41.04966925723746],[-123.31279249391072,41.04951292170461],[-123.31292078526236,41.049365774543595],[-123.31306904463815,41.04922943086925],[-123.31323564461121,41.049105387205714],[-123.31341875647472,41.04899500506273],[-123.32454865578705,41.04297512712465],[-123.32473315943828,41.04288526578352],[-123.32492859160782,41.04280929337228],[-123.3251330735652,41.04274794021439],[-123.32534463960067,41.042701796096694],[-123.32556125591887,41.04267130460065],[-123.32578084018613,41.04265675883915],[-123.32600128154387,41.04265829863971],[-123.3262204608962,41.04267590920026],[-123.3264362712761,41.042709421231685],[-123.3266466380958,41.04275851258475],[-123.32684953908559,41.04282271134605],[-123.32704302373075,41.04290140037382],[-123.32722523201882,41.042993823229104],[-123.32739441231824,41.0430990914461],[-123.32754893821578,41.04321619307118],[-123.32768732415117,41.04334400238955],[-123.32780823969894,41.043481290745234],[-123.32791052235989,41.0436267383503],[-123.3279931887392,41.04377894697116],[-123.32805544400368,41.04393645336868],[-123.3280966895273,41.04409774336387],[-123.32811652865075,41.04426126639312],[-123.32811477050038,41.044425450413996],[-123.32809143182864,41.0445887170182],[-123.32804673685892,41.0447494966055],[-123.32798111513549,41.044906243474095],[-123.3278951973993,41.04505745068111],[-123.32653524351139,41.04715747354175],[-123.32642493953857,41.0473076567173],[-123.32629462386564,41.04744866850375],[-123.32614565821987,41.04757903527715],[-123.3259795992527,41.04769739464964],[-123.3206409875491,41.05113057716612]]]},"properties":{"fire_id":"F0005","date":"2026-08-20","area_ha":104.3,"frp_sum":60.3,"n_detections":9,"first_seen":"2026-08-20","last_seen":"2026-08-20","centroid":[-123.31899,41.04996],"history":[{"date":"2026-08-20","area_ha":104.3}],"track":[[-123.31899010956015,41.04996163235814]],"growth_24h_ha":null,"speed_km_day":null,"bearing_deg":null,"direction":null}},{"type":"Feature","geometry":{"type":"Polygon","coordinates":[[[-123.28741001548595,41.04586015744674],[-123.28778090094276,41.046080170708485],[-123.28794746246068,41.046189404688086],[-123.288098753622,41.04631033546639],[-123.28823330044942,41.046441784925385],[-123.288349792069,41.046582472466135],[-123.288447093483,41.046731027482686],[-123.28852425663038,41.046886002713],[-123.28858052962703,41.04704588833758],[-123.28861536409553,41.047209126687164],[-123.28862842051292,41.04737412741755],[-123.28861957152432,41.047539283002685],[-123.28858890318936,41.04770298439586],[-123.28853671414987,41.047863636706495],[-123.2884635127259,41.04801967473874],[-123.28837001196877,41.048169578241755],[-123.28825712271872,41.04831188672239],[-123.28812594473472,41.04844521367582],[-123.287977755983,41.048568260095834],[-123.28479595226781,41.05096117632309],[-123.2840715966327,41.053893036938014],[-123.28402281424042,41.05404844689134],[-123.28395438554175,41.054199692699605],[-123.28386693199933,41.0543454004883],[-123.28376124790569,41.054484246680204],[-123.28363829317178,41.0546149700192],[-123.28349918460997,41.05473638302861],[-123.2833451857914,41.054847382799736],[-123.28317769556902,41.05494696101162],[-123.28299823537093,41.05503421309255],[-123.2828084353794,41.05510834643855],[-123.28261001972112,41.05516868761457],[-123.28240479080326,41.0552146884734],[-123.28219461293769,41.05524593113628],[-123.28198139540237,41.0552621317896],[-123.28176707509384,41.05526314326378],[-123.27819699083368,41.05515314050871],[-123.2779796264341,41.05513854661731],[-123.27776518564018,41.05510833054537],[-123.2775556883995,41.05506277691828],[-123.27735310808377,41.05500231483526],[-123.27715935289687,41.05492751382677],[-123.27697624789774,41.05483907848846],[-123.27680551780695,41.054737841842794],[-123.27664877075944,41.054624757491126],[-123.27650748315625,41.05450089062925],[-123.2763829857582,41.0543674080126],[-123.27627645115241,41.054225566964305],[-123.27618888270958,41.05407670353025],[-123.27612110513608,41.05392221989368],[-123.27607375670992,41.05376357116568],[-123.27604728327312,41.05360225167902],[-123.27604193403724,41.05343978091156],[-123.27605775924152,41.05327768917411],[-123.27609460968499,41.0531175031964],[-123.27615213813726,41.052960731746914],[-123.27622980261418,41.05280885142288],[-123.27632687148754,41.052663292743084],[-123.27644243038031,41.05252542667539],[-123.27657539078237,41.052396551725295],[-123.27672450030566,41.05227788170724],[-123.27857307279483,41.05094283430558],[-123.27893063785068,41.049691484328285],[-123.2789603683065,41.04960011579836],[-123.28027240579046,41.04601107072703],[-123.28018262192238,41.04380065328659],[-123.28018660003842,41.043638336171064],[-123.28021166333164,41.04347706876658],[-123.28025757609609,41.04331836678086],[-123.28032390667481,41.043163721799324],[-123.2804100315217,41.04301458726668],[-123.2805151410666,41.04287236482769],[-123.28063824732804,41.04273839115506],[-123.280778193202,41.04261392538774],[-123.2809336633392,41.042500137298966],[-123.28110319650877,41.04239809630357],[-123.28128519933209,41.0423087614091],[-123.2814779612574,41.04223297220414],[-123.28167967063474,41.04217144096953],[-123.28188843174046,41.0421247459852],[-123.28210228259059,41.042093326096726],[-123.28231921337685,41.04207747659172],[-123.28253718535127,41.04207734642563],[-123.2827541499828,41.04209293682161],[-123.28296806820543,41.042124101259546],[-123.28317692957785,41.04217054685264],[-123.28337877117397,41.04223183709899],[-123.28357169602774,41.042307395983535],[-123.28375389095832,41.042396513390244],[-123.2839236436087,41.04249835177439],[-123.28407935853791,41.042611954032786],[-123.28421957221477,41.042736252497136],[-123.28741001548595,41.04586015744674]]]},"properties":{"fire_id":"F0006","date":"2026-08-20","area_ha":85.1,"frp_sum":60.7,"n_detections":9,"first_seen":"2026-08-20","last_seen":"2026-08-20","centroid":[-123.28236,41.04911],"history":[{"date":"2026-08-20","area_ha":85.1}],"track":[[-123.28236183314287,41.04910768670202]],"growth_24h_ha":null,"speed_km_day":null,"bearing_deg":null,"direction":null}},{"type":"Feature","geometry":{"type":"Polygon","coordinates":[[[-120.71049374119853,47.629203850117804],[-120.71358178482602,47.63701601531368],[-120.71363501663053,47.63718390757834],[-120.71366321818329,47.63735462661446],[-120.71366610057939,47.63752642472504],[-120.71364363411091,47.637697543149],[-120.71359604857899,47.63786623006672],[-120.71352383094948,47.638030758534285],[-120.71342772037514,47.638189444164574],[-120.71330870063548,47.63834066237238],[-120.7020289626141,47.65108087456242],[-120.70189435336708,47.651217462648766],[-120.7017410521677,47.651344467049455],[-120.7015705029619,47.651460691407976],[-120.70138431219266,47.65156504090591],[-120.70118423366853,47.65165653257843],[-120.7009721520426,47.65173430457573],[-120.70075006505826,47.651797624283674],[-120.70052006472805,47.65184589522645],[-120.70028431762398,47.65187866268742],[-120.70004504446463,47.65189561799325],[-120.69980449919147,47.65189660142282],[-120.69956494773204,47.65188160371209],[-120.69932864664999,47.65185076614145],[-120.69909782188351,47.651804379204364],[-120.69887464777247,47.65174287987035],[-120.69866122657238,47.65166684746713],[-120.69845956864772,47.6515769982224],[-120.69827157353225,47.65147417851485],[-120.69809901203422,47.65135935689948],[-120.69794350955499,47.651233614981805],[-120.69780653077906,47.65109813722718],[-120.6976893658789,47.65095419980143],[-120.69759311836472,47.65080315854737],[-120.69751869469395,47.650646436211815],[-120.69746679573748,47.650485509042205],[-120.69743791018337,47.650321892879774],[-120.69743230993983,47.650157128880366],[-120.69745004758057,47.64999276899736],[-120.6974909558561,47.64983036136309],[-120.69755464927566,47.649671435707404],[-120.69764052774461,47.64951748894933],[-120.70509256962923,47.637883430899585],[-120.70155400271135,47.623631289469394],[-120.69645724361017,47.61385110951465],[-120.69638447121773,47.61368515530682],[-120.69633675568795,47.61351498121935],[-120.69631459384352,47.613342359846584],[-120.6963182163243,47.613169089257234],[-120.69634758519295,47.612996974264604],[-120.69922801054705,47.60131703668682],[-120.69928089214653,47.60115264286577],[-120.69935726069643,47.60099264729457],[-120.69945636526234,47.6008386228506],[-120.69957723141594,47.60069208369685],[-120.69971867081944,47.60055447039884],[-120.69987929291217,47.60042713576488],[-120.7000575185836,47.60031133154941],[-120.7002515956988,47.60020819614997],[-120.70045961632324,47.60011874341892],[-120.70067953547807,47.60004385269903],[-120.70090919124118,47.59998426018128],[-120.70114632599665,47.59994055167011],[-120.70138860862404,47.59991315682633],[-120.70163365740919,47.5999023449444],[-120.70187906345227,47.59990822230641],[-120.70212241434217,47.599930731137164],[-120.70236131786598,47.599969650172326],[-120.7025934255196,47.600024596832625],[-120.70281645558948,47.600095030983766],[-120.70302821557854,47.600180260244414],[-120.70322662375588,47.600279446790786],[-120.71216937700713,47.60523302942836],[-120.72547314388007,47.600521607507005],[-120.72569104094815,47.600453365813074],[-120.72591753559743,47.60039987547799],[-120.7261505087773,47.600361636936746],[-120.7263877808391,47.60033900793329],[-120.72662713192419,47.600332200174954],[-120.7268663227276,47.600341277352165],[-120.7271031154436,47.600366154542776],[-120.72733529469714,47.60040659900643],[-120.72756068826564,47.60046223236117],[-120.72777718739768,47.60053253412273],[-120.72798276653835,47.6006168465723],[-120.72817550227717,47.6007143809088],[-120.72835359134135,47.600824224626315],[-120.7285153674661,47.60094535004972],[-120.72865931698425,47.60107662394711],[-120.72878409298941,47.60121681813023],[-120.72888852794011,47.601364620943286],[-120.72897164458678,47.60151864953289],[-120.72903266511933,47.60167746278456],[-120.72907101844974,47.60183957480484],[-120.72908634556116,47.602003468822296],[-120.72907850287291,47.60216761137847],[-120.72904756359074,47.602330466675454],[-120.72899381702813,47.602490510945245],[-120.72891776590565,47.602646246707955],[-120.72407083679163,47.61117582671197],[-120.71998103910306,47.623040481798334],[-120.71991012435709,47.62320744944025],[-120.71981466382685,47.62336857033794],[-120.71969565863269,47.623522154461476],[-120.71955435688334,47.623666590821415],[-120.71939224058953,47.623800364369075],[-120.71921101012279,47.62392207189134],[-120.71049374119853,47.629203850117804]]]},"properties":{"fire_id":"F0004","date":"2026-08-20","area_ha":657.6,"frp_sum":219.2,"n_detections":21,"first_seen":"2026-08-19","last_seen":"2026-08-20","centroid":[-120.70991,47.61911],"history":[{"date":"2026-08-19","area_ha":326.5},{"date":"2026-08-20","area_ha":657.6}],"track":[[-120.72085541477672,47.61825834307774],[-120.70990631824252,47.61910512725662]],"growth_24h_ha":331.11,"speed_km_day":0.83,"bearing_deg":98.46,"direction":"E"}},{"type":"Feature","geometry":{"type":"Polygon","coordinates":[[[-121.42925934414477,43.76333684671041],[-121.4356158870176,43.76912913362148],[-121.43575022825382,43.76926486462007],[-121.43586521618374,43.769409487057715],[-121.43595972116564,43.76956158032822],[-121.43603281474039,43.769719650429586],[-121.43608377875651,43.76988214463789],[-121.43611211242984,43.77004746675876],[-121.43611753726893,43.77021399280551],[-121.43609999981706,43.770380086952045],[-121.43605967218386,43.77054411760136],[-121.43599695036116,43.77070447341386],[-121.43591245033926,43.77085957913669],[-121.43580700206134,43.7710079110793],[-121.43568164127572,43.771148012083046],[-121.43553759936513,43.77127850583709],[-121.43537629125333,43.77139811040075],[-121.43519930150727,43.77150565079917],[-121.43500836877195,43.771600070567864],[-121.43480536868987,43.771680442133224],[-121.4345922954739,43.771745975926834],[-121.43437124231419,43.771796028143946],[-121.43414438081138,43.7718301070696],[-121.43391393963934,43.771847877910396],[-121.43368218264618,43.77184916608431],[-121.43345138660938,43.7718339589362],[-121.43322381886398,43.771802405862154],[-121.43300171502344,43.771754816841685],[-121.43278725701246,43.77169165939129],[-121.43258255162803,43.771613553970845],[-121.43238960983905,43.771521267886676],[-121.43221032702829,43.77141570775174],[-121.42574027750747,43.767203876538176],[-121.4197637519255,43.767551820735875],[-121.42104247524489,43.77201051876765],[-121.42525604592568,43.77467904612324],[-121.42541978067817,43.77479341265698],[-121.42556721677848,43.774918709632665],[-121.42569694868034,43.77505374264852],[-121.42580773958292,43.7751972244849],[-121.42589853322337,43.775347787373434],[-121.42596846394956,43.77550399603377],[-121.42601686497656,43.77566436135453],[-121.42604327474805,43.77582735458764],[-121.42604744134191,43.775991421920885],[-121.42602932487786,43.77615499929025],[-121.42598909790355,43.776316527289794],[-121.42592714375576,43.77647446603826],[-121.42584405291167,43.7766273098596],[-121.42574061736511,43.77677360163812],[-121.42561782308071,43.776911946710705],[-121.42547684059839,43.77704102616438],[-121.42531901387699,43.777159609412124],[-121.42514584748362,43.777266565925814],[-121.42495899225086,43.77736087601692],[-121.4247602295383,43.777441640559196],[-121.42455145424859,43.777508089562495],[-121.42433465676015,43.777559589515505],[-121.42411190394856,43.777595649426544],[-121.42388531947802,43.77761592550607],[-121.42365706355075,43.777620224444675],[-121.42342931230787,43.777608505256886],[-121.42320423707781,43.77758087967188],[-121.4229839836709,43.77753761106794],[-121.4227706519176,43.777479111960986],[-121.42256627564518,43.777405940070466],[-121.42004698389472,43.7763907162152],[-121.40977696012494,43.78337112048211],[-121.40959920624279,43.783480352281906],[-121.40940715884562,43.78357627980318],[-121.40920273855063,43.78365794366391],[-121.40898798974021,43.78372452713103],[-121.40876506011357,43.78377536429026],[-121.40853617920409,43.783809946707954],[-121.40830363607756,43.7838279285168],[-121.40806975643412,43.78382912987615],[-121.40783687934352,43.78381353877094],[-121.40760733384666,43.7837813111318],[-121.40738341565732,43.78373276927532],[-121.40716736419783,43.78366839867948],[-121.40696134019795,43.78358884312753],[-121.40676740408193,43.78349489826746],[-121.40658749535959,43.78338750365315],[-121.40642341322767,43.78326773334571],[-121.40627679857604,43.78313678516971],[-121.40614911757802,43.78299596873167],[-121.40604164702953,43.782846692320746],[-121.40595546158339,43.7826904488226],[-121.40589142300621,43.78252880078757],[-121.40585017156549,43.7823633648029],[-121.4043704491928,43.7740533355669],[-121.40435245858008,43.77388721037173],[-121.40435744539712,43.77372062136463],[-121.40438536045762,43.77355520606626],[-121.40443592920165,43.77339259044674],[-121.40450865440097,43.773234372943705],[-121.40460282105259,43.77308210875076],[-121.40471750341227,43.77293729453234],[-121.41041300825681,43.76650837648705],[-121.41199071777062,43.76195200922738],[-121.4136939040719,43.75302176390887],[-121.41373665921547,43.752858218722636],[-121.41380170324402,43.75269851502259],[-121.41388839828441,43.752544218608065],[-121.41399589420386,43.752396842251756],[-121.41412313694973,43.75225783086889],[-121.4142688788879,43.752128547352775],[-121.41443169103793,43.7520102592146],[-121.41460997708504,43.75190412615843],[-121.41480198903142,43.751811188713354],[-121.41500584433355,43.751732358034324],[-121.41521954435736,43.75166840697073],[-121.41544099397045,43.75161996249125],[-121.41566802207961,43.75158749953863],[-121.41589840291208,43.75157133637423],[-121.41612987783239,43.751571631458894],[-121.41636017748115,43.751588381899644],[-121.41737015348042,43.751698378888406],[-121.41758910856036,43.751729980495206],[-121.41780287019557,43.75177645767172],[-121.41800948767299,43.75183738629021],[-121.41820707546071,43.75191221034465],[-121.418393830412,43.75200024702343],[-121.41856804821796,43.75210069293934],[-121.41872813895944,43.75221263145895],[-121.41887264161579,43.752335041066246],[-121.41900023739818,43.75246680468281],[-121.4191097617863,43.75260671986052],[-121.41920021515763,43.752753509753184],[-121.41927077191339,43.75290583476727],[-121.42269649516443,43.76167823407146],[-121.42294382810562,43.761665830365445],[-121.4273429151163,43.75616273383334],[-121.42746484108729,43.756025954753525],[-121.42760456781494,43.75589827702685],[-121.42776078967745,43.755780893593766],[-121.42793204695458,43.75567490120442],[-121.42811673946731,43.75558129017356],[-121.42831314152906,43.75550093512928],[-121.42851941806794,43.755434586843066],[-121.42873364177065,43.755382865216355],[-121.42895381108718,43.75534625349028],[-121.4291778689282,43.75532509373166],[-121.42940372188119,43.75531958363788],[-121.42962925976522,43.75532977469021],[-121.42985237534248,43.755355571672816],[-121.4300709840022,43.7553967335623],[-121.43028304323346,43.75545287577893],[-121.4304865717051,43.755523473779206],[-121.43067966777454,43.755607867955156],[-121.43086052725279,43.75570526979619],[-121.43102746025997,43.755814769254506],[-121.43117890701355,43.75593534324634],[-121.43131345240225,43.75606586520898],[-121.43142983920923,43.756205115625164],[-121.43152697986096,43.75635179341549],[-121.43160396659212,43.75650452809384],[-121.43166007993123,43.75666189257054],[-121.4316947954277,43.75682241648615],[-121.43170778855738,43.75698459994865],[-121.43169893776025,43.75714692754745],[-121.43166832558215,43.757307882513295],[-121.43161623790917,43.75746596089048],[-121.42925934414477,43.76333684671041]]]},"properties":{"fire_id":"F0002","date":"2026-08-20","area_ha":418.2,"frp_sum":116.8,"n_detections":20,"first_seen":"2026-08-18","last_seen":"2026-08-20","centroid":[-121.41792,43.76794],"history":[{"date":"2026-08-18","area_ha":215.9},{"date":"2026-08-19","area_ha":307.4},{"date":"2026-08-20","area_ha":418.2}],"track":[[-121.42349845316784,43.75812986305568],[-121.42312080678441,43.76188757088176],[-121.41792477531928,43.76794020144439]],"growth_24h_ha":110.75,"speed_km_day":0.79,"bearing_deg":47.0,"direction":"NE"}},{"type":"Feature","geometry":{"type":"Polygon","coordinates":[[[-119.05208289232193,35.42299998164243],[-119.05207286707923,35.423164174970246],[-119.05204287886518,35.42332678735053],[-119.05199321635936,35.42348625272321],[-119.0519243577252,35.423641035326725],[-119.0518369660094,35.42378964448939],[-119.05173188276012,35.42393064898641],[-119.05161011992583,35.42406269082484],[-119.05147285011172,35.424184498323314],[-119.0513213952885,35.424294898361],[-119.05115721406158,35.42439282767713],[-119.05098188762328,35.424477343112706],[-119.05079710452381,35.42454763069522],[-119.05060464440719,35.42460301347946],[-119.05040636086918,35.424642958068375],[-119.05020416360226,35.424667079751],[-119.05,35.42467514620822],[-119.04979583639775,35.424667079751],[-119.04959363913083,35.42464295806839],[-119.04939535559281,35.42460301347946],[-119.04920289547618,35.42454763069521],[-119.04901811237674,35.42447734311269],[-119.04884278593842,35.42439282767713],[-119.0486786047115,35.42429489836101],[-119.04852714988827,35.424184498323314],[-119.04838988007418,35.42406269082482],[-119.04826811723987,35.42393064898639],[-119.0481630339906,35.423789644489396],[-119.0480756422748,35.42364103532672],[-119.04800678364063,35.423486252723194],[-119.04795712113483,35.423326787350554],[-119.04792713292078,35.42316417497023],[-119.04791710767807,35.42299998164243],[-119.04791727117937,35.416999981643784],[-119.0479273045403,35.41683578776578],[-119.04795729896333,35.41667317548854],[-119.04800696546243,35.4165137108431],[-119.0480758256085,35.41635892953843],[-119.04816321614105,35.41621032217244],[-119.04826829535973,35.41606931987801],[-119.04839005123351,35.41593728054173],[-119.04852731114941,35.415815475728394],[-119.04867875320676,35.41570507843689],[-119.04884291894838,35.41560715180543],[-119.04901822740585,35.41552263887484],[-119.04920299032364,35.415452353508265],[-119.04939542841555,35.41539697255482],[-119.04959368849718,35.41535702933276],[-119.0497958613292,35.41533290849446],[-119.05,35.41532484232273],[-119.05020413867078,35.41533290849446],[-119.05040631150281,35.41535702933277],[-119.05060457158444,35.41539697255482],[-119.05079700967636,35.415452353508265],[-119.05098177259414,35.41552263887484],[-119.05115708105163,35.41560715180543],[-119.05132124679324,35.41570507843689],[-119.05147268885058,35.41581547572839],[-119.05160994876645,35.41593728054176],[-119.05173170464026,35.41606931987801],[-119.05183678385896,35.41621032217244],[-119.05192417439149,35.41635892953841],[-119.05199303453756,35.4165137108431],[-119.05204270103665,35.41667317548854],[-119.05207269545969,35.4168357877658],[-119.05208272882064,35.41699998164377],[-119.05208281056797,35.41999998164312],[-119.05208289232193,35.42299998164243]]]},"properties":{"fire_id":"F0003","date":"2026-08-20","area_ha":36.2,"frp_sum":12.0,"n_detections":3,"first_seen":"2026-08-18","last_seen":"2026-08-20","centroid":[-119.05,35.42],"history":[{"date":"2026-08-18","area_ha":36.2},{"date":"2026-08-19","area_ha":36.2},{"date":"2026-08-20","area_ha":36.2}],"track":[[-119.05,35.420000004014135],[-119.05,35.420000004014135],[-119.05,35.420000004014135]],"growth_24h_ha":0.0,"speed_km_day":0.0,"bearing_deg":0.0,"direction":"N"}}]}