{"type":"FeatureCollection","features":[{"type":"Feature","geometry":{"type":"Polygon","coordinates":[[[-73.25702558650407,45.839564511573094],[-73.2570301101247,45.83973159162908],[-73.25701102811718,45.83989816665989],[-73.25696852720341,45.840062605151914],[-73.25690302348829,45.84022329650383],[-73.25624306475663,45.8415833096109],[-73.25615342071258,45.841741409418],[-73.25604151564887,45.84189239100973],[-73.25590848514634,45.84203472205954],[-73.25575567921382,45.84216695802482],[-73.2555846485904,45.84228775681003],[-73.25539712900898,45.84239589239008],[-73.25519502358108,45.842490267256096],[-73.25498038348117,45.84256992355682],[-73.25475538712713,45.842634052822305],[-73.25452231806803,45.8426820041714],[-73.25428354180349,45.84271329091962],[-73.25404148177087,45.8427275955199],[-73.25379859474337,45.84272477278659],[-73.25355734588967,45.84270485136925],[-73.25332018374813,45.842668033461806],[-73.25308951536996,45.84261469275002],[-73.2528676818841,45.84254537061748],[-73.25127315903559,45.841977989064965],[-73.24748917134164,45.84073976114107],[-73.24728093625251,45.84066272669779],[-73.24708442622007,45.84057183413945],[-73.24690151586064,45.84046795057352],[-73.2467339500289,45.84035206703548],[-73.24658332717173,45.840225289032574],[-73.24645108408059,45.84008882599539],[-73.24633848218654,45.839943979738216],[-73.24624659552977,45.83979213203838],[-73.2461763005175,45.839634731452755],[-73.2461282675684,45.839473279497966],[-73.2461029547225,45.83930931632544],[-73.24610060327794,45.839144406028524],[-73.24612123549541,45.83898012172183],[-73.24616465439233,45.83881803053477],[-73.24623044562823,45.83865967866297],[-73.24631798146336,45.83850657661962],[-73.24642642675225,45.838360184828],[-73.2504265262597,45.83355025732241],[-73.25055888491731,45.833408045452394],[-73.25071096303154,45.83327585950767],[-73.25088122347704,45.833155035444825],[-73.2510679453928,45.83304679438162],[-73.25126924157537,45.83295223025818],[-73.25148307755178,45.83287229878325],[-73.25170729213963,45.83280780777755],[-73.25193961928636,45.832759409011445],[-73.25217771096749,45.832727591619665],[-73.25241916091227,45.832712677159144],[-73.25266152891746,45.832714816360046],[-73.25290236550356,45.83273398760295],[-73.2531392366648,45.832769997137234],[-73.25336974846284,45.83282248103868],[-73.25359157121602,45.83289090888646],[-73.25524154322866,45.83347089336408],[-73.25543961603998,45.83354890833236],[-73.25562632158665,45.833639636767856],[-73.25580000124666,45.83374227270641],[-73.25595911209099,45.83385590440179],[-73.25610224058998,45.83397952242327],[-73.25622811517107,45.83411202862115],[-73.25633561751651,45.83425224588045],[-73.25642379250039,45.83439892857614],[-73.256491856677,45.83455077363736],[-73.25653920524465,45.83470643212214],[-73.25656541742309,45.834864521200046],[-73.25702558650407,45.839564511573094]]]},"properties":{"fire_id":"F2205","date":"2026-09-19","area_ha":67.3,"cumulative_ha":130.5,"frp_sum":9.7,"n_detections":6,"first_seen":"2026-09-06","last_seen":"2026-09-19","centroid":[-73.25227,45.83791],"history":[{"date":"2026-09-06","area_ha":27.6},{"date":"2026-09-07","area_ha":56.1},{"date":"2026-09-10","area_ha":88.4},{"date":"2026-09-11","area_ha":69.8},{"date":"2026-09-12","area_ha":56.8},{"date":"2026-09-14","area_ha":89.4},{"date":"2026-09-15","area_ha":47.5},{"date":"2026-09-18","area_ha":43.1},{"date":"2026-09-19","area_ha":67.3}],"track":[[-73.24987567197068,45.83797608837125],[-73.25151384091508,45.83785961731859],[-73.25330662194074,45.838824622299214],[-73.25014252132951,45.83939312746881],[-73.25032221256373,45.837188960390364],[-73.2509446442258,45.83879218028587],[-73.25252556768096,45.83882316653759],[-73.24906483819129,45.839079763727945],[-73.25227079970644,45.837905896610984]],"growth_24h_ha":24.19,"speed_km_day":0.28,"bearing_deg":228.68,"direction":"SW"}},{"type":"Feature","geometry":{"type":"Polygon","coordinates":[[[-73.14751595332793,46.04245074719511],[-73.14774683411743,46.042476532168536],[-73.14797307203149,46.04251776941072],[-73.14819255288222,46.04257407356782],[-73.14840322561231,46.04264491848729],[-73.14860312145878,46.04272964213345],[-73.1487903723483,46.04282745277262],[-73.14896322835284,46.042937436370025],[-73.14912007404187,46.04305856512963],[-73.14925944357904,46.04318970709694],[-73.149380034422,46.04332963673522],[-73.14948071949719,46.043477046376545],[-73.14956055773595,46.04363055844036],[-73.14961880287335,46.04378873830591],[-73.14965491042709,46.04395010771799],[-73.14966854279163,46.04411315860092],[-73.14965957239914,46.0442763671516],[-73.1496280829178,46.04443820808023],[-73.14957436847611,46.044597168865096],[-73.14949893092013,46.04475176388886],[-73.14940247512875,46.044900548323625],[-73.14928590243126,46.045042131635356],[-73.14915030218788,46.04517519058118],[-73.14899694161213,46.04529848157816],[-73.14882725393,46.04541085232773],[-73.14864282498637,46.04551125258715],[-73.14844537842409,46.04559874398739],[-73.14823675957386,46.04567250880506],[-73.14801891820589,46.045731857606945],[-73.14216879290495,46.0471018968199],[-73.14193506274765,46.047147654666546],[-73.14169594346554,46.04717681821606],[-73.14145384345194,46.04718909373038],[-73.14121120112884,46.04718435756927],[-73.14097046038151,46.04716265743579],[-73.14073404593833,46.04712421189595],[-73.14050433894354,46.04706940817649],[-73.14028365296964,46.046998798263864],[-73.14007421071092,46.046913093343015],[-73.13987812159351,46.04681315663263],[-73.13969736052718,46.046699994688765],[-73.13953374801333,46.046574747264756],[-73.13938893180968,46.04643867582925],[-73.13926437033585,46.046293150858936],[-73.13916131798767,46.04613963803286],[-73.13908081250727,46.04597968346889],[-73.1390236645367,46.045814898149864],[-73.13899044945948,46.04564694169718],[-73.13876051573754,46.04380693686644],[-73.1387515045249,46.043641163647536],[-73.13876581086592,46.043475572319714],[-73.13880329665533,46.04331175939912],[-73.13886360031391,46.04315130424178],[-73.13894614028109,46.042995753817394],[-73.13905012062779,46.042846607795845],[-73.1391745387352,46.04270530409013],[-73.13931819496571,46.042573204995065],[-73.13947970423192,46.04245158405548],[-73.1396575093526,46.042341613790136],[-73.13984989606656,46.042244354389844],[-73.14005500955959,46.04216074349853],[-73.1402708723453,46.04209158717569],[-73.14049540332745,46.042037552127354],[-73.14072643786031,46.0419991592802],[-73.1409617486133,46.04197677876086],[-73.14119906703958,46.041970626328585],[-73.14143610524154,46.04198076129578],[-73.14751595332793,46.04245074719511]]]},"properties":{"fire_id":"F2786","date":"2026-09-19","area_ha":37.5,"cumulative_ha":93.0,"frp_sum":7.1,"n_detections":3,"first_seen":"2026-09-11","last_seen":"2026-09-19","centroid":[-73.14371,46.0444],"history":[{"date":"2026-09-11","area_ha":65.0},{"date":"2026-09-12","area_ha":58.7},{"date":"2026-09-14","area_ha":37.4},{"date":"2026-09-15","area_ha":28.5},{"date":"2026-09-18","area_ha":50.9},{"date":"2026-09-19","area_ha":37.5}],"track":[[-73.14079226405025,46.04397640782809],[-73.14345727821727,46.04270496178088],[-73.1425317658473,46.042720015611806],[-73.14341995549415,46.04243366955709],[-73.14401082992232,46.043405440397095],[-73.14371473544405,46.044399366209284]],"growth_24h_ha":-13.37,"speed_km_day":0.11,"bearing_deg":357.98,"direction":"N"}},{"type":"Feature","geometry":{"type":"Polygon","coordinates":[[[-76.81430185251044,39.93866526377745],[-76.81444228066933,39.93852821500747],[-76.81460071213307,39.93840288246538],[-76.81477544671705,39.938290611066556],[-76.81496460931818,39.93819260556395],[-76.81516617003612,39.93810991762253],[-76.8191561052809,39.93666994889642],[-76.81935466168207,39.9366070535587],[-76.81956036109908,39.93655903378675],[-76.8197712582817,39.93652634368822],[-76.81998535883595,39.93650929240232],[-76.8202006380808,39.93650804117727],[-76.8204150601911,39.936522601845326],[-76.82062659744561,39.936552836711414],[-76.82083324939863,39.93659845985458],[-76.82103306179387,39.936659039831504],[-76.82122414504201,39.936734003755575],[-76.82140469208727,39.936822642713466],[-76.82157299549432,39.93692411846786],[-76.82172746359382,39.937037471383015],[-76.82186663553419,39.937161629498284],[-76.82198919509723,39.937295418663986],[-76.82209398314687,39.93743757364367],[-76.82218000859342,39.937586750077806],[-76.82224645776944,39.937741537196196],[-76.82229270212848,39.937900471158486],[-76.82231830419374,39.93806204889695],[-76.82232302170043,39.938224742330725],[-76.82230680989196,39.93838701281676],[-76.82226982194871,39.938547325701236],[-76.82221240754453,39.938704164833595],[-76.82213510954482,39.938856046906004],[-76.82203865887715,39.939001535482525],[-76.82192396762248,39.939139254585385],[-76.82179212039256,39.93926790170973],[-76.81759214366201,39.94297795976539],[-76.81744701744397,39.943094388551344],[-76.8172878454072,39.94319981165708],[-76.81711608206786,39.94329326568449],[-76.8169332970251,39.94337389661001],[-76.81674116061694,39.943440967590455],[-76.81654142865423,39.943493865697725],[-76.8163359263732,39.94353210752136],[-76.81612653175269,39.94355534358687],[-76.81591515834911,39.943563361550325],[-76.81570373780575,39.943556088139076],[-76.81549420219682,39.94353358982163],[-76.81528846636738,39.94349607219999],[-76.81508841043102,39.94344387813052],[-76.81489586258516,39.94337748458988],[-76.81471258240131,39.94329749831545],[-76.81454024474309,39.94320465025944],[-76.81438042445896,39.94309978890792],[-76.8142345819899,39.9429838725257],[-76.81319458737796,39.94207385820724],[-76.81305655823128,39.94193990002158],[-76.81293720011894,39.9417960591949],[-76.81283774182228,39.9416438166969],[-76.81275920721627,39.94148473998997],[-76.8127024047324,39.94132046688938],[-76.81266791904028,39.94115268869943],[-76.812656105034,39.94098313279946],[-76.81266708418472,39.94081354485864],[-76.81270074329647,39.94064567086344],[-76.81275673567826,39.940481239141775],[-76.81283448471967,39.940321942570016],[-76.81293318983317,39.940169421145114],[-76.81305183470161,39.9400252451017],[-76.81430185251044,39.93866526377745]]]},"properties":{"fire_id":"F2241","date":"2026-09-19","area_ha":39.7,"cumulative_ha":68.6,"frp_sum":7.4,"n_detections":4,"first_seen":"2026-09-06","last_seen":"2026-09-19","centroid":[-76.81737,39.93992],"history":[{"date":"2026-09-06","area_ha":16.3},{"date":"2026-09-07","area_ha":31.8},{"date":"2026-09-08","area_ha":28.3},{"date":"2026-09-09","area_ha":17.2},{"date":"2026-09-12","area_ha":33.8},{"date":"2026-09-15","area_ha":37.7},{"date":"2026-09-17","area_ha":25.5},{"date":"2026-09-18","area_ha":33.1},{"date":"2026-09-19","area_ha":39.7}],"track":[[-76.8151957135348,39.94073590034301],[-76.81481109707005,39.940653276355825],[-76.81694319062778,39.93966570425342],[-76.81551191928891,39.939315361562485],[-76.81506736834343,39.93940717044993],[-76.81731022088127,39.938549623803915],[-76.81465051753813,39.94032344945099],[-76.81649245491053,39.9401621632022],[-76.817369366291,39.939919707774635]],"growth_24h_ha":6.56,"speed_km_day":0.08,"bearing_deg":238.34,"direction":"WSW"}}]}