{"type":"FeatureCollection","features":[{"type":"Feature","geometry":{"type":"Polygon","coordinates":[[[-73.25445338912657,45.8357515858134],[-73.25468379020764,45.83579079020893],[-73.25490757914012,45.83584565286735],[-73.25512259189708,45.83591564328124],[-73.25532674929816,45.83600008465941],[-73.25551807711224,45.83609816046995],[-73.25569472514603,45.83620892233394],[-73.2558549851344,45.83633129919424],[-73.25599730725962,45.83646410767047],[-73.25612031513946,45.83660606350013],[-73.25622281913941,45.8367557939555],[-73.25630382788029,45.83691185111622],[-73.25636255782956,45.837072725869334],[-73.25698263030266,45.839202713126774],[-73.25701828351805,45.83936527842461],[-73.25703118307275,45.83952950167024],[-73.25702120641373,45.83969382479473],[-73.25698844802676,45.83985668876801],[-73.25693321854645,45.84001654839038],[-73.25685604181515,45.84017188695349],[-73.25675764991871,45.84032123063133],[-73.25663897624577,45.84046316246489],[-73.25650114663625,45.84059633580767],[-73.2563454687032,45.840719487104316],[-73.2561734194286,45.84083144788125],[-73.25598663115125,45.84093115583515],[-73.25578687607934,45.8410176649143],[-73.25557604947494,45.8410901542969],[-73.25535615166967,45.84114793618091],[-73.25512926908254,45.84119046231183],[-73.25489755442022,45.84121732918585],[-73.24811738582562,45.84176734555071],[-73.24787960456659,45.841778327718565],[-73.24764143648467,45.84177282056783],[-73.24740520779774,45.841750877888266],[-73.24717322577713,45.84171271399962],[-73.24694775620719,45.8416587016577],[-73.24673100125068,45.841589368412635],[-73.24652507793611,45.8415053914549],[-73.24633199747753,45.84140759099948],[-73.24615364562882,45.84129692227283],[-73.24599176426462,45.84117446618105],[-73.24584793436755,45.84104141875056],[-73.24572356058836,45.8408990794443],[-73.24561985752935,45.84074883846817],[-73.24553783788534,45.84059216319095],[-73.24547830255739,45.840430583811305],[-73.24544183283628,45.84026567841144],[-73.2454287847314,45.84009905754356],[-73.24543928550028,45.83993234849971],[-73.24547323241266,45.839767179418686],[-73.24641334805249,45.8363871987717],[-73.2464697920703,45.836226616269386],[-73.24654839595529,45.83607067077731],[-73.24664840557696,45.83592085813641],[-73.24676886149692,45.835778615349184],[-73.2469086081761,45.835645306797495],[-73.24706630506249,45.835522211157496],[-73.24724043945213,45.835410509136416],[-73.24742934100007,45.835311272149696],[-73.24763119774249,45.83522545204626],[-73.24784407347589,45.835153871980545],[-73.24806592632666,45.83509721851906],[-73.24829462833355,45.835056035056596],[-73.24852798585472,45.835030716605516],[-73.24876376060413,45.835021506008125],[-73.2489996911159,45.8350284916079],[-73.24923351443036,45.83505160640242],[-73.25445338912657,45.8357515858134]]]},"properties":{"fire_id":"F2205","date":"2026-09-23","area_ha":54.7,"cumulative_ha":130.6,"frp_sum":5.3,"n_detections":4,"first_seen":"2026-09-06","last_seen":"2026-09-23","centroid":[-73.25104,45.83854],"history":[{"date":"2026-09-06","area_ha":27.6},{"date":"2026-09-07","area_ha":56.1},{"date":"2026-09-10","area_ha":88.4},{"date":"2026-09-11","area_ha":69.8},{"date":"2026-09-12","area_ha":56.8},{"date":"2026-09-14","area_ha":89.4},{"date":"2026-09-15","area_ha":47.5},{"date":"2026-09-18","area_ha":43.1},{"date":"2026-09-19","area_ha":72.1},{"date":"2026-09-21","area_ha":25.6},{"date":"2026-09-23","area_ha":54.7}],"track":[[-73.24987567197068,45.83797608837125],[-73.25151384091508,45.83785961731859],[-73.25330662194074,45.838824622299214],[-73.25014252132951,45.83939312746881],[-73.25032221256373,45.837188960390364],[-73.2509446442258,45.83879218028587],[-73.25252556768096,45.83882316653759],[-73.24906483819129,45.839079763727945],[-73.25235465306665,45.83785664461355],[-73.24893874084682,45.83840000642715],[-73.25104228521381,45.83853763590213]],"growth_24h_ha":14.54,"speed_km_day":0.08,"bearing_deg":261.62,"direction":"W"}},{"type":"Feature","geometry":{"type":"Polygon","coordinates":[[[-73.14583412726039,46.04715309512459],[-73.14577771577567,46.047313252331314],[-73.1456992160612,46.04746880438104],[-73.14559937608323,46.047618268823925],[-73.14547914720329,46.04776022121475],[-73.14533967511593,46.04789330869021],[-73.14518228893351,46.04801626286385],[-73.14500848852164,46.04812791191629],[-73.1448199302064,46.048227191765456],[-73.14461841098888,46.0483131562098],[-73.1444058514182,46.04838498594814],[-73.14418427728569,46.04844199639004],[-73.14395580031514,46.04848364418209],[-73.14372259803324,46.048509532387634],[-73.14348689301204,46.04851941427107],[-73.1432509316819,46.04851319564989],[-73.14301696291648,46.04849093579267],[-73.14278721659464,46.048452846854026],[-73.14256388234348,46.048399291852036],[-73.14234908866545,46.04833078120751],[-73.14214488264876,46.04824796787797],[-73.14195321045426,46.0481516411331],[-73.1417758987655,46.04804271903049],[-73.14161463737847,46.04792223966424],[-73.14147096309689,46.04779135126914],[-73.14134624508719,46.04765130127536],[-73.14124167183195,46.04750342441792],[-73.14115823980657,46.04734913001427],[-73.14109674398694,46.04718988853152],[-73.14105777027818,46.0470272175709],[-73.14104168993659,46.04686266740397],[-73.14104865603774,46.04669780619759],[-73.14107860202421,46.04653420506902],[-73.14205873576694,46.042684225415776],[-73.14211129280194,46.04252363862983],[-73.14218598780354,46.042367390580694],[-73.1422821105293,46.04221696663604],[-73.14239874705135,46.0420737967852],[-73.14253478844917,46.041939242046475],[-73.1426889413551,46.04181458153069],[-73.14285974025228,46.04170100028356],[-73.14304556140777,46.04159957802234],[-73.14324463830879,46.04151127887395],[-73.14345507845478,46.04143694221184],[-73.14367488134631,46.04137727467872],[-73.1439019574994,46.04133284347086],[-73.14413414830493,46.04130407094769],[-73.14436924654453,46.04129123061787],[-73.1446050173679,46.041294444540206],[-73.14483921953261,46.04131368216352],[-73.14506962670455,46.041348760617],[-73.14529404861685,46.0413993464482],[-73.1455103518862,46.04146495879183],[-73.14571648028931,46.04154497393977],[-73.14591047430635,46.04163863126849],[-73.14609048974623,46.04174504046785],[-73.14625481527652,46.04186319000253],[-73.14640188869168,46.041991956725745],[-73.14653031176468,46.04213011655415],[-73.14663886354094,46.04227635610219],[-73.14672651194843,46.04242928516575],[-73.14679242361285,46.04258744993614],[-73.14683597178517,46.04274934681939],[-73.14685674230527,46.04291343672899],[-73.14685453754538,46.04307815971669],[-73.14681455494504,46.043558160558526],[-73.14677401131149,46.043783075670234],[-73.14583412726039,46.04715309512459]]]},"properties":{"fire_id":"F4235","date":"2026-09-23","area_ha":27.4,"cumulative_ha":27.4,"frp_sum":4.8,"n_detections":3,"first_seen":"2026-09-23","last_seen":"2026-09-23","centroid":[-73.14396,46.0449],"history":[{"date":"2026-09-23","area_ha":27.4}],"track":[[-73.14396333910007,46.04490373797356]],"growth_24h_ha":null,"speed_km_day":null,"bearing_deg":null,"direction":null}},{"type":"Feature","geometry":{"type":"Polygon","coordinates":[[[-80.09977014824493,42.81702718685225],[-80.09973948924741,42.817165762613584],[-80.09957950709618,42.81773576566389],[-80.09952189284958,42.81789882522646],[-80.09944211095865,42.81805686314043],[-80.09934096448478,42.818208288343264],[-80.09921947159786,42.81835157633537],[-80.09907885533029,42.81848528452976],[-80.09892053126731,42.81860806677752],[-80.09874609329759,42.81871868692265],[-80.09855729756758,42.81881603124931],[-80.09835604480078,42.81889911969694],[-80.09814436116035,42.81896711572913],[-80.09656433059689,42.81940712671948],[-80.09635631452794,42.81945695298573],[-80.09614274048012,42.819492198105124],[-80.09592553447753,42.81951254423149],[-80.0957066553046,42.81951780788001],[-80.09548807683788,42.81950794158211],[-80.0952717702415,42.81948303431383],[-80.09505968618721,42.81944331069317],[-80.0948537372594,42.81938912895385],[-80.09465578070385,42.81932097771416],[-80.09078572133808,42.81782094230777],[-80.0905883484318,42.817734977664905],[-80.09040372802541,42.81763513354026],[-80.09023369703861,42.81752240339183],[-80.09007994720191,42.817397908889035],[-80.08994400822426,42.817262888750086],[-80.08982723257397,42.81711868641474],[-80.08973078202436,42.8169667366754],[-80.08965561609804,42.81680855139928],[-80.08960248252431,42.81664570448431],[-80.08957190980499,42.81647981619788],[-80.08956420196185,42.8163125370551],[-80.08957943551825,42.816145531396174],[-80.09096971877129,42.8074755582613],[-80.0910055106934,42.807317945652485],[-80.09106173709917,42.80716352427488],[-80.09113788822455,42.807013693782324],[-80.09123327372271,42.806869812207644],[-80.09134702892536,42.80673318365479],[-80.09147812268333,42.80660504648004],[-80.09162536671539,42.806486562069196],[-80.09178742638044,42.806378804312914],[-80.09529740598991,42.80425884792181],[-80.09550693974013,42.804146204796055],[-80.09573259565576,42.8040514810271],[-80.09597149332755,42.80397588569381],[-80.09663183320282,42.80379848407528],[-80.10152791194727,42.7986812290289],[-80.10166570294675,42.79855125467829],[-80.1018202855484,42.79843170192321],[-80.10199018005503,42.79832371507783],[-80.10217376023222,42.79822832774616],[-80.10236926887396,42.798146452930666],[-80.10257483462104,42.798078874295],[-80.10393480869018,42.79768888399211],[-80.10415067969225,42.79763578727389],[-80.10437269785487,42.797598458814846],[-80.10459869451238,42.79757726323405],[-80.10482646214582,42.79757240756666],[-80.10505377594122,42.79758393924203],[-80.10527841551674,42.79761174562063],[-80.10549818660641,42.797655555093925],[-80.10571094248922,42.797714939736856],[-80.10591460495422,42.79778931948679],[-80.10610718459698,42.79787796780822],[-80.1062868002497,42.797980018787946],[-80.1064516973549,42.798094475591704],[-80.10660026510338,42.798220220199305],[-80.10673105216944,42.798356024323645],[-80.10684278088921,42.798500561406904],[-80.1069343597438,42.79865241957685],[-80.10700489402521,42.79881011543664],[-80.10705369458063,42.79897210855373],[-80.10708028454958,42.799136816506355],[-80.10755045207985,42.80419680738323],[-80.10755433433403,42.80436789523607],[-80.10753425329436,42.804538381277496],[-80.10749041761304,42.804706492576926],[-80.10742328298129,42.804870480885334],[-80.10733354739729,42.805028640816595],[-80.10722214391383,42.80517932758386],[-80.10709023094041,42.805320974105996],[-80.10693918020084,42.805452107306536],[-80.10677056247103,42.80557136343516],[-80.10453055305673,42.80700139217205],[-80.10445827679399,42.80704565868684],[-80.10106946368482,42.809036224657156],[-80.09977014824493,42.81702718685225]]]},"properties":{"fire_id":"F3937","date":"2026-09-23","area_ha":192.4,"cumulative_ha":234.6,"frp_sum":32.1,"n_detections":13,"first_seen":"2026-09-20","last_seen":"2026-09-23","centroid":[-80.09811,42.80877],"history":[{"date":"2026-09-20","area_ha":108.1},{"date":"2026-09-21","area_ha":140.0},{"date":"2026-09-22","area_ha":173.0},{"date":"2026-09-23","area_ha":192.4}],"track":[[-80.09691266855467,42.80916100906583],[-80.0976903568977,42.80643357931289],[-80.0973005777304,42.80761454478986],[-80.09811118767178,42.8087683785151]],"growth_24h_ha":19.39,"speed_km_day":0.14,"bearing_deg":323.33,"direction":"NW"}},{"type":"Feature","geometry":{"type":"Polygon","coordinates":[[[-79.81223173951106,43.272451823295526],[-79.81225034049109,43.27261877578608],[-79.8122458550462,43.27278623818602],[-79.81221832763686,43.27295254430765],[-79.81216803198664,43.27311603945438],[-79.81209546836533,43.27327509688507],[-79.81200135861735,43.27342813400045],[-79.81188663898524,43.27357362809111],[-79.81175245079864,43.273710131489736],[-79.81160012912213,43.27383628597719],[-79.81143118947392,43.27395083629883],[-79.80520115680923,43.2777709155601],[-79.8050120075939,43.27787532425426],[-79.80480907610256,43.277965181152936],[-79.8045944940287,43.27803954232579],[-79.80437051547597,43.2780976266192],[-79.80413949327597,43.27813882386383],[-79.80390385426801,43.27816270128603],[-79.80366607380076,43.27816900805502],[-79.80342864972336,43.27815767791857],[-79.79790851765397,43.27768766522074],[-79.79768740406541,43.277660950883806],[-79.79747088386281,43.27761893563469],[-79.79726097605374,43.277562011262276],[-79.79705963797339,43.2774907085806],[-79.7968687470298,43.277405692477956],[-79.79669008319507,43.277307755715476],[-79.79652531240593,43.27719781153326],[-79.79637597102881,43.277076885132985],[-79.79624345153388,43.2769461041164],[-79.79612898951221,43.27680668796912],[-79.79603365215637,43.27665993668774],[-79.79595832831264,43.2765072186563],[-79.79590372019675,43.27634995788565],[-79.79587033685068,43.27618962073411],[-79.79585848940135,43.27602770223378],[-79.79586828816497,43.27586571215003],[-79.79589964162402,43.27570516090377],[-79.79595225728634,43.27554754548831],[-79.79602564441781,43.27539433551167],[-79.79611911862303,43.27524695949477],[-79.79623180823127,43.27510679155305],[-79.79636266242778,43.27497513858558],[-79.79651046105462,43.27485322809145],[-79.79667382598942,43.27474219672633],[-79.80219469068103,43.271337306516344],[-79.80280566458774,43.26769761576647],[-79.80284769724175,43.26752397340677],[-79.80291466360674,43.26735447568702],[-79.80300582544231,43.26719099069587],[-79.80723598289738,43.26062106611975],[-79.80733986816047,43.26047810211503],[-79.80746225865585,43.26034302023606],[-79.80760202192377,43.26021707025186],[-79.80775786479312,43.26010141743649],[-79.80792834534742,43.25999713178941],[-79.80811188626613,43.25990517813808],[-79.80830678941761,43.25982640721295],[-79.80851125156883,43.25976154777846],[-79.80872338106673,43.259711199892074],[-79.80894121533653,43.25967582935413],[-79.80916273903577,43.2596557633992],[-79.8093859026959,43.2596511876696],[-79.80960864167925,43.259662144498094],[-79.80982889527634,43.25968853251653],[-79.81004462576665,43.25973010759328],[-79.81025383726707,43.259786485091425],[-79.81045459419376,43.25985714342638],[-79.81064503916654,43.25994142889025],[-79.8108234101907,43.26003856169858],[-79.81098805695693,43.26014764320299],[-79.8111374561091,43.26026766420377],[-79.81127022533832,43.2603975142851],[-79.81138513617329,43.26053599208665],[-79.81342519441779,43.2632859567316],[-79.81352276224126,43.263434501739134],[-79.81359977532213,43.263589239095126],[-79.81365549475845,43.2637486844593],[-79.81368938589887,43.26391130831747],[-79.81370112347676,43.26407555065294],[-79.81369059473644,43.26423983591077],[-79.81365790052068,43.26440258811177],[-79.81360335430955,43.264562245970964],[-79.81352747921903,43.26471727787539],[-79.81343100298818,43.264866196578076],[-79.81136777562125,43.26768294095918],[-79.81223173951106,43.272451823295526]]]},"properties":{"fire_id":"F3640","date":"2026-09-23","area_ha":152.3,"cumulative_ha":252.1,"frp_sum":11.8,"n_detections":8,"first_seen":"2026-09-18","last_seen":"2026-09-23","centroid":[-79.80621,43.27005],"history":[{"date":"2026-09-18","area_ha":175.6},{"date":"2026-09-19","area_ha":105.0},{"date":"2026-09-20","area_ha":156.1},{"date":"2026-09-21","area_ha":100.6},{"date":"2026-09-23","area_ha":152.3}],"track":[[-79.80560473474853,43.27000377140376],[-79.80360902708856,43.27059282362385],[-79.80223839166345,43.26989731246157],[-79.80020211521794,43.271877674567705],[-79.80621429090499,43.27005393290518]],"growth_24h_ha":25.86,"speed_km_day":0.26,"bearing_deg":237.48,"direction":"WSW"}},{"type":"Feature","geometry":{"type":"Polygon","coordinates":[[[-82.64689390386847,43.64790109722837],[-82.6471243268781,43.64791603565874],[-82.6473515638539,43.647947320860446],[-82.64757338251994,43.64799464550497],[-82.64778760381584,43.648057544700336],[-82.64799212329908,43.648135400556754],[-82.64818493181467,43.64822744825518],[-82.64836413523011,43.64833278355889],[-82.6485279730411,43.64845037169442],[-82.64867483566593,43.648579057514965],[-82.64880328025835,43.648717576846046],[-82.64891204488373,43.648864568902525],[-82.64900006091911,43.64901858965491],[-82.64906646355522,43.64917812601348],[-82.64911060029728,43.64934161069166],[-82.6491320373807,43.6495074376017],[-82.6491305640385,43.64967397763246],[-82.64910619457848,43.6498395946536],[-82.64905916824901,43.65000266158941],[-82.64898994689518,43.650161576404074],[-82.64889921042739,43.65031477784167],[-82.64878785014714,43.65046076076565],[-82.64865695999528,43.65059809094763],[-82.6485078258082,43.65072541915988],[-82.64834191268801,43.650841494432896],[-82.64816085060997,43.65094517634779],[-82.6479664184092,43.65103544624274],[-82.64678640165825,43.651525457950136],[-82.64657878547604,43.65160198595036],[-82.64636159513074,43.651663216672965],[-82.64613699940449,43.65170853867914],[-82.645907241043,43.651737499390485],[-82.64567461435598,43.65174980960931],[-82.64544144230177,43.6517453464074],[-82.64521005328587,43.651724154353644],[-82.64498275790484,43.65168644506916],[-82.6447618258683,43.65163259511326],[-82.6445494633296,43.651563142222486],[-82.64434779085192,43.65147877993949],[-82.64415882222987,43.65138035068599],[-82.64398444437823,43.65126883734869],[-82.64382639848886,43.651145353462525],[-82.64368626264407,43.65101113208929],[-82.64356543605994,43.65086751350251],[-82.64346512511692,43.65071593180237],[-82.64338633131729,43.650557900593455],[-82.64332984128927,43.65039499786943],[-82.64329621893793,43.650228850254734],[-82.64328579982042,43.650061116761506],[-82.64329868780199,43.649893472223404],[-82.64333475402572,43.64972759057211],[-82.64339363820584,43.64956512812328],[-82.64347475223177,43.649407707039046],[-82.64357728604628,43.64925689913199],[-82.64370021573923,43.64911421017218],[-82.64419022320523,43.64860421817366],[-82.6443332734726,43.64847026575115],[-82.64449428791804,43.648347331934154],[-82.64467163846426,43.64823665967445],[-82.64486353188951,43.64813936794398],[-82.6450680279584,43.64805644042344],[-82.64528305903787,43.647988715558554],[-82.64550645100002,43.64793687808477],[-82.64573594520063,43.64790145210585],[-82.64596922131133,43.647882795796015],[-82.64620392077472,43.64788109777952],[-82.64689390386847,43.64790109722837]]]},"properties":{"fire_id":"F4236","date":"2026-09-23","area_ha":15.6,"cumulative_ha":15.6,"frp_sum":3.0,"n_detections":3,"first_seen":"2026-09-23","last_seen":"2026-09-23","centroid":[-82.64618,43.64978],"history":[{"date":"2026-09-23","area_ha":15.6}],"track":[[-82.64617792406678,43.649779531226734]],"growth_24h_ha":null,"speed_km_day":null,"bearing_deg":null,"direction":null}},{"type":"Feature","geometry":{"type":"Polygon","coordinates":[[[-83.41013925363418,45.07422689059715],[-83.41004383427601,45.07438124258268],[-83.40992709538243,45.07452808914662],[-83.40979020318173,45.07466596310423],[-83.40963452528307,45.07479348690841],[-83.40946161701521,45.0749093864154],[-83.40927320588858,45.07501250361731],[-83.40907117433555,45.0751018082147],[-83.40885754090155,45.0751764079128],[-83.40863444007503,45.07523555733895],[-83.40840410095768,45.07527866549194],[-83.40613404775338,45.07561867516956],[-83.40590102708379,45.0756451323362],[-83.40566544775254,45.075655170166144],[-83.40542961897508,45.07564869026454],[-83.40519585241255,45.075625756150025],[-83.40496643950709,45.07558659263189],[-83.4047436290158,45.07553158360585],[-83.40452960496317,45.075461268290056],[-83.40432646522915,45.07537633593815],[-83.40413620098215,45.07527761908136],[-83.4039606771593,45.07516608536603],[-83.40380161418516,45.07504282806647],[-83.40366057110805,45.0749090553664],[-83.40353893031977,45.0747660785142],[-83.40343788400774,45.074615298967885],[-83.40335842247302,45.074458194656195],[-83.4033013244281,45.07429630549049],[-83.4032671493695,45.07413121826943],[-83.40325623209985,45.073964551124526],[-83.4032686794528,45.073797937659315],[-83.40330436925267,45.07363301093708],[-83.40336295151859,45.07347138747462],[-83.40344385190143,45.07331465139876],[-83.40354627731921,45.07316433892076],[-83.40366922373576,45.07302192328085],[-83.40381148600596,45.07288880031033],[-83.40397166969124,45.072766274752745],[-83.40729166732228,45.07046632254477],[-83.40746387169578,45.07035804762033],[-83.40765005965709,45.07026203544079],[-83.40784849094501,45.07017918337502],[-83.40805731088788,45.070110265788486],[-83.40827456773634,45.070055926807406],[-83.40849823090257,45.070016674300014],[-83.40872620993566,45.06999287513102],[-83.40895637405593,45.06998475173364],[-83.40918657206558,45.06999238003114],[-83.40941465245015,45.070015688727565],[-83.4096384834829,45.07005445997377],[-83.40985597314429,45.07010833140315],[-83.41006508867105,45.07017679951734],[-83.4102638755517,45.07025922439111],[-83.41045047579168,45.07035483565178],[-83.41062314527716,45.070462739677794],[-83.41078027007552,45.070581927949206],[-83.41092038152016,45.07071128647181],[-83.4110421699386,45.07084960618732],[-83.41114449689566,45.07099559427211],[-83.41122640583717,45.071147886219116],[-83.4112871310345,45.071305058590006],[-83.41132610474651,45.07146564231845],[-83.4113429625313,45.07162813644044],[-83.41133754665843,45.07179102212296],[-83.4113099075892,45.07195277686021],[-83.41126030351094,45.07211188870493],[-83.41118919792962,45.0722668704009],[-83.41013925363418,45.07422689059715]]]},"properties":{"fire_id":"F1552","date":"2026-09-23","area_ha":27.5,"cumulative_ha":138.8,"frp_sum":9.9,"n_detections":3,"first_seen":"2026-09-01","last_seen":"2026-09-23","centroid":[-83.40748,45.07297],"history":[{"date":"2026-09-01","area_ha":43.7},{"date":"2026-09-02","area_ha":40.2},{"date":"2026-09-03","area_ha":70.5},{"date":"2026-09-04","area_ha":28.6},{"date":"2026-09-05","area_ha":35.6},{"date":"2026-09-06","area_ha":65.4},{"date":"2026-09-07","area_ha":58.5},{"date":"2026-09-10","area_ha":73.1},{"date":"2026-09-11","area_ha":68.3},{"date":"2026-09-12","area_ha":53.9},{"date":"2026-09-13","area_ha":72.0},{"date":"2026-09-14","area_ha":22.1},{"date":"2026-09-16","area_ha":30.1},{"date":"2026-09-17","area_ha":39.8},{"date":"2026-09-18","area_ha":62.6},{"date":"2026-09-19","area_ha":60.6},{"date":"2026-09-22","area_ha":30.1},{"date":"2026-09-23","area_ha":27.5}],"track":[[-83.403917721129,45.07250687449736],[-83.40613974708137,45.07275456281799],[-83.40880291250855,45.07243782470169],[-83.40581430516792,45.07250433195331],[-83.40481446199482,45.072238333026895],[-83.40475457173808,45.072722356340314],[-83.40570855053355,45.07350715506756],[-83.40391379437803,45.07226217714091],[-83.40706888139786,45.07239523080157],[-83.40564668707728,45.07259822077909],[-83.4044422698552,45.07275245067559],[-83.40369001673119,45.07142352666233],[-83.40277730181491,45.07306310765608],[-83.40516683960647,45.07219288633925],[-83.4073888459498,45.07263068824104],[-83.40876950799303,45.073035406288376],[-83.40692338043793,45.07158698158843],[-83.40748164018477,45.072974592978724]],"growth_24h_ha":-2.67,"speed_km_day":0.16,"bearing_deg":336.53,"direction":"NNW"}},{"type":"Feature","geometry":{"type":"Polygon","coordinates":[[[-82.35824255593342,31.51449664743726],[-82.3584221527036,31.514557434099295],[-82.3585939270997,31.514632802955933],[-82.35875624474741,31.514722036902906],[-82.35890756123433,31.51482428691307],[-82.35904643680355,31.514938580113423],[-82.35917155005174,31.51506382904054],[-82.35928171050244,31.51519884198628],[-82.35937586993414,31.51534233433533],[-82.35945313235561,31.515492940787038],[-82.35951276253365,31.51564922834481],[-82.35955419299182,31.515809709950105],[-82.35957702941349,31.5159728586309],[-82.35958105439774,31.51613712203024],[-82.35956622953223,31.516300937176606],[-82.35953269576294,31.516462745355597],[-82.35948077205742,31.516621006941403],[-82.35941095237389,31.516774216046947],[-82.35932390096495,31.516920914853312],[-82.3592204460603,31.517059707481863],[-82.35910157198884,31.517189273277587],[-82.3589684098145,31.51730837937635],[-82.35882222657513,31.517415892437374],[-82.35866441322695,31.517510789428435],[-82.35849647140884,31.51759216736174],[-82.35831999915268,31.517659251887277],[-82.35813667567587,31.517711404662137],[-82.35794824540059,31.517748129425645],[-82.35775650135209,31.51776907672208],[-82.35756326809397,31.517774047226645],[-82.35737038436328,31.51776299364224],[-82.35263028751567,31.5172929853909],[-82.35244199359305,31.517266446632128],[-82.35225757688325,31.51722463692878],[-82.35207874793234,31.517167944082377],[-82.35190716544805,31.517096893940558],[-82.35174442091237,31.517012145519107],[-82.35159202381811,31.516914484888275],[-82.35145138766661,31.516804817880974],[-82.35132381685659,31.516684161689565],[-82.35121049458546,31.516553635430224],[-82.35111247187581,31.51641444976162],[-82.35103065782846,31.516267895654895],[-82.35096581119247,31.51611533241858],[-82.35091853333047,31.51595817509004],[-82.35088926264413,31.51579788131014],[-82.35087827051167,31.515635937803122],[-82.35088565877473,31.515473846586755],[-82.35091135879777,31.515313111041277],[-82.35095513210885,31.515155221965486],[-82.35101657261528,31.515001643750473],[-82.35109511037376,31.514853800797816],[-82.35119001687991,31.51471306430942],[-82.3513004118276,31.514580739570892],[-82.35142527127589,31.51445805384622],[-82.35156343714738,31.51434614499656],[-82.35171362796984,31.51424605092796],[-82.35187445076153,31.514158699966465],[-82.35304443654896,31.51358870870631],[-82.35321111637886,31.513516171431462],[-82.35338510725207,31.513457328828977],[-82.3535648557548,31.513412706253277],[-82.35374875707804,31.513382702099904],[-82.35393516934298,31.513367584249146],[-82.35412242825717,31.513367487674646],[-82.35430886197076,31.513382413238624],[-82.35449280599988,31.51341222768416],[-82.35467261808446,31.51345666482473],[-82.35824255593342,31.51449664743726]]]},"properties":{"fire_id":"F4237","date":"2026-09-23","area_ha":30.3,"cumulative_ha":30.3,"frp_sum":2.5,"n_detections":3,"first_seen":"2026-09-23","last_seen":"2026-09-23","centroid":[-82.35519,31.5157],"history":[{"date":"2026-09-23","area_ha":30.3}],"track":[[-82.35519454581943,31.51570186485227]],"growth_24h_ha":null,"speed_km_day":null,"bearing_deg":null,"direction":null}},{"type":"Feature","geometry":{"type":"Polygon","coordinates":[[[-82.72215101222605,31.566148429762023],[-82.72217670758941,31.56631525669256],[-82.72218267582417,31.566483428458508],[-82.72216885724536,31.56665126673512],[-82.72213538963818,31.566817096516946],[-82.72127546414357,31.570087109139674],[-82.72122403355871,31.570245782428536],[-82.72115461206883,31.570399435118684],[-82.72106786249095,31.570546599959453],[-82.7209646131239,31.570685871646887],[-82.72084584984154,31.570815920244254],[-82.72071270668059,31.57093550388285],[-82.72056645501281,31.571043480622233],[-82.72040849140512,31.571138819356023],[-82.72024032428304,31.571220609659566],[-82.72006355952547,31.571288070484922],[-82.71987988512798,31.571340557620555],[-82.71969105508131,31.57137756984391],[-82.71949887261903,31.57139875370872],[-82.71930517299462,31.571403906920526],[-82.71911180595256,31.571392980268936],[-82.7141317041048,31.570902971648273],[-82.7139403983407,31.570876038758257],[-82.71375310468115,31.57083336761098],[-82.71357161396251,31.570775366210995],[-82.71339766152536,31.570702589143856],[-82.71323291061944,31.57061573227253],[-82.71307893649842,31.570515626082923],[-82.71293721135682,31.570403227742013],[-82.71280909025295,31.57027961194489],[-82.71269579815275,31.570145960637767],[-82.71259841821846,31.57000355171567],[-82.71251788145354,31.569853746802927],[-82.71245495780362,31.56969797823305],[-82.7124102487977,31.56953773535287],[-82.71186828877875,31.567061034464867],[-82.70908493552952,31.565848540641348],[-82.70892060079507,31.565768301602628],[-82.70876603790379,31.56567510306066],[-82.70862265916557,31.56556979662722],[-82.7084917746782,31.565453344548228],[-82.70837458035625,31.565326810910197],[-82.70827214700394,31.565191351915864],[-82.70818541053183,31.56504820531843],[-82.70811516340687,31.564898679110737],[-82.7080620474138,31.56474413957253],[-82.7080265477938,31.5645859987856],[-82.70800898881411,31.56442570173053],[-82.70800953080878,31.564264713083006],[-82.7080281687175,31.56410450383059],[-82.70806473213585,31.563946537831907],[-82.70811888687611,31.5637922584414],[-82.70819013802445,31.56364307532159],[-82.70827783446641,31.56350035156354],[-82.70838117483912,31.563365391232868],[-82.71252122160467,31.558485441741883],[-82.71264045177794,31.55835830777279],[-82.71277355469793,31.558241527788322],[-82.71291929067027,31.558136189411044],[-82.71307630236058,31.558043273699464],[-82.71324312743567,31.557963646012137],[-82.71341821218195,31.557898047949298],[-82.71359992597428,31.557847090447044],[-82.71378657646036,31.557811248088306],[-82.71397642531971,31.55779085468351],[-82.71416770445022,31.557786100162346],[-82.71435863243184,31.55779702880498],[-82.71454743111424,31.557823538829886],[-82.714732342174,31.557865383341493],[-82.71491164348735,31.557922172629322],[-82.715083665166,31.557993377796876],[-82.71524680510709,31.55807833568675],[-82.71562680159941,31.55829833246859],[-82.71578203135331,31.5583980170041],[-82.71685202620341,31.559158006682818],[-82.71699639549853,31.559271335876456],[-82.71712684389921,31.559396249857542],[-82.71724208923672,31.559531520911595],[-82.71734099874725,31.559675819524404],[-82.71742260020716,31.55982772744803],[-82.71748609149115,31.559985751638962],[-82.71753084845928,31.560148338931768],[-82.71755643109525,31.560313891303732],[-82.7175625878355,31.56048078158093],[-82.71754925804633,31.560647369430896],[-82.71701028903568,31.564526885524607],[-82.71820453376426,31.564547258381015],[-82.71820752514788,31.56454182701212],[-82.71830781307337,31.564398602273098],[-82.71842427473727,31.564264495557694],[-82.71855576998782,31.564140819679643],[-82.71870101152312,31.564028785336976],[-82.71885857749399,31.56392948926135],[-82.71902692542278,31.563843903483217],[-82.71920440730231,31.56377286581753],[-82.71938928572709,31.56371707166339],[-82.71957975089882,31.563677067197666],[-82.71977393834011,31.563653244029084],[-82.71996994714283,31.563645835365424],[-82.72016585857277,31.563654913730943],[-82.72035975484879,31.56368039025649],[-82.72054973791244,31.563722015549363],[-82.72073394800482,31.56377938213427],[-82.72091058186886,31.563851928441533],[-82.72107791039895,31.56393894430356],[-82.72123429556532,31.56403957790575],[-82.72137820644764,31.564152844124088],[-82.72150823422092,31.564277634167304],[-82.72162310594699,31.564412726430064],[-82.72172169703663,31.564556798450184],[-82.72180304226048,31.564708439853618],[-82.72186634520041,31.564866166159856],[-82.7219109860494,31.565028433313252],[-82.72215101222605,31.566148429762023]]]},"properties":{"fire_id":"F4150","date":"2026-09-23","area_ha":122.4,"cumulative_ha":187.4,"frp_sum":19.4,"n_detections":12,"first_seen":"2026-09-22","last_seen":"2026-09-23","centroid":[-82.71533,31.56519],"history":[{"date":"2026-09-22","area_ha":156.5},{"date":"2026-09-23","area_ha":122.4}],"track":[[-82.71364944321203,31.56503198576398],[-82.7153317725504,31.565192201521857]],"growth_24h_ha":-34.08,"speed_km_day":0.16,"bearing_deg":268.39,"direction":"W"}},{"type":"Feature","geometry":{"type":"Polygon","coordinates":[[[-87.09320049181854,34.63942690571158],[-87.09339259254709,34.639444192112585],[-87.09358185866279,34.63947602869524],[-87.09376662708328,34.63952213571057],[-87.09394527424004,34.63958210801438],[-87.09411623034228,34.63965541862659],[-87.09647620152184,34.64078539929994],[-87.09664712287776,34.64087681245804],[-87.09680606164515,34.64098154828907],[-87.09695145301518,34.64109857566109],[-87.09708186553449,34.64122674242649],[-87.09719601519869,34.641364786763624],[-87.09729277809494,34.64151134959824],[-87.09737120146944,34.64166498798244],[-87.09743051311058,34.641824189299754],[-87.09747012895546,34.6419873861563],[-87.09748965884448,34.642152971811456],[-87.09748891036746,34.642319315996446],[-87.09746789076303,34.64248478096476],[-87.09742680685252,34.64264773761671],[-87.0973660630087,34.6428065815391],[-87.0972862571792,34.64295974880226],[-87.09718817500368,34.64310573135896],[-87.09707278208226,34.643243091893154],[-87.09694121447164,34.64337047797279],[-87.09679476750166,34.64348663536695],[-87.09663488302314,34.64359042039641],[-87.09646313521192,34.64368081119552],[-87.09628121506911,34.64375691777492],[-87.09609091377027,34.64381799078578],[-87.09589410502726,34.643863428898946],[-87.0956927266369,34.64389278472673],[-87.09548876139792,34.643905769228695],[-87.0952842175845,34.64390225455802],[-87.0902543080074,34.64361226027807],[-87.08521439821422,34.64332226596687],[-87.08501605174494,34.64330296095133],[-87.08482093397714,34.64326813998631],[-87.08463087650804,34.64321812994021],[-87.08444766342421,34.64315340026239],[-87.0842730145513,34.64307455857565],[-87.08410856930767,34.642982344971514],[-87.08395587131358,34.64287762506182],[-87.08381635390019,34.642761381852026],[-87.08369132665472,34.64263470651255],[-87.083581963128,34.64249878813469],[-87.08348928982,34.6423549025674],[-87.0834141765461,34.642204400440015],[-87.08335732827526,34.642048694483066],[-87.08331927851604,34.64188924626629],[-87.08330038431251,34.6417275524787],[-87.08330082289714,34.64156513087915],[-87.08332059003158,34.64140350604937],[-87.08335950005109,34.64124419508352],[-87.08341718761169,34.64108869334813],[-87.08349311112369,34.640938460446364],[-87.08358655783925,34.6407949065183],[-87.08369665054572,34.64065937900586],[-87.08382235580234,34.64053315000614],[-87.08396249364245,34.64041740433246],[-87.08411574865029,34.64031322839471],[-87.08428068230828,34.64022160000329],[-87.08445574649899,34.640143379192565],[-87.08463929803503,34.64007930014963],[-87.08730925131792,34.63926931521226],[-87.0875159286802,34.63921649074151],[-87.08772828184028,34.63918159201178],[-87.08794396622869,34.639165004337436],[-87.08816060050343,34.63916691086165],[-87.09320049181854,34.63942690571158]]]},"properties":{"fire_id":"F0253","date":"2026-09-23","area_ha":53.9,"cumulative_ha":217.8,"frp_sum":7.8,"n_detections":5,"first_seen":"2026-08-24","last_seen":"2026-09-23","centroid":[-87.09044,34.64161],"history":[{"date":"2026-08-24","area_ha":62.1},{"date":"2026-08-25","area_ha":75.6},{"date":"2026-08-26","area_ha":98.9},{"date":"2026-08-28","area_ha":56.7},{"date":"2026-08-29","area_ha":38.3},{"date":"2026-08-30","area_ha":82.0},{"date":"2026-08-31","area_ha":60.4},{"date":"2026-09-01","area_ha":102.5},{"date":"2026-09-02","area_ha":50.5},{"date":"2026-09-03","area_ha":105.5},{"date":"2026-09-05","area_ha":95.1},{"date":"2026-09-06","area_ha":51.1},{"date":"2026-09-07","area_ha":67.8},{"date":"2026-09-09","area_ha":57.2},{"date":"2026-09-10","area_ha":90.0},{"date":"2026-09-11","area_ha":104.2},{"date":"2026-09-13","area_ha":68.5},{"date":"2026-09-14","area_ha":127.6},{"date":"2026-09-15","area_ha":73.6},{"date":"2026-09-16","area_ha":31.7},{"date":"2026-09-17","area_ha":23.5},{"date":"2026-09-18","area_ha":66.1},{"date":"2026-09-19","area_ha":114.3},{"date":"2026-09-20","area_ha":61.8},{"date":"2026-09-21","area_ha":42.9},{"date":"2026-09-22","area_ha":59.8},{"date":"2026-09-23","area_ha":53.9}],"track":[[-87.08634197257808,34.6389631926558],[-87.08620335378885,34.63988398667481],[-87.08769289334147,34.64122973547511],[-87.09192167633671,34.64022814364157],[-87.08803461597122,34.64002267542736],[-87.08650448969318,34.641872880571775],[-87.08569294318043,34.64118619519934],[-87.08829958238401,34.63921765167289],[-87.09311898260046,34.640250668196956],[-87.08588160211701,34.64110573543008],[-87.0883511637861,34.64005937955729],[-87.084583209352,34.63873831543184],[-87.08714553454922,34.64020783618046],[-87.08813239997748,34.6387001783005],[-87.08609689365196,34.64139964949056],[-87.08732850041707,34.63946370059218],[-87.08836417629531,34.64026569948476],[-87.08585991150773,34.64234173174502],[-87.08664071499277,34.64005711023638],[-87.08833503934268,34.64083721291341],[-87.08427350833651,34.63976459290831],[-87.08658955880642,34.63939732410469],[-87.08682648020043,34.64159615313676],[-87.08631333229638,34.64277573510556],[-87.0856973744496,34.64026238863964],[-87.08474645832422,34.63967974209244],[-87.09043633872518,34.64161040944978]],"growth_24h_ha":-5.89,"speed_km_day":0.56,"bearing_deg":287.28,"direction":"WNW"}},{"type":"Feature","geometry":{"type":"Polygon","coordinates":[[[-82.03837725174472,37.23846236258677],[-82.03820243167748,37.23855807896174],[-82.03801630249352,37.23863963417151],[-82.03782072295544,37.2387062137587],[-82.03761764621981,37.23875715281917],[-82.03740910032909,37.23879194264338],[-82.03719716795487,37.23881023579778],[-82.03698396559517,37.23881184959481],[-82.03677162243348,37.23879676791808],[-82.036562259071,37.23876514138314],[-82.0363579663448,37.238717285833054],[-82.0361607844433,37.23865367918364],[-82.03597268252824,37.23857495664977],[-82.03579553906658,37.23848190440058],[-82.03563112306892,37.23837545170703],[-82.03548107642199,37.23825666166009],[-82.0353468974916,37.23812672055274],[-82.0352299261602,37.23798692603123],[-82.03513133044771,37.237838674134935],[-82.03505209485019,37.23768344535325],[-82.0336421717505,37.2344634225363],[-82.03358290562205,37.234302140202715],[-82.03354454132301,37.23413701259469],[-82.0335274647728,37.23396970138757],[-82.0335318476678,37.2338018902193],[-82.03355764575932,37.23363526774781],[-82.03360459930458,37.2334715106585],[-82.0336722356862,37.233312266792346],[-82.03375987417323,37.23315913856506],[-82.03386663277593,37.23301366684337],[-82.03399143712494,37.23287731544119],[-82.03413303128549,37.232751456391405],[-82.03428999039744,37.232637356141396],[-82.03446073501422,37.23253616281107],[-82.03464354699615,37.23244889464176],[-82.03483658679826,37.232376429751966],[-82.03503791197872,37.23231949730284],[-82.03524549674161,37.232278670162486],[-82.03545725231795,37.23225435914276],[-82.0356710479794,37.23224680886623],[-82.03588473247407,37.23225609530535],[-82.04178460223626,37.23274608467531],[-82.04199324949793,37.23277165050087],[-82.04219765206554,37.23281326851417],[-82.04239580732647,37.232870530968206],[-82.04258577386358,37.232942876840426],[-82.0427656904729,37.23302959732847],[-82.04293379439645,37.23312984279323],[-82.04308843859118,37.23324263108187],[-82.0432281078653,37.23336685714885],[-82.04335143372366,37.233501303881255],[-82.04345720777694,37.23364465402175],[-82.0435443935832,37.23379550307336],[-82.04361213680556,37.233952373058685],[-82.04365977358663,37.23411372699977],[-82.0436868370572,37.23427798397597],[-82.04369306191555,37.23444353461291],[-82.04367838703212,37.23460875685068],[-82.04364295605383,37.23477203183656],[-82.04358711600203,37.23493175978683],[-82.04351141387751,37.23508637566207],[-82.04341659130566,37.235234364502496],[-82.043303577274,37.23537427627292],[-82.04317347903336,37.23550474007181],[-82.04302757125116,37.23562447756515],[-82.04286728352378,37.235732315513694],[-82.03837725174472,37.23846236258677]]]},"properties":{"fire_id":"F1331","date":"2026-09-23","area_ha":46.3,"cumulative_ha":97.8,"frp_sum":2.5,"n_detections":3,"first_seen":"2026-08-30","last_seen":"2026-09-23","centroid":[-82.03824,37.23511],"history":[{"date":"2026-08-30","area_ha":50.9},{"date":"2026-09-02","area_ha":46.1},{"date":"2026-09-03","area_ha":25.4},{"date":"2026-09-04","area_ha":55.4},{"date":"2026-09-05","area_ha":52.5},{"date":"2026-09-08","area_ha":58.2},{"date":"2026-09-09","area_ha":45.1},{"date":"2026-09-12","area_ha":58.0},{"date":"2026-09-14","area_ha":57.0},{"date":"2026-09-15","area_ha":39.2},{"date":"2026-09-16","area_ha":51.2},{"date":"2026-09-17","area_ha":41.4},{"date":"2026-09-20","area_ha":54.2},{"date":"2026-09-23","area_ha":46.3}],"track":[[-82.03989878999379,37.23429582482269],[-82.03944088001657,37.234084731641374],[-82.0411317758828,37.234601893795315],[-82.04064484352325,37.23441962114342],[-82.03995990392139,37.23441329935944],[-82.03915134997897,37.234431033853234],[-82.03879277966371,37.23395170343553],[-82.03949243604907,37.23421442025935],[-82.04175512743444,37.234325697546595],[-82.03862650594851,37.23445766386702],[-82.03944381696355,37.234246927917475],[-82.0393959548996,37.2351162444755],[-82.04021780251095,37.23385957656018],[-82.03823647691476,37.2351114838426]],"growth_24h_ha":-2.63,"speed_km_day":0.07,"bearing_deg":42.73,"direction":"NE"}},{"type":"Feature","geometry":{"type":"Polygon","coordinates":[[[-87.5152281825529,33.23703810814054],[-87.51520245337639,33.23720009520225],[-87.51515786708497,33.23735924222977],[-87.51509484554398,33.23751404301081],[-87.51501398510509,33.23766303245936],[-87.51491605096584,33.23780480048269],[-87.51480196993069,33.23793800532782],[-87.51467282164188,33.238061386281466],[-87.51452982836297,33.238173775603315],[-87.5143743434118,33.238274109579194],[-87.51420783835219,33.23836143859002],[-87.51403188906575,33.23843493610059],[-87.5138481608356,33.238493906483605],[-87.51365839258303,33.238537791604564],[-87.513464380407,33.23856617610509],[-87.51326796058157,33.23857879133478],[-87.51307099217289,33.2385755178944],[-87.50799088468953,33.23828551244119],[-87.50779015105914,33.23826566052378],[-87.50759280433805,33.238229309130816],[-87.5074008112617,33.238176820534726],[-87.50721608520173,33.23810871782809],[-87.50704046709457,33.23802567970968],[-87.50687570709266,33.237928533719725],[-87.5067234471209,33.23781824799158],[-87.50658520451286,33.237695921602125],[-87.50646235688926,33.23756277361749],[-87.50635612842999,33.237420130942645],[-87.5062675776761,33.23726941509664],[-87.50619758698339,33.23711212804514],[-87.50614685373269,33.2369498372313],[-87.50611588338396,33.236784159954574],[-87.50610498444385,33.23661674725295],[-87.50611426539612,33.23644926744927],[-87.50614363362567,33.23628338952566],[-87.50619279634647,33.23612076649189],[-87.50626126352428,33.23596301891303],[-87.50634835276432,33.23581171876106],[-87.50645319611563,33.235668373750784],[-87.50657474872354,33.23553441231657],[-87.5122447826368,33.2298944803836],[-87.51237805996071,33.22977429332161],[-87.5125247787919,33.22966540961292],[-87.51268355215694,33.22956885853168],[-87.512852879149,33.229485552769],[-87.51303115911516,33.22941627980649],[-87.5132167067858,33.22936169447329],[-87.51340776820317,33.22932231275709],[-87.51360253729877,33.22929850692725],[-87.51379917296283,33.22929050201641],[-87.51399581644469,33.22929837369364],[-87.51419060891976,33.22932204754934],[-87.51438170905733,33.22936129979834],[-87.51456731042295,33.22941575939516],[-87.51474565855139,33.22948491154067],[-87.51491506752883,33.22956810254779],[-87.51507393592746,33.22966454601975],[-87.51522076194226,33.22977333028267],[-87.51535415758676,33.229893427002445],[-87.51547286181365,33.23002370090439],[-87.51557575243632,33.230162920503595],[-87.51566185673853,33.23030976974526],[-87.51573036067177,33.23046286044414],[-87.51578061655367,33.23062074540649],[-87.51581214919406,33.230781932109686],[-87.51582466039103,33.230944896810854],[-87.5158180317542,33.23110809895085],[-87.5152281825529,33.23703810814054]]]},"properties":{"fire_id":"F2977","date":"2026-09-23","area_ha":63.4,"cumulative_ha":173.8,"frp_sum":3.2,"n_detections":3,"first_seen":"2026-09-13","last_seen":"2026-09-23","centroid":[-87.51173,33.2346],"history":[{"date":"2026-09-13","area_ha":90.3},{"date":"2026-09-14","area_ha":88.1},{"date":"2026-09-15","area_ha":38.3},{"date":"2026-09-16","area_ha":81.3},{"date":"2026-09-17","area_ha":106.5},{"date":"2026-09-18","area_ha":132.6},{"date":"2026-09-19","area_ha":86.7},{"date":"2026-09-20","area_ha":85.8},{"date":"2026-09-21","area_ha":101.7},{"date":"2026-09-23","area_ha":63.4}],"track":[[-87.51124389343846,33.234035544574304],[-87.51042781645938,33.233541951513295],[-87.50823072443751,33.23658098961309],[-87.51112733243865,33.233324409384764],[-87.51157046136966,33.23336463407942],[-87.51110412265349,33.23422470174797],[-87.51005901222891,33.23230736183684],[-87.51042964205945,33.2331009381946],[-87.5104238834499,33.23367187639867],[-87.51173115142447,33.23459671820179]],"growth_24h_ha":-19.2,"speed_km_day":0.08,"bearing_deg":305.35,"direction":"NW"}},{"type":"Feature","geometry":{"type":"Polygon","coordinates":[[[-90.96896262248562,27.29369443783505],[-90.96908196153595,27.293570937230747],[-90.96921390656834,27.293458381627282],[-90.96935723275935,27.293357815830127],[-90.96951060965468,27.29327017334586],[-90.96967261351863,27.293196267717832],[-90.96984174054894,27.293136784975243],[-90.97001642083421,27.293092277265842],[-90.9701950329244,27.293063157731304],[-90.97037591887943,27.293049696672654],[-90.97055739965616,27.293052019041635],[-90.97747726328389,27.29344201320405],[-90.97766389156028,27.293460996274373],[-90.97784749952008,27.293496667314567],[-90.97802626231496,27.29354867179219],[-90.97819840324354,27.29361649283708],[-90.97836221140712,27.293699456377865],[-90.97851605871197,27.29379673784072],[-90.97865841604927,27.29390737034379],[-90.97878786849202,27.294030254306104],[-90.97890312935787,27.294164168375104],[-90.97900305299815,27.29430778156477],[-90.97908664618608,27.294459666483224],[-90.97915307799052,27.294618313518857],[-90.9792016880378,27.29478214584368],[-90.97923199307854,27.29494953508505],[-90.97924369179475,27.29511881750998],[-90.97923666779876,27.295288310561006],[-90.97921099079456,27.295456329579736],[-90.97916691588922,27.295621204551246],[-90.97910488106159,27.29578129670357],[-90.97902550281292,27.29593501479665],[-90.97892957004262,27.296080830939218],[-90.97881803621,27.29621729577629],[-90.97775804278145,27.297387306888595],[-90.97763950606041,27.29750625830273],[-90.97750911719345,27.297614625398523],[-90.97736802983997,27.297711449336386],[-90.97721749233436,27.297795873409072],[-90.97705883664017,27.297867150622743],[-90.97689346656372,27.297924650307127],[-90.9767228453316,27.297967863696538],[-90.9765484826418,27.297996408432013],[-90.97637192130361,27.298010031944933],[-90.97619472358402,27.29800861369213],[-90.96927458704921,27.297658608450593],[-90.96908867532538,27.29764080878373],[-90.96890563278342,27.297606455950252],[-90.9687272621567,27.297555888277426],[-90.96855532015832,27.297489603785372],[-90.96839150017699,27.29740825528168],[-90.96823741559761,27.297312643931438],[-90.96809458390979,27.29720371136585],[-90.96796441176201,27.297082530407682],[-90.9678481811079,27.29695029450437],[-90.96774703658157,27.296808305973368],[-90.96766197422592,27.29665796317522],[-90.96759383168535,27.296500746740993],[-90.96754327995886,27.2963382049896],[-90.9675108167952,27.296171938678565],[-90.9674967617946,27.29600358523898],[-90.96750125326528,27.295834802649065],[-90.96752424686562,27.295667253106064],[-90.9675655160451,27.295502586656646],[-90.96762465427962,27.295342424947385],[-90.96770107907884,27.295188345255053],[-90.96779403772604,27.29504186495436],[-90.96790261469393,27.29490442657548],[-90.96896262248562,27.29369443783505]]]},"properties":{"fire_id":"F4238","date":"2026-09-23","area_ha":52.7,"cumulative_ha":52.7,"frp_sum":44.6,"n_detections":4,"first_seen":"2026-09-23","last_seen":"2026-09-23","centroid":[-90.97336,27.29554],"history":[{"date":"2026-09-23","area_ha":52.7}],"track":[[-90.97336167904847,27.295539608508967]],"growth_24h_ha":null,"speed_km_day":null,"bearing_deg":null,"direction":null}},{"type":"Feature","geometry":{"type":"Polygon","coordinates":[[[-90.18053037208009,27.363894890929227],[-90.18059932087927,27.36373477442958],[-90.180685817674,27.36358174824124],[-90.18078898025543,27.363437372976563],[-90.18090775646795,27.36330312101717],[-90.1810409349417,27.363180361499154],[-90.18118715744778,27.36307034635152],[-90.1813449327502,27.362974197529795],[-90.18151265181365,27.362892895575463],[-90.18168860421143,27.36282726961726],[-90.1818709955668,27.362777988916584],[-90.18205796584964,27.36274555604318],[-90.18224760834224,27.362730301750567],[-90.18243798908054,27.362732381603344],[-90.18862786700139,27.363082376349826],[-90.18880694985339,27.363100279765945],[-90.18898332069968,27.363133524493396],[-90.1891553687624,27.36318180690773],[-90.18932152273642,27.36324468604485],[-90.18948026513783,27.363321587627613],[-90.18963014616108,27.36341180931017],[-90.18976979691885,27.36351452709171],[-90.18989794194322,27.363628802841358],[-90.1900134108343,27.363753592865223],[-90.19011514894999,27.363887757437695],[-90.19020222703907,27.36403007120986],[-90.19027384972969,27.36417923439998],[-90.1903293627958,27.364333884663868],[-90.19036825913477,27.36449260953683],[-90.19039018340197,27.36465395933368],[-90.19039493525945,27.364816460388663],[-90.19038247120913,27.364978628514862],[-90.1903529049937,27.365138982559692],[-90.19030650656123,27.36529605793322],[-90.18994652576747,27.366316062587778],[-90.18988404817048,27.366467725314774],[-90.18980587996039,27.366613346264835],[-90.18971272836967,27.36675160778512],[-90.1896054362208,27.366881258809954],[-90.18948497430162,27.36700112618197],[-90.18935243258251,27.367110125268404],[-90.18920901035409,27.3672072697763],[-90.18905600537549,27.367291680678115],[-90.18889480213073,27.367362594166458],[-90.1887268592999,27.367419368566523],[-90.1885536965584,27.367461490142883],[-90.18837688082372,27.367488577748905],[-90.18819801207457,27.36750038627605],[-90.18801870887035,27.36749680887198],[-90.18182858695896,27.36710680302011],[-90.1816491966579,27.367087669380023],[-90.18147265948761,27.367053135611094],[-90.181300596029,27.36700351872381],[-90.18113458578793,27.366939274187025],[-90.18097615269348,27.36686099174635],[-90.1808267511069,27.366769390009804],[-90.18068775246958,27.36666530985041],[-90.18056043271277,27.366549706686452],[-90.18044596054483,27.36642364171017],[-90.18034538672326,27.366288272145436],[-90.18025963441015,27.36614484062412],[-90.18018949069958,27.365994663778313],[-90.18013559939455,27.36583912015367],[-90.18009845509992,27.365679637554233],[-90.18007839868517,27.36551767993557],[-90.1800756141587,27.36535473396619],[-90.18009012698234,27.36519229538055],[-90.18012180384123,27.365031855249267],[-90.18017035387108,27.364874886292284],[-90.18053037208009,27.363894890929227]]]},"properties":{"fire_id":"F4239","date":"2026-09-23","area_ha":45.4,"cumulative_ha":45.4,"frp_sum":28.2,"n_detections":4,"first_seen":"2026-09-23","last_seen":"2026-09-23","centroid":[-90.18524,27.36511],"history":[{"date":"2026-09-23","area_ha":45.4}],"track":[[-90.18524498139385,27.365105826997162]],"growth_24h_ha":null,"speed_km_day":null,"bearing_deg":null,"direction":null}},{"type":"Feature","geometry":{"type":"Polygon","coordinates":[[[-90.40658334426536,29.997093239640883],[-90.40677322458421,29.997111021650404],[-90.40696018247213,29.9971448896918],[-90.40714241605258,29.99719451734635],[-90.4073181689731,29.997259426304336],[-90.40748574733034,29.99733899097429],[-90.40764353599349,29.997432444511578],[-90.40779001416932,29.99753888620829],[-90.40792377005872,29.997657290173226],[-90.40804351446332,29.997786515218426],[-90.40814809321152,29.997925315856776],[-90.4082364982838,29.99807235430516],[-90.40830787753009,29.99822621337709],[-90.40836154288577,29.998385410140934],[-90.40839697700648,29.998548410212017],[-90.40841383825831,29.998713642540764],[-90.40841196401455,29.998879514554666],[-90.40795212275361,30.00564952120772],[-90.40793168537566,30.005813569509268],[-90.40789291996688,30.005975104140138],[-90.4078361961464,30.006132584466446],[-90.40776205482017,30.006284508515197],[-90.40767120302557,30.0064294272998],[-90.40756450719114,30.006565958640927],[-90.40744298487535,30.006692800349974],[-90.40730779506332,30.006808742649987],[-90.40716022711388,30.006912679715267],[-90.40700168846246,30.00700362021948],[-90.40683369119694,30.00708069679183],[-90.40665783763453,30.00714317429088],[-90.40647580503767,30.007190456817103],[-90.40628932961414,30.007222093397242],[-90.40610018995478,30.007237782286253],[-90.40591019006636,30.007237373845673],[-90.40572114216207,30.007220871971214],[-90.40553484937334,30.007188434055408],[-90.40535308854871,30.007140369486333],[-90.40517759330342,30.00707713669613],[-90.40501003748166,30.006999338788226],[-90.40485201918956,30.006907717783854],[-90.3974219640334,30.002127653694046],[-90.39727331417812,30.002021739893337],[-90.39713742855302,30.00190359903057],[-90.397015634483,30.001774385141275],[-90.3969091216246,30.001635360421048],[-90.39681893034658,30.001487882894914],[-90.3967459415692,30.00133339315075],[-90.39669086816197,30.001173400266293],[-90.39665424798362,30.00100946706755],[-90.39663643863197,30.000843194862195],[-90.3966376139552,30.000676207797518],[-90.39665776235796,30.000510136995565],[-90.39669668691923,30.00034660462035],[-90.39675400732015,30.000187208033065],[-90.39774405209556,29.997847221497913],[-90.397818661839,29.997694489898656],[-90.3979101574785,29.997548850091405],[-90.39801765675513,29.997411706297008],[-90.39814012312304,29.99728438081441],[-90.39827637574545,29.99716810127257],[-90.39842510088096,29.99706398879526],[-90.39858486455053,29.996973047192665],[-90.39875412636295,29.996896153284258],[-90.3989312543655,29.996834048445862],[-90.39911454077675,29.996787331462684],[-90.39930221844982,29.996756452756845],[-90.3994924779074,29.996741710045207],[-90.39968348478479,29.99674324546954],[-90.40658334426536,29.997093239640883]]]},"properties":{"fire_id":"F2218","date":"2026-09-23","area_ha":96.4,"cumulative_ha":243.3,"frp_sum":10.2,"n_detections":4,"first_seen":"2026-09-06","last_seen":"2026-09-23","centroid":[-90.40324,30.00126],"history":[{"date":"2026-09-06","area_ha":65.6},{"date":"2026-09-07","area_ha":63.1},{"date":"2026-09-09","area_ha":48.4},{"date":"2026-09-10","area_ha":66.5},{"date":"2026-09-11","area_ha":104.3},{"date":"2026-09-12","area_ha":86.2},{"date":"2026-09-13","area_ha":53.3},{"date":"2026-09-14","area_ha":102.2},{"date":"2026-09-15","area_ha":69.9},{"date":"2026-09-16","area_ha":54.5},{"date":"2026-09-17","area_ha":94.8},{"date":"2026-09-18","area_ha":72.3},{"date":"2026-09-19","area_ha":147.9},{"date":"2026-09-20","area_ha":113.3},{"date":"2026-09-21","area_ha":153.3},{"date":"2026-09-22","area_ha":112.2},{"date":"2026-09-23","area_ha":96.4}],"track":[[-90.3991703831795,29.99995949120795],[-90.39953491394012,29.99907025619848],[-90.40208062373306,30.00084952348504],[-90.39814968594277,30.000373098343605],[-90.39853605273315,29.998147154535346],[-90.4004153239306,29.998678170503428],[-90.39911023261851,29.99883795528541],[-90.39782693014594,29.999223633572637],[-90.39913987257826,29.99906770996423],[-90.40160550186154,29.99957747854338],[-90.40017881573371,29.99988839919066],[-90.40032904593771,29.99983491359492],[-90.40033744123525,29.99806558750963],[-90.40005546793168,29.998294580529535],[-90.39725421317205,29.998774891353257],[-90.39861649686632,29.99830992757744],[-90.40324365857745,30.001259449623554]],"growth_24h_ha":-15.75,"speed_km_day":0.55,"bearing_deg":302.9,"direction":"WNW"}}]}