{"type":"FeatureCollection","features":[{"type":"Feature","geometry":{"type":"Polygon","coordinates":[[[-84.40097924305378,46.519590504007056],[-84.40093256657394,46.519752535487086],[-84.40086335211154,46.51991063185373],[-84.40077225978938,46.520063284915906],[-84.40066015845431,46.52020903839777],[-84.40052811739362,46.520346501832655],[-84.4003773961383,46.520474363829635],[-84.40020943245032,46.520591404585886],[-84.40002582860862,46.52069650752571],[-84.39982833612409,46.52078866995514],[-84.39961883903007,46.520867012629026],[-84.39939933590709,46.520930788141825],[-84.399171920814,46.520979388059374],[-84.39893876330707,46.521012348724874],[-84.39870208773824,46.5210293556839],[-84.39846415202997,46.52103024668467],[-84.39822722612934,46.52101501322684],[-84.39799357034755,46.52098380064227],[-84.39776541379125,46.520936906708386],[-84.3975449330919,46.52087477880647],[-84.39733423163653,46.520798009652324],[-84.39713531949775,46.520707331640196],[-84.39695009425498,46.52060360985389],[-84.39678032289012,46.520487833811885],[-84.39073034105618,46.51593773892406],[-84.39057653865757,46.515809973498264],[-84.39044156852991,46.5156723249362],[-84.39032673841723,46.51552612706889],[-84.39023316088331,46.51537279656043],[-84.39016174253517,46.51521381917824],[-84.39011317524307,46.51505073539477],[-84.39008792944234,46.51488512545928],[-84.39008624958124,46.51471859408441],[-84.39010815175914,46.51455275489681],[-84.39015342357736,46.51438921480173],[-84.39022162620402,46.514229558413],[-84.39031209863256,46.51407533269974],[-84.39042396409235,46.51392803199868],[-84.39055613854924,46.5137890835365],[-84.39070734121326,46.513659833602745],[-84.39087610695174,46.51354153450767],[-84.39106080048725,46.51343533245027],[-84.39125963224296,46.513342256415434],[-84.39147067568155,46.513263208205835],[-84.39169188597012,46.51319895370662],[-84.3919211197901,46.51315011546674],[-84.39215615610027,46.51311716666856],[-84.39239471765217,46.5131004265448],[-84.39263449304943,46.51310005728597],[-84.39287315913754,46.513116062469734],[-84.39975298839732,46.51381604118268],[-84.39998799906745,46.51384821258505],[-84.40021732438434,46.51389625916738],[-84.40043874698817,46.51395971637446],[-84.4006501259139,46.51403797064585],[-84.40084941728902,46.514130265347525],[-84.40103469409337,46.51423570808526],[-84.40120416479023,46.514353279331395],[-84.40135619064856,46.51448184228094],[-84.40148930158901,46.51462015384081],[-84.40160221040063,46.51476687664754],[-84.40169382519022,46.51492059199662],[-84.40176325994462,46.51507981355852],[-84.40180984310281,46.51524300174911],[-84.40183312405567,46.515408578615194],[-84.40183287750926,46.515574943092105],[-84.40180910567035,46.51574048648466],[-84.40097924305378,46.519590504007056]]]},"properties":{"fire_id":"F1955","date":"2026-09-04","area_ha":53.6,"cumulative_ha":53.6,"frp_sum":7.0,"n_detections":3,"first_seen":"2026-09-04","last_seen":"2026-09-04","centroid":[-84.3966,46.51655],"history":[{"date":"2026-09-04","area_ha":53.6}],"track":[[-84.39659668060943,46.516546888111215]],"growth_24h_ha":null,"speed_km_day":null,"bearing_deg":null,"direction":null}},{"type":"Feature","geometry":{"type":"Polygon","coordinates":[[[-84.92566296457045,41.37138289183478],[-84.92561862425899,41.371544450366585],[-84.92555308032364,41.37170199390983],[-84.92546696762349,41.37185399615881],[-84.9253611203058,41.37199898448233],[-84.92523656372894,41.372135554192134],[-84.92509450453213,41.37226238215355],[-84.92493631894764,41.37237823960599],[-84.92476353946914,41.37248200406941],[-84.92457784000484,41.37257267022125],[-84.92438101965968,41.37264935963799],[-84.92417498530321,41.372711329307805],[-84.92396173309275,41.37275797883027],[-84.92374332913043,41.372788856235],[-84.92352188944197,41.37280366236149],[-84.92329955947127,41.37280225375803],[-84.92307849328972,41.372784644072205],[-84.91725836002941,41.37210462703797],[-84.9170432476169,41.37207146702031],[-84.91683349736971,41.37202296666202],[-84.91663109376455,41.37195958483694],[-84.91643795175634,41.371881921214694],[-84.91625589865761,41.37179071058572],[-84.91608665684815,41.37168681590804],[-84.91593182747822,41.3715712201411],[-84.9157928753198,41.37144501694431],[-84.91567111490889,41.37130940032798],[-84.91556769811056,41.371165653355604],[-84.91548360322375,41.37101513600275],[-84.91541962572902,41.37085927228963],[-84.9153763707669,41.370699536807074],[-84.91535424741755,41.37053744076521],[-84.91535346483572,41.37037451769544],[-84.9153740302775,41.370212308942094],[-84.91541574903727,41.370052349080325],[-84.91547822629515,41.36989615139859],[-84.91556087085743,41.36974519358307],[-84.91566290075428,41.36960090373891],[-84.91578335064156,41.36946464688113],[-84.91592108093673,41.369337712022805],[-84.91607478860209,41.369221299982],[-84.91624301947361,41.36911651202384],[-84.91642418201809,41.3690243394438],[-84.92300409956009,41.36601440440012],[-84.92319974021518,41.365934522044626],[-84.92340506184244,41.365869358192505],[-84.92361805715649,41.3658195498946],[-84.92383664386769,41.36578558408256],[-84.92405868503529,41.36576779280922],[-84.92428200995442,41.365766350003575],[-84.9245044353728,41.36578126977073],[-84.92472378682982,41.36581240625369],[-84.92493791991005,41.36585945505936],[-84.92514474120317,41.36592195623344],[-84.92534222876566,41.36599929875631],[-84.9255284518848,41.36609072651455],[-84.92570158995143,41.36619534569207],[-84.9258599502573,41.366312133506135],[-84.92600198454329,41.366439948204764],[-84.92612630413629,41.36657754022697],[-84.92623169352719,41.36672356441713],[-84.92631712225705,41.366876593174275],[-84.92638175499503,41.36703513040728],[-84.92642495970952,41.367197626160234],[-84.92644631385244,41.367362491764936],[-84.92644560849607,41.36752811537193],[-84.92642285038154,41.36769287770867],[-84.92566296457045,41.37138289183478]]]},"properties":{"fire_id":"F0049","date":"2026-09-04","area_ha":50.3,"cumulative_ha":190.8,"frp_sum":6.6,"n_detections":3,"first_seen":"2026-08-23","last_seen":"2026-09-04","centroid":[-84.92158,41.36961],"history":[{"date":"2026-08-23","area_ha":89.2},{"date":"2026-08-24","area_ha":53.0},{"date":"2026-08-25","area_ha":100.2},{"date":"2026-08-26","area_ha":125.3},{"date":"2026-08-28","area_ha":114.3},{"date":"2026-08-29","area_ha":49.7},{"date":"2026-09-01","area_ha":111.7},{"date":"2026-09-02","area_ha":92.6},{"date":"2026-09-03","area_ha":71.0},{"date":"2026-09-04","area_ha":50.3}],"track":[[-84.92119471379407,41.3685621093599],[-84.91944720539281,41.368489229996754],[-84.92052138591339,41.36847309619583],[-84.91930456301827,41.36877330366284],[-84.92333716278411,41.36873389103331],[-84.91737662667303,41.36817961806854],[-84.9203159155345,41.36840307233294],[-84.9226149474121,41.36875422305177],[-84.91836742898221,41.36844568266199],[-84.9215765280076,41.3696109134666]],"growth_24h_ha":-20.68,"speed_km_day":0.3,"bearing_deg":289.41,"direction":"WNW"}},{"type":"Feature","geometry":{"type":"Polygon","coordinates":[[[-81.67508639098301,41.46616753104493],[-81.66810961040439,41.475126956811366],[-81.66798863614233,41.47526595047106],[-81.66784974572866,41.4753954346177],[-81.66769429245679,41.47551414751657],[-81.66752379103649,41.47562093238496],[-81.66733990283501,41.4757147486658],[-81.66714441968787,41.47579468216949],[-81.66693924643744,41.47585995398351],[-81.66672638236912,41.47590992806404],[-81.66650790172652,41.475944117435574],[-81.66628593349535,41.47596218893698],[-81.66606264065346,41.47596396646876],[-81.66584019908915,41.475949432709626],[-81.66562077639364,41.47591872928517],[-81.66540651073444,41.47587215538747],[-81.66519949001578,41.47581016485916],[-81.66500173152926,41.47573336176964],[-81.66481516229335,41.47564249452768],[-81.66464160027338,41.47553844858694],[-81.6644827366652,41.475422237816225],[-81.66434011941503,41.475294994617954],[-81.66421513813656,41.47515795889185],[-81.66410901057176,41.475012465951465],[-81.66402277072774,41.474859933510366],[-81.66395725880469,41.47470184786667],[-81.6639131130134,41.47453974941867],[-81.66389076336154,41.47437521765431],[-81.6638904274694,41.47420985575989],[-81.66391210845514,41.4740452749983],[-81.66395559491059,41.47388307900927],[-81.66402046296696,41.47372484818387],[-81.66410608043057,41.473572124266795],[-81.67208063059678,41.46111865384309],[-81.67286682806694,41.45800232428349],[-81.67286864001392,41.45799522656464],[-81.67372817260066,41.45466744417739],[-81.67457771360212,41.45132966273157],[-81.67462859650726,41.45117204874513],[-81.6746998007692,41.451018814392015],[-81.67479065988586,41.450871393728605],[-81.6749003234283,41.45073116639384],[-81.67502776500352,41.45059944469928],[-81.67517179186277,41.45047746134915],[-81.6753310560661,41.45036635790579],[-81.67550406709826,41.45026717410816],[-81.67568920581772,41.4501808381432],[-81.67588473960863,41.450108157961175],[-81.67608883859364,41.4500498137161],[-81.67629959275618,41.45000635140223],[-81.67651502981188,41.44997817774557],[-81.67673313366221,41.449965556398325],[-81.67695186325764,41.449968605472414],[-81.67716917169403,41.44998729643429],[-81.67738302536387,41.45002145437185],[-81.67759142298313,41.450070759631195],[-81.67779241431583,41.450134750806924],[-81.67798411842175,41.4502128290593],[-81.6781647412558,41.45030426371717],[-81.6783325924554,41.45040819911429],[-81.67848610115827,41.450523662595366],[-81.67862383070282,41.45064957361669],[-81.67874449207373,41.4507847538569],[-81.67884695596672,41.450927938242245],[-81.67893026335962,41.45107778678455],[-81.67899363449074,41.45123289711975],[-81.67903647616033,41.451391817630956],[-81.68119680789137,41.46207177737754],[-81.68121857479346,41.46223087667021],[-81.68121976027287,41.462390788312796],[-81.6812003533869,41.462550055094226],[-81.68116053084522,41.46270722566932],[-81.68110065540455,41.4628608677846],[-81.68102127256778,41.4630095813305],[-81.68092310561727,41.46315201110138],[-81.68080704902766,41.463286859146066],[-81.68067416031776,41.4634128965974],[-81.68052565041606,41.46352897487199],[-81.68036287262713,41.46363403613912],[-81.68018731029981,41.46372712296207],[-81.67508639098301,41.46616753104493]]]},"properties":{"fire_id":"F0192","date":"2026-09-04","area_ha":155.1,"cumulative_ha":352.2,"frp_sum":10.5,"n_detections":7,"first_seen":"2026-08-23","last_seen":"2026-09-04","centroid":[-81.6738,41.46275],"history":[{"date":"2026-08-23","area_ha":96.7},{"date":"2026-08-24","area_ha":132.9},{"date":"2026-08-26","area_ha":242.5},{"date":"2026-08-27","area_ha":265.4},{"date":"2026-08-29","area_ha":257.2},{"date":"2026-09-01","area_ha":86.0},{"date":"2026-09-02","area_ha":132.8},{"date":"2026-09-04","area_ha":155.1}],"track":[[-81.67595973692883,41.45810494620599],[-81.67263683471815,41.46423261584651],[-81.67316796536748,41.46218879924294],[-81.6720864388897,41.46312416174851],[-81.67425426756567,41.46227732072986],[-81.67633138427024,41.45878204913593],[-81.67798916257665,41.457747882990525],[-81.67380292787227,41.46274701695512]],"growth_24h_ha":11.11,"speed_km_day":0.33,"bearing_deg":23.17,"direction":"NNE"}},{"type":"Feature","geometry":{"type":"Polygon","coordinates":[[[-83.36694050453049,41.46977863958413],[-83.36689293653907,41.4699390776744],[-83.3668243802938,41.470095294423686],[-83.3667354948066,41.4702457878495],[-83.3666271345649,41.47038911098727],[-83.36650034131989,41.470523885804326],[-83.36635633407386,41.47064881645068],[-83.3661964973619,41.47076270172031],[-83.36602236794133,41.47086444660232],[-83.36583562001624,41.47095307281125],[-83.36563804913953,41.47102772819509],[-83.3654315549471,41.4710876949304],[-83.36521812289033,41.47113239642567],[-83.36499980514276,41.47116140286666],[-83.36477870086442,41.47117443534967],[-83.36455693601403,41.4711713685644],[-83.36433664290318,41.47115223199863],[-83.3641199396894,41.471117209654935],[-83.36390891000543,41.471066638281044],[-83.3637055829209,41.47100100413097],[-83.36351191342902,41.47092093828884],[-83.36332976364636,41.470827210599374],[-83.3631608849065,41.47072072226465],[-83.36300690091969,41.4706024971769],[-83.36286929216087,41.47047367207223],[-83.36274938163575,41.470335485599136],[-83.3626483221621,41.47018926640729],[-83.36256708528848,41.47003642037107],[-83.36250645195656,41.46987841707097],[-83.36246700499711,41.46971677566257],[-83.36244912353123,41.46955305026967],[-83.36245297933081,41.46938881504113],[-83.36247853517271,41.469225649015854],[-83.36325864246321,41.46574566351912],[-83.36326011395417,41.465739177841556],[-83.36486032837287,41.45876920756859],[-83.3649082008918,41.458608751895866],[-83.36497706747255,41.45845254232666],[-83.36506626532095,41.45830208195874],[-83.36517493602423,41.458158818559326],[-83.36530203381496,41.4580241306352],[-83.36544633563706,41.45789931417031],[-83.36560645291672,41.45778557015713],[-83.36578084492491,41.45768399304213],[-83.36596783360284,41.45759556019719],[-83.3661656197078,41.45752112251662],[-83.366372300124,41.45746139623169],[-83.36658588617189,41.457416956020424],[-83.36680432274018,41.457388229479434],[-83.36702550805609,41.457375493010275],[-83.36724731390433,41.45737886916104],[-83.36746760610025,41.457398325447016],[-83.36768426502026,41.45743367466328],[-83.3678952059923,41.45748457668581],[-83.36809839935046,41.457550541743146],[-83.3682918899608,41.45763093512771],[-83.36847381603071,41.45772498330215],[-83.36864242702114,41.45783178134013],[-83.36879610048919,41.45795030163233],[-83.36893335769918,41.458079403772295],[-83.36905287785214,41.458217845527436],[-83.36915351079666,41.45836429479061],[-83.3692342880986,41.45851734239604],[-83.36929443236339,41.45867551567736],[-83.36933336472084,41.45883729263678],[-83.36935071040028,41.45900111658927],[-83.36934630234227,41.4591654111413],[-83.36932018281189,41.459328595359054],[-83.36694050453049,41.46977863958413]]]},"properties":{"fire_id":"F1683","date":"2026-09-04","area_ha":55.6,"cumulative_ha":94.5,"frp_sum":3.9,"n_detections":3,"first_seen":"2026-09-01","last_seen":"2026-09-04","centroid":[-83.3659,41.46428],"history":[{"date":"2026-09-01","area_ha":52.7},{"date":"2026-09-02","area_ha":56.4},{"date":"2026-09-04","area_ha":55.6}],"track":[[-83.36640021466492,41.46545476078498],[-83.36888463076917,41.46660885569939],[-83.365897473397,41.46427532869756]],"growth_24h_ha":-0.41,"speed_km_day":0.18,"bearing_deg":128.91,"direction":"SE"}},{"type":"Feature","geometry":{"type":"Polygon","coordinates":[[[-84.05616553719425,41.57117059091772],[-84.05611811249055,41.571333565982115],[-84.05604902281297,41.571492248478],[-84.0559589520917,41.57164506724792],[-84.05584879201177,41.571790509182016],[-84.05571963318883,41.571927134201154],[-84.0555727543741,41.57205358951747],[-84.05540960979562,41.57216862303035],[-84.05523181476087,41.57227109572637],[-84.0550411296632,41.572359992958795],[-84.05483944255057,41.57243443449649],[-84.0546287504293,41.572493683240985],[-84.05441113948781,41.57253715252658],[-84.05418876443649,41.572564411930834],[-84.0539638271685,41.572575191537126],[-84.05373855495273,41.572569384608116],[-84.05351517837533,41.57254704864278],[-84.0532959092484,41.572508404806925],[-84.05308291870459,41.57245383574285],[-84.05287831569518,41.57238388177971],[-84.0526841261043,41.57229923558187],[-84.04260401248132,41.567389130839075],[-84.04242613986689,41.56729298593431],[-84.04226173706174,41.56718451523021],[-84.04211235925773,41.56706474486817],[-84.04197941948829,41.56693480787942],[-84.04186417526223,41.5667959334648],[-84.04176771666981,41.56664943536475],[-84.04169095607348,41.56649669943043],[-84.04163461948089,41.566339170511846],[-84.0415992396813,41.566178338789356],[-84.0415851512107,41.5660157256758],[-84.04159248719235,41.56585286942391],[-84.0416211780832,41.56569131057517],[-84.04167095233728,41.5655325773868],[-84.04174133897979,41.565378171375976],[-84.04183167206736,41.56522955311705],[-84.04194109699203,41.56508812842643],[-84.04206857856913,41.564955235066],[-84.04221291083252,41.5648321300904],[-84.04237272844429,41.564719977957935],[-84.0425465196111,41.564619839517604],[-84.04273264038466,41.56453266197586],[-84.04292933021141,41.56445926993919],[-84.04313472858412,41.564400357615234],[-84.04334689263816,41.56435648224783],[-84.04356381552591,41.56432805884736],[-84.04378344539587,41.56431535626585],[-84.04400370479696,41.56431849465478],[-84.0442225103247,41.56433744432869],[-84.05509226186604,41.565677410571034],[-84.05530907746727,41.56571227732067],[-84.05552024102113,41.565762666418784],[-84.05572372645096,41.56582809439688],[-84.05591758133524,41.56590793349089],[-84.05609994563778,41.56600141766352],[-84.05626906955263,41.56610764995253],[-84.05642333029202,41.56622561107548],[-84.05656124765677,41.566354169207784],[-84.05668149823957,41.56649209084068],[-84.05678292812495,41.56663805261509],[-84.05686456396394,41.56679065401754],[-84.05692562231714,41.56694843081711],[-84.05696551717635,41.567109869113374],[-84.05698386559251,41.56727341986193],[-84.05698049135567,41.56743751373705],[-84.05695542669146,41.56760057618991],[-84.05616553719425,41.57117059091772]]]},"properties":{"fire_id":"F1550","date":"2026-09-04","area_ha":72.9,"cumulative_ha":137.0,"frp_sum":6.0,"n_detections":3,"first_seen":"2026-09-01","last_seen":"2026-09-04","centroid":[-84.05017,41.56792],"history":[{"date":"2026-09-01","area_ha":108.3},{"date":"2026-09-02","area_ha":39.6},{"date":"2026-09-03","area_ha":108.5},{"date":"2026-09-04","area_ha":72.9}],"track":[[-84.04842532568767,41.567490691801225],[-84.04766197262,41.567666597390954],[-84.0489980571958,41.567426917787344],[-84.0501714518383,41.56791662216844]],"growth_24h_ha":-35.62,"speed_km_day":0.11,"bearing_deg":292.23,"direction":"WNW"}},{"type":"Feature","geometry":{"type":"Polygon","coordinates":[[[-87.14349218629103,41.63513394106755],[-87.14447826702686,41.637042357978935],[-87.14454660537504,41.63719666671793],[-87.14459441111758,41.63735513868443],[-87.14462123520859,41.637516285795584],[-87.14462682561776,41.63767859483768],[-87.14461112970235,41.63784054167455],[-87.14457429470696,41.63800060556023],[-87.14451666638635,41.63815728341931],[-87.14443878576391,41.638309103961944],[-87.14434138405596,41.63845464150131],[-87.14422537580953,41.638592529342404],[-87.14409185031776,41.6387214726176],[-87.14394206139353,41.63884026044788],[-87.14377741559714,41.63894777731557],[-87.14359945902858,41.639043013541716],[-87.14340986280847,41.639125074769154],[-87.1432104073839,41.63919319036327],[-87.14300296580674,41.6392467206503],[-87.14278948614144,41.639285162925646],[-87.14257197316769,41.63930815617611],[-87.14235246954993,41.63931548447057],[-87.14213303665079,41.63930707898842],[-87.14191573516862,41.63928301866627],[-87.14170260578136,41.63924352945605],[-87.14149564997854,41.639188982202796],[-87.14129681126178,41.639119889161364],[-87.14110795689035,41.63903689918459],[-87.14093086034342,41.63894079162878],[-87.14076718466382,41.63883246903333],[-87.14061846683988,41.63871294864344],[-87.14048610337197,41.638583352855676],[-87.13623616929524,41.63397328639604],[-87.13609898140027,41.633803784028316],[-87.1359897388972,41.63362352953129],[-87.13476980044015,41.63124350794636],[-87.1347018171642,41.631088504131],[-87.13465452962781,41.63092935321394],[-87.13462838493116,41.63076756043432],[-87.13462363020066,41.63060465600661],[-87.13464031025705,41.63044218064772],[-87.13467826719709,41.63028167100495],[-87.1347371418926,41.63012464512344],[-87.1348163773922,41.62997258808917],[-87.13491522419372,41.62982693798454],[-87.13503274733694,41.629689072289196],[-87.13516783524959,41.62956029485352],[-87.13531921026278,41.62944182356904],[-87.1429092002509,41.62405192305482],[-87.14307887289996,41.62394285088344],[-87.14326233148029,41.62384673893056],[-87.14345777086224,41.623764532852334],[-87.14366326805667,41.623697041480256],[-87.14387680113352,41.62364492886435],[-87.1440962691128,41.62360870774115],[-87.14431951263276,41.62358873448996],[-87.14454433519181,41.62358520562725],[-87.14476852475546,41.62359815587331],[-87.14498987551592,41.62362745781096],[-87.14520620959057,41.62367282313896],[-87.1454153984459,41.62373380550786],[-87.14561538383647,41.623809804910536],[-87.14580419805287,41.62390007358473],[-87.1459799832799,41.62400372336855],[-87.14614100987441,41.62411973443762],[-87.14628569338312,41.62424696533751],[-87.1464126101331,41.6243841642128],[-87.1465205112413,41.62452998112268],[-87.14660833490554,41.62468298132148],[-87.14667521685558,41.62484165937451],[-87.14672049886175,41.625004453968906],[-87.14674373521675,41.625169763275395],[-87.14674469712698,41.62533596070885],[-87.14672337496984,41.62550141093279],[-87.1466799783947,41.625664485951],[-87.14349218629103,41.63513394106755]]]},"properties":{"fire_id":"F1539","date":"2026-09-04","area_ha":102.1,"cumulative_ha":331.6,"frp_sum":13.2,"n_detections":5,"first_seen":"2026-09-01","last_seen":"2026-09-04","centroid":[-87.14112,41.63118],"history":[{"date":"2026-09-01","area_ha":192.2},{"date":"2026-09-02","area_ha":196.7},{"date":"2026-09-03","area_ha":199.8},{"date":"2026-09-04","area_ha":102.1}],"track":[[-87.13804917967967,41.63788555769867],[-87.13764483915534,41.639019034326544],[-87.13791848272339,41.63567999220314],[-87.14112405097579,41.6311817932008]],"growth_24h_ha":-97.67,"speed_km_day":0.57,"bearing_deg":202.43,"direction":"SSW"}},{"type":"Feature","geometry":{"type":"Polygon","coordinates":[[[-87.43685024886246,41.67295144492993],[-87.45122565652248,41.67042982168672],[-87.45144543306334,41.67039961855972],[-87.45166816708989,41.67038553925367],[-87.45189169575136,41.67038772048457],[-87.45211384848226,41.67040614107155],[-87.45233246807531,41.67044062214326],[-87.4525454316243,41.67049082887397],[-87.45275067113465,41.670556273734206],[-87.45294619360101,41.67063632122382],[-87.45313010035763,41.670730194041774],[-87.45330060551329,41.67083698063256],[-87.45345605329234,41.67095564403631],[-87.45359493411314,41.67108503195639],[-87.45371589924805,41.6712238879471],[-87.45381777392247,41.671370863613205],[-87.45389956872577,41.671524531701934],[-87.45396048922312,41.67168339996127],[-87.4539999436747,41.671845925630194],[-87.4540175487873,41.672010530419],[-87.45401313344222,41.672175615835734],[-87.45398674036284,41.67233957870884],[-87.45393862570586,41.67250082675606],[-87.45386925657942,41.67265779404778],[-87.45377930651249,41.67280895621506],[-87.45366964891886,41.67295284525426],[-87.4535413486195,41.67308806378508],[-87.45339565150489,41.67321329862241],[-87.45323397243813,41.67332733353151],[-87.45305788151582,41.67342906104094],[-87.45286908882048,41.673517493200215],[-87.43612885294203,41.68052764957756],[-87.43585774025111,41.680624202872416],[-87.42489753690747,41.683884280433254],[-87.42469188327958,41.68393712155652],[-87.42448031748661,41.68397516071843],[-87.42426478818159,41.68399804755137],[-87.42404728053171,41.684005571251014],[-87.42382979792998,41.683997662518635],[-87.42361434353867,41.683974394199396],[-87.42340290183482,41.683935980611395],[-87.42319742032824,41.68388277557089],[-87.4229997916202,41.683815269133106],[-87.42281183596835,41.68373408307719],[-87.42263528451882,41.68363996517792],[-87.42247176335965,41.683533782317326],[-87.42232277854289,41.68341651249843],[-87.42218970221312,41.68328923583556],[-87.42207375997025,41.68315312460467],[-87.42197601958318,41.68300943244464],[-87.42189738115779,41.68285948280905],[-87.4218385688501,41.682704656775954],[-87.42180012420071,41.68254638032616],[-87.42178240115162,41.68238611120936],[-87.42099296290472,41.66497609626179],[-87.42099413429862,41.664842290979294],[-87.42100975635421,41.664708981436355],[-87.42172988849393,41.66051899496112],[-87.42176788300404,41.660359817157456],[-87.42182646283499,41.660204084405954],[-87.42190508272688,41.66005324590371],[-87.42200301094651,41.659908705293866],[-87.42211933610082,41.659771807604464],[-87.42225297562142,41.65964382673411],[-87.42240268584109,41.65952595359884],[-87.42256707356864,41.659419285051875],[-87.42274460905402,41.659324813678275],[-87.4229336402233,41.659243418560656],[-87.42313240805092,41.65917585710036],[-87.42333906292619,41.659122757970806],[-87.42355168186216,41.659084615269386],[-87.4237682863863,41.65906178392002],[-87.42398686094714,41.659054476372134],[-87.42420537166554,41.65906276062335],[-87.4244217852563,41.65908655958749],[-87.42463408794426,41.65912565181174],[-87.42484030419902,41.65917967353623],[-87.42503851511424,41.65924812207896],[-87.42522687626051,41.659330360511596],[-87.42540363484584,41.65942562358543],[-87.42556714602433,41.659533024850816],[-87.42571588820125,41.65965156490394],[-87.42584847719212,41.65978014068541],[-87.4302085427612,41.664460072682665],[-87.43030474395177,41.664572651931195],[-87.43685024886246,41.67295144492993]]]},"properties":{"fire_id":"F1700","date":"2026-09-04","area_ha":342.3,"cumulative_ha":410.3,"frp_sum":14.7,"n_detections":7,"first_seen":"2026-09-02","last_seen":"2026-09-04","centroid":[-87.43166,41.67314],"history":[{"date":"2026-09-02","area_ha":115.2},{"date":"2026-09-03","area_ha":196.8},{"date":"2026-09-04","area_ha":342.3}],"track":[[-87.4230337620456,41.67722500022642],[-87.42512735968042,41.67610742885396],[-87.43166213311802,41.673135417938674]],"growth_24h_ha":145.41,"speed_km_day":0.63,"bearing_deg":233.21,"direction":"SW"}},{"type":"Feature","geometry":{"type":"Polygon","coordinates":[[[-80.10118776517508,42.80801080050891],[-80.1002583674706,42.81128905541026],[-80.10020017304652,42.81145234635236],[-80.10011974082819,42.81161056022861],[-80.10001788362108,42.81176209791541],[-80.09989563079927,42.81190542775648],[-80.09975421790568,42.812039101045485],[-80.09959507416747,42.812161766670854],[-80.09941980805233,42.81227218477411],[-80.09923019101211,42.81236923928404],[-80.0936301217957,42.814939297409936],[-80.09343450895463,42.81501965132101],[-80.09322907946402,42.81508577540533],[-80.09301578266033,42.81513704219384],[-80.09279664254977,42.81517296520113],[-80.0925737385987,42.81519320354245],[-80.0923491859971,42.81519756516975],[-80.09212511558279,42.81518600869404],[-80.09190365361708,42.81515864377851],[-80.09168690160362,42.815115730097574],[-80.09147691634274,42.81505767487225],[-80.09127569041027,42.8149850290048],[-80.09108513324647,42.8148984818501],[-80.09090705303458,42.81479885467275],[-80.09074313954127,42.814687092852296],[-80.09059494808159,42.8145642569106],[-80.09046388476085,42.81443151244687],[-80.09035119313359,42.814290119075146],[-80.09025794240566,42.81414141847041],[-80.09018501729214,42.813986821635915],[-80.0901331096263,42.81382779551293],[-80.09010271179976,42.81366584906013],[-80.09009411209568,42.81350251893472],[-80.09010739195897,42.81333935491115],[-80.09014242522925,42.81317790517575],[-80.09202220842461,42.80660941562421],[-80.09295189262566,42.80333090852954],[-80.09301376330131,42.80315918281157],[-80.09310021840123,42.802993175452606],[-80.09321028998741,42.80283474470886],[-80.09334274578661,42.80268566401128],[-80.09349610298977,42.80254760211687],[-80.0960061125615,42.80051763841066],[-80.09616048566971,42.80040414546232],[-80.09632898425747,42.800301846897575],[-80.09651008207378,42.80021166929005],[-80.09670213876895,42.80013442942365],[-80.09690341475117,42.80007082689565],[-80.09711208694115,42.80002143778198],[-80.09732626528209,42.799986709420054],[-80.09754400985594,42.7999669563583],[-80.0977633484505,42.799962357507745],[-80.09798229441903,42.799972954521834],[-80.09819886467012,42.799998651419465],[-80.10285875906442,42.800718632595284],[-80.1030809317915,42.80076147836852],[-80.10329613927738,42.800820209573686],[-80.10350224295694,42.800894242595135],[-80.10369719471291,42.800982841759854],[-80.10387905722564,42.801085126646456],[-80.10404602322289,42.80120008083192],[-80.10419643343852,42.80132656199034],[-80.10432879310156,42.801463313242536],[-80.10444178679194,42.801608975643695],[-80.10453429151504,42.80176210168644],[-80.10460538786516,42.801921169682956],[-80.10465436916697,42.802084598885806],[-80.1046807485034,42.80225076519525],[-80.10468426356063,42.80241801729822],[-80.10466487924134,42.8025846930782],[-80.10462278801994,42.80274913613287],[-80.10455840803631,42.80290971223542],[-80.10447237894658,42.803064825576506],[-80.10436555557182,42.803212934624035],[-80.10423899940777,42.80335256744484],[-80.1040939680796,42.803482336334234],[-80.10200014940031,42.805175791370736],[-80.10118776517508,42.80801080050891]]]},"properties":{"fire_id":"F1835","date":"2026-09-04","area_ha":121.4,"cumulative_ha":192.6,"frp_sum":8.6,"n_detections":8,"first_seen":"2026-09-03","last_seen":"2026-09-04","centroid":[-80.09678,42.80717],"history":[{"date":"2026-09-03","area_ha":181.5},{"date":"2026-09-04","area_ha":121.4}],"track":[[-80.09838484621127,42.807498473060036],[-80.09677700971297,42.80716575206271]],"growth_24h_ha":-60.1,"speed_km_day":0.14,"bearing_deg":96.29,"direction":"E"}},{"type":"Feature","geometry":{"type":"Polygon","coordinates":[[[-79.80803099865071,43.270197778565105],[-79.80707110664687,43.273477781697835],[-79.80701290170042,43.273637456005495],[-79.8069332955267,43.27379222293801],[-79.80683305786728,43.273940585717135],[-79.80671315801177,43.27408110948985],[-79.80657475542765,43.2742124352066],[-79.80641918855002,43.27433329276672],[-79.80624796183939,43.27444251330396],[-79.80606273123256,43.274539040492805],[-79.80586528812756,43.27462194076683],[-79.80565754205712,43.27469041234923],[-79.80544150221878,43.27474379300922],[-79.80521925803998,43.27478156646789],[-79.80499295896657,43.27480336739302],[-79.80476479367012,43.27480898493301],[-79.80453696887548,43.27479836475669],[-79.80431168801363,43.27477160957919],[-79.79962158119609,43.27404159016783],[-79.79940194412256,43.27399916323717],[-79.79918909756184,43.27394140046407],[-79.79898508276746,43.27386885581791],[-79.79879185627637,43.27378222503061],[-79.79861127114259,43.27368233892238],[-79.7984450591643,43.27357015543244],[-79.79829481427474,43.27344675043019],[-79.79816197725663,43.273313307395625],[-79.79804782192606,43.2731711060676],[-79.79795344291911,43.27302151016913],[-79.79787974519746,43.272865954327834],[-79.79782743537427,43.27270593031613],[-79.79779701494256,43.27254297274435],[-79.7977887754717,43.272378644342865],[-79.79780279581703,43.2722145209758],[-79.79783894136987,43.27205217652841],[-79.79879904487069,43.268772195005496],[-79.79885877998959,43.268609055775016],[-79.7989408508653,43.2684510779476],[-79.79904442834388,43.26829985726312],[-79.79916846605136,43.268156921195825],[-79.79931171096773,43.26802371352721],[-79.7994727160872,43.26790157976417],[-79.79964985503646,43.26779175355042],[-79.79984133850367,43.26769534420802],[-79.80549126699495,43.265145403037806],[-79.80568856798395,43.26506572705567],[-79.80589564284992,43.26500030625451],[-79.80611052932377,43.26494976055797],[-79.80633119112868,43.26491456893284],[-79.8065555372725,43.26489506485118],[-79.8067814418579,43.2648914331314],[-79.807006764223,43.26490370818719],[-79.80722936922194,43.264931773701704],[-79.80744714745283,43.264975363729164],[-79.80765803524238,43.2650340652146],[-79.80786003419746,43.26510732190709],[-79.80805123013887,43.26519443962913],[-79.80822981123774,43.26529459285369],[-79.80839408518307,43.26540683252498],[-79.80854249521768,43.265530095050025],[-79.80867363489067,43.265663212375884],[-79.80878626138676,43.26580492305612],[-79.80887930730584,43.2659538842031],[-79.8089518907814,43.266108684211865],[-79.80900332384154,43.26626785613577],[-79.80903311893321,43.26642989158668],[-79.80904099354814,43.26659325502834],[-79.8090268729055,43.26675639832746],[-79.80899089066664,43.26691777542491],[-79.80803099865071,43.270197778565105]]]},"properties":{"fire_id":"F1887","date":"2026-09-04","area_ha":71.2,"cumulative_ha":104.4,"frp_sum":3.8,"n_detections":5,"first_seen":"2026-09-03","last_seen":"2026-09-04","centroid":[-79.80365,43.2701],"history":[{"date":"2026-09-03","area_ha":76.3},{"date":"2026-09-04","area_ha":71.2}],"track":[[-79.80153796737,43.272528320195356],[-79.80365335752981,43.270099108355]],"growth_24h_ha":-5.08,"speed_km_day":0.32,"bearing_deg":202.44,"direction":"SSW"}},{"type":"Feature","geometry":{"type":"Polygon","coordinates":[[[-90.13968776745742,38.690747498923464],[-90.13987603707929,38.69070229287919],[-90.14006885778939,38.69067037772118],[-90.14026464546326,38.69065201564867],[-90.14046179160628,38.69064735751499],[-90.14065867656564,38.69065644158909],[-90.14693853516097,38.69116642992345],[-90.14714988020366,38.69119171357028],[-90.14735697560832,38.69123282525024],[-90.14755782063673,38.69128936778743],[-90.1477504749232,38.691360794928634],[-90.14793307721736,38.691446416620025],[-90.14810386336337,38.69154540567209],[-90.14826118334183,38.69165680574995],[-90.14840351721001,38.69177954061105],[-90.14852948978651,38.69191242450093],[-90.14863788393814,38.69205417360773],[-90.148727652341,38.692203418463535],[-90.14879792760199,38.692358717173775],[-90.14884803064257,38.69251856934667],[-90.14887747726411,38.69268143058785],[-90.14888598283066,38.69284572742073],[-90.14887346502448,38.6930098724882],[-90.14884004464655,38.69317227988863],[-90.14878604445495,38.693331380498584],[-90.14871198605175,38.69348563713344],[-90.1486185848482,38.69363355940014],[-90.1485067431569,38.693773718097894],[-90.14837754147754,38.69390475902833],[-90.14823222805992,38.69402541608083],[-90.1480722068455,38.694134523467355],[-90.14789902390356,38.69423102698752],[-90.14771435249311,38.69431399421628],[-90.13403414977823,38.69978410585469],[-90.13384437148973,38.6998512839236],[-90.13364708663494,38.699904163477356],[-90.1334441136982,38.699942257091635],[-90.13323732360486,38.69996521363291],[-90.13302862247257,38.6999728214955],[-90.13281993403785,38.699965010552745],[-90.13261318192022,38.69994185280326],[-90.13241027188715,38.699903561707394],[-90.1322130742841,38.69985049021895],[-90.13202340679098,38.69978312753139],[-90.12626332167957,38.69747308041345],[-90.12608235743551,38.69739174518118],[-90.12591241382802,38.69729740311385],[-90.12575506778693,38.69719092964978],[-90.12561177932561,38.69707331279552],[-90.12548387799316,38.696945643956106],[-90.1253725505379,38.69680910780622],[-90.12527882989701,38.69666497129605],[-90.12520358561409,38.696514571893374],[-90.12514751577376,38.69635930517211],[-90.12511114052784,38.696200611861414],[-90.12509479727319,38.69603996447661],[-90.12509863752562,38.69587885365508],[-90.1251226255189,38.69571877432426],[-90.1251665385415,38.69556121183109],[-90.12522996900799,38.695407628159366],[-90.12531232824536,38.69525944836547],[-90.1254128519594,38.69511804735615],[-90.12553060732982,38.69498473713254],[-90.12566450166844,38.69486075461772],[-90.12581329256003,38.69474725018125],[-90.12597559939135,38.69464527696686],[-90.12614991616174,38.69455578112252],[-90.12633462545608,38.69447959302268],[-90.12652801345084,38.69441741956551],[-90.13968776745742,38.690747498923464]]]},"properties":{"fire_id":"F1153","date":"2026-09-04","area_ha":124.1,"cumulative_ha":274.2,"frp_sum":12.6,"n_detections":4,"first_seen":"2026-08-29","last_seen":"2026-09-04","centroid":[-90.13677,38.69495],"history":[{"date":"2026-08-29","area_ha":48.3},{"date":"2026-08-31","area_ha":132.4},{"date":"2026-09-01","area_ha":185.1},{"date":"2026-09-02","area_ha":184.0},{"date":"2026-09-03","area_ha":63.7},{"date":"2026-09-04","area_ha":124.1}],"track":[[-90.13914681422747,38.696343467152055],[-90.13698595015202,38.69533523420521],[-90.13933782462514,38.69564298065228],[-90.13717372159427,38.69298409348805],[-90.13244747286285,38.69524440625551],[-90.13676900751251,38.69494775964327]],"growth_24h_ha":60.42,"speed_km_day":0.37,"bearing_deg":261.36,"direction":"W"}},{"type":"Feature","geometry":{"type":"Polygon","coordinates":[[[-91.23585905622215,40.694003416478566],[-91.23572317748312,40.69413558265256],[-91.23557040065302,40.69425697865595],[-91.23540224143,40.694366400051194],[-91.2352203681528,40.694462761201834],[-91.23502658524804,40.69454510604598],[-91.23482281532651,40.69461261758309],[-91.23461108010552,40.694664625982384],[-91.23439348034738,40.69470061522924],[-91.23417217501249,40.694720228246595],[-91.23394935983467,40.694723270438296],[-91.23372724553123,40.69470971162039],[-91.23350803586408,40.69467968632062],[-91.23329390577004,40.694633492443245],[-91.23308697977741,40.69457158831288],[-91.23288931092326,40.69449458812602],[-91.23270286038053,40.69440325585595],[-91.23252947799777,40.694298497671284],[-91.23237088394411,40.69418135294358],[-91.23222865164209,40.69405298393338],[-91.23010867514611,40.69193295251397],[-91.22998419300104,40.69179459313506],[-91.22987872843773,40.691647651588866],[-91.22979332824396,40.69149358651349],[-91.22972884001851,40.69133392724959],[-91.22968590376183,40.691170258658],[-91.22966494552844,40.691004205386776],[-91.2296661732034,40.690837415743204],[-91.22968957444488,40.69067154533208],[-91.22973491681284,40.69050824062137],[-91.2298017500823,40.69034912259956],[-91.22988941071803,40.69019577068618],[-91.22999702846617,40.690049707055344],[-91.23012353499674,40.68991238152796],[-91.23026767451162,40.68978515718238],[-91.23042801621214,40.689669296826196],[-91.23060296850262,40.68956595046402],[-91.23079079478889,40.68947614388411],[-91.23098963071469,40.68940076847877],[-91.23119750266538,40.68934057239826],[-91.231412347355,40.68929615312622],[-91.23163203230246,40.68926795155055],[-91.23185437699394,40.6892562475885],[-91.23207717452156,40.68926115740861],[-91.23594708427567,40.689491151737386],[-91.23616858047808,40.68951268153073],[-91.23638610409863,40.689550630614015],[-91.23659748710763,40.68960462075647],[-91.23680062266557,40.68967411384813],[-91.23699348611802,40.68975841726198],[-91.23717415517245,40.68985669075616],[-91.23734082905557,40.6899679548465],[-91.23749184646068,40.69009110056778],[-91.23762570210607,40.69022490052425],[-91.23774106173944,40.69036802112191],[-91.23783677543884,40.69051903585846],[-91.2379118890775,40.690676439539736],[-91.23796565383792,40.69083866328122],[-91.23799753368066,40.69100409014392],[-91.23800721069276,40.69117107125051],[-91.23799458826252,40.69133794221947],[-91.23795979204868,40.69150303975503],[-91.23790316873412,40.69166471822596],[-91.23782528257618,40.691821366069405],[-91.23772690978787,40.69197142185542],[-91.23760903080569,40.692113389852054],[-91.23585905622215,40.694003416478566]]]},"properties":{"fire_id":"F1847","date":"2026-09-04","area_ha":31.1,"cumulative_ha":56.7,"frp_sum":7.8,"n_detections":3,"first_seen":"2026-09-03","last_seen":"2026-09-04","centroid":[-91.23385,40.69167],"history":[{"date":"2026-09-03","area_ha":48.8},{"date":"2026-09-04","area_ha":31.1}],"track":[[-91.23153729404623,40.69145417375741],[-91.23384876306085,40.691668555468546]],"growth_24h_ha":-17.68,"speed_km_day":0.2,"bearing_deg":274.19,"direction":"W"}},{"type":"Feature","geometry":{"type":"Polygon","coordinates":[[[-79.89188787247612,33.01126901813434],[-79.89199170240835,33.01140425709827],[-79.8920795507039,33.01154712121094],[-79.89215061578919,33.01169630704517],[-79.89220424920087,33.011850453490744],[-79.89223996150523,33.01200815417167],[-79.89225742676712,33.01216797027713],[-79.89225648552751,33.01232844368788],[-79.89180666611502,33.01942845067545],[-79.89178687122207,33.01959062633228],[-79.89174827674505,33.01975044260193],[-79.89169124592101,33.01990639488877],[-79.89161631556543,33.02005701496682],[-79.89152419102211,33.02020088480359],[-79.89141573952584,33.02033664991086],[-79.89129198204036,33.02046303209787],[-79.89115408364829,33.02057884150638],[-79.89100334258333,33.0206829878139],[-79.89084117800837,33.02077449050002],[-79.89066911665383,33.02085248807928],[-79.89048877844291,33.02091624621281],[-79.89030186123846,33.0209651646233],[-79.89011012485558,33.02099878274712],[-79.8899153744903,33.02101678407157],[-79.88971944372071,33.021018999114965],[-79.8895241772405,33.02100540702276],[-79.88933141348792,33.02097613576398],[-79.8891429673335,33.02093146092589],[-79.88896061299005,33.02087180311933],[-79.88878606730559,33.020797724017726],[-79.88862097359716,33.02070992106838],[-79.88846688617714,33.02060922092495],[-79.88832525571866,33.02049657166362],[-79.88819741559706,33.02037303385588],[-79.88808456933694,33.02023977058222],[-79.88798777928216,33.020098036480896],[-79.8818451551569,33.00998921560044],[-79.87921868929796,33.00983593412501],[-79.87902455084465,33.00981670723559],[-79.8788335573766,33.009781948649426],[-79.87864749953614,33.00973198424112],[-79.8784681216835,33.00966728244471],[-79.87829710554011,33.00958844986149],[-79.87813605441968,33.009496225571844],[-79.8779864781952,33.00939147420512],[-79.87719647648778,33.00878146584873],[-79.87706367376879,33.00866880875939],[-79.87694416067768,33.00854628128468],[-79.87683899155732,33.00841496442077],[-79.87674909418665,33.00827601670321],[-79.876675261597,33.00813066398476],[-79.87661814507798,33.00798018861961],[-79.87657824843427,33.0078259181493],[-79.87655592354399,33.00766921359001],[-79.87655136725786,33.00751145742506],[-79.87656461966607,33.00735404140798],[-79.87659556374847,33.007198354284085],[-79.87748564618182,33.003738367816894],[-79.877536767273,33.00357853391899],[-79.87760652761207,33.00342365714222],[-79.87769425100288,33.003275238493536],[-79.87779908717226,33.003134716383066],[-79.87792002001365,33.00300345268448],[-79.878055877437,33.00288271953761],[-79.87820534272986,33.00277368702062],[-79.87836696731877,33.00267741181174],[-79.87853918480816,33.002594826949796],[-79.87872032615995,33.00252673279298],[-79.87890863586713,33.00247378926347],[-79.8791022889648,33.002436509452735],[-79.8792994087135,33.0024152546501],[-79.87949808478406,33.002410230841605],[-79.87969639176754,33.00242148671443],[-79.87989240783119,33.00244891318486],[-79.8844423179438,33.00327889803563],[-79.88462236873502,33.00331906886482],[-79.88479720000545,33.003372885797695],[-79.88496532156829,33.003439890122216],[-79.88512530041692,33.00351951072166],[-79.88527577293786,33.0036110689418],[-79.88541545653253,33.003713784374675],[-79.88554316054898,33.00382678150955],[-79.88565779643082,33.00394909719467],[-79.89188787247612,33.01126901813434]]]},"properties":{"fire_id":"F0088","date":"2026-09-04","area_ha":153.9,"cumulative_ha":219.4,"frp_sum":13.2,"n_detections":8,"first_seen":"2026-08-23","last_seen":"2026-09-04","centroid":[-79.88538,33.01058],"history":[{"date":"2026-08-23","area_ha":35.3},{"date":"2026-08-24","area_ha":132.4},{"date":"2026-08-25","area_ha":64.8},{"date":"2026-08-27","area_ha":74.1},{"date":"2026-08-30","area_ha":57.2},{"date":"2026-09-01","area_ha":117.1},{"date":"2026-09-02","area_ha":130.8},{"date":"2026-09-03","area_ha":116.8},{"date":"2026-09-04","area_ha":153.9}],"track":[[-79.88581782646237,33.01413268239849],[-79.884500926007,33.01124803600929],[-79.88518229911607,33.013759868676374],[-79.88264830783122,33.00818731590651],[-79.88209727640793,33.009835865055194],[-79.88266420330943,33.00991235881736],[-79.88203660600414,33.00973005669367],[-79.88507707148649,33.01276511847761],[-79.88538269214112,33.010575061270615]],"growth_24h_ha":37.11,"speed_km_day":0.25,"bearing_deg":176.91,"direction":"S"}},{"type":"Feature","geometry":{"type":"Polygon","coordinates":[[[-87.51273321209258,33.227526140414774],[-87.51286803796734,33.227402581650274],[-87.51301696260785,33.22729071435956],[-87.51317851968301,33.22719163996566],[-87.51335111850469,33.22710633393192],[-87.51353305968829,33.227035636158995],[-87.51372255188303,33.22698024271656],[-87.51391772940678,33.226940698991235],[-87.51411667061213,33.22691739431764],[-87.51431741680284,33.22691055814567],[-87.51451799151495,33.22692025778198],[-87.51471641997247,33.226946397727275],[-87.51491074852657,33.2269887206164],[-87.51509906388688,33.22704680975195],[-87.51527951195584,33.22712009320619],[-87.51545031608082,33.22720784945118],[-87.51560979454439,33.227309214461734],[-87.51575637712062,33.22742319022108],[-87.51588862053462,33.22754865454591],[-87.516005222673,33.22768437213376],[-87.51610503540535,33.22782900672411],[-87.51618707589067,33.227981134254115],[-87.51686710535114,33.229431124349276],[-87.51693213133466,33.22959392569483],[-87.51697680163304,33.22976137862904],[-87.51700065031827,33.22993173704231],[-87.51700342857248,33.23010322451813],[-87.51698510728804,33.23027405285627],[-87.51694587737684,33.23044244071967],[-87.51688614778512,33.230606632209586],[-87.5168065412344,33.23076491517632],[-87.51545658304407,33.233104934209486],[-87.51536484899142,33.23324618593896],[-87.51525728263475,33.23337953308938],[-87.51513486555395,33.233503758730926],[-87.5149987148733,33.2336177291722],[-87.51485007306768,33.23372040430707],[-87.51469029662415,33.23381084710831],[-87.50851022680608,33.236960897686956],[-87.50833847256065,33.23703920141789],[-87.5081583951729,33.237103367646235],[-87.5079716815777,33.237152795271065],[-87.50778008088871,33.23718702125988],[-87.50758538801009,33.237205724986964],[-87.50738942681903,33.23720873123752],[-87.50719403307652,33.237196011849186],[-87.50700103722664,33.23716768597608],[-87.50681224724586,33.23712401897243],[-87.50662943170285,33.23706541990592],[-87.50645430318794,33.236992437725654],[-87.50628850226732,33.23690575611819],[-87.50613358211267,33.236806187102324],[-87.5059909939501,33.236694663421034],[-87.50586207346485,33.23657222980251],[-87.50574802828919,33.23644003317223],[-87.5056499266906,33.236299311907715],[-87.50556868756634,33.23615138423644],[-87.50550507183799,33.23599763588649],[-87.50545967532642,33.23583950710434],[-87.50543292317396,33.23567847916277],[-87.50542506586584,33.23551606048418],[-87.50543617688804,33.23535377251064],[-87.5054661520432,33.23519313545138],[-87.50551471043109,33.235035654042825],[-87.50558139708399,33.234882803453615],[-87.50566558723249,33.234736015466915],[-87.50576649216121,33.23459666506911],[-87.50588316659979,33.23446605757151],[-87.51273321209258,33.227526140414774]]]},"properties":{"fire_id":"F0270","date":"2026-09-04","area_ha":63.9,"cumulative_ha":151.0,"frp_sum":12.2,"n_detections":4,"first_seen":"2026-08-24","last_seen":"2026-09-04","centroid":[-87.51162,33.23222],"history":[{"date":"2026-08-24","area_ha":46.7},{"date":"2026-08-25","area_ha":103.1},{"date":"2026-08-26","area_ha":63.6},{"date":"2026-08-28","area_ha":77.9},{"date":"2026-08-29","area_ha":80.1},{"date":"2026-08-30","area_ha":66.4},{"date":"2026-08-31","area_ha":54.2},{"date":"2026-09-01","area_ha":89.8},{"date":"2026-09-02","area_ha":37.8},{"date":"2026-09-03","area_ha":76.1},{"date":"2026-09-04","area_ha":63.9}],"track":[[-87.51070230137195,33.2331068497428],[-87.50982886941465,33.23354639901765],[-87.51125280099467,33.23291291307669],[-87.50937905668452,33.23610936582712],[-87.5103876201772,33.23403644249809],[-87.51102101731831,33.23236381060212],[-87.5108746796328,33.23447786106635],[-87.51060070229751,33.233384518849434],[-87.50993697952265,33.232243357701336],[-87.50850676735989,33.23501853608443],[-87.51161626770883,33.232218884524514]],"growth_24h_ha":-12.2,"speed_km_day":0.42,"bearing_deg":217.53,"direction":"SW"}},{"type":"Feature","geometry":{"type":"Polygon","coordinates":[[[-88.58084261689933,33.44987248769562],[-88.58080654494648,33.45003456356946],[-88.58075143023225,33.4501929345802],[-88.58067780364048,33.45034607492163],[-88.58058637441742,33.450492509174005],[-88.58047802334195,33.450630826519856],[-88.58035379424284,33.45075969433722],[-88.58021488394411,33.450877871040525],[-88.58006263073561,33.450984218043466],[-88.5798985014798,33.4510777107305],[-88.57972407747886,33.451157448329745],[-88.57954103923836,33.451222662592954],[-88.57935115027443,33.45127272519832],[-88.57915624012038,33.451307153805246],[-88.57895818669674,33.45132561670241],[-88.5787588982146,33.451327936004006],[-88.57856029478695,33.45131408936404],[-88.57017012030232,33.45038407185313],[-88.56997667377843,33.45035467447826],[-88.56978757475954,33.45030993920706],[-88.56960459759831,33.45025028579843],[-88.56942945919418,33.4501762739899],[-88.56926380288104,33.45008859824446],[-88.56910918300586,33.44998808123359],[-88.56896705034286,33.44987566611684],[-88.56883873848038,33.449752407690674],[-88.56872545130807,33.449619462490446],[-88.56862825172185,33.4494780779371],[-88.56854805165257,33.44932958063179],[-88.56848560351199,33.44917536390715],[-88.56844149313602,33.44901687475297],[-88.56841613429158,33.448855600238794],[-88.56840976479837,33.44869305356043],[-88.56842244430165,33.44853075984163],[-88.5684540537171,33.44837024182432],[-88.56850429635251,33.44821300558152],[-88.56857270069563,33.44806052638675],[-88.56865862484217,33.447914234873004],[-88.5687612625219,33.44777550361037],[-88.56887965066623,33.44764563422926],[-88.56901267844648,33.447525845208915],[-88.5691590976976,33.44741726044642],[-88.5693175346296,33.447320898713116],[-88.56948650271697,33.44723766409752],[-88.56966441664493,33.44716833752406],[-88.57870426865021,33.444078391765565],[-88.57889507138613,33.44402220198454],[-88.579091694472,33.443982011328195],[-88.57929218139789,33.44395821971739],[-88.57949453721393,33.44395106389242],[-88.57969674837739,33.44396061505784],[-88.57989680278457,33.44398677817409],[-88.5800927097886,33.44402929290296],[-88.58028252000362,33.44408773619773],[-88.58046434469908,33.444161526511806],[-88.5806363745908,33.444249929584956],[-88.58079689784232,33.44435206574838],[-88.58094431709743,33.44446691867645],[-88.58107716537425,33.44459334549899],[-88.58119412066317,33.444730088171845],[-88.58129401908297,33.44487578599433],[-88.58137586646457,33.44502898914759],[-88.58143884824668,33.445188173120684],[-88.58148233758513,33.44535175387974],[-88.58150590159467,33.445518103629716],[-88.5815093056615,33.44568556701197],[-88.5814925157827,33.44585247757672],[-88.58084261689933,33.44987248769562]]]},"properties":{"fire_id":"F0271","date":"2026-09-04","area_ha":68.8,"cumulative_ha":299.8,"frp_sum":3.9,"n_detections":3,"first_seen":"2026-08-24","last_seen":"2026-09-04","centroid":[-88.57584,33.44799],"history":[{"date":"2026-08-24","area_ha":73.6},{"date":"2026-08-25","area_ha":113.6},{"date":"2026-08-26","area_ha":84.2},{"date":"2026-08-28","area_ha":120.1},{"date":"2026-08-29","area_ha":148.3},{"date":"2026-08-31","area_ha":146.1},{"date":"2026-09-01","area_ha":75.9},{"date":"2026-09-02","area_ha":137.3},{"date":"2026-09-03","area_ha":174.5},{"date":"2026-09-04","area_ha":68.8}],"track":[[-88.57262900784664,33.44297584671628],[-88.57433913584545,33.44121235533917],[-88.57673560979065,33.44393846843688],[-88.57427414515713,33.445691908943836],[-88.5712560910528,33.44368716647933],[-88.57641678835053,33.44527711358418],[-88.57635999918165,33.44438248912368],[-88.577546088556,33.443072277345976],[-88.57366823841457,33.44519683457403],[-88.57583538217291,33.44799248261846]],"growth_24h_ha":-105.72,"speed_km_day":0.37,"bearing_deg":322.86,"direction":"NW"}},{"type":"Feature","geometry":{"type":"Polygon","coordinates":[[[-93.87887141541279,29.752234936461477],[-93.87903782704689,29.752148058317374],[-93.87921336211944,29.75207610296964],[-93.87939626493173,29.752019790113255],[-93.87958470610644,29.7519796829864],[-93.87977680088227,29.751956182737743],[-93.87997062796175,29.751949524415068],[-93.88016424872445,29.75195977461437],[-93.88035572661309,29.751986830813976],[-93.8805431464991,29.75203042239979],[-93.88072463383405,29.752090113371622],[-93.88089837339562,29.75216530670333],[-93.8810626274406,29.75225525031341],[-93.88121575308361,29.75235904458648],[-93.88135621872804,29.752475651369835],[-93.88148261938437,29.75260390435606],[-93.8815936907233,29.7527425207472],[-93.88168832172285,29.752890114084135],[-93.88486841046033,29.758490073029648],[-93.88494317954103,29.75863943018444],[-93.88500110222456,29.758794367452495],[-93.88504164024936,29.758953445290054],[-93.88506441686921,29.759115185675764],[-93.88506922035738,29.759278085843135],[-93.88505600597749,29.759440632242747],[-93.88502489640322,29.759601314604847],[-93.88497618058234,29.759758639972045],[-93.88491031105575,29.759911146571238],[-93.88482789975615,29.760057417395828],[-93.88472971232541,29.760196093372823],[-93.88461666100314,29.760325885991197],[-93.88448979615258,29.760445589275104],[-93.88435029650243,29.76055409099029],[-93.88419945819533,29.76065038297968],[-93.88403868274443,29.760733570531453],[-93.88386946401054,29.76080288069391],[-93.88369337432023,29.760857669457906],[-93.88351204985443,29.760897427741995],[-93.88332717544326,29.760921786122996],[-93.88314046890815,29.76093051826928],[-93.88295366509756,29.76092354304401],[-93.8791835891047,29.760623538105655],[-93.87543265789495,29.760323464898896],[-93.8717112418335,29.76002335224074],[-93.87152237856574,29.75999990717595],[-93.8713370712993,29.75996040650814],[-93.87115711250327,29.759905232322623],[-93.87098424290213,29.759834918312055],[-93.87082013463514,29.75975014461333],[-93.8706663750801,29.759651731227986],[-93.87052445149735,29.759540630089276],[-93.87039573664315,29.759417915853344],[-93.87028147549128,29.75928477550306],[-93.87018277319164,29.75914249686569],[-93.87010058438185,29.75899245615481],[-93.87003570395571,29.75883610465781],[-93.86998875937736,29.758674954697085],[-93.86996020461554,29.758510565001416],[-93.86995031575638,29.75834452562837],[-93.8699591883372,29.75817844258427],[-93.86998673642668,29.758013922290083],[-93.8700326934604,29.75785255604353],[-93.87009661482331,29.757695904627855],[-93.870177882154,29.757545483215967],[-93.87027570932925,29.75740274671609],[-93.8703891500704,29.757269075700282],[-93.87051710709824,29.757145763052606],[-93.87065834274766,29.75703400146508],[-93.87081149093923,29.75693487190291],[-93.87887141541279,29.752234936461477]]]},"properties":{"fire_id":"F1956","date":"2026-09-04","area_ha":94.3,"cumulative_ha":94.3,"frp_sum":5.1,"n_detections":5,"first_seen":"2026-09-04","last_seen":"2026-09-04","centroid":[-93.87809,29.75719],"history":[{"date":"2026-09-04","area_ha":94.3}],"track":[[-93.87808868589674,29.757192134103008]],"growth_24h_ha":null,"speed_km_day":null,"bearing_deg":null,"direction":null}},{"type":"Feature","geometry":{"type":"Polygon","coordinates":[[[-93.32191195674147,30.183322425188653],[-93.32182003121594,30.183182008898203],[-93.32174400086832,30.183034631624057],[-93.32168456017168,30.182881639695516],[-93.32164225203782,30.182724430727173],[-93.321617462861,30.182564440850346],[-93.32161041899144,30.18240313159362],[-93.32162118467137,30.182241976531294],[-93.3216496614519,30.182082447822044],[-93.32169558909617,30.18192600276064],[-93.32175854796023,30.181774070466133],[-93.32183796282992,30.181628038827295],[-93.32193310817833,30.18148924182487],[-93.32204311479606,30.181358947346844],[-93.32216697773327,30.181238345607206],[-93.32230356548112,30.181128538274653],[-93.32245163030866,30.181030528409963],[-93.33005156330186,30.17648059128916],[-93.33021170175378,30.176394313015372],[-93.33038071277943,30.176321842268475],[-93.33055701503983,30.176263857113216],[-93.33073895898859,30.176220900080374],[-93.33092484230335,30.176193373091433],[-93.3311129258107,30.176181533698482],[-93.33130144975544,30.176185492675067],[-93.33148865026224,30.176205212979532],[-93.33167277583597,30.17624051010197],[-93.33185210374606,30.176291053789893],[-93.33202495614223,30.176356371138073],[-93.33218971575052,30.176435851012453],[-93.33234484100299,30.176528749767197],[-93.3324888804599,30.176634198201995],[-93.33262048638899,30.176751209693368],[-93.33273842737543,30.176878689424974],[-93.33284159984387,30.17701544463025],[-93.33292903838547,30.17716019575145],[-93.33299992479249,30.177311588410813],[-93.33305359571649,30.17746820608243],[-93.3330895488781,30.177628583344855],[-93.33310744776999,30.177791219592415],[-93.33310712480942,30.177954593075324],[-93.33308858291014,30.178117175138443],[-93.33305199545919,30.17827744452426],[-93.3329977046985,30.17843390160747],[-93.33292621852638,30.178585082427258],[-93.33283820574852,30.178729572386125],[-93.33273448982297,30.178866019486776],[-93.32865453302733,30.183706067438965],[-93.32852297772621,30.183845798374872],[-93.32837497531496,30.183972583881737],[-93.32821221266228,30.184084978862156],[-93.32803654489837,30.18418170223676],[-93.3255965151042,30.185371719659354],[-93.32541975760213,30.18544798128708],[-93.32523500130323,30.185508364276355],[-93.32504414143446,30.18555224922098],[-93.32484913584469,30.185579185950225],[-93.32465198491754,30.185588898147437],[-93.32445471104784,30.185581286184878],[-93.32425933789169,30.185556428146146],[-93.32406786960402,30.18551457902465],[-93.32388227027599,30.185456168107788],[-93.3237044437839,30.185381794572454],[-93.32353621425648,30.185292221338198],[-93.32337930736054,30.18518836723988],[-93.3232353325979,30.185071297601073],[-93.32310576679451,30.184942213305145],[-93.32299193895157,30.184802438475135],[-93.32191195674147,30.183322425188653]]]},"properties":{"fire_id":"F1957","date":"2026-09-04","area_ha":61.2,"cumulative_ha":61.2,"frp_sum":4.7,"n_detections":4,"first_seen":"2026-09-04","last_seen":"2026-09-04","centroid":[-93.32731,30.18098],"history":[{"date":"2026-09-04","area_ha":61.2}],"track":[[-93.32730643482253,30.180984948558898]],"growth_24h_ha":null,"speed_km_day":null,"bearing_deg":null,"direction":null}}]}