{"type":"FeatureCollection","features":[{"type":"Feature","geometry":{"type":"Polygon","coordinates":[[[-122.40074028737814,40.64722649677144],[-122.4058202849622,40.65042949589751],[-122.40598300197051,40.650542899488805],[-122.40612987448988,40.6506678394874],[-122.4062594507032,40.6508030809534],[-122.4063704497332,40.65094728711683],[-122.40646177430524,40.651099032589045],[-122.40653252159697,40.651256817450125],[-122.40658199216625,40.65141908207355],[-122.40660969687006,40.651584222541125],[-122.40661536170475,40.65175060649646],[-122.40659893052076,40.65191658927962],[-122.40656056558339,40.652080530184115],[-122.40650064597506,40.65224080867532],[-122.40641976385382,40.65239584040952],[-122.40631871860538,40.65254409289649],[-122.40619850894562,40.65268410064907],[-122.40606032305226,40.65281447967095],[-122.40590552682258,40.652933941139736],[-122.40573565037323,40.65304130414855],[-122.4055523729155,40.65313550738151],[-122.4053575061559,40.65321561960719],[-122.4051529763855,40.65328084888529],[-122.40494080543603,40.653330550397236],[-122.4047230906901,40.65336423282176],[-122.40450198434435,40.65338156319255],[-122.40427967212969,40.65338237019076],[-122.4040583517002,40.65336664583888],[-122.40384021090358,40.65333454557947],[-122.40362740614898,40.653286386738344],[-122.40342204108573,40.6532226453871],[-122.40322614580431,40.65314395163565],[-122.40304165676504,40.653051083402275],[-122.39303157343937,40.6474509726033],[-122.39286631939179,40.64734891614476],[-122.39271486874785,40.64723548723195],[-122.39257861171329,40.64711172711337],[-122.3924587990014,40.646978771869435],[-122.39235653035324,40.64683784198208],[-122.39227274444475,40.64669023112989],[-122.39220821027315,40.64653729431128],[-122.39216352010173,40.646380435405256],[-122.39158212765626,40.64372090692178],[-122.38994775588881,40.64002638934531],[-122.38989041260183,40.639872514333454],[-122.3898529188394,40.63971524705121],[-122.38983561592418,40.63955601972949],[-122.38983866129672,40.63939628243909],[-122.38986202708678,40.63923748988488],[-122.38990550037191,40.63908108815784],[-122.38996868512145,40.638928501566504],[-122.39005100580766,40.63878111966633],[-122.39015171265105,40.638640284606545],[-122.3902698884521,40.6385072789088],[-122.39040445694661,40.638383313788765],[-122.39055419260927,40.63826951812795],[-122.39071773181523,40.63816692819477],[-122.39089358525848,40.63807647820921],[-122.39108015151403,40.63799899183731],[-122.39738877560573,40.63566606586547],[-122.39602790790796,40.63183794275466],[-122.39005668036349,40.63254082543255],[-122.38289437797255,40.63485778645962],[-122.3818841981632,40.63558046217227],[-122.3817150298361,40.63568990540588],[-122.38153210968446,40.63578614868363],[-122.3813372670646,40.635868229461394],[-122.38113245059249,40.635935326832936],[-122.38091970865314,40.63598676974201],[-122.38070116891154,40.63602204369483],[-122.38047901702953,40.636040795906936],[-122.38025547480245,40.63604283883201],[-122.38003277793369,40.63602815203816],[-122.37981315367026,40.63599688241227],[-122.37959879852282,40.6359493426906],[-122.37939185629364,40.63588600833039],[-122.37919439663203,40.63580751275364],[-122.37900839433226,40.63571464101077],[-122.37883570958095,40.63560832192785],[-122.37867806935195,40.6354896188152],[-122.37853705013418,40.635359718831666],[-122.37841406216604,40.635219921109496],[-122.37831033533357,40.635071623760346],[-122.37822690687321,40.63491630989085],[-122.3781646110026,40.63475553276853],[-122.37812407058242,40.63459090028701],[-122.37810569089264,40.63442405888448],[-122.37810965558542,40.63425667707777],[-122.37884392130998,40.62615320721693],[-122.37694785644207,40.61627829226691],[-122.37692721152068,40.61611274515001],[-122.37692859317485,40.61594648061157],[-122.37695198762076,40.615781138854295],[-122.37699716392123,40.61561835096561],[-122.37706367627005,40.6154597228277],[-122.37715086839523,40.61530681927602],[-122.3772578800382,40.61516114866389],[-122.37738365544436,40.61502414798415],[-122.37752695378151,40.61489716869516],[-122.37768636138271,40.614781463390884],[-122.37786030569332,40.61467817344629],[-122.37804707078386,40.61458831776023],[-122.3782448142765,40.6145127827061],[-122.3784515855176,40.61445231338993],[-122.37866534481735,40.61440750630202],[-122.37888398356688,40.61437880343394],[-122.3791053450347,40.614366487919526],[-122.3793272456371,40.61437068124271],[-122.37954749647322,40.6143913420393],[-122.37976392491271,40.614428266504945],[-122.37997439602275,40.61448109040516],[-122.38017683362392,40.614549292667434],[-122.38036924076677,40.61463220052008],[-122.38054971942786,40.61472899612748],[-122.38071648923074,40.61483872465602],[-122.38086790500734,40.61496030369126],[-122.38100247302701,40.61509253391352],[-122.38111886573249,40.61523411092697],[-122.38121593483791,40.61538363812516],[-122.38584927287589,40.62352509476379],[-122.38961986079467,40.6221300138347],[-122.39207991639431,40.61653129749573],[-122.39431517465043,40.60873839152474],[-122.39437119838689,40.60858084837588],[-122.39444741442719,40.60842813493165],[-122.394543099715,40.608281699717224],[-122.39465734653918,40.60814293169804],[-122.39478907114697,40.6080131471065],[-122.39493702402665,40.60789357695864],[-122.39509980176102,40.607785355379676],[-122.39527586033998,40.60768950884818],[-122.3954635298057,40.60760694646184],[-122.39566103009112,40.607538451315776],[-122.39586648790221,40.60748467307702],[-122.3960779544835,40.607446121823294],[-122.39629342409874,40.607423163206],[-122.39651085305131,40.607416014983244],[-122.39672817906458,40.6074247449543],[-122.396943340838,40.60744927031731],[-122.39715429759426,40.60748935845396],[-122.39735904843164,40.607544629135575],[-122.39755565129897,40.60761455812881],[-122.39774224141242,40.60769848216669],[-122.39791704894076,40.6077956052385],[-122.3980784157902,40.607905006138445],[-122.39822481133085,40.608025647201536],[-122.39835484691481,40.60815638414433],[-122.40689043286251,40.617670873734184],[-122.41007575402648,40.62026733737859],[-122.41022421733719,40.620401786258114],[-122.41035319113463,40.620547078588075],[-122.41046127432588,40.62070163614285],[-122.41054729271725,40.62086378004276],[-122.41061031177391,40.621031748989346],[-122.41064964677706,40.62120371839595],[-122.41066487026856,40.621377820206426],[-122.41073499459092,40.625337818911746],[-122.41073518974146,40.625361906014675],[-122.4107255266105,40.631783917302954],[-122.41175357189458,40.63916638372328],[-122.41176561909772,40.63933472497109],[-122.41175499417912,40.63950311993311],[-122.41172180472978,40.639669860856195],[-122.41166638718107,40.63983325674918],[-122.41158930339914,40.63999165053204],[-122.41149133499236,40.640143435842376],[-122.41137347539001,40.640287073327414],[-122.41123691977145,40.64042110625751],[-122.41108305294837,40.64054417530104],[-122.41091343532281,40.64065503231265],[-122.4107297870629,40.64075255299369],[-122.41053397065737,40.64083574829617],[-122.41032797202503,40.640903774456],[-122.41011388037202,40.64095594155161],[-122.40989386699974,40.640991720502676],[-122.40967016328,40.641010748437324],[-122.40944503801992,40.64101283237315],[-122.40922077444696,40.6409979511746],[-122.4089996470475,40.64096625576783],[-122.4062651068433,40.64046620720873],[-122.40074028737814,40.64722649677144]]]},"properties":{"fire_id":"F0001","date":"2026-08-19","area_ha":781.3,"frp_sum":428.5,"n_detections":28,"first_seen":"2026-08-18","last_seen":"2026-08-19","centroid":[-122.39643,40.62913],"history":[{"date":"2026-08-18","area_ha":242.8},{"date":"2026-08-19","area_ha":781.3}],"track":[[-122.39995862968424,40.62563349869898],[-122.39643271679388,40.62912906561212]],"growth_24h_ha":538.5,"speed_km_day":0.49,"bearing_deg":52.98,"direction":"NE"}},{"type":"Feature","geometry":{"type":"Polygon","coordinates":[[[-120.7303708895778,47.618577721144895],[-120.73767686996047,47.6229854183095],[-120.73785249608972,47.62310241570003],[-120.73801040932051,47.62323072630826],[-120.73814906630798,47.623369096209785],[-120.73826711186634,47.623516173164816],[-120.73836339221602,47.62367051983107],[-120.73843696626362,47.623830627808516],[-120.73848711480449,47.623994932379034],[-120.7385133475574,47.62416182779705],[-120.73851540796304,47.624329682981255],[-120.73849327569836,47.624496857455014],[-120.7384471668825,47.62466171737903],[-120.73837753197178,47.62482265151946],[-120.73828505136406,47.62497808699609],[-120.73817062875517,47.62512650465594],[-120.7380353823122,47.62526645392248],[-120.73788063374943,47.62539656697487],[-120.73770789541392,47.62551557211848],[-120.73751885550654,47.6256223062168],[-120.73731536158287,47.62571572606166],[-120.73709940249537,47.625794918572105],[-120.73687308895325,47.62585910972038],[-120.73663863288999,47.62590767209974],[-120.73159851329046,47.62676769887796],[-120.73135533307627,47.626800435172576],[-120.7311085973042,47.62681635740433],[-120.73086077487766,47.62681530624829],[-120.73061434557587,47.6267972922227],[-120.7245041921355,47.62613727130283],[-120.72425800588272,47.626101811238236],[-120.72401833583554,47.62604942402302],[-120.7237876531018,47.62598064980672],[-120.72356833610525,47.625896197698054],[-120.71879489117785,47.62383271284399],[-120.7129214619655,47.62387141044946],[-120.7089817199965,47.62648099018425],[-120.70879992635487,47.62659016094678],[-120.70860347529127,47.626686671493445],[-120.70839423662164,47.626769603196095],[-120.7081742019021,47.62683816667188],[-120.70794546547053,47.626891709298505],[-120.70771020450893,47.62692972142823],[-120.70747065831618,47.62695184123999],[-120.70722910698916,47.6269578581844],[-120.70698784971486,47.62694771498875],[-120.70674918288074,47.62692150820192],[-120.70651537821158,47.62687948727529],[-120.7062886611416,47.626822052187784],[-120.70607118962748,47.62674974963722],[-120.70586503360448,47.62666326783562],[-120.70567215528122,47.62656342995634],[-120.70549439046094,47.6264511862972],[-120.70533343106703,47.62632760523264],[-120.70519080903925,47.62619386304287],[-120.70506788175416,47.62605123271537],[-120.7049658191078,47.62590107182601],[-120.7048855923846,47.62574480961611],[-120.70482796501722,47.62558393338675],[-120.7047934853257,47.6254199743413],[-120.70478248130489,47.62525449301104],[-120.70479505750913,47.62508906440118],[-120.70483109406403,47.624925263000556],[-120.70489024781398,47.624764647796205],[-120.70497195559479,47.6246087474365],[-120.70625008151289,47.62249952780579],[-120.706950050331,47.616240265938394],[-120.70697893249732,47.6160811019233],[-120.70702959633378,47.61592451604919],[-120.70710158961315,47.61577190552311],[-120.70719426979825,47.615624632068155],[-120.70730680978035,47.61548400977446],[-120.7074382052633,47.61535129337495],[-120.70758728372824,47.615227667051414],[-120.70775271489828,47.61511423387007],[-120.70793302260977,47.6150120059412],[-120.70812659798432,47.61492189539044],[-120.70833171378389,47.61484470622201],[-120.71783341876692,47.61165918684622],[-120.72184683871257,47.60491846461021],[-120.72195126938074,47.60476532264464],[-120.7220773968306,47.60462005870714],[-120.72222397063047,47.60448411277415],[-120.72238953769244,47.60435883244368],[-120.7225724566796,47.60424545957912],[-120.7227709142778,47.604145118001384],[-120.7229829431708,47.604058802351375],[-120.72320644154071,47.60398736823266],[-120.72343919390046,47.603931523732776],[-120.72367889305163,47.603891822405615],[-120.72392316295061,47.603868657786315],[-120.72416958225641,47.60386225949119],[-120.72441570832686,47.60387269094248],[-120.72465910142586,47.60389984873987],[-120.72489734890173,47.603943463685056],[-120.72512808909744,47.604003103449344],[-120.72534903475594,47.60407817685797],[-120.72555799568886,47.60416793974866],[-120.7257529004839,47.60427150234579],[-120.72593181703617,47.604387838078644],[-120.7260929716998,47.604515793754636],[-120.72623476687032,47.60465410098847],[-120.72635579682331,47.60480138877261],[-120.72645486165226,47.6049561970657],[-120.72653097916762,47.605116991263564],[-120.72658339463857,47.60528217741001],[-120.72661158828102,47.60545011799633],[-120.72715370723499,47.611178804717106],[-120.7303708895778,47.618577721144895]]]},"properties":{"fire_id":"F0004","date":"2026-08-19","area_ha":326.5,"frp_sum":163.1,"n_detections":12,"first_seen":"2026-08-19","last_seen":"2026-08-19","centroid":[-120.72086,47.61826],"history":[{"date":"2026-08-19","area_ha":326.5}],"track":[[-120.72085541477672,47.61825834307774]],"growth_24h_ha":null,"speed_km_day":null,"bearing_deg":null,"direction":null}},{"type":"Feature","geometry":{"type":"Polygon","coordinates":[[[-121.42423209669323,43.76703387866342],[-121.43510189729923,43.76754292081136],[-121.4353283470026,43.76756151725652],[-121.43555120207905,43.76759587148094],[-121.43576834520222,43.76764565709206],[-121.43597771330272,43.76771040108617],[-121.43617731716579,43.767789488340824],[-121.43636526032765,43.76788216745791],[-121.43653975709181,43.76798755790103],[-121.4366991494937,43.768104658359825],[-121.43684192305282,43.76823235626106],[-121.43696672116293,43.768369438338084],[-121.43707235798321,43.76851460215585],[-121.43715782970796,43.76866646848419],[-121.43722232410776,43.76882359440024],[-121.43726522825139,43.76898448699721],[-121.43728613433447,43.76914761756774],[-121.43728484356012,43.769311436128234],[-121.43726136803349,43.76947438614551],[-121.43721593065302,43.769634919326556],[-121.43714896299835,43.76979151033001],[-121.43706110123516,43.76994267126044],[-121.43695318007566,43.770086965806776],[-121.4368262248518,43.77022302289177],[-121.4366814417762,43.7703495497007],[-121.43652020648368,43.77046534396795],[-121.43634405096165,43.77056930540257],[-121.43615464899392,43.77066044614527],[-121.43595380025586,43.77073790015698],[-121.43574341321246,43.7708009314498],[-121.42131312263555,43.77454102893324],[-121.42101916092022,43.774601911030764],[-121.4198091332204,43.77479191617437],[-121.4195766393847,43.77481968540138],[-121.41934143699159,43.774830494551196],[-121.41910591525733,43.774824233822194],[-121.41887246664271,43.77480096681217],[-121.41864346254498,43.77476092987257],[-121.41842122920362,43.77470452970679],[-121.41820802406559,43.77463233923781],[-121.41800601285006,43.774545091787125],[-121.41781724754564,43.774443673623644],[-121.41764364556444,43.77432911495919],[-121.41748697026392,43.77420257948145],[-121.4173488130353,43.774065352530876],[-121.41723057714006,43.77391882804235],[-121.41713346345858,43.77376449438368],[-121.41705845829594,43.773603919234866],[-121.41417551498414,43.766216404629546],[-121.4136711615898,43.7661606207924],[-121.41182997514991,43.766160619547044],[-121.41159912345671,43.76615240640323],[-121.41137052796059,43.766127850761066],[-121.41114642256262,43.76608719258787],[-121.41092899727593,43.76603082921069],[-121.41072037681994,43.76595931143253],[-121.41052259985351,43.765873338148175],[-121.41033759904998,43.76577374951317],[-121.41016718220881,43.76566151873165],[-121.41001301458867,43.76553774254426],[-121.40987660263471,43.765403630508345],[-121.40975927925882,43.765260493176314],[-121.40966219081702,43.76510972928678],[-121.40958628591069,43.7649528120945],[-121.40953230612166,43.76479127497225],[-121.40950077877066,43.76462669642576],[-121.4094920117704,43.76446068466794],[-121.40950609062294,43.76429486190334],[-121.40954287759077,43.764130848476604],[-121.40960201304898,43.76397024703925],[-121.40968291900568,43.76381462689017],[-121.40978480475539,43.76366550864225],[-121.4099066746105,43.76352434936529],[-121.41416673974192,43.75909441913318],[-121.4143135609423,43.75895738519914],[-121.4144791977592,43.758831924493705],[-121.4146618957135,43.7587193658544],[-121.41485971964836,43.758620901457526],[-121.41968003763188,43.75647653802961],[-121.42419663699374,43.75153483044738],[-121.42278801890241,43.745791848486576],[-121.42275956133726,43.745630489893095],[-121.42275293326476,43.74546790922968],[-121.42276819661502,43.745305629403454],[-121.422805208261,43.74514517049142],[-121.42286362136487,43.744988035502175],[-121.4229428886324,43.74483569629777],[-121.4230422674446,43.74468957980785],[-121.42316082681818,43.744551054665386],[-121.42329745612972,43.74442141838784],[-121.4234508755216,43.74430188522593],[-121.42361964789208,43.7441935747917],[-121.42380219235723,43.744097501573314],[-121.42399679905839,43.7440145654346],[-121.42420164517692,43.743945543188616],[-121.42441481200566,43.74389108132254],[-121.42463430291818,43.74385168994461],[-121.42485806206643,43.74382773800659],[-121.42508399363312,43.74381944984966],[-121.4253099814577,43.74382690310289],[-121.42553390885278,43.74385002795719],[-121.42575367842555,43.74388860781811],[-121.42596723171856,43.74394228133474],[-121.4261725684862,43.74401054578298],[-121.42636776542668,43.74409276177344],[-121.42655099419395,43.74418815923857],[-121.42672053852097,43.74429584464416],[-121.42687481029441,43.74441480935651],[-121.42701236442981,43.74454393908841],[-121.42713191240823,43.7446820243343],[-121.43316207273516,43.75246191949599],[-121.43326275533569,43.75260805374211],[-121.43334326233897,43.752760515173975],[-121.43340283557333,43.75291786825647],[-121.43344091396177,43.75307863138459],[-121.43345713880996,43.75324129083327],[-121.4334513571893,43.75340431500974],[-121.43342362338284,43.75356616887457],[-121.43337419837991,43.75372532839594],[-121.43330354742442,43.75388029490031],[-121.43321233563947,43.75402960918489],[-121.43310142176931,43.75417186525937],[-121.43297185009736,43.75430572358577],[-121.4328248406163,43.754429923694204],[-121.43266177754276,43.75454329605339],[-121.4324841962844,43.75464477308549],[-121.42621641589174,43.757882244995294],[-121.42329610209978,43.76138186696816],[-121.42423209669323,43.76703387866342]]]},"properties":{"fire_id":"F0002","date":"2026-08-19","area_ha":307.4,"frp_sum":101.4,"n_detections":15,"first_seen":"2026-08-18","last_seen":"2026-08-19","centroid":[-121.42312,43.76189],"history":[{"date":"2026-08-18","area_ha":215.9},{"date":"2026-08-19","area_ha":307.4}],"track":[[-121.42349845316784,43.75812986305568],[-121.42312080678441,43.76188757088176]],"growth_24h_ha":91.57,"speed_km_day":0.42,"bearing_deg":19.46,"direction":"NNE"}},{"type":"Feature","geometry":{"type":"Polygon","coordinates":[[[-119.05208289232193,35.42299998164243],[-119.05207286707923,35.423164174970246],[-119.05204287886518,35.42332678735053],[-119.05199321635936,35.42348625272321],[-119.0519243577252,35.423641035326725],[-119.0518369660094,35.42378964448939],[-119.05173188276012,35.42393064898641],[-119.05161011992583,35.42406269082484],[-119.05147285011172,35.424184498323314],[-119.0513213952885,35.424294898361],[-119.05115721406158,35.42439282767713],[-119.05098188762328,35.424477343112706],[-119.05079710452381,35.42454763069522],[-119.05060464440719,35.42460301347946],[-119.05040636086918,35.424642958068375],[-119.05020416360226,35.424667079751],[-119.05,35.42467514620822],[-119.04979583639775,35.424667079751],[-119.04959363913083,35.42464295806839],[-119.04939535559281,35.42460301347946],[-119.04920289547618,35.42454763069521],[-119.04901811237674,35.42447734311269],[-119.04884278593842,35.42439282767713],[-119.0486786047115,35.42429489836101],[-119.04852714988827,35.424184498323314],[-119.04838988007418,35.42406269082482],[-119.04826811723987,35.42393064898639],[-119.0481630339906,35.423789644489396],[-119.0480756422748,35.42364103532672],[-119.04800678364063,35.423486252723194],[-119.04795712113483,35.423326787350554],[-119.04792713292078,35.42316417497023],[-119.04791710767807,35.42299998164243],[-119.04791727117937,35.416999981643784],[-119.0479273045403,35.41683578776578],[-119.04795729896333,35.41667317548854],[-119.04800696546243,35.4165137108431],[-119.0480758256085,35.41635892953843],[-119.04816321614105,35.41621032217244],[-119.04826829535973,35.41606931987801],[-119.04839005123351,35.41593728054173],[-119.04852731114941,35.415815475728394],[-119.04867875320676,35.41570507843689],[-119.04884291894838,35.41560715180543],[-119.04901822740585,35.41552263887484],[-119.04920299032364,35.415452353508265],[-119.04939542841555,35.41539697255482],[-119.04959368849718,35.41535702933276],[-119.0497958613292,35.41533290849446],[-119.05,35.41532484232273],[-119.05020413867078,35.41533290849446],[-119.05040631150281,35.41535702933277],[-119.05060457158444,35.41539697255482],[-119.05079700967636,35.415452353508265],[-119.05098177259414,35.41552263887484],[-119.05115708105163,35.41560715180543],[-119.05132124679324,35.41570507843689],[-119.05147268885058,35.41581547572839],[-119.05160994876645,35.41593728054176],[-119.05173170464026,35.41606931987801],[-119.05183678385896,35.41621032217244],[-119.05192417439149,35.41635892953841],[-119.05199303453756,35.4165137108431],[-119.05204270103665,35.41667317548854],[-119.05207269545969,35.4168357877658],[-119.05208272882064,35.41699998164377],[-119.05208281056797,35.41999998164312],[-119.05208289232193,35.42299998164243]]]},"properties":{"fire_id":"F0003","date":"2026-08-19","area_ha":36.2,"frp_sum":12.0,"n_detections":3,"first_seen":"2026-08-18","last_seen":"2026-08-19","centroid":[-119.05,35.42],"history":[{"date":"2026-08-18","area_ha":36.2},{"date":"2026-08-19","area_ha":36.2}],"track":[[-119.05,35.420000004014135],[-119.05,35.420000004014135]],"growth_24h_ha":0.0,"speed_km_day":0.0,"bearing_deg":0.0,"direction":"N"}}]}