{"type":"FeatureCollection","features":[{"type":"Feature","geometry":{"type":"Polygon","coordinates":[[[-122.40415659704226,40.72445746640126],[-122.40526329599682,40.731514999866874],[-122.40527805595384,40.73167535381801],[-122.40527218616879,40.731836027327326],[-122.40524574060844,40.7319955393485],[-122.40519896290542,40.73215241953105],[-122.40513228411723,40.7323052217742],[-122.40504631875773,40.73245253755727],[-122.40494185913666,40.73259300892462],[-122.40481986805997,40.732725341003935],[-122.40468146995765,40.732848313944025],[-122.40452794052077,40.73296079416072],[-122.40436069494348,40.733061744788124],[-122.40418127487807,40.73315023523811],[-122.40399133422326,40.73322544978015],[-122.40379262387715,40.733286695062255],[-122.40358697559489,40.733333406504016],[-122.40337628510053,40.733365153501985],[-122.4031624946085,40.733381643399944],[-122.40294757491608,40.73338272418745],[-122.40273350723216,40.73336838590147],[-122.40252226490979,40.73333876071795],[-122.40231579525138,40.7332941217334],[-122.40211600155426,40.733234880446766],[-122.40192472556228,40.73316158296513],[-122.37889441062528,40.723261370363915],[-122.37871862028861,40.72317739017108],[-122.37855404577266,40.72308153450783],[-122.37840211638004,40.7229746358952],[-122.37826415157153,40.72285762275969],[-122.37814134950659,40.722731511368906],[-122.37803477663861,40.722597397003234],[-122.3656461658981,40.705205641675036],[-122.34678859978915,40.70672366585293],[-122.33430440717756,40.71001878442902],[-122.33408393872979,40.710067592504096],[-122.33385793934379,40.71009921974996],[-122.33362879476883,40.710113332293595],[-122.33339892396324,40.71010978115563],[-122.3265487639164,40.709739772020946],[-122.3263339598152,40.70972031769811],[-122.32612267139167,40.70968543492313],[-122.32591687401704,40.70963544982333],[-122.32571849171526,40.70957082972012],[-122.32552937917181,40.70949217875932],[-122.32535130439143,40.70940023226141],[-122.32518593216706,40.70929584984608],[-122.32503480851453,40.709180007393535],[-122.32489934621867,40.70905378791953],[-122.32478081162594,40.70891837144894],[-122.32468031280705,40.708775023981715],[-122.32459878920011,40.70862508565617],[-122.32453700283146,40.70846995821851],[-122.32449553119552,40.70831109191717],[-122.32447476186046,40.70814997194421],[-122.32447488884995,40.707988104549706],[-122.32449591083459,40.707827002960414],[-122.32453763114947,40.70766817323314],[-122.32459965963818,40.70751310017572],[-122.3246814163048,40.70736323346687],[-122.32478213674075,40.707219974105236],[-122.32671218009888,40.70477000489285],[-122.32682674905973,40.7046389858619],[-122.32695717656888,40.70451654705965],[-122.32710232184192,40.70440375932102],[-122.32726091539257,40.70430160906872],[-122.32743157013617,40.70421098968744],[-122.32761279352083,40.70413269371209],[-122.32780300058018,40.70406740589738],[-122.33896378757126,40.7006990599076],[-122.34262169569148,40.69771805992083],[-122.33615743183492,40.677978417683754],[-122.33611232697142,40.677798661209884],[-122.33609369291696,40.67761629499912],[-122.3361017518887,40.6774334958214],[-122.33681193994944,40.67138350890955],[-122.33683959632346,40.671229888355384],[-122.3368861177907,40.67107884099975],[-122.33695110538346,40.670931661837244],[-122.3370340018253,40.67078961269069],[-122.34715651634893,40.65542164632488],[-122.35567925136375,40.64194374542242],[-122.35577891739591,40.64180368221157],[-122.35589584866521,40.64167131526251],[-122.35602899419169,40.64154783418368],[-122.35617715729278,40.6414343487181],[-122.35633900633964,40.64133187877141],[-122.35651308672536,40.64124134524727],[-122.35669783393759,40.6411635617725],[-122.35689158761792,40.64109922738632],[-122.35709260648208,40.64104892025931],[-122.3572990839665,40.64101309249855],[-122.37001960485557,40.639276245525735],[-122.39151670188772,40.63368859237368],[-122.39173521447081,40.63364095565031],[-122.39195906222002,40.633610202889834],[-122.39218592520429,40.63359665280826],[-122.39241345224966,40.633600445836144],[-122.39263928530136,40.63362154266328],[-122.39286108385727,40.633659724646],[-122.3930765492195,40.63371459607295],[-122.39328344831333,40.63378558826489],[-122.39347963682654,40.633871965467684],[-122.39366308142986,40.63397283247533],[-122.39383188084828,40.63408714390684],[-122.39398428556483,40.6342137150379],[-122.3941187159529,40.63435123407778],[-122.40801895272816,40.65020101925463],[-122.40812756825851,40.65033875483797],[-122.40821813092391,40.65048362257592],[-122.40828981387915,40.65063429999501],[-122.40834196261571,40.65078941157695],[-122.40837410094076,40.65094754131505],[-122.4083859353288,40.65110724564003],[-122.40837735760601,40.65126706659786],[-122.40834844594282,40.65142554515962],[-122.4082994641452,40.65158123454095],[-122.40823085925113,40.6517327134109],[-122.40814325745416,40.65187859886778],[-122.39864006311964,40.66587210550982],[-122.41732957416336,40.670407472609035],[-122.41753244518242,40.670464961870984],[-122.41772692182066,40.67053689041845],[-122.41791117479079,40.670622581689265],[-122.4180834709526,40.670721229665865],[-122.41824218961321,40.67083190645542],[-122.41838583777142,40.67095357101583],[-122.41851306416109,40.67108507894675],[-122.41862267196291,40.67122519325226],[-122.41871363006403,40.6713725959747],[-122.4187850827601,40.671525900590694],[-122.41883635780808,40.671683665051965],[-122.41886697275389,40.671844405348715],[-122.41887663947561,40.67200660946845],[-122.41886526689885,40.67216875161821],[-122.41883296185885,40.67232930657709],[-122.41878002810081,40.67248676404365],[-122.41870696342792,40.67263964284329],[-122.41335225587277,40.68233199717405],[-122.40701583091858,40.70168906035763],[-122.4038301550313,40.72174404774211],[-122.40415659704226,40.72445746640126]]]},"properties":{"fire_id":"F0001","date":"2026-08-24","area_ha":4933.3,"frp_sum":1733.7,"n_detections":126,"first_seen":"2026-08-18","last_seen":"2026-08-24","centroid":[-122.37682,40.68042],"history":[{"date":"2026-08-18","area_ha":242.8},{"date":"2026-08-19","area_ha":806.9},{"date":"2026-08-20","area_ha":1378.4},{"date":"2026-08-21","area_ha":2289.5},{"date":"2026-08-22","area_ha":2929.3},{"date":"2026-08-23","area_ha":3454.2},{"date":"2026-08-24","area_ha":4933.3}],"track":[[-122.39995862968424,40.62563349869898],[-122.39835509269727,40.62914708372974],[-122.39387512695416,40.640458473541486],[-122.39014718510178,40.65469645357964],[-122.38291458468869,40.66056104271662],[-122.38268582182035,40.678620724651886],[-122.37682145678767,40.68041717843042]],"growth_24h_ha":1479.05,"speed_km_day":0.53,"bearing_deg":83.64,"direction":"E"}},{"type":"Feature","geometry":{"type":"Polygon","coordinates":[[[-120.87756350987388,39.302262455757656],[-120.89564002672694,39.31227653069866],[-120.89580585247218,39.31237808306776],[-120.89595800320649,39.312491395340395],[-120.89609504968769,39.31261540315819],[-120.89621570453045,39.31274894169221],[-120.89631883430054,39.31289075658286],[-120.89640347016349,39.313039515720995],[-120.89646881698849,39.31319382175974],[-120.89651426082072,39.31335222523869],[-120.89653937465305,39.31351323819899],[-120.89654392244188,39.313675348159435],[-120.89652786132923,39.31383703232368],[-120.89649134205082,39.31399677188492],[-120.8964347075249,39.31415306629308],[-120.89635848963616,39.314304447351205],[-120.89626340424363,39.314449493008084],[-120.89615034446011,39.31458684071785],[-120.89602037226574,39.31471520024077],[-120.89587470853434,39.31483336576518],[-120.88189469286559,39.32512353994714],[-120.88173423093703,39.32523064479964],[-120.88156088686507,39.32532537402828],[-120.88137629745708,39.325406833122344],[-120.88118220572653,39.3254742528757],[-120.86622193558748,39.330014352157576],[-120.8660163893887,39.33006789846443],[-120.86580490527622,39.33010570054295],[-120.8655895541483,39.33012738822514],[-120.86537244477773,39.33013274913917],[-120.86515570315814,39.33012173078945],[-120.86494145168116,39.33009444107079],[-120.86473178834937,39.33005114721162],[-120.86452876622795,39.329992273156634],[-120.86433437333697,39.32991839541462],[-120.85215408036665,39.324699643558844],[-120.83763956692572,39.32586381772726],[-120.8374254287769,39.32587295078305],[-120.83721114332926,39.32586611287866],[-120.83699875636937,39.32584336929579],[-120.83679029555518,39.325804937167995],[-120.81775991044636,39.321534840765636],[-120.81754183487702,39.321476209937515],[-120.8173330627962,39.32140041720384],[-120.81713591150164,39.3213083038506],[-120.81695256927952,39.32120089231613],[-120.81341255269267,39.31889085102343],[-120.81325365364091,39.3187762135874],[-120.81311051789733,39.318650087481274],[-120.8129845676929,39.3185137260009],[-120.81287705446738,39.318368484141814],[-120.81278904643656,39.31821580513373],[-120.81272141798112,39.318057206097585],[-120.8126748409625,39.31789426296947],[-120.81264977805175,39.31772859484007],[-120.8126464781377,39.317561847865754],[-120.8126649738597,39.31739567891124],[-120.81270508128928,39.31723173908619],[-120.81276640176351,39.31707165733971],[-120.81284832585187,39.31691702427501],[-120.81295003941682,39.31676937634614],[-120.81307053170757,39.31663018059255],[-120.81320860540676,39.31650082006401],[-120.81336288852981,39.31638258008017],[-120.81353184805863,39.316276635461286],[-120.81371380517437,39.316184038857415],[-120.81390695193771,39.316105710290714],[-120.8141093692509,39.31604242801598],[-120.81431904592331,39.3159948207898],[-120.81453389865128,39.31596336162427],[-120.81475179271361,39.31594836308829],[-120.81497056317744,39.31594997420281],[-120.82656728072988,39.31647619873598],[-120.83746399434824,39.31633995887692],[-120.84024790537433,39.30434172509321],[-120.83432972849609,39.28940373323465],[-120.8342768628265,39.28924132160866],[-120.8342455396129,39.289075695332585],[-120.83423607209923,39.28890851151642],[-120.83424855485738,39.28874144284198],[-120.8342828628467,39.2885761608272],[-120.83433865267133,39.28841431910295],[-120.83441536602137,39.28825753686929],[-120.83451223526427,39.28810738269645],[-120.83462829112932,39.28796535883252],[-120.83476237240916,39.28783288617587],[-120.83491313758019,39.28771129006052],[-120.83507907822604,39.287601786998785],[-120.8352585341298,39.28750547251238],[-120.83544970988345,39.28742331017386],[-120.83565069284907,39.28735612196841],[-120.83585947229153,39.28730458007186],[-120.8417869871985,39.28608714714689],[-120.84353424353161,39.28571148970046],[-120.85221438928764,39.282081841611294],[-120.8524468248256,39.269476496479136],[-120.85246071486385,39.26931058395077],[-120.85249612581563,39.26914654215055],[-120.8525527078469,39.268985991021175],[-120.85262990206505,39.26883051602325],[-120.85272694604338,39.26868165248008],[-120.85284288135443,39.268540870417006],[-120.85297656303855,39.2684095600464],[-120.85312667091306,39.268289018041024],[-120.85329172261088,39.26818043473119],[-120.85347008821975,39.268084882352014],[-120.85366000637715,39.26800330445716],[-120.85385960166234,39.26793650660314],[-120.8540669031136,39.26788514839599],[-120.8542798636882,39.26784973697937],[-120.86970952215273,39.265889782388506],[-120.86992622192834,39.26587063095901],[-120.87014434397365,39.26586799388093],[-120.87036173059965,39.26588189724056],[-120.87057623139073,39.26591220350432],[-120.87078572447236,39.26595861287908],[-120.87098813749714,39.26602066627716],[-120.8711814681409,39.266097749856705],[-120.87136380390729,39.26618910109271],[-120.8715333410442,39.26629381631859],[-120.87168840238563,39.266410859664205],[-120.87182745394239,39.266539073300805],[-120.87194912007737,39.26667718889337],[-120.87205219711575,39.26682384014545],[-120.8721356652547,39.26697757631365],[-120.8721986986554,39.267136876557714],[-120.87224067361723,39.267300164984285],[-120.8722611747525,39.26746582623535],[-120.87293127397967,39.27897783592931],[-120.87883078937158,39.288174841456254],[-120.87892237608317,39.28833931451103],[-120.88050245812995,39.29165928788894],[-120.88056523403289,39.29181421813377],[-120.88060804418843,39.29197305470768],[-120.88063048627835,39.29213430539827],[-120.88063234932957,39.292296455303195],[-120.8806136157014,39.292457981061965],[-120.88057446125637,39.29261736516754],[-120.87756350987388,39.302262455757656]]]},"properties":{"fire_id":"F0007","date":"2026-08-24","area_ha":2400.3,"frp_sum":652.2,"n_detections":37,"first_seen":"2026-08-22","last_seen":"2026-08-24","centroid":[-120.85962,39.30304],"history":[{"date":"2026-08-22","area_ha":668.1},{"date":"2026-08-23","area_ha":1323.8},{"date":"2026-08-24","area_ha":2400.3}],"track":[[-120.85074996754508,39.30985387424821],[-120.85405701354189,39.309065935619394],[-120.85962401044765,39.30303870946928]],"growth_24h_ha":1076.47,"speed_km_day":0.83,"bearing_deg":230.14,"direction":"SW"}},{"type":"Feature","geometry":{"type":"Polygon","coordinates":[[[-120.82065932496447,39.2886341891517],[-120.82076255215452,39.288777569848094],[-120.820846924483,39.28892795185477],[-120.82091163534547,39.28908389772463],[-120.82095606606156,39.289243916818],[-120.82097979179315,39.28940647955048],[-120.8209825856104,39.289570032012946],[-120.82096442066617,39.28973301082505],[-120.82092547045794,39.289893858079054],[-120.82086610717491,39.2900510362324],[-120.82078689814504,39.2902030428054],[-120.82068860041686,39.2903484247445],[-120.82057215352658,39.29048579231341],[-120.82043867052053,39.290613832379094],[-120.82028942731772,39.29073132096556],[-120.82012585051463,39.2908371349563],[-120.81994950374886,39.29093026283157],[-120.81976207275149,39.29100981433986],[-120.81956534923144,39.29107502900947],[-120.81936121374588,39.29112528341964],[-120.81915161772045,39.29116009716137],[-120.81893856479154,39.29117913743073],[-120.8187240916486,39.29118222221086],[-120.81851024856059,39.29116932201266],[-120.81829907977209,39.29114056015648],[-120.81809260395741,39.291096211593],[-120.81789279491912,39.29103670027456],[-120.81770156271604,39.29096259510104],[-120.81752073540132,39.290874604481],[-120.80225059255885,39.28261444613792],[-120.80207890009643,39.28251137520629],[-120.80192150527348,39.28239579026186],[-120.80177996958172,39.282268838060396],[-120.80165569714741,39.282131778129184],[-120.8015499208025,39.28198597026975],[-120.80146368985588,39.28183286106497],[-120.80139785968647,39.28167396952616],[-120.8013530832614,39.28151087202125],[-120.80132980466269,39.281345186634724],[-120.80132825468709,39.281178557114174],[-120.80134844856225,39.281012636562245],[-120.80139018580145,39.28084907103635],[-120.80145305219841,39.280689483219355],[-120.80153642394215,39.280535456321445],[-120.8016394738105,39.28038851837527],[-120.8017611793811,39.28025012707773],[-120.80190033317801,39.28012165533048],[-120.80205555465291,39.280004377621985],[-120.80222530388265,39.279899457385426],[-120.80240789684629,39.27980793545915],[-120.8026015221308,39.27973071976248],[-120.80280425889953,39.27966857629114],[-120.80301409594495,39.279622121519125],[-120.80322895163728,39.27959181628498],[-120.8034466945711,39.27957796122081],[-120.8036651647048,39.279580693770626],[-120.80388219478455,39.27959998682714],[-120.80409563183892,39.27963564900073],[-120.80430335853272,39.27968732651759],[-120.80450331416709,39.27975450672848],[-120.8169531218256,39.28451440673201],[-120.81713014003478,39.284590078484456],[-120.81729723202936,39.284677899674676],[-120.81745296812092,39.28477711889959],[-120.81759601576708,39.28488688723072],[-120.81772515097273,39.28500626547631],[-120.81783926876325,39.28513423221605],[-120.82065932496447,39.2886341891517]]]},"properties":{"fire_id":"F0008","date":"2026-08-24","area_ha":86.4,"frp_sum":57.7,"n_detections":3,"first_seen":"2026-08-24","last_seen":"2026-08-24","centroid":[-120.8117,39.28519],"history":[{"date":"2026-08-24","area_ha":86.4}],"track":[[-120.81169601021394,39.28518717559761]],"growth_24h_ha":null,"speed_km_day":null,"bearing_deg":null,"direction":null}},{"type":"Feature","geometry":{"type":"Polygon","coordinates":[[[-123.33137129381213,41.046995419652426],[-123.33150737000743,41.04711430424132],[-123.33162797900171,41.047242115112915],[-123.33173207113055,41.04737774001884],[-123.33181874044857,41.04751999870368],[-123.33188723261601,41.04766765317465],[-123.33193695146628,41.04781941847461],[-123.33196746419792,41.047973973862995],[-123.33197850514497,41.04812997430941],[-123.33196997809333,41.04828606219806],[-123.33194195712252,41.0484408791429],[-123.32959224658146,41.05802092229081],[-123.32954127487868,41.05818278369334],[-123.32946900016992,41.058340083842104],[-123.32937613470739,41.058491272271915],[-123.32926359371712,41.05863485874866],[-123.32913248638201,41.05876942795998],[-123.32898410491227,41.058893653467095],[-123.32881991181056,41.05900631078135],[-123.32864152545761,41.05910628943567],[-123.32845070416022,41.05919260393218],[-123.32824932881873,41.0592644034583],[-123.32803938438516,41.05932098027483],[-123.32782294029477,41.05936177669338],[-123.32760213006382,41.05938639057532],[-123.32737913025545,41.05939457929609],[-123.32715613902027,41.05938626213753],[-123.32693535442456,41.05936152108389],[-123.32671895277852,41.059320600013216],[-123.32650906718008,41.05926390229291],[-123.3263077664844,41.05919198680308],[-123.32611703490755,41.05910556242596],[-123.32593875246535,41.059005481057305],[-123.32577467644016,41.0588927292073],[-123.32562642405848,41.05876841827485],[-123.32549545655044,41.058633773590635],[-123.31633462323887,41.04815597686449],[-123.31070210361702,41.047685080825175],[-123.31033702609442,41.05462556945833],[-123.31031532726372,41.05480108207532],[-123.31026897531952,41.05497392414046],[-123.31019848359188,41.05514218082794],[-123.31010463285763,41.05530398809672],[-123.30998846269722,41.055457553342784],[-123.30985125998356,41.055601175260264],[-123.3077497881945,41.05757238702744],[-123.30768467265499,41.06177009437322],[-123.31531585196713,41.06479141132608],[-123.31550695001324,41.06487634687377],[-123.31568583864915,41.064974928857424],[-123.31585076624305,41.06508619202078],[-123.31600011783972,41.06520904693582],[-123.31613243097377,41.06534229066827],[-123.3162464099903,41.065484618554066],[-123.31634093873409,41.065634636972675],[-123.31641509148155,41.065790876991],[-123.3164681420095,41.06595180874571],[-123.31649957071083,41.06611585642177],[-123.31650906968797,41.066281413682084],[-123.31649654577349,41.06644685939581],[-123.31646212144841,41.06661057351239],[-123.31640613364897,41.066770952925275],[-123.31632913047284,41.066926427170365],[-123.31623186581774,41.067075473805055],[-123.31611529200349,41.06721663331749],[-123.31598055045089,41.06734852342018],[-123.31582896050755,41.0674698525871],[-123.3156620065304,41.067579432703134],[-123.31548132335145,41.067676190699814],[-123.31528868026862,41.06775917906564],[-123.31508596371896,41.06782758512619],[-123.3148751588036,41.067880739004025],[-123.31465832984577,41.067918120179506],[-123.31443760017207,41.06793936258968],[-123.31421513131552,41.067944258213586],[-123.3085750246577,41.067860343916706],[-123.3060789821856,41.07462371300935],[-123.30600588261814,41.07478801025057],[-123.30591039447394,41.07494581293655],[-123.30579353763119,41.07509543538344],[-123.30565656025584,41.07523527927948],[-123.30275658266716,41.07789532133145],[-123.30261212300194,41.07801549964522],[-123.3024528040648,41.07812477596675],[-123.30228010343541,41.07822213678122],[-123.30209562282585,41.07830667908339],[-123.30190107322451,41.078377618754566],[-123.3016982590255,41.07843429783617],[-123.301489061291,41.07847619063385],[-123.30127542030172,41.07850290859392],[-123.30105931755783,41.078514203908384],[-123.30084275739685,41.078509971813524],[-123.3006277483997,41.07849025156191],[-123.30041628475736,41.07845522605819],[-123.300210327771,41.07840522016241],[-123.30001178765768,41.078340697676175],[-123.2998225058301,41.078262257040016],[-123.2996442378153,41.07817062578185],[-123.29947863697072,41.07806665376772],[-123.29932723914852,41.07795130531833],[-123.29919144845088,41.077825650263215],[-123.29907252420796,41.07769085401691],[-123.2989715692998,41.07754816676872],[-123.29888951992986,41.07739891188608],[-123.29697209383369,41.07336696503361],[-123.2854944809495,41.06955959004336],[-123.28529965355878,41.06948631633736],[-123.2851152835892,41.06939932741502],[-123.28494310742198,41.069299442553415],[-123.28478474657562,41.06918760248185],[-123.28464169243388,41.069064860520605],[-123.28451529220024,41.06893237265861],[-123.28440673621127,41.0687913866654],[-123.28431704672833,41.06864323033729],[-123.28424706831319,41.06848929899147],[-123.28419745987775,41.068331042323656],[-123.28416868848318,41.06816995075431],[-123.28416102494612,41.06800754139115],[-123.28417454129362,41.06784534374167],[-123.28420911009016,41.067684885308175],[-123.28426440564327,41.06752767720311],[-123.28433990707595,41.067375199918345],[-123.28443490323679,41.0672288893839],[-123.29068343100411,41.058688074463326],[-123.28916987404247,41.05354950351778],[-123.28098846358718,41.05620511353903],[-123.2807531591848,41.05627010486856],[-123.28050959468838,41.05631516672239],[-123.2689093347289,41.0579552071134],[-123.26868647863319,41.057978173850024],[-123.26846165596099,41.05798444442357],[-123.2682371169875,41.05797395607097],[-123.26801510914774,41.057946813771686],[-123.26779785453697,41.05790328919696],[-123.26758752766506,41.05784381798985],[-123.26738623368767,41.05776899540403],[-123.26719598733226,41.05767957034443],[-123.26701869272993,41.05757643787003],[-123.26685612435548,41.05746063023323],[-123.26670990926621,41.05733330654658],[-123.26658151081732,41.05719574117929],[-123.26647221401709,41.05704931100001],[-123.26638311266824,41.0568954815948],[-123.26631509842397,41.056735792596314],[-123.26626885186843,41.056571842273016],[-123.26624483571024,41.05640527153152],[-123.26624329015732,41.05623774749259],[-123.26626423051916,41.056070946805676],[-123.2663074470597,41.055906538868165],[-123.26786225933486,41.05124254409803],[-123.2686781579574,41.04330225435529],[-123.26870960895666,41.04312343073661],[-123.27017978620438,41.03724345770517],[-123.27022819039409,41.03709025174061],[-123.27029569191406,41.03694110740374],[-123.27038169434226,41.03679734222307],[-123.27048543783407,41.03666022619983],[-123.27060600583792,41.03653097058993],[-123.27074233319468,41.03641071720515],[-123.27089321554905,41.036300528327835],[-123.27105731998968,41.03620137732855],[-123.27123319682428,41.036114140068946],[-123.27141929238537,41.036039587166115],[-123.27161396275378,41.0359783771864],[-123.27672386465026,41.03457841009979],[-123.27693102650852,41.03452997017215],[-123.27714349553263,41.0344966419519],[-123.27735928988855,41.034478736310284],[-123.27757639673145,41.03447642026332],[-123.27779279097666,41.034489715414004],[-123.27800645418488,41.03451849775109],[-123.2782153933856,41.0345624988054],[-123.28264709795701,41.03567042847895],[-123.29148334306923,41.03554940522418],[-123.29459796459611,41.03289746116446],[-123.29475727845809,41.03277499417955],[-123.29493248709859,41.03266523140725],[-123.29512177348656,41.032569311113896],[-123.2953231746259,41.03248822801155],[-123.29553460191063,41.032422822944135],[-123.29575386278184,41.032373774170054],[-123.29657384508025,41.03222377781869],[-123.29678251228619,41.032193319580195],[-123.29699410923331,41.03217768287271],[-123.2972067429513,41.03217700758331],[-123.2974185111968,41.03219129975317],[-123.29762751946737,41.0322204315236],[-123.29783189794645,41.03226414227941],[-123.29802981822765,41.03232204098018],[-123.29821950966887,41.03239360965761],[-123.29839927523037,41.03247820804819],[-123.29856750665475,41.03257507932048],[-123.30527188912525,41.03682726946745],[-123.30994813454348,41.03215868211238],[-123.30996004713242,41.032146896723276],[-123.31353008453881,41.02864694975468],[-123.31367033803055,41.028522475516],[-123.31382612776383,41.028408714743165],[-123.31399598646922,41.0283067388104],[-123.31417831439981,41.02821750810026],[-123.31437139439659,41.02814186296056],[-123.31457340805922,41.028080515791686],[-123.31478245286904,41.02803404433877],[-123.31499656010372,41.028002886251905],[-123.31521371337459,41.02798733496529],[-123.31543186761256,41.0279875369345],[-123.3156489683238,41.0280034902575],[-123.31586297093412,41.02803504469245],[-123.31607186003995,41.02808190307256],[-123.316273668385,41.02814362410371],[-123.31646649538386,41.02821962651985],[-123.31664852501841,41.02830919455587],[-123.31681804293844,41.028411484686956],[-123.31697345260586,41.02852553357149],[-123.31711329033017,41.02865026712165],[-123.31723623905383,41.02878451061753],[-123.31734114075765,41.02892699976886],[-123.31742700736932,41.02907639262028],[-123.31749303007237,41.02923128218863],[-123.31753858692753,41.02939020971273],[-123.31756324873479,41.02955167839104],[-123.31756678308071,41.029714167478325],[-123.31754915653275,41.02987614660765],[-123.3161592808644,41.03782990070715],[-123.32433896389126,41.04149506116587],[-123.32451151521745,41.041580677731176],[-123.324672743916,41.04167776884296],[-123.32482127891596,41.04178550888155],[-123.33137129381213,41.046995419652426]]]},"properties":{"fire_id":"F0003","date":"2026-08-24","area_ha":1514.1,"frp_sum":408.0,"n_detections":47,"first_seen":"2026-08-20","last_seen":"2026-08-24","centroid":[-123.29793,41.05047],"history":[{"date":"2026-08-20","area_ha":112.3},{"date":"2026-08-22","area_ha":958.4},{"date":"2026-08-23","area_ha":1392.7},{"date":"2026-08-24","area_ha":1514.1}],"track":[[-123.31483400238075,41.0517423580262],[-123.30320142969047,41.050490850797345],[-123.29998087637628,41.046105065305554],[-123.29793193341543,41.05046796773457]],"growth_24h_ha":121.46,"speed_km_day":0.52,"bearing_deg":35.74,"direction":"NE"}}]}