{"type":"FeatureCollection","features":[{"type":"Feature","geometry":{"type":"Polygon","coordinates":[[[-122.40883521465099,40.72660991075127],[-122.40504218626107,40.74209177315617],[-122.40498488382593,40.74226995938986],[-122.40490187860966,40.74244239444171],[-122.40479416510928,40.7426070119612],[-122.40144424979495,40.74708706614913],[-122.40132334322809,40.74723106025293],[-122.40118352759598,40.74736514241404],[-122.4010262448557,40.74748792970467],[-122.40085311714553,40.74759815568558],[-122.40066593005534,40.74769468347013],[-122.40046661420956,40.74777651745226],[-122.40025722535329,40.74784281357727],[-122.4000399231464,40.747892888049435],[-122.39981694888529,40.74792622438587],[-122.38086651679343,40.750016275638274],[-122.38065464838171,40.75003197601221],[-122.38044174333909,40.750032559367746],[-122.3802297267163,40.750018020430225],[-122.38002051552934,40.7499884906587],[-122.37981600142278,40.74994423705684],[-122.37961803356232,40.74988565975845],[-122.37942840191204,40.74981328840843],[-122.3792488210474,40.74972777737334],[-122.37908091465069,40.749629899823006],[-122.37892620082874,40.74952054073874],[-122.37878607838645,40.74940068891018],[-122.37866181417948,40.74927142799338],[-122.37855453166112,40.74913392671163],[-122.3784652007264,40.74898942828659],[-122.37839462894564,40.748839239196826],[-122.3736969225591,40.73707968378486],[-122.35530232505006,40.724102883095284],[-122.33820260652182,40.723297587131185],[-122.32606575637907,40.72389058670758],[-122.32585087920368,40.72389334173123],[-122.32563663928569,40.72388067013852],[-122.32542501180313,40.72385268875528],[-122.32521794784371,40.7238096555558],[-122.3250173564133,40.72375196728383],[-122.32482508683275,40.72368015579424],[-122.3246429116854,40.72359488314842],[-122.3208328735669,40.72161484288062],[-122.32066173074027,40.72151641335075],[-122.32050406258676,40.72140610859623],[-122.32036133597894,40.72128495489079],[-122.32023487875371,40.721154079441185],[-122.32012586735944,40.72101469989781],[-122.32003531591268,40.72086811302439],[-122.31996406676573,40.72071568263186],[-122.31991278267333,40.72055882688848],[-122.31988194063086,40.720399005124804],[-122.31987182744122,40.720237704255716],[-122.31988253705164,40.72007642494639],[-122.31991396968482,40.719916667650764],[-122.31996583277245,40.71975991865231],[-122.32003764368216,40.719607636236816],[-122.32012873421226,40.719461237126396],[-122.32023825681256,40.71932208330029],[-122.3203651924727,40.71919146932531],[-122.32050836020527,40.71907061031357],[-122.32066642803458,40.71896063061975],[-122.32279750988904,40.717615220334935],[-122.328498889963,40.71366961812642],[-122.33547967341735,40.69740816558457],[-122.33550978708021,40.69734268485614],[-122.34404407311985,40.6799578301959],[-122.34135588336427,40.675998341905725],[-122.34124596815276,40.67580811339647],[-122.33563626763149,40.664168015769334],[-122.3355708464808,40.66400743301646],[-122.33552724100576,40.663842752866316],[-122.33550588960266,40.6636756315404],[-122.33550700684809,40.663507749799315],[-122.33553058134738,40.66334079603886],[-122.33557637585547,40.663176449309596],[-122.335643929669,40.66301636243112],[-122.33573256326567,40.66286214537061],[-122.33584138514328,40.66271534905279],[-122.33596930079008,40.66257744976375],[-122.33611502369564,40.66244983430627],[-122.33627708829162,40.66233378605479],[-122.33645386469207,40.66223047205109],[-122.336643575085,40.66214093126962],[-122.33684431161035,40.662066064171015],[-122.35957391523716,40.654626232595426],[-122.35982991216538,40.654555990439746],[-122.3600954246217,40.65450959452802],[-122.37864277766224,40.65214889874416],[-122.38761769570134,40.64627013299647],[-122.38779164776298,40.64616711867888],[-122.38797837455033,40.64607751457741],[-122.38817603878313,40.64600220231902],[-122.38838269558556,40.64594192290854],[-122.38859631161998,40.645897269439395],[-122.38881478508976,40.64586868125924],[-122.40323445360423,40.644528714098854],[-122.4034570905551,40.64451642109642],[-122.40368025496565,40.644520812946354],[-122.40390172208662,40.644541845866065],[-122.40411928408571,40.644579310176795],[-122.40433077205307,40.64463283239356],[-122.40453407761949,40.64470187894758],[-122.40472717397131,40.64478576150454],[-122.40490813605341,40.64488364382515],[-122.40507515975844,40.644994550100165],[-122.4052265799115,40.64511737467683],[-122.40536088687087,40.64525089307933],[-122.40547674157936,40.64539377421464],[-122.40557298891609,40.64554459364025],[-122.40564866921574,40.64570184776386],[-122.40570302784013,40.64586396883195],[-122.40573552270665,40.64602934055824],[-122.40574582969806,40.6461963142368],[-122.40573384589996,40.64636322517848],[-122.40303103994056,40.66581201521006],[-122.40544145305293,40.6801624573707],[-122.4159805021292,40.68185457902924],[-122.4358367226143,40.674855563697946],[-122.43604177170441,40.67479235871489],[-122.43625417492078,40.67474466062646],[-122.43647184460114,40.674712938241704],[-122.43669264133136,40.67469750334915],[-122.43691439496881,40.67469850765306],[-122.4371349259678,40.67471594128232],[-122.43735206679699,40.67474963288801],[-122.43756368323905,40.674799251326725],[-122.43776769536314,40.6748643089147],[-122.43796209796439,40.67494416622016],[-122.43814498026963,40.67503803834687],[-122.43831454471591,40.67514500264682],[-122.4384691246172,40.675264007787696],[-122.43860720054592,40.67539388408372],[-122.43872741526792,40.67553335499135],[-122.43882858708497,40.675681049654024],[-122.43890972145212,40.675835516374846],[-122.43897002075738,40.675995236884084],[-122.4390088921659,40.67615864126096],[-122.43902595345236,40.676324123363905],[-122.43902103676359,40.67649005661715],[-122.4389941902745,40.6766548099982],[-122.43894567772044,40.67681676407055],[-122.43887597581084,40.67697432690161],[-122.42963642120526,40.694834486371114],[-122.42954805221632,40.6949833197431],[-122.42944077353503,40.69512502396114],[-122.42931560034702,40.69525825792125],[-122.42917371721262,40.69538176067527],[-122.42901646685847,40.69549436336599],[-122.4288453374711,40.69559500029128],[-122.42866194861274,40.6956827189918],[-122.40778164004261,40.70462796223375],[-122.41464565578589,40.71050884300045],[-122.41478809371165,40.71064435983379],[-122.41491114780605,40.71079011606883],[-122.41501351316249,40.710944566206216],[-122.41509410422202,40.71110607255165],[-122.41515206628875,40.71127292257918],[-122.41518678459833,40.71144334708842],[-122.41519789084305,40.71161553896353],[-122.41518526708427,40.71178767233415],[-122.4151490470102,40.71195792193659],[-122.41508961452557,40.71212448246844],[-122.40883521465099,40.72660991075127]]]},"properties":{"fire_id":"F0001","date":"2026-08-25","area_ha":6210.1,"frp_sum":1649.2,"n_detections":143,"first_seen":"2026-08-18","last_seen":"2026-08-25","centroid":[-122.37845,40.69602],"history":[{"date":"2026-08-18","area_ha":242.8},{"date":"2026-08-19","area_ha":781.3},{"date":"2026-08-20","area_ha":1313.6},{"date":"2026-08-21","area_ha":2361.2},{"date":"2026-08-22","area_ha":2715.2},{"date":"2026-08-23","area_ha":3809.7},{"date":"2026-08-24","area_ha":4836.5},{"date":"2026-08-25","area_ha":6210.1}],"track":[[-122.39995862968424,40.62563349869898],[-122.39643271679388,40.62912906561212],[-122.39527118454497,40.64110370086517],[-122.38775721888156,40.65462163055391],[-122.38646945849867,40.66872528189749],[-122.3784952782252,40.67477671397668],[-122.37519117780091,40.68448464305715],[-122.3784502323182,40.69602217093036]],"growth_24h_ha":1373.67,"speed_km_day":1.32,"bearing_deg":3.97,"direction":"N"}},{"type":"Feature","geometry":{"type":"Polygon","coordinates":[[[-120.8821609440498,39.32823145361179],[-120.88868115592844,39.34825709042077],[-120.88872198718282,39.348414350094885],[-120.88874287654178,39.34857386537526],[-120.88874363207897,39.34873417168269],[-120.88872424672408,39.348893797165374],[-120.88868489833266,39.349051276212634],[-120.88862594805788,39.3492051629118],[-120.88854793703923,39.34935404432443],[-120.88845158143809,39.349496553460305],[-120.88833776586588,39.349631381829866],[-120.88820753526485,39.34975729145942],[-120.87733758869382,39.359287438739635],[-120.87719117456129,39.359403931744566],[-120.87703071592273,39.35950914321252],[-120.87685770398893,39.359602095329315],[-120.87667374665774,39.35968192421317],[-120.87648055356942,39.35974788794472],[-120.87627992021612,39.3597993734638],[-120.87607371125233,39.35983590226795],[-120.87586384316214,39.35985713486066],[-120.87565226644422,39.35986287390726],[-120.87544094748044,39.3598530660693],[-120.87523185025657,39.359827802500455],[-120.87502691810546,39.35978731799896],[-120.8748280556422,39.35973198882513],[-120.87463711105958,39.3596623292038],[-120.87445585894845,39.35957898654389],[-120.87428598380272,39.35948273542066],[-120.87412906436255,39.35937447037532],[-120.87398655894106,39.359255197600234],[-120.87385979187145,39.35912602558585],[-120.87374994120002,39.35898815481731],[-120.8736580277395,39.358842866616065],[-120.87358490558489,39.35869151123055],[-120.873531254179,39.358535495286354],[-120.8734975720022,39.35837626871261],[-120.8734841719442,39.35821531126647],[-120.87349117840105,39.35805411878088],[-120.87351852612413,39.35789418926281],[-120.87632844038708,39.34597697227761],[-120.86507244316863,39.33790641239951],[-120.86039566221243,39.335075481305445],[-120.84835847093986,39.33431599392093],[-120.83670919437482,39.34211678888916],[-120.836534750737,39.342222137411476],[-120.83634720476064,39.342313485995426],[-120.83614848406742,39.34238989572523],[-120.83594063115778,39.34245058122956],[-120.8357257824146,39.34249491875544],[-120.83550614614126,39.3425224525808],[-120.83528397985953,39.342532899699606],[-120.83506156710118,39.342526152731075],[-120.83484119393185,39.34250228102396],[-120.8346251254491,39.34246152994345],[-120.83441558249581,39.34240431834842],[-120.83421471882929,39.342331234285915],[-120.83402459898038,39.34224302894499],[-120.83384717703065,39.34214060893495],[-120.83368427652574,39.34202502696454],[-120.82394980498285,39.33437921326427],[-120.81250090170757,39.328270429754994],[-120.81234148986495,39.32817677219577],[-120.8121940048553,39.32807237998182],[-120.81205968667571,39.327958130841786],[-120.81193966460113,39.32783498537681],[-120.81183494769013,39.327703978982875],[-120.81174641630244,39.3275662131438],[-120.8053166710004,39.3162761073489],[-120.80525107161107,39.31614639347983],[-120.80519982728714,39.31601297597526],[-120.80379994594007,39.3117129516083],[-120.80375729586292,39.31154606108511],[-120.80373708771965,39.31137673249663],[-120.80373953008255,39.31120671483765],[-120.80376459756583,39.311037764207775],[-120.80381203109425,39.31087162567298],[-120.80388134058562,39.310710015241405],[-120.80397181001868,39.31055460213982],[-120.8100119929929,39.30145469877579],[-120.81011951977139,39.301310830410664],[-120.81024517376596,39.30117577062363],[-120.81038772398195,39.301050842449314],[-120.81054577393206,39.30093726966709],[-120.81071777531774,39.30083616481498],[-120.81090204319644,39.300748518292956],[-120.81109677248628,39.300675188662886],[-120.82086120605173,39.297445532700415],[-120.8158545792169,39.287605054384734],[-120.81578812213603,39.287453247627745],[-120.81574099206681,39.28729729316085],[-120.81571362019652,39.287138618208964],[-120.81570625688829,39.286978674884395],[-120.8157189693946,39.28681892689679],[-120.81575164124668,39.28666083615846],[-120.81580397332509,39.28650584940614],[-120.8158754866018,39.28635538496149],[-120.81596552652812,39.28621081975264],[-120.81607326902852,39.2860734767146],[-120.8161977280451,39.28594461268386],[-120.81633776456363,39.285825406898304],[-120.81649209703866,39.28571695020722],[-120.81665931312199,39.285620235090555],[-120.81683788258718,39.28553614657797],[-120.81702617133202,39.285465454151534],[-120.81722245633067,39.28540880470562],[-120.83119218196244,39.28194888204354],[-120.8314033778677,39.28190530811895],[-120.83161921469765,39.28187799322915],[-120.83183754578212,39.28186720904172],[-120.83205619964886,39.281873062813595],[-120.8322730016159,39.2818954963246],[-120.83248579541606,39.28193428645628],[-120.83269246463843,39.28198904741045],[-120.8328909537739,39.282059234545784],[-120.83307928865541,39.28214414979327],[-120.83325559609021,39.28224294859778],[-120.83341812248855,39.28235464831691],[-120.83356525130385,39.28247813799183],[-120.8336955191112,39.28261218939561],[-120.83380763016356,39.28275546924724],[-120.83390046928176,39.28290655247088],[-120.83397311294937,39.283063936368215],[-120.83402483850223,39.2832260555634],[-120.83520034519726,39.28791756442452],[-120.83571077505061,39.28973225295083],[-120.8524918016438,39.297110676511956],[-120.85280159013095,39.29628376462866],[-120.85074827328977,39.28534708420146],[-120.85072818010092,39.285182229450456],[-120.85072955363749,39.28501666747885],[-120.85075238030049,39.28485201979823],[-120.85079643638238,39.284689898954376],[-120.85086129026392,39.28453189273458],[-120.85094630664635,39.284379548617544],[-120.85105065277848,39.28423435861904],[-120.85117330661652,39.28409774468052],[-120.85131306683698,39.28397104474433],[-120.85146856460463,39.28385549965231],[-120.85163827697976,39.28375224099502],[-120.8518205418336,39.28366228003115],[-120.85201357412619,39.283586497785606],[-120.85221548338635,39.28352563642257],[-120.85917534873012,39.28172567648241],[-120.85938015187143,39.2816810305029],[-120.85958966712325,39.28165174165099],[-120.85980191936429,39.28163808603446],[-120.86001490767674,39.28164019238576],[-120.86022662420532,39.28165804084815],[-120.87342633101258,39.28326800348747],[-120.87363367081147,39.28330118077405],[-120.87383584760374,39.283349454307604],[-120.87403097606722,39.283412373935164],[-120.87421723659304,39.28348935292701],[-120.87439289225134,39.28357967344681],[-120.87455630498638,39.28368249324405],[-120.87470595089076,39.28379685350722],[-120.8748404344158,39.283921687803016],[-120.87495850138598,39.284055832019796],[-120.8750590506961,39.284198035221834],[-120.87514114458152,39.28434697131305],[-120.87520401736641,39.28450125140235],[-120.87524708260769,39.284659436754445],[-120.87526993856808,39.28482005220587],[-120.87527237196737,39.2849815999213],[-120.87525435997625,39.28514257336117],[-120.87521607043438,39.285301471331195],[-120.87515786029002,39.28545681198258],[-120.87508027227611,39.285607146631605],[-120.87498402985322,39.2857510732709],[-120.87487003046647,39.28588724964513],[-120.87473933717915,39.28601440577044],[-120.87459316876128,39.28613135577934],[-120.8744328883248,39.2862370089817],[-120.87425999061193,39.28633038003833],[-120.874076088055,39.28641059815155],[-120.87388289573772,39.28647691518812],[-120.87368221539832,39.28652871265772],[-120.87347591862373,39.286565507481875],[-120.87326592939176,39.28658695650087],[-120.8730542061243,39.286592859674286],[-120.86773313250016,39.286545036182865],[-120.86920131508583,39.29746825146734],[-120.87327306461967,39.29677701727818],[-120.8734888061149,39.29674891472296],[-120.8737071461895,39.29673733881412],[-120.87392591261015,39.296742404718394],[-120.87414292890267,39.29676406203606],[-120.87435603600117,39.29680209530186],[-120.87456311372372,39.29685612612837],[-120.87476210186219,39.29692561696972],[-120.87495102067523,39.29700987646855],[-120.87512799058231,39.29710806633287],[-120.87529125086141,39.29721920967481],[-120.87543917716575,39.297342200727684],[-120.8755702976845,39.2974758158459],[-120.87568330778718,39.29761872567727],[-120.87577708300581,39.2977695083869],[-120.87585069022565,39.29792666380232],[-120.87590339697292,39.29808862833727],[-120.87593467870728,39.29825379054722],[-120.87594422404607,39.29842050716161],[-120.87593193786795,39.29858711943286],[-120.87589794226555,39.29875196963999],[-120.87584257533629,39.29891341758222],[-120.87576638782446,39.29906985689924],[-120.87567013764648,39.29921973105465],[-120.87257453457579,39.30348664232917],[-120.88007820719389,39.31117873257183],[-120.89147169657555,39.30970074104713],[-120.89168112053085,39.30968140398886],[-120.89189201240333,39.30967748410696],[-120.89210242372354,39.30968901761796],[-120.8923104104611,39.309715897961645],[-120.8925140509821,39.30975787678566],[-120.89271146380024,39.30981456623938],[-120.89290082495685,39.30988544255667],[-120.8930803848705,39.30996985089409],[-120.8932484844996,39.310067011380305],[-120.89340357066948,39.3101760263196],[-120.89354421042219,39.310295888485385],[-120.89366910425629,39.310425490424116],[-120.89377709813449,39.31056363468663],[-120.89386719414847,39.31070904489016],[-120.8939385597415,39.31086037751043],[-120.89399053540441,39.31101623429391],[-120.89402264077306,39.31117517517632],[-120.89403457907132,39.31133573158771],[-120.89402623985772,39.31149642002097],[-120.89362634377376,39.314966427165935],[-120.89359431723811,39.31513972167384],[-120.89353871667701,39.31530951780738],[-120.89082889394024,39.32205956428402],[-120.89076133823097,39.322203853977015],[-120.89067674786376,39.32234282845137],[-120.89057583211374,39.322475322272986],[-120.89045943717332,39.32260022434807],[-120.89032853905836,39.322716487241316],[-120.89018423542474,39.3228231359614],[-120.8821609440498,39.32823145361179]]]},"properties":{"fire_id":"F0007","date":"2026-08-25","area_ha":3617.2,"frp_sum":1120.4,"n_detections":50,"first_seen":"2026-08-21","last_seen":"2026-08-25","centroid":[-120.84922,39.31523],"history":[{"date":"2026-08-21","area_ha":172.8},{"date":"2026-08-22","area_ha":526.8},{"date":"2026-08-23","area_ha":999.1},{"date":"2026-08-24","area_ha":2696.2},{"date":"2026-08-25","area_ha":3617.2}],"track":[[-120.84990275733595,39.29872182269667],[-120.8488850684943,39.30276151161182],[-120.8538826502948,39.306103156908996],[-120.8431947144284,39.3155956910735],[-120.84921788546596,39.31523380482727]],"growth_24h_ha":921.01,"speed_km_day":0.52,"bearing_deg":280.47,"direction":"W"}},{"type":"Feature","geometry":{"type":"Polygon","coordinates":[[[-123.31945926091238,41.05102621878336],[-123.32431884461967,41.05455026360247],[-123.32447152596508,41.05467260030487],[-123.3246070841236,41.054805653830364],[-123.32472417065982,41.054948100759326],[-123.3248216208459,41.05509852423192],[-123.3248984652496,41.05525542803918],[-123.32495393938139,41.05541725150364],[-123.32498749130338,41.05558238500204],[-123.32499878712503,41.05574918597492],[-123.32498771433033,41.05591599526429],[-123.32495438290314,41.0560811536172],[-123.32489912423944,41.05624301819013],[-123.32482248785698,41.05639997889139],[-123.32472523593466,41.05655047439787],[-123.32460833573606,41.056693007686626],[-123.32447294999187,41.05682616092807],[-123.32432042533723,41.0569486095911],[-123.3241522789184,41.0570591356206],[-123.32397018330225,41.05715663955584],[-123.3121800466935,41.062826758969685],[-123.3119915245256,41.06290805476659],[-123.31179332262423,41.06297538741135],[-123.31158730087593,41.06302812505708],[-123.30122394303508,41.06526891069186],[-123.29790969138188,41.072220239663736],[-123.29782451751298,41.07237413786686],[-123.29771924246717,41.072520980655604],[-123.29759490625104,41.072659317205506],[-123.29745273721855,41.072787780725925],[-123.29729413993756,41.07290510196608],[-123.29712068131413,41.073010121757136],[-123.29693407511178,41.073101802467235],[-123.29673616501881,41.07317923825516],[-123.29652890643042,41.07324166402215],[-123.2963143471266,41.07328846297303],[-123.29609460703587,41.0733191727116],[-123.29587185728587,41.07333348981022],[-123.29564829874732,41.07333127280873],[-123.29542614028381,41.073312543612225],[-123.29520757692259,41.07327748727465],[-123.2949947681623,41.073226450169955],[-123.29478981663179,41.07315993656924],[-123.29459474731189,41.073078603656725],[-123.29441148752471,41.07298325503572],[-123.29424184788887,41.072874832786646],[-123.2940875044291,41.07275440815764],[-123.28558754933464,41.06542428802195],[-123.28545606505487,41.06529937501706],[-123.28534105356374,41.065165755248515],[-123.28524354781963,41.06502462891629],[-123.28516442352506,41.064877263638245],[-123.28510439126384,41.064724983062916],[-123.28506399012232,41.06456915497918],[-123.28504358285159,41.064411179030046],[-123.2850433526136,41.064252474140744],[-123.28506330134098,41.0640944657735],[-123.28510324972437,41.06393857312468],[-123.28516283882789,41.06378619637757],[-123.28524153331742,41.063638704127456],[-123.28533862627307,41.063497421089764],[-123.28856407564668,41.0593061579249],[-123.28091785159222,41.05305786439227],[-123.2807749580692,41.052928660566046],[-123.2806500995943,41.052789479056855],[-123.28054452357564,41.05264171049372],[-123.28045928474117,41.05248683129347],[-123.2803952346044,41.05232638890785],[-123.28035301296136,41.05216198636099],[-123.2803330415036,41.05199526623221],[-123.2803355196111,41.05182789424385],[-123.28036042236626,41.05166154261846],[-123.28040750080932,41.05149787337187],[-123.28047628443183,41.051338521708146],[-123.28182233340088,41.04868346760663],[-123.28220660338063,41.04491554136958],[-123.27441575127698,41.036728245029245],[-123.27429921718412,41.03659233371945],[-123.2742007758218,41.03644870317939],[-123.27412134007898,41.03629868552347],[-123.27406164656081,41.03614367209455],[-123.274022248761,41.03598510055945],[-123.27400351193306,41.03582444157397],[-123.27400560970766,41.035663185143314],[-123.27402852248763,41.035502826802585],[-123.2740720376348,41.03534485374724],[-123.27413575144742,41.035190731040714],[-123.27421907290878,41.03504188802765],[-123.27432122917297,41.034899705079184],[-123.27444127273607,41.03476550079245],[-123.27457809022656,41.03464051976303],[-123.27473041273299,41.0345259210445],[-123.27489682757329,41.034422767400834],[-123.27507579139642,41.03433201545211],[-123.27526564449485,41.034254506804764],[-123.27546462619529,41.03419096024795],[-123.27567089118472,41.03414196508947],[-123.27588252662085,41.034107975691335],[-123.27609756986787,41.03408930725751],[-123.27631402669394,41.034086132911376],[-123.2765298897609,41.03409848209035],[-123.27674315723571,41.03412624027344],[-123.27695185135094,41.034169150042516],[-123.28324156856473,41.03570853054001],[-123.29583444948045,41.03546615478184],[-123.30945680135747,41.03513634002841],[-123.3096862208365,41.03513949996326],[-123.30991401299336,41.03516006197992],[-123.31013780495798,41.03519781188852],[-123.31035526552077,41.035252356456645],[-123.31056412941189,41.03532312750426],[-123.31076222089418,41.03540938782131],[-123.31094747642433,41.03551023884534],[-123.31111796614661,41.03562463002026],[-123.31442796590244,41.03808458639681],[-123.3145843672592,41.0382135555361],[-123.31472198063186,41.038353903754164],[-123.31483932371358,41.038504119407456],[-123.31493513249805,41.03866258456319],[-123.31500837489786,41.03882759242344],[-123.31505826186643,41.03899736570738],[-123.31508425590305,41.03917007579266],[-123.31532578260874,41.042178690657266],[-123.31945926091238,41.05102621878336]]]},"properties":{"fire_id":"F0005","date":"2026-08-25","area_ha":1054.3,"frp_sum":602.4,"n_detections":68,"first_seen":"2026-08-20","last_seen":"2026-08-25","centroid":[-123.29919,41.05072],"history":[{"date":"2026-08-20","area_ha":104.3},{"date":"2026-08-21","area_ha":463.8},{"date":"2026-08-22","area_ha":663.9},{"date":"2026-08-23","area_ha":661.5},{"date":"2026-08-24","area_ha":1136.5},{"date":"2026-08-25","area_ha":1054.3}],"track":[[-123.31899010956015,41.04996163235814],[-123.30153764597782,41.048964754438686],[-123.29924285315397,41.04945049951672],[-123.29927370815578,41.05176457183817],[-123.299475453178,41.051148636904344],[-123.29919284113903,41.050723352498444]],"growth_24h_ha":-82.15,"speed_km_day":0.05,"bearing_deg":170.13,"direction":"S"}},{"type":"Feature","geometry":{"type":"Polygon","coordinates":[[[-120.68659578824365,47.64012397858341],[-120.68657819496212,47.643196684450004],[-120.68656565814541,47.643360740263006],[-120.68653004400913,47.64352319833976],[-120.68647168571394,47.643682538144745],[-120.68639112930576,47.64383726831434],[-120.6862891286108,47.64398594061678],[-120.68616663818523,47.6441271635082],[-120.68602480438526,47.644259615159],[-120.685864954641,47.644382055827776],[-120.68568858503453,47.644493339467154],[-120.68549734629804,47.64459242445289],[-120.68529302836343,47.64467838333576],[-120.68507754360792,47.6447504115244],[-120.68485290895215,47.6448078348184],[-120.68462122697906,47.64485011572043],[-120.68438466625001,47.644876858469075],[-120.68414544100256,47.64488781274384],[-120.68390579042038,47.644882876009234],[-120.68366795766921,47.644862094474725],[-120.68343416889569,47.64482566266201],[-120.68320661238558,47.644773921583614],[-120.68298741807673,47.644707355550445],[-120.6787888772459,47.64326188022507],[-120.66936304119663,47.65578827310638],[-120.66923874460839,47.655934943728155],[-120.66909371298378,47.65607238870491],[-120.6689293928607,47.65619923703344],[-120.66874742320509,47.656314223401715],[-120.66854961906401,47.656416200812835],[-120.6683379534613,47.6565041520292],[-120.66811453771561,47.65657719972127],[-120.65247422674447,47.66104733226494],[-120.65225304897683,47.661102244189486],[-120.65202526846876,47.661142544897174],[-120.65179293688313,47.661167871383725],[-120.65155814688491,47.661177995523055],[-120.65132301328777,47.66117282612265],[-120.65108965400093,47.661152409745576],[-120.65086017094822,47.66111693029057],[-120.6506366311313,47.661066707335394],[-120.65042104800762,47.66100219325732],[-120.63615985528021,47.65616902229006],[-120.61743328334664,47.65131834886169],[-120.61720872533202,47.65125129641325],[-120.61699492506888,47.65116938396402],[-120.61679397100706,47.65107341168323],[-120.61660782608448,47.65096431707999],[-120.61643830855122,47.65084316584317],[-120.61628707420805,47.65071114142899],[-120.61615560023323,47.65056953349829],[-120.61604517075563,47.65041972531618],[-120.61595686431455,47.65026318023817],[-120.61589154332928,47.65010142741374],[-120.61584984568049,47.64993604684806],[-120.61583217848566,47.64976865396711],[-120.61583871412954,47.649600883837756],[-120.61586938858737,47.64943437519624],[-120.61688030189002,47.6455165662025],[-120.60993476492156,47.63303494691745],[-120.60986110714374,47.63288081126055],[-120.60980924475314,47.63272256289303],[-120.60977965076142,47.632561645615695],[-120.60977259500496,47.63239952756626],[-120.60978814168858,47.63223768782437],[-120.60982614880625,47.632077602916915],[-120.60988626944253,47.63192073334747],[-120.60996795494358,47.63176851027228],[-120.61007045992795,47.63162232244448],[-120.62012244967329,47.6188809422799],[-120.61099955335494,47.614120977911675],[-120.61081181956278,47.614012532023104],[-120.61064066991531,47.61389188048143],[-120.61048778563074,47.61376020854038],[-120.61035466846761,47.61361880970643],[-120.61024262597442,47.61346907302924],[-120.60717050764616,47.60880768399934],[-120.59961464861622,47.60205312622288],[-120.59947779207938,47.60191762150894],[-120.5993607457618,47.6017736584692],[-120.5992646125147,47.60162259375108],[-120.59919029809535,47.60146585091319],[-120.5991385026364,47.60130490700946],[-120.59910971405381,47.601141278668166],[-120.59910420345517,47.60097650780006],[-120.59912202259147,47.60081214706789],[-120.59916300337605,47.60064974525495],[-120.60410353761101,47.58548985118988],[-120.60417157397944,47.58532202334503],[-120.60426433168944,47.58515985904897],[-120.60438083412517,47.585005065350536],[-120.60451985474148,47.58485927169626],[-120.60467992998073,47.58472401277988],[-120.60485937468319,47.58460071239043],[-120.60505629982859,47.58449066842706],[-120.605268632422,47.58439503924003],[-120.61253852506422,47.581475119953545],[-120.61274369531776,47.581401320141026],[-120.61295802715358,47.58134099386104],[-120.62999766230664,47.57717111965569],[-120.63022983906569,47.577122937621304],[-120.63046777727318,47.57709056788979],[-120.63070919275542,47.57707432119963],[-120.6309517679652,47.577074353513424],[-120.63119317422472,47.57709066452099],[-120.63143109407525,47.57712309764225],[-120.63166324351926,47.577171341530224],[-120.63188739394175,47.57723493305872],[-120.63210139350032,47.57731326176716],[-120.63230318777913,47.57740557571902],[-120.6324908395088,47.57751098871896],[-120.6326625471624,47.577628488817375],[-120.63281666224985,47.5777569480234],[-120.63295170514436,47.57789513313112],[-120.63306637928898,47.578041717556005],[-120.63315958364694,47.57819529406844],[-120.63323042327607,47.578354388301435],[-120.63327821792566,47.57851747290319],[-120.63330250857287,47.578682982198856],[-120.63330306183623,47.57884932722101],[-120.63327987222284,47.57901491096375],[-120.63323316218822,47.57917814371521],[-120.63316338000732,47.57933745831989],[-120.6330711954772,47.57949132522545],[-120.63295749349257,47.579638267169095],[-120.63282336555508,47.57977687336189],[-120.63267009929827,47.57990581303571],[-120.63249916612821,47.580023848222],[-120.6323122070986,47.58012984564001],[-120.63211101715576,47.58022278757957],[-120.61942277665047,47.58548268296915],[-120.62369932591393,47.59326683407448],[-120.63201241495557,47.59416527410212],[-120.63534032724931,47.59421809925434],[-120.63985535704911,47.59356584317021],[-120.6480680507156,47.589359848106014],[-120.64827549562897,47.589264383091525],[-120.6484959145252,47.589183736426904],[-120.64872706358176,47.58911872905081],[-120.6489665897705,47.58907002269992],[-120.64921205480653,47.589038113174524],[-120.66896258290043,47.58717105584412],[-120.67474214938277,47.584544841552976],[-120.67493315139612,47.58446628423224],[-120.67513367574855,47.584399813725376],[-120.67534209989553,47.58434596786159],[-120.67555673738615,47.584305182319596],[-120.69291631973378,47.58157526756117],[-120.69314801342482,47.581546689749814],[-120.69338261787416,47.58153332980508],[-120.69361801225736,47.58153530849856],[-120.69385206861055,47.5815526079433],[-120.694082671063,47.58158507175502],[-120.69430773495986,47.58163240646583],[-120.69452522570369,47.58169418417599],[-120.69473317714363,47.58176984642128],[-120.69492970934647,47.58185870922024],[-120.69511304558924,47.58195996925508],[-120.69528152841976,47.58207271113296],[-120.69543363463974,47.58219591565828],[-120.69556798907554,47.582328469045216],[-120.70556820295944,47.59326828289442],[-120.70567872354414,47.59340230965671],[-120.70577108083329,47.59354264982136],[-120.70584451521077,47.59368814931477],[-120.70589842265937,47.593837611626604],[-120.70593235973178,47.59398980764817],[-120.70594604720156,47.59414348577916],[-120.7062164978708,47.606003479841426],[-120.70620809984631,47.60617221191367],[-120.70617529803104,47.606339538161144],[-120.706118416574,47.60650380410465],[-120.70603801772809,47.60666338550906],[-120.70593489629734,47.60681670444492],[-120.70581007178404,47.606962244892195],[-120.70566477831339,47.60709856773249],[-120.7055004524342,47.60722432498135],[-120.70531871891743,47.60733827311951],[-120.70512137469176,47.607439285391635],[-120.7049103710756,47.60752636295012],[-120.70468779448105,47.607598644734615],[-120.70445584578081,47.607655415988596],[-120.70421681854198,47.60769611532872],[-120.70397307634241,47.607720340298116],[-120.70372702939393,47.60772785134677],[-120.70348111070383,47.60771857420124],[-120.70323775201093,47.60769260059909],[-120.7029993597339,47.60765018738182],[-120.7027682911704,47.60759175395399],[-120.70254683118256,47.60751787813502],[-120.67228425302248,47.59610868076902],[-120.65846200943935,47.598689900177355],[-120.65703575946524,47.608897075806354],[-120.65894678394432,47.61068063156879],[-120.67155168731703,47.61693508621255],[-120.69257414722188,47.62281674607349],[-120.6950591004434,47.62258723944277],[-120.69530229611422,47.62257309027074],[-120.69554634294707,47.62257541033261],[-120.69578887247896,47.62259417711249],[-120.69602753096878,47.62262920848299],[-120.69626000223516,47.622680164471674],[-120.69648403013,47.62274655055969],[-120.69669744043026,47.62282772247973],[-120.69689816193542,47.622922892466825],[-120.69708424656616,47.62303113690168],[-120.69725388826936,47.62315140527207],[-120.69740544054588,47.623282530366026],[-120.69753743243132,47.623423239597415],[-120.69764858277445,47.623572167354325],[-120.69773781267448,47.62372786825035],[-120.69780425595688,47.62388883115101],[-120.69784726758547,47.62405349383817],[-120.69786642992894,47.62422025817078],[-120.697861556821,47.62438750559509],[-120.69783269537429,47.62455361285325],[-120.69778012553031,47.62471696773844],[-120.69770435734932,47.62487598474305],[-120.69760612606619,47.62502912044861],[-120.68659578824365,47.64012397858341]]]},"properties":{"fire_id":"F0004","date":"2026-08-25","area_ha":4291.9,"frp_sum":696.9,"n_detections":61,"first_seen":"2026-08-19","last_seen":"2026-08-25","centroid":[-120.64938,47.61892],"history":[{"date":"2026-08-19","area_ha":326.5},{"date":"2026-08-20","area_ha":657.6},{"date":"2026-08-21","area_ha":1097.3},{"date":"2026-08-22","area_ha":1239.3},{"date":"2026-08-23","area_ha":2237.7},{"date":"2026-08-24","area_ha":2314.0},{"date":"2026-08-25","area_ha":4291.9}],"track":[[-120.72085541477672,47.61825834307774],[-120.70990631824252,47.61910512725662],[-120.69877535776514,47.613365939933736],[-120.68242943179263,47.61893241704046],[-120.66690044368474,47.62083207711542],[-120.65854975734993,47.62115649642671],[-120.64937801773763,47.618923157382014]],"growth_24h_ha":1977.86,"speed_km_day":0.74,"bearing_deg":124.42,"direction":"SE"}},{"type":"Feature","geometry":{"type":"Polygon","coordinates":[[[-120.67186956049883,47.56961513952556],[-120.6720147313111,47.56975459360148],[-120.67213866570458,47.56990337307579],[-120.67224010105,47.57005996239304],[-120.67231800388532,47.57022276642833],[-120.67237158044921,47.570390126734345],[-120.67240028477353,47.570560338434404],[-120.67240382425246,47.570731667588554],[-120.67238216263121,47.570902368856395],[-120.67233552038327,47.57107070327725],[-120.67226437247248,47.571234955985446],[-120.67216944352197,47.571393453681054],[-120.67205170043904,47.57154458167783],[-120.67191234257113,47.57168680035434],[-120.6717527894922,47.571818660841245],[-120.67157466654466,47.57193881978419],[-120.67137978828326,47.572046053031606],[-120.66043967784705,47.57746619372361],[-120.66023718635134,47.57755652975758],[-120.66002281937726,47.57763290243376],[-120.65979861805313,47.577694584532786],[-120.6595667171683,47.577740988716435],[-120.65932932484249,47.57777167312184],[-120.65908870149623,47.57778634556986],[-120.65884713832263,47.57778486634837],[-120.6586069354658,47.57776724954256],[-120.65837038011409,47.5777336629011],[-120.65813972471655,47.57768442623825],[-120.65791716553096,47.577620008387605],[-120.65770482170704,47.57754102273697],[-120.657504715105,47.57744822138565],[-120.65731875104149,47.57734248798166],[-120.65714870014592,47.577224829305294],[-120.65699618150109,47.57709636568082],[-120.65686264722727,47.57695832030674],[-120.65674936865807,47.576812007606655],[-120.65665742423828,47.57665882071181],[-120.65658768925968,47.57650021819467],[-120.65654082753204,47.57633771017907],[-120.65651728506856,47.57617284396093],[-120.65538788528018,47.56031281918578],[-120.65538780621614,47.56014834304109],[-120.65541093411356,47.5599846337285],[-120.65545705169369,47.55982322801066],[-120.65552572587809,47.559665641011975],[-120.6556163118601,47.559513351997175],[-120.65572795916326,47.559367790486455],[-120.6558596196296,47.559230322838246],[-120.65601005726263,47.55910223942496],[-120.65617785983268,47.55898474252282],[-120.656361452135,47.55887893502834],[-120.65655911077683,47.55878581010796],[-120.65676898035417,47.558706241877736],[-120.65698909086642,47.55864097720032],[-120.65721737620586,47.55859062867644],[-120.65745169354811,47.55855566889618],[-120.65768984346195,47.558536426004316],[-120.65792959055003,47.558533080621075],[-120.65816868442654,47.55854566414746],[-120.65840488083569,47.55857405847026],[-120.6586359627124,47.55861799707053],[-120.65885976098843,47.5586770675245],[-120.65907417494807,47.558750715373975],[-120.65927719194336,47.5588382493287],[-120.65946690628328,47.55893884775394],[-120.65964153712,47.559051566380774],[-120.65979944516455,47.5591753471672],[-120.67186956049883,47.56961513952556]]]},"properties":{"fire_id":"F0011","date":"2026-08-25","area_ha":165.8,"frp_sum":21.1,"n_detections":3,"first_seen":"2026-08-25","last_seen":"2026-08-25","centroid":[-120.66197,47.5687],"history":[{"date":"2026-08-25","area_ha":165.8}],"track":[[-120.66196510561858,47.568703248020256]],"growth_24h_ha":null,"speed_km_day":null,"bearing_deg":null,"direction":null}},{"type":"Feature","geometry":{"type":"Polygon","coordinates":[[[-121.45038764027508,43.78393956055679],[-121.45253462844867,43.78581085027386],[-121.45267097563803,43.78594224797854],[-121.45278886351781,43.78608256441521],[-121.45288717081566,43.78623046513127],[-121.45296496245858,43.78638454353529],[-121.45302149846998,43.78654333427275],[-121.45305624101205,43.786705327161016],[-121.4530688595063,43.786868981551265],[-121.45305923378328,43.78703274098012],[-121.45302745523158,43.78719504797295],[-121.45297382593473,43.78735435885615],[-121.4528988558039,43.78750915843967],[-121.45280325773359,43.787657974428676],[-121.45268794082651,43.78779939142735],[-121.45255400175095,43.78793206440267],[-121.45240271431392,43.7880547314782],[-121.43685272677077,43.799484953034906],[-121.43668256626218,43.7995981853078],[-121.43649763505806,43.799698754882535],[-121.43629975103288,43.79978567311931],[-121.43609085941502,43.79985808557263],[-121.4358730136628,43.79991528039233],[-121.43564835527528,43.79995669532356],[-121.43541909273686,43.79998192323491],[-121.4232187971374,43.8008819480675],[-121.42298779574736,43.800890718189294],[-121.42275671812753,43.80088305438522],[-121.42252782384267,43.80085903159553],[-121.4223033511034,43.800818884726326],[-121.4220854948755,43.80076300635173],[-121.42187638541256,43.80069194287424],[-121.42167806742195,43.800606389180686],[-121.42149248006847,43.800507181845724],[-121.42132143801051,43.80039529094971],[-121.42116661365534,43.80027181059125],[-121.42102952080603,43.80013794818662],[-121.4209114998609,43.79999501266166],[-121.4208137047093,43.799844401650795],[-121.42073709145244,43.799687587829474],[-121.42068240905921,43.799526104512516],[-121.4206501920479,43.79936153066031],[-121.41957701674265,43.790842136666356],[-121.41800004636708,43.78764490204571],[-121.40638279874695,43.77833941922012],[-121.39337493756379,43.77270143530835],[-121.38471919409854,43.774147043878784],[-121.38447127851454,43.77417844206827],[-121.38422010312306,43.774190505178055],[-121.38396857885868,43.77418309340425],[-121.37095826305242,43.77329306885399],[-121.370735005223,43.77326993035832],[-121.37051588819278,43.77323143952993],[-121.37030295089578,43.77317795453948],[-121.37009817474984,43.77310997308258],[-121.3699034652159,43.77302812774719],[-121.36972063406463,43.7729331801262],[-121.36955138251587,43.77282601372882],[-121.36939728540764,43.772707625757825],[-121.36925977654225,43.77257911782874],[-121.36914013534552,43.772441685717226],[-121.36903947496396,43.7722966082307],[-121.36895873190966,43.77214523530761],[-121.36889865735007,43.77198897545477],[-121.3688598101227,43.771829282640134],[-121.36884255154052,43.771667642763326],[-121.36884704203536,43.771505559828846],[-121.36887323967078,43.77134454195172],[-121.36892090053807,43.77118608732499],[-121.36898958103124,43.77103167028051],[-121.3690786419799,43.77088272757136],[-121.36918725460102,43.770740645005176],[-121.36931440821446,43.77060674455128],[-121.36945891965006,43.77048227204219],[-121.39488103197746,43.7506092580652],[-121.40493710197842,43.74047413792057],[-121.40508006512417,43.740344102385066],[-121.40524014884053,43.74022482545193],[-121.40541579575884,43.74011746743164],[-121.40560529713721,43.74002307268307],[-121.40580680948314,43.73994255945644],[-121.40601837248525,43.73987671096219],[-121.40623792808093,43.73982616775407],[-121.40646334047358,43.739791421499376],[-121.40669241690523,43.73977281019714],[-121.40692292898298,43.73977051489121],[-121.40715263435139,43.739784557909516],[-121.4073792985008,43.73981480264668],[-121.40760071649913,43.739860954893096],[-121.4078147344366,43.73992256569541],[-121.40801927037438,43.73999903572349],[-121.40821233459403,43.74008962109871],[-121.40839204895053,43.74019344062875],[-121.41996728497973,43.747583248640275],[-121.4377731060916,43.75206185250441],[-121.44160254450397,43.74896372276653],[-121.4417665034016,43.748843738526396],[-121.44194632301692,43.74873613755648],[-121.44214020216322,43.74864199760623],[-121.44234619885532,43.74856226159262],[-121.44256224975938,43.748497728157375],[-121.44278619085718,43.748449043670036],[-121.44301577911786,43.748416695755054],[-121.44324871496006,43.74840100840887],[-121.44348266528017,43.74840213875559],[-121.44371528681569,43.74842007547371],[-121.44394424961037,43.74845463890936],[-121.4441672603463,43.74850548287543],[-121.4443820853092,43.748572098117954],[-121.44458657275756,43.74865381741574],[-121.44477867447146,43.74874982226169],[-121.44495646626558,43.74885915105927],[-121.44511816726096,43.74898070875226],[-121.44526215772264,43.74911327779038],[-121.44538699528462,43.749255530323154],[-121.4454914293993,43.74940604149767],[-121.44557441386706,43.74956330372846],[-121.44563511731987,43.749725741796716],[-121.45000368682487,43.76428609699908],[-121.45586404837024,43.768942523954415],[-121.45600517447282,43.76906596727671],[-121.45612935421032,43.76919848467127],[-121.45623546523834,43.76933887855207],[-121.45632254848547,43.769485880142966],[-121.45638981682436,43.76963816094275],[-121.45643666218879,43.7697943447304],[-121.45646266107372,43.76995302000104],[-121.45646757836745,43.77011275272212],[-121.45645136948195,43.77027209929309],[-121.45641418076069,43.77042961959181],[-121.45635634816175,43.77058388999032],[-121.45038764027508,43.78393956055679]]]},"properties":{"fire_id":"F0002","date":"2026-08-25","area_ha":2445.0,"frp_sum":290.2,"n_detections":42,"first_seen":"2026-08-18","last_seen":"2026-08-25","centroid":[-121.42018,43.76931],"history":[{"date":"2026-08-18","area_ha":215.9},{"date":"2026-08-19","area_ha":307.4},{"date":"2026-08-20","area_ha":418.2},{"date":"2026-08-21","area_ha":700.1},{"date":"2026-08-22","area_ha":912.1},{"date":"2026-08-23","area_ha":1094.9},{"date":"2026-08-24","area_ha":2030.2},{"date":"2026-08-25","area_ha":2445.0}],"track":[[-121.42349845316784,43.75812986305568],[-121.42312080678441,43.76188757088176],[-121.41792477531928,43.76794020144439],[-121.42068997853697,43.76247019748986],[-121.42425252106304,43.773384959442524],[-121.41795553790251,43.774598796069476],[-121.41443659217612,43.778799473444316],[-121.42018163618636,43.76931158238909]],"growth_24h_ha":414.88,"speed_km_day":1.15,"bearing_deg":218.84,"direction":"SW"}},{"type":"Feature","geometry":{"type":"Polygon","coordinates":[[[-118.97882403717408,34.57126908830433],[-118.98471630065175,34.58341426396122],[-118.98478182798344,34.5835717548841],[-118.98482786297554,34.5837337530836],[-118.98485395272432,34.583898665213624],[-118.9848598404927,34.58406486925854],[-118.98484546824042,34.58423073048642],[-118.98481097719994,34.58439461752756],[-118.98475670649242,34.584554918420466],[-118.98468318979702,34.5847100564673],[-118.9845911501062,34.5848585057428],[-118.98448149261826,34.58499880610412],[-118.98435529583736,34.58512957755366],[-118.98421380096751,34.58524953381451],[-118.98405839970587,34.58535749498328],[-118.98389062055453,34.5854523991376],[-118.98371211378593,34.58553331278228],[-118.9835246352093,34.5855994400331],[-118.97145700456564,34.589288159786804],[-118.9537646632348,34.596518262874824],[-118.9535806126608,34.59658450729392],[-118.9533894969767,34.59663582765368],[-118.95319313932943,34.596671734383186],[-118.95299341288117,34.59669188494946],[-118.95279222293726,34.5966960871254],[-118.95259148876693,34.59668430082428],[-118.9523931252906,34.59665663848198],[-118.9521990248089,34.596613363984126],[-118.95201103894769,34.59655489014839],[-118.9518309609912,34.596481774785886],[-118.9516605087726,34.59639471537889],[-118.93976040033664,34.58963460555798],[-118.93960300541998,34.589535649656014],[-118.93945807069309,34.58942480572937],[-118.93932694682346,34.5893031067874],[-118.93921085575066,34.58917168699786],[-118.93911087929989,34.58903177111619],[-118.93902794910136,34.58888466307011],[-118.9338281676847,34.57834458529292],[-118.93376529661505,34.57819777384142],[-118.93371940680942,34.57804685399154],[-118.93369089279113,34.57789312355772],[-118.93367999965741,34.577737904516866],[-118.93368682097528,34.57758253163932],[-118.9337112979804,34.577428341011064],[-118.93375322008613,34.57727665854439],[-118.9338122266981,34.57712878857648],[-118.93992274042598,34.563930251683814],[-118.93396205354128,34.55978467339834],[-118.93381341202686,34.55967042213234],[-118.93367941701224,34.5595447383175],[-118.93356138859592,34.55940886023691],[-118.93346048954868,34.55926412660514],[-118.9333777138596,34.55911196337729],[-118.93331387694595,34.55895386969926],[-118.93326960762312,34.55879140313628],[-118.93324534191366,34.558626164326995],[-118.93324131875633,34.55845978121322],[-118.93325757765696,34.558293893000894],[-118.93329395830436,34.558130134010405],[-118.93335010215489,34.55797011757605],[-118.9334254559694,34.55781542015184],[-118.93351927726835,34.55766756578126],[-118.93363064165017,34.55752801108384],[-118.93375845190171,34.557398130906236],[-118.93390144880973,34.55727920477872],[-118.93405822356809,34.55717240431135],[-118.94498852502392,34.55044691046137],[-118.94846376213302,34.540097867016605],[-118.94850395388444,34.53999203738075],[-118.95174412280939,34.53236208668406],[-118.95181664585441,34.53221438164352],[-118.95190603135227,34.532072938235196],[-118.95201147463756,34.53193902962053],[-118.95213202652025,34.531813861133095],[-118.95226660183128,34.53169855942978],[-118.95241398919177,34.53159416235114],[-118.95257286191736,34.53150160958039],[-118.95274178995972,34.53142173418686],[-118.95291925277763,34.53135525512823],[-118.96248687178647,34.52820935028257],[-118.95974361840383,34.51305455000477],[-118.95972395079698,34.51288995939096],[-118.95972428330639,34.51272459112223],[-118.95974461256984,34.51256005380513],[-118.95978474071084,34.51239794795373],[-118.95984427726836,34.51223985042143],[-118.95992264299953,34.51208729906269],[-118.96001907551828,34.51194177777496],[-118.96013263671485,34.511804702065206],[-118.960262221884,34.511677405282455],[-118.96040657047264,34.511561125649386],[-118.9605642783429,34.51145699421937],[-118.96073381143047,34.511366023876185],[-118.9609135206662,34.51128909948296],[-118.96110165801532,34.51122696927652],[-118.96129639347842,34.511180237590445],[-118.96149583288924,34.51114935897775],[-118.96169803633562,34.51113463379024],[-118.96190103702541,34.51113620525765],[-118.96210286041331,34.511154058094455],[-118.9623015434032,34.51118801864888],[-118.96249515343914,34.51123775659145],[-118.96268180729956,34.51130278812739],[-118.96285968941221,34.51138248070207],[-118.9630270695114,34.51147605915233],[-118.96318231946653,34.51158261324558],[-118.96332392911775,34.51170110653215],[-118.96345052096501,34.511830386425494],[-118.96356086356788,34.511969195411936],[-118.96365388352518,34.51211618328158],[-118.96999578416137,34.523479146361446],[-118.97988996870909,34.52897477853588],[-118.98004707200202,34.52907129780786],[-118.98019214220996,34.52917959142646],[-118.98032385388085,34.52929866998915],[-118.98044100359333,34.52942744555445],[-118.9805425209524,34.52956474158075],[-118.98062747837051,34.52970930367444],[-118.9806950995447,34.52985981104954],[-118.98074476655215,34.53001488859412],[-118.98077602549895,34.53017311943308],[-118.98078859067124,34.53033305787324],[-118.98078234714941,34.53049324261144],[-118.9807573518625,34.53065221008602],[-118.98071383307213,34.530808507848754],[-118.9742586057235,34.54973993599218],[-118.98384101526648,34.54905972024641],[-118.98404605382929,34.54905351005159],[-118.98425083377751,34.54906394170436],[-118.984453322431,34.54909091165787],[-118.98465150984892,34.54913415220223],[-119.00227118409961,34.55375406520159],[-119.00245746660325,34.55381111655642],[-119.00263611499022,34.55388253976388],[-119.00280546088212,34.55396766781623],[-119.00296392275973,34.554065705716454],[-119.00311002073127,34.55417573790168],[-119.00324239035243,34.55429673679226],[-119.00335979536892,34.55442757238689],[-119.00346113926275,34.55456702281459],[-119.00354547549438,34.554713785744234],[-119.00361201634477,34.55486649054633],[-119.00366014027516,34.55502371109197],[-119.00368939773512,34.55518397907158],[-119.0036995153652,34.55534579770634],[-119.003690398554,34.555507655727],[-119.00366213232637,34.5556680414879],[-119.00361498055386,34.555825457084794],[-119.00354938349437,34.55597843234457],[-119.00346595368481,34.55612553855668],[-119.00336547022364,34.55626540181714],[-119.00324887149763,34.55639671586118],[-119.00311724642023,34.556518254264255],[-119.00297182426328,34.55662888189761],[-118.99026176511651,34.5653990142923],[-118.99002603649178,34.56553952717678],[-118.97882403717408,34.57126908830433]]]},"properties":{"fire_id":"F0010","date":"2026-08-25","area_ha":2932.1,"frp_sum":1613.1,"n_detections":48,"first_seen":"2026-08-24","last_seen":"2026-08-25","centroid":[-118.96307,34.56102],"history":[{"date":"2026-08-24","area_ha":815.6},{"date":"2026-08-25","area_ha":2932.1}],"track":[[-118.94237750725146,34.559334058686915],[-118.96307347637092,34.56101561796431]],"growth_24h_ha":2116.54,"speed_km_day":1.89,"bearing_deg":289.54,"direction":"WNW"}}]}