{"type":"FeatureCollection","features":[{"type":"Feature","geometry":{"type":"Polygon","coordinates":[[[-122.40907897576525,40.69644750325151],[-122.4091539989579,40.69659370418629],[-122.4092104355162,40.69674451085426],[-122.40924779145556,40.696898603577495],[-122.40926573975472,40.69705463391337],[-122.40926412322175,40.69721123645413],[-122.40924295587403,40.69736704077523],[-122.40920242282012,40.69752068342792],[-122.40914287864425,40.6976708198712],[-122.40906484430758,40.69781613623815],[-122.4086248606046,40.69853614364588],[-122.40852332883631,40.69868271639218],[-122.40840299560858,40.69882109414077],[-122.4082650310493,40.69894993117338],[-122.40811077677165,40.69906797454714],[-122.4079417328289,40.69917407628166],[-122.40775954312707,40.699267204524624],[-122.40756597943768,40.69934645358873],[-122.40736292416582,40.69941105276067],[-122.4071523520416,40.69946037379868],[-122.40693631091247,40.699493937042874],[-122.4067169018241,40.69951141608159],[-122.40649625858322,40.69951264092616],[-122.40627652700152,40.6994975996646],[-122.4060598440227,40.699466438577524],[-122.40584831693583,40.69941946071505],[-122.40564400287751,40.69935712294918],[-122.40544888882215,40.699280031529284],[-122.40526487225526,40.69918893618554],[-122.40509374271794,40.69908472283543],[-122.40493716440218,40.69896840496733],[-122.40073347626915,40.6955211309952],[-122.39086375672103,40.69062529550548],[-122.39070090246571,40.69053634332291],[-122.39054941229554,40.69043678089816],[-122.39041051662738,40.69032741692147],[-122.39028534356513,40.690209139691454],[-122.39017490973706,40.69008290989916],[-122.38104923796845,40.67854705392157],[-122.3789714822983,40.6768237325665],[-122.36504324045333,40.68239510111042],[-122.37214645482116,40.692904368557535],[-122.37223516264957,40.69305315396969],[-122.37230412289958,40.69320768680469],[-122.37235268234903,40.6933665035529],[-122.37238038097233,40.693528100123146],[-122.372386956302,40.69369094608697],[-122.37237234591994,40.69385349917222],[-122.37233668805389,40.694014219869345],[-122.37228032027384,40.69417158601233],[-122.37220377630015,40.69432410719504],[-122.3721077809535,40.69447033888786],[-122.37199324329448,40.69460889611999],[-122.37186124801744,40.694738466597634],[-122.37171304517999,40.69485782313438],[-122.3715500383655,40.69496583527591],[-122.3713737713905,40.695061480008114],[-122.37118591368291,40.69514385144823],[-122.3709882444695,40.69521216942605],[-122.37078263592271,40.69526578687473],[-122.37057103542605,40.695304195960695],[-122.3703554471267,40.695327032894404],[-122.37013791294976,40.69533408137689],[-122.36992049325448,40.695325274648695],[-122.36970524731555,40.695300696122395],[-122.36949421381478,40.69526057859242],[-122.36928939152797,40.69520530202964],[-122.36909272039024,40.69513538998168],[-122.368906063119,40.69505150461319],[-122.36873118756925,40.694954440433044],[-122.36856974998808,40.694845116767645],[-122.35847303913279,40.68730615501717],[-122.34900950979159,40.68522622823605],[-122.3488026575657,40.68517239517978],[-122.34860383089594,40.68510368377191],[-122.348414935419,40.68502075258197],[-122.34823778156822,40.68492439646741],[-122.34807406721936,40.68481553895371],[-122.3479253614169,40.68469522338148],[-122.3477930893355,40.684564602904665],[-122.3476785186217,40.68442492943686],[-122.34758274724665,40.68427754165059],[-122.34750669298536,40.68412385214584],[-122.34745108462477,40.683965333910066],[-122.34741645498293,40.683803506199695],[-122.34740313580781,40.68363991997836],[-122.34741125460299,40.68347614305231],[-122.3474407334113,40.68331374504383],[-122.35089003775933,40.66943968722836],[-122.35053767663918,40.66710819272283],[-122.35052381480003,40.66694797608754],[-122.35053052097133,40.66678750233211],[-122.3505577333326,40.666628247458796],[-122.35060520145575,40.66647167624844],[-122.35067248861331,40.66631922878834],[-122.35075897580002,40.66617230722752],[-122.35086386743033,40.66603226288086],[-122.35098619865961,40.665900383801905],[-122.35112484426108,40.6657778829372],[-122.35967552125203,40.65891790620744],[-122.35473677393935,40.65059995182981],[-122.3546586111383,40.65044902153798],[-122.3546002849238,40.650293144749476],[-122.35456234055636,40.6501337790265],[-122.35454513270322,40.64997241454488],[-122.35454882212697,40.64981056015958],[-122.35457337418744,40.649649729295746],[-122.35461855917099,40.64949142579724],[-122.35468395444371,40.64933712986547],[-122.35963599456899,40.63935377735384],[-122.36188837642788,40.63450050444685],[-122.36196055857317,40.63436445931827],[-122.36204833599673,40.63423365664496],[-122.36867850372812,40.625343763636096],[-122.36879734883092,40.625201619843395],[-122.36893458752252,40.625069095330204],[-122.36908884229821,40.62494752018559],[-122.36925856489393,40.62483811459804],[-122.36944205182661,40.6247419766107],[-122.36963746149107,40.62466007110271],[-122.36984283264202,40.62459322010734],[-122.37005610407589,40.62454209456298],[-122.3702751353146,40.624507207580926],[-122.37049772808477,40.62448890929679],[-122.37072164837564,40.624487383357135],[-122.3709446488559,40.624502645076646],[-122.37116449142383,40.624534541284646],[-122.37137896966486,40.624582751861816],[-122.37158593099154,40.62464679295259],[-122.37178329824374,40.6247260218199],[-122.37196909053273,40.624819643294856],[-122.37214144311983,40.62492671775571],[-122.37229862613036,40.62504617055647],[-122.38489969108261,40.63563251244348],[-122.39378401628845,40.63215995717645],[-122.40049866599215,40.62725204798199],[-122.40066318741087,40.627143075149185],[-122.40084119424172,40.627046720452064],[-122.40103096788482,40.626963914134464],[-122.401230676159,40.62689545563627],[-122.40143839098862,40.62684200587637],[-122.40165210701535,40.62680408087344],[-122.40186976095525,40.62678204676516],[-122.40208925151451,40.62677611627411],[-122.40230845967176,40.626786346654676],[-122.40252526913152,40.62681263914036],[-122.4027375867511,40.62685473989703],[-122.40294336274442,40.62691224247307],[-122.40314061046755,40.62698459172243],[-122.40332742559534,40.627071089163046],[-122.40350200450408,40.62717089971908],[-122.40366266168272,40.62728305978129],[-122.4038078460051,40.62740648650845],[-122.40393615570528,40.62753998828007],[-122.40404635191261,40.62768227619894],[-122.40413737061445,40.627831976533486],[-122.40420833293216,40.627987643978884],[-122.40425855361042,40.62814777560993],[-122.40428754763781,40.62831082539009],[-122.40429503493468,40.62847521909759],[-122.40428094306296,40.62863936952366],[-122.40248011475444,40.64048424742149],[-122.40478970481817,40.64942418770334],[-122.41474280020333,40.65142166796911],[-122.41992992178767,40.65170023085975],[-122.4201667583065,40.651722507681434],[-122.42039907372907,40.65176355868743],[-122.42062422078817,40.651822916099064],[-122.4208396338843,40.651899903533575],[-122.42674954799644,40.65430985125339],[-122.42693481613222,40.65439436500023],[-122.42710827297353,40.654491921973374],[-122.42726828575594,40.65460160389209],[-122.42741334824106,40.654722378341916],[-122.4275420948944,40.654853108490684],[-122.42765331374049,40.65499256378794],[-122.42774595777291,40.65513943154633],[-122.42781915481275,40.655292329296614],[-122.42787221572226,40.65544981779959],[-122.42790464089583,40.655610414592765],[-122.42791612496788,40.65577260794425],[-122.42790655969252,40.655934871082394],[-122.42787603496764,40.65609567656795],[-122.4278248379944,40.656253510672],[-122.42775345057854,40.656406887626304],[-122.42766254459998,40.65655436360979],[-122.42755297569245,40.6566945503413],[-122.4274257751925,40.65682612814941],[-122.42728214043395,40.65694785839691],[-122.42062214640535,40.662067946650204],[-122.42043602470916,40.66219571910742],[-122.42023184492625,40.66230696839643],[-122.41211243097078,40.66622538932807],[-122.39902977044075,40.676222692948286],[-122.40270765865047,40.68055173831542],[-122.40282806755104,40.680712329632385],[-122.40292418053193,40.680881846529395],[-122.40299483452606,40.68105823799091],[-122.40303917447866,40.68123936980836],[-122.4042086915722,40.68813923852467],[-122.40907897576525,40.69644750325151]]]},"properties":{"fire_id":"F0001","date":"2026-08-22","area_ha":2929.3,"frp_sum":1242.7,"n_detections":95,"first_seen":"2026-08-18","last_seen":"2026-08-22","centroid":[-122.38291,40.66056],"history":[{"date":"2026-08-18","area_ha":242.8},{"date":"2026-08-19","area_ha":806.9},{"date":"2026-08-20","area_ha":1378.4},{"date":"2026-08-21","area_ha":2289.5},{"date":"2026-08-22","area_ha":2929.3}],"track":[[-122.39995862968424,40.62563349869898],[-122.39835509269727,40.62914708372974],[-122.39387512695416,40.640458473541486],[-122.39014718510178,40.65469645357964],[-122.38291458468869,40.66056104271662]],"growth_24h_ha":639.74,"speed_km_day":0.89,"bearing_deg":58.62,"direction":"ENE"}},{"type":"Feature","geometry":{"type":"Polygon","coordinates":[[[-120.85937029148984,39.31302257663738],[-120.86145313962201,39.324174203526375],[-120.86147344858865,39.32434602936377],[-120.86147043233308,39.32451853568061],[-120.86144412276442,39.324689888031074],[-120.86139479949894,39.32485826422742],[-120.86132298689343,39.32502187371827],[-120.8612294484755,39.32517897663014],[-120.86111517882989,39.325327902271326],[-120.86098139302646,39.3254670669001],[-120.85576143147702,39.33034713948077],[-120.85561783435485,39.33046871844492],[-120.85545934359682,39.33057902876111],[-120.85528747438889,39.33067701580698],[-120.85510386984225,39.330761742772694],[-120.85491028528374,39.330832399618885],[-120.85470857147222,39.330888310822694],[-120.85450065690216,39.33092894183718],[-120.85428852936295,39.33095390420294],[-120.85407421693074,39.33096295926296],[-120.85385976857516,39.33095602044468],[-120.85364723456559,39.33093315408806],[-120.85343864686516,39.33089457881074],[-120.85323599970005,39.33084066341796],[-120.85304123048992,39.33077192337568],[-120.85285620132177,39.330689015881205],[-120.85268268114505,39.33059273357905],[-120.85252232885776,39.3304839969812],[-120.8523766774457,39.33036384566518],[-120.85224711932655,39.33023342833347],[-120.8521348930387,39.330093991829976],[-120.84452046691123,39.31950253559669],[-120.84088133671608,39.32085399099449],[-120.84067978625144,39.32091956074065],[-120.84047066183841,39.320969484977205],[-120.84025604812766,39.32100326603188],[-120.84003808450106,39.321020567156125],[-120.83981894374126,39.32102121588233],[-120.83960081036756,39.32100520574362],[-120.83938585885498,39.320972696338316],[-120.83917623195357,39.3209240117385],[-120.83897401932404,39.320859637259154],[-120.8387812367034,39.320780214618786],[-120.83859980580807,39.32068653554177],[-120.83843153517529,39.320579533864105],[-120.83827810213333,39.320460276223194],[-120.8381410360814,39.32032995142319],[-120.83802170324451,39.32018985858329],[-120.83792129305668,39.32004139418529],[-120.8378408063072,39.31988603815214],[-120.83778104516823,39.31972533909401],[-120.83774260520335,39.319560898870385],[-120.8377258694361,39.319394356621736],[-120.83773100453769,39.31922737243011],[-120.83775795917155,39.31906161077104],[-120.83780646451108,39.31889872392246],[-120.83787603692495,39.31874033549553],[-120.8379659828035,39.31858802425177],[-120.83807540547714,39.318443308367506],[-120.83820321415833,39.318307630302606],[-120.83834813481745,39.31818234242425],[-120.83977464035996,39.31706665482584],[-120.83291645211071,39.310724036876906],[-120.83278705210947,39.31059152682818],[-120.83267542662442,39.31044993436314],[-120.83258266394122,39.3103006400652],[-120.8325096684083,39.31014509960498],[-120.83245715162313,39.309984829545634],[-120.83242562549836,39.30982139255483],[-120.83241539727571,39.30965638216765],[-120.83242656653579,39.30949140724891],[-120.83245902423279,39.309328076306564],[-120.8325124537634,39.30916798180859],[-120.83258633405902,39.30901268465725],[-120.83267994467123,39.30886369897133],[-120.83279237280057,39.30872247732461],[-120.83292252219992,39.308590396584876],[-120.83306912386557,39.308468744491734],[-120.83323074841161,39.308358707102684],[-120.83340582000709,39.308261357231565],[-120.83359263173976,39.30817764399069],[-120.83378936225671,39.308108383538716],[-120.8339940935202,39.30805425112558],[-120.83420482950454,39.308015774509926],[-120.85246641301553,39.3053992047044],[-120.8533870568586,39.30018109354047],[-120.84019718370139,39.30058166018032],[-120.83998594770755,39.300580305584646],[-120.8397758614448,39.300563471111104],[-120.83956887201488,39.30053131278362],[-120.83936689781197,39.30048412864928],[-120.83917181073923,39.30042235601538],[-120.83898541885704,39.300346567395444],[-120.83880944962317,39.30025746520254],[-120.8386455338809,39.30015587523736],[-120.83849519074317,39.30004273903404],[-120.83835981351349,39.299919105132076],[-120.83824065677304,39.29978611935757],[-120.83813882475519,39.29964501420195],[-120.83805526111355,39.29949709739833],[-120.83799074017954,39.29934373980047],[-120.83794585978958,39.29918636267689],[-120.83792103574886,39.29902642453834],[-120.83791649798232,39.29886540762009],[-120.83793228840865,39.298704804145046],[-120.83796826055696,39.298546102494484],[-120.838024080929,39.298390773414695],[-120.83809923209452,39.29824025638782],[-120.84194938298356,39.29152031963365],[-120.8420454373648,39.29137288582832],[-120.84216002969082,39.291233364136765],[-120.84229205030952,39.29110310548701],[-120.84244022083865,39.29098337110984],[-120.84260310654538,39.29087532032857],[-120.84277913023932,39.290779999335626],[-120.84296658754342,39.29069833106439],[-120.84316366339554,39.29063110625445],[-120.84336844962067,39.29057897579714],[-120.84357896340403,39.29054244443419],[-120.84379316648604,39.290521865871824],[-120.84400898489352,39.29051743935702],[-120.84422432901663,39.29052920774823],[-120.8444371138366,39.29055705710113],[-120.84464527910954,39.29060071777098],[-120.84484680931017,39.290659767023406],[-120.84503975314341,39.2907336331263],[-120.85499642136826,39.295024895789716],[-120.8581222952949,39.29316981032455],[-120.85830149723458,39.29307400308246],[-120.85849232537605,39.292992285126346],[-120.85869288101195,39.29292546951969],[-120.85890116866791,39.29287422105093],[-120.85911511595388,39.29283904962043],[-120.8593325941802,39.292820305168306],[-120.85955143953295,39.29281817419334],[-120.85976947459888,39.292832677897756],[-120.85998453002489,39.292863671976264],[-120.86019446609804,39.29291084805174],[-120.86039719403051,39.292973736742596],[-120.86059069673847,39.293051712331994],[-120.86077304890847,39.29314399899244],[-120.86094243615126,39.293249678503365],[-120.86109717305307,39.29336769938555],[-120.86123571994482,39.293496887361314],[-120.86135669822207,39.293635957036706],[-120.86145890406371,39.293783524688976],[-120.86154132041261,39.29393812203287],[-120.86160312709885,39.2940982108287],[-120.86164370900497,39.2942621981864],[-120.8631038717496,39.30236081916713],[-120.86377448827247,39.30420250261548],[-120.86382210826288,39.30436382528095],[-120.86428216672928,39.306383817153986],[-120.86430910674001,39.30655261274108],[-120.86431343232276,39.306722621198524],[-120.86429509863348,39.306892086258706],[-120.86425429491132,39.30705925725503],[-120.86419144253037,39.30722240720751],[-120.86410719065265,39.30737985066454],[-120.86400240952747,39.30752996111537],[-120.86014249129045,39.31244002048706],[-120.86002191299858,39.312577491968284],[-120.8598841190241,39.3127052173299],[-120.85973045567076,39.3128219485608],[-120.85956242432442,39.312926545068386],[-120.85938166678403,39.31301798482481],[-120.85937029148984,39.31302257663738]]]},"properties":{"fire_id":"F0007","date":"2026-08-22","area_ha":668.1,"frp_sum":410.1,"n_detections":20,"first_seen":"2026-08-22","last_seen":"2026-08-22","centroid":[-120.85075,39.30985],"history":[{"date":"2026-08-22","area_ha":668.1}],"track":[[-120.85074996754508,39.30985387424821]],"growth_24h_ha":null,"speed_km_day":null,"bearing_deg":null,"direction":null}},{"type":"Feature","geometry":{"type":"Polygon","coordinates":[[[-123.32344417190905,41.0433261640597],[-123.32352240987338,41.043433162736974],[-123.32809255585543,41.050263086398296],[-123.32818014337953,41.05041157688975],[-123.32824803142091,41.050565680903034],[-123.32829558305286,41.050723952929445],[-123.32832235209605,41.050884908353765],[-123.32832808730873,41.051047037379284],[-123.32831273474866,41.0512088191896],[-123.32827643828458,41.05136873621425],[-123.3282195382519,41.05152528836463],[-123.32814256826552,41.05167700710522],[-123.32804625021886,41.051822469230764],[-123.3279314875165,41.05196031021723],[-123.32779935660307,41.052089237023445],[-123.3276510968685,41.05220804022197],[-123.3274880990234,41.05231560534598],[-123.32731189205428,41.05241092334564],[-123.32712412888057,41.052493100054896],[-123.32692657084793,41.05256136458169],[-123.32672107120376,41.05261507654063],[-123.32225097878946,41.05360510032523],[-123.32201062556663,41.05364778103844],[-123.31809510641651,41.05417564602326],[-123.31503111756489,41.05832991249064],[-123.31274157295536,41.06465578569929],[-123.31268080555769,41.064798084361925],[-123.31260325510532,41.06493578689341],[-123.31250953810928,41.065067798413374],[-123.31240039963338,41.06519306928466],[-123.31227670737246,41.06531060345982],[-123.30910672484393,41.068060648374065],[-123.30895894339876,41.068177080760854],[-123.30879689480312,41.068282466643446],[-123.30862206203761,41.06837584154537],[-123.30843604510112,41.06845635090907],[-123.30824054636699,41.06852325791803],[-123.30803735500139,41.0685759502419],[-123.3078283305869,41.06861394564105],[-123.30761538610079,41.068636896381264],[-123.2919650208076,41.06975692434157],[-123.29174207272011,41.069764583634075],[-123.29151920269058,41.06975575447615],[-123.29129860526504,41.06973052380669],[-123.2910824526069,41.06968914006684],[-123.29087287310406,41.06963201075285],[-123.2906719304074,41.06955969840284],[-123.29048160310707,41.06947291505656],[-123.29030376524747,41.069372515242534],[-123.29014016787264,41.069259487562334],[-123.28999242178362,41.06913494495421],[-123.28986198167792,41.069000113732876],[-123.28975013182738,41.06885632151268],[-123.28965797343487,41.068704984133404],[-123.2895864137951,41.06854759171794],[-123.28953615736508,41.068385693998586],[-123.28950769883305,41.06822088505674],[-123.2895013182531,41.06805478762649],[-123.28951707829377,41.067889037116366],[-123.2908368014718,41.05976038820585],[-123.28980640639348,41.05675482324736],[-123.27754906790344,41.053761142273125],[-123.27734539581833,41.053703098844885],[-123.27715023188247,41.053630636680936],[-123.27696541165591,41.05354443731715],[-123.2767926733944,41.0534453114906],[-123.2766336416992,41.05333419151254],[-123.2764898122368,41.05321212249836],[-123.27636253767189,41.05308025253628],[-123.27625301494683,41.05293982188767],[-123.27616227402632,41.05279215132076],[-123.27609116821344,41.052638629687216],[-123.27604036612813,41.05248070085852],[-123.27601034542334,41.05231985014551],[-123.27600138829756,41.05215759032855],[-123.27601357884606,41.0519954474292],[-123.27604680227543,41.05183494635839],[-123.27610074598859,41.051677596575345],[-123.27617490252987,41.05152487789172],[-123.27626857436232,41.05137822655575],[-123.27638088043201,41.0512390217458],[-123.27651076445773,41.05110857260118],[-123.27665700486735,41.050988105911934],[-123.2768182262883,41.050878754583195],[-123.27699291248302,41.05078154698257],[-123.27717942060839,41.05069739727083],[-123.27737599666469,41.050627096806345],[-123.27758079198912,41.0505713067044],[-123.2777918806386,41.05053055162146],[-123.27800727749882,41.05050521482219],[-123.27822495694872,41.05049553457565],[-123.27844287190624,41.0505016019158],[-123.27865897307488,41.050523359784805],[-123.28900288562674,41.05194767977709],[-123.28978640435909,41.046907450268435],[-123.28982604370007,41.04673337813826],[-123.28989007189767,41.046563381791415],[-123.28997777702,41.046399350963426],[-123.29127477529846,41.0443025259204],[-123.28795834020484,41.036932106289285],[-123.28789906695894,41.036775479335866],[-123.2878604845166,41.036615306653324],[-123.28784295710143,41.036453100881566],[-123.28784665009286,41.03629039384941],[-123.28787152846974,41.036128722108636],[-123.2879173571466,41.03596961242258],[-123.28798370319899,41.03581456734907],[-123.288069939957,41.03566505105116],[-123.28817525292772,41.035522475471645],[-123.28829864749086,41.035388187000386],[-123.2884389582947,41.03526345376137],[-123.288594860263,41.03514945363914],[-123.28876488110984,41.03504726315709],[-123.29737480419121,41.030367357846856],[-123.29757654475856,41.03026957062835],[-123.29779116378855,41.03018841079421],[-123.30775099042314,41.02690848592213],[-123.30795616217375,41.02684966458376],[-123.3081680655522,41.02680605418247],[-123.30838467386886,41.02677807181368],[-123.30860391544473,41.02676598510403],[-123.30882369342122,41.026769909651925],[-123.30904190581049,41.02678980792266],[-123.30925646559518,41.026825489607084],[-123.30946532068465,41.026876613441225],[-123.30966647353779,41.026942690469774],[-123.30985800026451,41.02702308872125],[-123.31003806902368,41.02711703925132],[-123.31020495754132,41.02722364349521],[-123.31035706958197,41.02734188186084],[-123.31049295021546,41.027470623478436],[-123.31061129973338,41.02760863701478],[-123.31071098608172,41.0277546024489],[-123.31079105569137,41.027907123695435],[-123.31085074260203,41.028064741956314],[-123.31088947579262,41.02822594967235],[-123.31090688464796,41.02838920494147],[-123.31090280250878,41.02855294626625],[-123.31087726827157,41.02871560748863],[-123.31083052602207,41.028875632770195],[-123.31076302270621,41.029031491474214],[-123.31067540386029,41.02918169280633],[-123.31056850744119,41.02932480007555],[-123.31044335581528,41.029459444437194],[-123.31030114598266,41.029584337987714],[-123.31014323813014,41.02969828608536],[-123.30997114262213,41.02980019877887],[-123.30134785357393,41.034412186517876],[-123.30422108820738,41.04186799337475],[-123.30427334144358,41.042035618003545],[-123.30430222136089,41.04220635161478],[-123.30430742281091,41.04237839122247],[-123.30413805309152,41.04674327772706],[-123.307232238649,41.048774630116036],[-123.31008815268673,41.04372951757623],[-123.3101717226104,41.043598123534714],[-123.31465185064931,41.03727819746312],[-123.31476211356978,41.03713929187545],[-123.31488981439999,41.03700893627413],[-123.31503376723023,41.03688834112506],[-123.31519263525693,41.0367786262534],[-123.31536494319708,41.036680810446825],[-123.31554909098777,41.03659580199668],[-123.31574336864348,41.03652439026547],[-123.31594597213304,41.036467238358284],[-123.31615502012927,41.03642487696697],[-123.31636857147554,41.03639769944296],[-123.31658464320734,41.03638595814593],[-123.31680122896174,41.036389762100754],[-123.31701631760372,41.03640907598546],[-123.31722791189705,41.0364437204591],[-123.31743404704592,41.03649337382685],[-123.31763280893593,41.0365575750261],[-123.3178223519047,41.03663572790727],[-123.31800091587773,41.03672710676795],[-123.31816684271017,41.03683086309029],[-123.31831859158274,41.03694603341879],[-123.31845475330965,41.03707154830508],[-123.31857406342438,41.037206242236955],[-123.32344417190905,41.0433261640597]]]},"properties":{"fire_id":"F0003","date":"2026-08-22","area_ha":958.4,"frp_sum":295.6,"n_detections":32,"first_seen":"2026-08-20","last_seen":"2026-08-22","centroid":[-123.3032,41.05049],"history":[{"date":"2026-08-20","area_ha":112.3},{"date":"2026-08-22","area_ha":958.4}],"track":[[-123.31483400238075,41.0517423580262],[-123.30320142969047,41.050490850797345]],"growth_24h_ha":423.03,"speed_km_day":0.49,"bearing_deg":114.69,"direction":"ESE"}}]}