{"type":"FeatureCollection","features":[{"type":"Feature","geometry":{"type":"Polygon","coordinates":[[[-79.88972332072623,33.013958748043216],[-79.8897803061126,33.01411675014229],[-79.88981839222377,33.01427864012901],[-79.88983721175427,33.01444285721791],[-79.88983658314345,33.01460781817931],[-79.88981651233051,33.014771932603075],[-79.88977719270193,33.01493361823198],[-79.88971900323148,33.01509131621683],[-79.88964250483093,33.01524350614614],[-79.88773256411498,33.018573532956],[-79.88763956743057,33.01871725531761],[-79.88753024475722,33.018852791632135],[-79.88740562795127,33.0189788625273],[-79.88726689325286,33.01909427797286],[-79.88711535018412,33.01919794851497],[-79.8869524291886,33.01928889556122],[-79.88677966812837,33.01936626061912],[-79.88659869776649,33.019429313401005],[-79.88641122637158,33.01947745871858],[-79.88621902359046,33.01951024210213],[-79.88602390374061,33.01952735409105],[-79.88582770868076,33.019528633155716],[-79.88563229042117,33.01951406722226],[-79.88543949363793,33.01948379378673],[-79.8852511382568,33.01943809861699],[-79.88506900227055,33.01937741305457],[-79.88489480495281,33.019302309942546],[-79.88473019062653,33.0192134982172],[-79.88457671314058,33.019111816215144],[-79.8844358212012,33.0189982237586],[-79.88430884469643,33.01887379309411],[-79.88419698214337,33.01873969877],[-79.88410128937575,33.01859720654797],[-79.8840226695797,33.01844766145425],[-79.88396186477068,33.018292475082305],[-79.88391944879265,33.01813311226763],[-79.8838958219051,33.017971077260064],[-79.88389120700899,33.01780789952459],[-79.88390564754705,33.017645119304106],[-79.88393900709825,33.017484273081074],[-79.88475885358294,33.01442626300689],[-79.88440031271787,33.01137339817476],[-79.88439074251409,33.011211340622104],[-79.88440000595365,33.0110492706912],[-79.88442801652141,33.01088870000648],[-79.88447451285174,33.01073112620094],[-79.8845390611704,33.01057801894804],[-79.88462105934418,33.01043080625489],[-79.8847197425004,33.01029086114404],[-79.88483419016352,33.0101594888486],[-79.88496333484271,33.01003791463967],[-79.88510597198962,33.00992727239959],[-79.88526077123366,33.009828594047924],[-79.8854262887902,33.00974279991827],[-79.8856009809256,33.009670690175724],[-79.88578321835375,33.00961293735519],[-79.88597130142983,33.00957008008992],[-79.88616347599972,33.00954251808872],[-79.88635794975735,33.0095305084086],[-79.88655290895747,33.009534163057765],[-79.88674653532827,33.009553447951156],[-79.88693702302608,33.0095881832283],[-79.88712259547438,33.00963804493045],[-79.88730152193003,33.0097025680215],[-79.88747213362244,33.00978115072453],[-79.8876328393153,33.00987306013341],[-79.88778214014572,33.00997743904723],[-79.88791864360273,33.01009331396406],[-79.88804107651438,33.01021960415915],[-79.88814829692276,33.01035513176344],[-79.88823930473602,33.01049863274788],[-79.88831325105787,33.01064876871168],[-79.88972332072623,33.013958748043216]]]},"properties":{"fire_id":"F0088","date":"2026-09-13","area_ha":43.7,"cumulative_ha":234.0,"frp_sum":3.4,"n_detections":4,"first_seen":"2026-08-23","last_seen":"2026-09-13","centroid":[-79.88665,33.01455],"history":[{"date":"2026-08-23","area_ha":35.3},{"date":"2026-08-24","area_ha":132.4},{"date":"2026-08-25","area_ha":64.8},{"date":"2026-08-27","area_ha":74.1},{"date":"2026-08-30","area_ha":57.2},{"date":"2026-09-01","area_ha":117.1},{"date":"2026-09-02","area_ha":130.8},{"date":"2026-09-03","area_ha":116.8},{"date":"2026-09-04","area_ha":164.8},{"date":"2026-09-05","area_ha":125.4},{"date":"2026-09-06","area_ha":135.0},{"date":"2026-09-08","area_ha":58.5},{"date":"2026-09-09","area_ha":93.8},{"date":"2026-09-10","area_ha":59.2},{"date":"2026-09-11","area_ha":120.8},{"date":"2026-09-12","area_ha":87.4},{"date":"2026-09-13","area_ha":43.7}],"track":[[-79.88581782646236,33.01413268239847],[-79.884500926007,33.011248036009285],[-79.88518229911607,33.013759868676416],[-79.8826483078312,33.00818731590652],[-79.88209727640793,33.00983586505519],[-79.88266420330943,33.00991235881733],[-79.88203660600414,33.00973005669366],[-79.88507707148649,33.012765118477596],[-79.88478791211277,33.011050761408555],[-79.88415050213641,33.00994724401652],[-79.88299575348715,33.010294057743366],[-79.88771615448401,33.01479039589219],[-79.88538329931028,33.012210234863446],[-79.88519344833833,33.010572704225666],[-79.8835848576525,33.010769258056676],[-79.88571891338842,33.012677878485945],[-79.88665382016286,33.01454922858345]],"growth_24h_ha":-43.71,"speed_km_day":0.23,"bearing_deg":327.71,"direction":"NNW"}},{"type":"Feature","geometry":{"type":"Polygon","coordinates":[[[-77.2431477993513,35.52250461816418],[-77.24300421669635,35.522623635504786],[-77.24284669259204,35.522730675317426],[-77.24267676896686,35.52282468980629],[-77.24249610914578,35.522904758675],[-77.24230648156721,35.52297009813658],[-77.2421097424701,35.52302006858733],[-77.24190781772074,35.52305418086868],[-77.24170268395746,35.523072101056435],[-77.24149634923769,35.52307365373031],[-77.24129083337748,35.52305882369116],[-77.24108814817536,35.52302775610995],[-77.24089027771522,35.522980755106445],[-77.2406991589403,35.522918280771556],[-77.24051666268949,35.522840944662754],[-77.240344575381,35.52274950381666],[-77.24018458152341,35.522644853337134],[-77.24003824722494,35.522528017631984],[-77.23990700486283,35.52240014038365],[-77.2397921390625,35.522262473352676],[-77.23969477412429,35.52211636412277],[-77.23961586302023,35.52196324290864],[-77.23955617806894,35.52180460855475],[-77.23951630337943,35.52164201386268],[-77.23913635868352,35.51955200767305],[-77.23911698350419,35.51939207330866],[-77.239116778994,35.519231383744646],[-77.23913574691441,35.51907141785397],[-77.2391737125796,35.51891364784077],[-77.23923032646847,35.51875952569158],[-77.2393050674455,35.51861046981281],[-77.23939724756073,35.518467851977796],[-77.23950601838423,35.518332984702944],[-77.23963037881708,35.51820710916978],[-77.23976918430658,35.518091383803366],[-77.23992115738086,35.51798687361274],[-77.24008489940607,35.5178945403909],[-77.24025890345764,35.51781523386479],[-77.24044156818752,35.5177496838766],[-77.24449149801785,35.51647970812314],[-77.24468648339591,35.51642729993027],[-77.24488694631333,35.51639056831633],[-77.24509093820929,35.5163698703242],[-77.24529647622697,35.516365407144626],[-77.24550156248377,35.51637722216103],[-77.24570420348752,35.51640520052794],[-77.24590242950985,35.51644907028702],[-77.24609431372905,35.516508405010065],[-77.24627799095602,35.51658262794351],[-77.2464516757619,35.516671017613476],[-77.24661367983099,35.51677271483773],[-77.24676242837043,35.51688673107595],[-77.24689647541753,35.517011958037415],[-77.24701451789542,35.51714717845261],[-77.24711540828098,35.51729107790436],[-77.24719816576152,35.517442257603264],[-77.24726198577173,35.51759924798365],[-77.24730624781826,35.51776052298755],[-77.24733052151558,35.5179245148984],[-77.24733457077429,35.51808962957957],[-77.24731835610106,35.51825426197067],[-77.24728203498765,35.51841681168986],[-77.24722596038492,35.51857569859135],[-77.2471506772767,35.5187293781266],[-77.2470569173862,35.518876356359556],[-77.24694559206694,35.519015204490444],[-77.24681778344636,35.51914457274651],[-77.2431477993513,35.52250461816418]]]},"properties":{"fire_id":"F2967","date":"2026-09-13","area_ha":36.7,"cumulative_ha":36.7,"frp_sum":3.5,"n_detections":3,"first_seen":"2026-09-13","last_seen":"2026-09-13","centroid":[-77.24293,35.51951],"history":[{"date":"2026-09-13","area_ha":36.7}],"track":[[-77.24293313863022,35.51951369380562]],"growth_24h_ha":null,"speed_km_day":null,"bearing_deg":null,"direction":null}},{"type":"Feature","geometry":{"type":"Polygon","coordinates":[[[-83.40272650094053,45.070520513289985],[-83.40274113580057,45.07035255029087],[-83.40277939070755,45.070186456644336],[-83.40284088404843,45.07002388846791],[-83.40292500251128,45.06986646671308],[-83.40303090720693,45.069715761003806],[-83.40315754203888,45.06957327398768],[-83.40330364423818,45.06944042635506],[-83.40346775695748,45.06931854267584],[-83.40364824379942,45.06920883819477],[-83.40384330513359,45.069112406717004],[-83.40405099603981,45.06903020970457],[-83.40426924569879,45.06896306669211],[-83.40449587803674,45.06891164711777],[-83.40571585057235,45.06868165358237],[-83.40594263670081,45.06864715744336],[-83.40617309147441,45.06862841052702],[-83.40640503229798,45.06862559037964],[-83.40663626250543,45.068638723710016],[-83.40686459215921,45.0686676861364],[-83.40708785878631,45.06871220336421],[-83.40730394785423,45.06877185378319],[-83.40751081279353,45.06884607245938],[-83.40770649437735,45.06893415648398],[-83.40788913927462,45.06903527162917],[-83.40805701760121,45.069148460247014],[-83.40820853930312,45.06927265033739],[-83.40834226921636,45.06940666569896],[-83.40845694066105,45.069549237067015],[-83.40855146744097,45.06969901413295],[-83.40862495413444,45.06985457833147],[-83.40867670457972,45.07001445627476],[-83.40870622847356,45.0701771337061],[-83.40871324602068,45.07034106984108],[-83.40855346340174,45.07647107312925],[-83.40853738174152,45.07663787917295],[-83.40849799944323,45.076802737897985],[-83.40843570395374,45.0769640266952],[-83.40835110825248,45.07712015807885],[-83.40824504482424,45.07726959531243],[-83.4081185574707,45.07741086753561],[-83.4079728910411,45.07754258424304],[-83.40780947918309,45.077663448972686],[-83.407629930234,45.077772272068664],[-83.40743601139137,45.07786798239297],[-83.40722963131877,45.07794963787072],[-83.40701282135775,45.078016434764976],[-83.40678771553131,45.07806771558956],[-83.40562768944906,45.078287721772575],[-83.40540161293309,45.07832238211672],[-83.40517184858007,45.07834138848003],[-83.40494056009021,45.078344561876506],[-83.40470992551984,45.0783318724217],[-83.40448211676589,45.07830343961435],[-83.40425927910849,45.078259531210605],[-83.40404351100455,45.07820056070193],[-83.40383684432265,45.07812708342026],[-83.40364122520585,45.078039791307106],[-83.4034584957422,45.07793950639586],[-83.40329037661667,45.07782717306915],[-83.40313845090682,45.07770384916359],[-83.40300414917581,45.0775706960065],[-83.40288873600245,45.077428967477715],[-83.4027932980755,45.077279998200474],[-83.40271873396416,45.07712519097183],[-83.40266574566085,45.07696600355153],[-83.40263483197586,45.07680393493378],[-83.40262628384585,45.07664051123103],[-83.40272650094053,45.070520513289985]]]},"properties":{"fire_id":"F1552","date":"2026-09-13","area_ha":46.6,"cumulative_ha":127.1,"frp_sum":6.2,"n_detections":4,"first_seen":"2026-09-01","last_seen":"2026-09-13","centroid":[-83.40566,45.07348],"history":[{"date":"2026-09-01","area_ha":43.7},{"date":"2026-09-02","area_ha":40.2},{"date":"2026-09-03","area_ha":70.5},{"date":"2026-09-04","area_ha":28.6},{"date":"2026-09-05","area_ha":35.6},{"date":"2026-09-06","area_ha":65.4},{"date":"2026-09-07","area_ha":58.5},{"date":"2026-09-10","area_ha":73.1},{"date":"2026-09-11","area_ha":68.3},{"date":"2026-09-12","area_ha":53.9},{"date":"2026-09-13","area_ha":46.6}],"track":[[-83.403917721129,45.07250687449736],[-83.40613974708137,45.07275456281799],[-83.40880291250855,45.07243782470169],[-83.40581430516792,45.07250433195331],[-83.40481446199482,45.072238333026895],[-83.40475457173808,45.072722356340314],[-83.40570855053355,45.07350715506756],[-83.40391379437803,45.07226217714091],[-83.40706888139786,45.07239523080157],[-83.40564668707728,45.07259822077909],[-83.40565607955395,45.07347625238608]],"growth_24h_ha":-7.29,"speed_km_day":0.1,"bearing_deg":351.97,"direction":"N"}},{"type":"Feature","geometry":{"type":"Polygon","coordinates":[[[-84.0526539780015,41.56853796184062],[-84.05811705125839,41.568675594947564],[-84.0583385743204,41.56868924254686],[-84.05855722231085,41.56871888287595],[-84.05877088978922,41.568764230519506],[-84.05897751926398,41.56882484881116],[-84.05917512100153,41.56890015403734],[-84.05936179218294,41.56898942105686],[-84.05953573522477,41.56909179028224],[-84.05969527508748,41.5692062759553],[-84.05983887540461,41.56933177563787],[-84.05996515327801,41.56946708082587],[-84.06007289259607,41.56961088858502],[-84.06016105574686,41.56976181409586],[-84.06022879361363,41.56991840398772],[-84.06027545375572,41.57007915033289],[-84.06030058669639,41.57024250516671],[-84.06030395025653,41.57040689539352],[-84.06028551189269,41.57057073793509],[-84.06024544901628,41.570732454975534],[-84.0601841472908,41.5708904891562],[-84.06010219692347,41.57104331857379],[-84.06000038698642,41.571189471437584],[-84.05987969782224,41.571327540244404],[-84.05974129160663,41.57145619533467],[-84.05958650115903,41.57157419769928],[-84.05941681710893,41.57168041091356],[-84.05923387354119,41.57177381208324],[-84.05903943225879,41.571853501697355],[-84.05883536581473,41.57191871229261],[-84.05862363947602,41.571968815846134],[-84.05840629229425,41.57200332982497],[-84.05818541746468,41.572021921834235],[-84.05796314216335,41.57202441281909],[-84.0452428394828,41.571704404649346],[-84.04502262156642,41.57169087764676],[-84.0448052336063,41.57166154589133],[-84.04459274433557,41.57161668851541],[-84.04438717586007,41.57155673239846],[-84.04419048441186,41.57148224810388],[-84.0440045417302,41.57139394444812],[-84.04383111724744,41.571292661753944],[-84.04367186124912,41.57117936385216],[-84.04352828916929,41.571055128908014],[-84.04340176716977,41.5709211391594],[-84.04329349914113,41.57077866966479],[-84.04320451524887,41.57062907616818],[-84.04313566213354,41.57047378219628],[-84.04308759485833,41.57031426551112],[-84.04306077068024,41.57015204404664],[-84.04258092605244,41.56529203500436],[-84.04257556812713,41.56512966684182],[-84.04259149153776,41.56496767794783],[-84.04262854648901,41.564807590702806],[-84.04268638459594,41.56465090960446],[-84.04276446216332,41.56449910712888],[-84.04286204530007,41.56435360989321],[-84.04297821682053,41.564215785249665],[-84.04311188486773,41.56408692843667],[-84.04326179317701,41.56396825040809],[-84.04342653288415,41.563860866454576],[-84.04360455576624,41.56376578572428],[-84.04379418879147,41.563683901740745],[-84.04399364984066,41.563615984007726],[-84.04420106445309,41.56356267077908],[-84.04441448343937,41.56352446306212],[-84.04463190119574,41.56350171991045],[-84.04485127454808,41.56349465505046],[-84.04507054194856,41.563503334873396],[-84.04528764284485,41.56352767781159],[-84.04550053703983,41.56356745510475],[-84.04570722386045,41.56362229294931],[-84.04590576095534,41.56369167601032],[-84.04609428254494,41.56377495226335],[-84.04627101695294,41.56387133912053],[-84.04643430325395,41.56397993078356],[-84.0526539780015,41.56853796184062]]]},"properties":{"fire_id":"F1550","date":"2026-09-13","area_ha":80.1,"cumulative_ha":191.7,"frp_sum":9.1,"n_detections":4,"first_seen":"2026-09-01","last_seen":"2026-09-13","centroid":[-84.04968,41.56883],"history":[{"date":"2026-09-01","area_ha":108.3},{"date":"2026-09-02","area_ha":39.6},{"date":"2026-09-03","area_ha":108.5},{"date":"2026-09-04","area_ha":103.4},{"date":"2026-09-06","area_ha":86.7},{"date":"2026-09-07","area_ha":130.6},{"date":"2026-09-08","area_ha":57.5},{"date":"2026-09-10","area_ha":72.8},{"date":"2026-09-11","area_ha":87.9},{"date":"2026-09-13","area_ha":80.1}],"track":[[-84.04842532568767,41.5674906918012],[-84.04766197262,41.56766659739095],[-84.0489980571958,41.567426917787365],[-84.04846342604914,41.569358018078006],[-84.05051061950353,41.56866539320648],[-84.05151927151401,41.56849429061249],[-84.04842388061884,41.568163035668064],[-84.0504304650123,41.56960229545395],[-84.05091428642936,41.56835449656725],[-84.04967501852568,41.56883202616492]],"growth_24h_ha":-3.9,"speed_km_day":0.06,"bearing_deg":55.28,"direction":"NE"}},{"type":"Feature","geometry":{"type":"Polygon","coordinates":[[[-84.37974569844786,39.48577100003495],[-84.37967893531412,39.48592936391983],[-84.37959182841702,39.486081904733325],[-84.37948523831251,39.48622711525659],[-84.37936021808346,39.486363560690684],[-84.37921800293792,39.486489892834875],[-84.37905999800662,39.48660486340961],[-84.37888776446059,39.48670733639253],[-84.3787030040857,39.48679629924508],[-84.37850754246685,39.486870872919155],[-84.36627733374087,39.49097096174471],[-84.3660774570616,39.491029298569856],[-84.36587107028923,39.49107258570164],[-84.36566012786072,39.49110041321777],[-84.36544662736306,39.4911125175957],[-84.36523259061273,39.49110878420868],[-84.36502004450553,39.49108924841134],[-84.36481100181814,39.49105409520496],[-84.36460744214365,39.491003657485095],[-84.36441129314163,39.49093841288845],[-84.36422441228036,39.4908589792689],[-84.36404856924462,39.4907661088453],[-84.36388542917534,39.49066068107688],[-84.3637365369003,39.49054369433358],[-84.36360330230491,39.49041625644013],[-84.36348698698191,39.490279574183944],[-84.36338869228635,39.4901349418857],[-84.3633093489088,39.489983729141244],[-84.36324970806547,39.48982736785116],[-84.36321033438873,39.48966733866011],[-84.3631916005849,39.48950515693543],[-84.36319368390996,39.48934235841705],[-84.36321656449635,39.489180484674776],[-84.3632600255464,39.48902106851104],[-84.36332365539026,39.488865619446955],[-84.36340685138913,39.48871560942906],[-84.36350882564605,39.48857245889246],[-84.36362861247034,39.488437523311816],[-84.36376507752475,39.48831208036787],[-84.36391692856883,39.48819731785081],[-84.36408272769631,39.48809432241477],[-84.36426090495088,39.488004069290206],[-84.37710074109759,39.482164187944804],[-84.37729240362293,39.482086498992956],[-84.37749320438517,39.48202356195187],[-84.37770118627087,39.481975990232634],[-84.37791432218997,39.481944247488265],[-84.37813053482917,39.4819286430958],[-84.37834771689442,39.481929329141494],[-84.37856375164523,39.48194629893892],[-84.37877653352095,39.48197938709399],[-84.37898398865823,39.482028271116846],[-84.3791840950999,39.482092474564055],[-84.37937490249841,39.48217137168148],[-84.37955455112193,39.48226419350187],[-84.37972128997829,39.48237003533818],[-84.37987349387986,39.482487865599545],[-84.38000967928329,39.48261653584414],[-84.38012851874991,39.48275479197078],[-84.38022885388546,39.48290128644074],[-84.38030970663334,39.4830545914101],[-84.38037028881114,39.4832132126453],[-84.38041000979705,39.48337560408593],[-84.38042848229165,39.483540182913224],[-84.38042552609816,39.4837053449769],[-84.3804011698845,39.48386948043072],[-84.38035565090946,39.48403098942371],[-84.37974569844786,39.48577100003495]]]},"properties":{"fire_id":"F2564","date":"2026-09-13","area_ha":69.0,"cumulative_ha":230.8,"frp_sum":3.6,"n_detections":3,"first_seen":"2026-09-09","last_seen":"2026-09-13","centroid":[-84.37233,39.48665],"history":[{"date":"2026-09-09","area_ha":30.4},{"date":"2026-09-10","area_ha":118.5},{"date":"2026-09-11","area_ha":193.4},{"date":"2026-09-13","area_ha":69.0}],"track":[[-84.38546336789003,39.48435408161459],[-84.373891203983,39.48437357726903],[-84.37271637093228,39.48362606881094],[-84.37232903539076,39.486647060108105]],"growth_24h_ha":-62.17,"speed_km_day":0.17,"bearing_deg":358.56,"direction":"N"}},{"type":"Feature","geometry":{"type":"Polygon","coordinates":[[[-83.14582976071594,40.572803395784646],[-83.1459257787998,40.572948169048175],[-83.14600271487865,40.57309920910031],[-83.14605985120546,40.57325510711197],[-83.14609665470459,40.5734144089315],[-83.14611278194863,40.573575628647696],[-83.14610808236674,40.57373726244919],[-83.14608259965438,40.57389780265156],[-83.14603657137096,40.57405575176049],[-83.14597042672906,40.574209636440756],[-83.14588478259567,40.57435802125987],[-83.14578043774233,40.5744995220787],[-83.14565836539815,40.57463281896395],[-83.14551970417443,40.57475666850187],[-83.1453657474459,40.574869915398445],[-83.14519793128734,40.5749715032578],[-83.14501782107811,40.57506048443805],[-83.14482709689958,40.57513602889268],[-83.14462753786157,40.57519743191496],[-83.14442100550438,40.57524412071295],[-83.14420942643098,40.57527565975385],[-83.14399477433167,40.57529175482766],[-83.14377905156924,40.57529225579236],[-83.13817892035357,40.575102251117194],[-83.13795737282851,40.575086411296915],[-83.13773902849907,40.57505412659683],[-83.13752605518404,40.57500571755564],[-83.13732056736548,40.57494166480162],[-83.13712460519137,40.57486260427996],[-83.13694011421728,40.57476932093718],[-83.13676892608783,40.574662740926705],[-83.13661274035016,40.574543922411706],[-83.13647310758029,40.57441404505761],[-83.13635141398917,40.57427439831828],[-83.13624886766216,40.574126368632136],[-83.13616648656783,40.573971425655714],[-83.13610508845528,40.57381110767134],[-83.13606528274028,40.57364700631361],[-83.13604746446018,40.57348075076679],[-83.13605181035796,40.573313991589785],[-83.13607827713349,40.5731483843293],[-83.1361266018797,40.572985573084054],[-83.13619630469846,40.57282717418309],[-83.13842641249397,40.568497212584525],[-83.13851552432811,40.56834667833593],[-83.13862393978106,40.56820343546099],[-83.13875060943938,40.5680688703355],[-83.1388943072365,40.5679442853399],[-83.13905364232154,40.56783088625548],[-83.13922707252196,40.56772977059641],[-83.13941291926969,40.567641916989054],[-83.13960938384642,40.56756817570235],[-83.13981456479057,40.56750926042016],[-83.14002647629772,40.567465741335454],[-83.14024306743683,40.567438039633004],[-83.14046224199569,40.56742642341399],[-83.14068187876461,40.56743100510178],[-83.14089985206145,40.567451740354194],[-83.14111405230004,40.56748842849245],[-83.14132240640306,40.56754071444309],[-83.14152289786172,40.56760809217356],[-83.14171358624873,40.56768990958872],[-83.14189262599551,40.567785374840696],[-83.1420582842523,40.56789356399109],[-83.14220895765827,40.56801342995149],[-83.14234318785932,40.568143812615865],[-83.14245967562374,40.568283450086724],[-83.14582976071594,40.572803395784646]]]},"properties":{"fire_id":"F2787","date":"2026-09-13","area_ha":52.1,"cumulative_ha":69.5,"frp_sum":3.6,"n_detections":3,"first_seen":"2026-09-11","last_seen":"2026-09-13","centroid":[-83.14093,40.57198],"history":[{"date":"2026-09-11","area_ha":38.4},{"date":"2026-09-13","area_ha":52.1}],"track":[[-83.1382102185318,40.57039861296339],[-83.14093349322567,40.57198440706253]],"growth_24h_ha":6.85,"speed_km_day":0.14,"bearing_deg":300.09,"direction":"WNW"}},{"type":"Feature","geometry":{"type":"Polygon","coordinates":[[[-84.92899342670253,41.366455843854546],[-84.92921580456394,41.366469384708864],[-84.92943529602115,41.36649913028048],[-84.92964975931231,41.36654479031903],[-84.93122972791508,41.36694478072093],[-84.93143505330421,41.3670052251712],[-84.93163143493653,41.36708025470213],[-84.93181699439319,41.36716915166041],[-84.93198995675034,41.36727106574835],[-84.93214866755515,41.367385022155496],[-84.93229160865012,41.36750993088106],[-84.9324174126951,41.36764459715802],[-84.93252487624761,41.36778773287969],[-84.93261297127646,41.36793796891909],[-84.93268085499855,41.36809386822338],[-84.93272787794437,41.36825393955865],[-84.93275359017538,41.368416651773],[-84.93275774559297,41.36858044844199],[-84.93274030429819,41.368743762756274],[-84.93270143297917,41.3689050325089],[-84.93264150332224,41.36906271503916],[-84.93256108846188,41.36921530198985],[-84.93246095750335,41.36936133373666],[-84.93234206816985,41.36949941335199],[-84.93220555764469,41.369628219969165],[-84.93205273169603,41.36974652141938],[-84.93188505218758,41.36985318602033],[-84.93170412309543,41.36994719340361],[-84.93151167516413,41.37002764427748],[-84.93130954934911,41.370093769031186],[-84.931099679204,41.370144935098665],[-84.93088407238105,41.37018065301117],[-84.93066479142226,41.37020058108053],[-84.93044393402474,41.37020452866874],[-84.92339376661036,41.370074525373305],[-84.92314142480883,41.370059340655565],[-84.92289295966609,41.37002331045301],[-84.92265149266215,41.36996688741811],[-84.9210814627407,41.3695268769815],[-84.92088059406606,41.36946216379394],[-84.92068912100633,41.36938332909554],[-84.92050884360059,41.36929111402894],[-84.92034145661663,41.369186385525154],[-84.92018853361722,41.36907012815204],[-84.9200515121668,41.36894343485652],[-84.91993168031752,41.3688074966881],[-84.91983016450213,41.368663591600175],[-84.9197479189469,41.368513072434496],[-84.91968571670449,41.36835735420187],[-84.91964414239075,41.36819790077868],[-84.91962358669359,41.36803621114446],[-84.9196242427053,41.36787380528966],[-84.91964610411281,41.3677122099265],[-84.91968896526252,41.36755294413701],[-84.91975242309891,41.36739750509301],[-84.9198358809586,41.36724735398284],[-84.91993855418386,41.36710390227638],[-84.92005947750282,41.366968498457915],[-84.9201975141066,41.36684241535144],[-84.92035136633822,41.36672683815734],[-84.92051958789239,41.36662285331279],[-84.92070059741181,41.36653143828094],[-84.92089269335183,41.3664534523642],[-84.92109406997396,41.36638962862834],[-84.92130283431806,41.366340567013],[-84.92151702399337,41.36630672869353],[-84.92173462562175,41.36628843174693],[-84.92195359375968,41.36628584816252],[-84.92899342670253,41.366455843854546]]]},"properties":{"fire_id":"F0049","date":"2026-09-13","area_ha":40.7,"cumulative_ha":205.2,"frp_sum":15.0,"n_detections":4,"first_seen":"2026-08-23","last_seen":"2026-09-13","centroid":[-84.92618,41.36825],"history":[{"date":"2026-08-23","area_ha":89.2},{"date":"2026-08-24","area_ha":53.0},{"date":"2026-08-25","area_ha":100.2},{"date":"2026-08-26","area_ha":125.3},{"date":"2026-08-28","area_ha":114.3},{"date":"2026-08-29","area_ha":49.7},{"date":"2026-09-01","area_ha":111.7},{"date":"2026-09-02","area_ha":92.6},{"date":"2026-09-03","area_ha":71.0},{"date":"2026-09-04","area_ha":99.2},{"date":"2026-09-06","area_ha":115.3},{"date":"2026-09-07","area_ha":118.5},{"date":"2026-09-08","area_ha":66.3},{"date":"2026-09-10","area_ha":90.0},{"date":"2026-09-11","area_ha":90.5},{"date":"2026-09-13","area_ha":40.7}],"track":[[-84.92119471379407,41.368562109359914],[-84.91944720539281,41.368489229996754],[-84.92052138591339,41.368473096195814],[-84.91930456301827,41.36877330366283],[-84.92333716278411,41.36873389103333],[-84.91737662667303,41.36817961806856],[-84.9203159155345,41.36840307233296],[-84.9226149474121,41.368754223051766],[-84.91836742898221,41.368445682662006],[-84.9200093115632,41.36998955967567],[-84.91986924010156,41.369344786038994],[-84.91972448348258,41.36898908137029],[-84.92033993759178,41.36824050998678],[-84.9210245472093,41.36979398792205],[-84.92037829765,41.36799364346552],[-84.926183369355,41.3682534281199]],"growth_24h_ha":-24.92,"speed_km_day":0.24,"bearing_deg":266.78,"direction":"W"}},{"type":"Feature","geometry":{"type":"Polygon","coordinates":[[[-76.81119128919866,36.35825468303828],[-76.81115457679833,36.35841684087701],[-76.81109796116357,36.35857534834799],[-76.81102199062354,36.35872866994351],[-76.81092740101666,36.35887532038412],[-76.81081510856613,36.35901387900821],[-76.81068620100744,36.35914300353559],[-76.81054192705345,36.35926144307208],[-76.81038368429917,36.359368050229044],[-76.8102130056832,36.35946179224021],[-76.81003154463718,36.359541760968085],[-76.80984105906694,36.35960718170305],[-76.80964339432079,36.35965742066973],[-76.80944046530979,36.35969199116781],[-76.80923423795366,36.35971055828802],[-76.8090267101319,36.35971294215709],[-76.80881989232516,36.35969911968072],[-76.80242975431706,36.35901910543761],[-76.80222466494114,36.35898901403058],[-76.80202432349479,36.35894298702846],[-76.80183068986356,36.35888147470189],[-76.80164565829958,36.35880507880921],[-76.80147103888802,36.35871454670882],[-76.80130853983752,36.358610764046595],[-76.80115975076795,36.35849474609061],[-76.80102612715962,36.35836762779762],[-76.80090897611517,36.35823065270887],[-76.80080944357451,36.35808516078345],[-76.80072850310677,36.357932575288906],[-76.80066694638977,36.357774388876805],[-76.8006253754692,36.35761214898009],[-76.80060419687385,36.3574474426746],[-76.8006036176436,36.3572818811534],[-76.80062364330938,36.35711708396527],[-76.80066407784433,36.356954663172175],[-76.80072452558646,36.3567962075802],[-76.80080439511413,36.356643267198166],[-76.80090290503563,36.35649733807655],[-76.80101909163669,36.35635984767418],[-76.8011518183107,36.35623214089624],[-76.80129978667894,36.35611546694012],[-76.8014615492928,36.35601096707754],[-76.80163552379263,36.35591966349232],[-76.80867543653456,36.35260972367026],[-76.80885645096883,36.352533778647576],[-76.80904588942776,36.35247212856403],[-76.80924196594472,36.352425354633084],[-76.80944283198399,36.352393897820555],[-76.80964659386498,36.35237805468824],[-76.80985133061186,36.352377974598475],[-76.81005511205997,36.35239365830632],[-76.81025601704897,36.35242495795239],[-76.81045215153121,36.35247157845664],[-76.81064166642454,36.35253308029969],[-76.81082277504196,36.35260888366564],[-76.81099376993309,36.35269827390746],[-76.81115303897984,36.35280040828332],[-76.81129908059368,36.35291432390035],[-76.81143051787188,36.353038946791266],[-76.81154611157915,36.35317310203804],[-76.81164477183215,36.353315524847446],[-76.81172556837686,36.35346487247406],[-76.81178773936173,36.353619736878365],[-76.81183069852392,36.353778658000564],[-76.81185404072052,36.35394013752537],[-76.81185754575274,36.3541026530076],[-76.81184118044672,36.35426467222548],[-76.81119128919866,36.35825468303828]]]},"properties":{"fire_id":"F1380","date":"2026-09-13","area_ha":56.8,"cumulative_ha":124.1,"frp_sum":6.4,"n_detections":3,"first_seen":"2026-08-31","last_seen":"2026-09-13","centroid":[-76.80698,36.35644],"history":[{"date":"2026-08-31","area_ha":45.3},{"date":"2026-09-01","area_ha":30.5},{"date":"2026-09-02","area_ha":84.2},{"date":"2026-09-03","area_ha":35.4},{"date":"2026-09-05","area_ha":42.7},{"date":"2026-09-07","area_ha":93.9},{"date":"2026-09-10","area_ha":46.8},{"date":"2026-09-11","area_ha":55.8},{"date":"2026-09-12","area_ha":57.5},{"date":"2026-09-13","area_ha":56.8}],"track":[[-76.8083306432523,36.35573203618323],[-76.80612349149828,36.3551669122557],[-76.8091436290025,36.35546948772977],[-76.80786864114489,36.35555748578543],[-76.80992554141838,36.355607976535936],[-76.80767080864626,36.35479798897943],[-76.80678924775705,36.356591134341734],[-76.80834499504057,36.355491976864],[-76.80631187068443,36.35621165173654],[-76.80697526299588,36.35643625889831]],"growth_24h_ha":-0.74,"speed_km_day":0.06,"bearing_deg":281.53,"direction":"WNW"}},{"type":"Feature","geometry":{"type":"Polygon","coordinates":[[[-86.80954960652633,33.104315284115856],[-86.80953323092122,33.10446617575864],[-86.80950056005359,33.10461522769614],[-86.80945185959382,33.10476122746505],[-86.80769195701826,33.109241253540254],[-86.80762042092753,33.109396759179184],[-86.80753070973621,33.10954561782059],[-86.80742370450304,33.10968636735426],[-86.80730045616815,33.10981762531209],[-86.807162175233,33.10993810244816],[-86.80701021987207,33.11004661540327],[-86.80684608259331,33.1101420983296],[-86.80667137557816,33.110223613361036],[-86.80648781484516,33.11029035982675],[-86.80629720339287,33.11034168211641],[-86.80610141348771,33.11037707612117],[-86.80590236827071,33.110396194185896],[-86.80570202286432,33.110398848524596],[-86.80550234516447,33.11038501306517],[-86.80530529650731,33.11035482370558],[-86.80511281240035,33.11030857697881],[-86.80492678350743,33.11024672713967],[-86.80474903707481,33.110169881702205],[-86.80458131898057,33.11007879547153],[-86.80442527658388,33.109974363128735],[-86.80428244254297,33.109857610441765],[-86.80415421976045,33.10972968418876],[-86.804041867604,33.10959184089261],[-86.803946489538,33.10944543447781],[-86.80386902228713,33.109291902970746],[-86.80381022663872,33.109132754373995],[-86.80377067997378,33.10896955185359],[-86.8037507706001,33.108803898384835],[-86.80375069394283,33.10863742100726],[-86.80455103854658,33.095127433461656],[-86.80456667502419,33.09498584127992],[-86.80459666426525,33.09484585518168],[-86.8046407913377,33.094708478091924],[-86.80633089028133,33.09021850322228],[-86.8064003147532,33.09006184306095],[-86.80648810663462,33.08991168349178],[-86.8065933987388,33.08976950758487],[-86.80671515105267,33.089636719551756],[-86.80685216101114,33.089514630878],[-86.80700307537609,33.089404447371294],[-86.80716640360235,33.08930725725393],[-86.80734053255907,33.089224020416275],[-86.80752374246076,33.08915555893774],[-86.80771422385088,33.089102548968874],[-86.80791009547035,33.089065514054376],[-86.80810942283446,33.08904481996324],[-86.80831023733519,33.089040671076965],[-86.80851055567989,33.08905310837129],[-86.8087083994752,33.089082009011506],[-86.80890181476231,33.08912708756552],[-86.8090888913115,33.08918789882238],[-86.80926778148482,33.089263842188615],[-86.80943671848134,33.08935416761891],[-86.80959403378476,33.089457983022854],[-86.80973817364102,33.089574263074276],[-86.80986771440342,33.089701859336536],[-86.80998137659365,33.08983951160351],[-86.81007803753982,33.08998586034495],[-86.81015674246682,33.09013946013242],[-86.81021671392904,33.09029879391429],[-86.81025735949267,33.090462287998],[-86.81027827759111,33.09062832759219],[-86.81027926149575,33.090795272755166],[-86.80954960652633,33.104315284115856]]]},"properties":{"fire_id":"F2968","date":"2026-09-13","area_ha":108.0,"cumulative_ha":108.0,"frp_sum":7.9,"n_detections":4,"first_seen":"2026-09-13","last_seen":"2026-09-13","centroid":[-86.80703,33.09973],"history":[{"date":"2026-09-13","area_ha":108.0}],"track":[[-86.80703129926414,33.09973221050404]],"growth_24h_ha":null,"speed_km_day":null,"bearing_deg":null,"direction":null}}]}