{"type":"FeatureCollection","features":[{"type":"Feature","geometry":{"type":"Polygon","coordinates":[[[-122.40606281905168,40.67310902710841],[-122.41290279782547,40.675021782063],[-122.413102138199,40.675085928099975],[-122.41329223659505,40.67516422816899],[-122.41347130414042,40.67525594546297],[-122.41363765574452,40.67536021691474],[-122.41378972595528,40.67547606131749],[-122.41392608369016,40.67560238855605],[-122.41404544570365,40.675738009863906],[-122.41414668866456,40.675881649007735],[-122.41422885972945,40.67603195429591],[-122.41429118551254,40.67618751129714],[-122.41433307936764,40.6763468561494],[-122.41435414691331,40.67650848933505],[-122.41435418974939,40.67667088979106],[-122.41433320732914,40.67683252922313],[-122.41429139697,40.67699188648773],[-122.41422915200181,40.677147461907595],[-122.41414705807044,40.6772977913854],[-122.41404588763096,40.67744146018309],[-122.40793602407832,40.685181557530534],[-122.40781126758769,40.68532275698535],[-122.40766809433251,40.68545380658129],[-122.40750796807086,40.68557336641656],[-122.40733252591937,40.68568021405846],[-122.40714356161567,40.68577325704385],[-122.40694300717797,40.685851544050934],[-122.40673291314958,40.685914274628175],[-122.40651542763067,40.68596080737977],[-122.40629277431134,40.68599066652544],[-122.40606722973135,40.686003546765676],[-122.38192666202244,40.686463558138485],[-122.38170224135203,40.68645938146349],[-122.3814795100888,40.68643839412282],[-122.38126071123608,40.68640080746913],[-122.38104804818789,40.68634700001816],[-122.38084366253541,40.68627751363578],[-122.38064961249687,40.68619304807979],[-122.3804678521872,40.68609445395211],[-122.3803002119378,40.685982724130874],[-122.38014837986336,40.685858983770075],[-122.38001388486222,40.68572447896723],[-122.37989808122137,40.68558056421273],[-122.37980213498084,40.685428688748175],[-122.37972701219496,40.68527038197069],[-122.37967346920858,40.6851072380303],[-122.37964204504561,40.68494089977549],[-122.37963305598704,40.68477304220915],[-122.37964659239212,40.684605355621045],[-122.37968251779478,40.684439528566585],[-122.37974047028423,40.6842772308639],[-122.37981986615542,40.684120096780084],[-122.37991990579208,40.68396970857571],[-122.38353999619923,40.67914976697473],[-122.38365578463119,40.679011774138395],[-122.38378894960238,40.678882859485164],[-122.38393822947981,40.678764244289034],[-122.38410220998682,40.678657052245995],[-122.38848524614284,40.67606200562161],[-122.3902880321128,40.66842384807569],[-122.38206578645939,40.66382331217367],[-122.37904749034176,40.663613601025105],[-122.36697278298203,40.665912716976216],[-122.36336685384799,40.67040256259287],[-122.3632485651227,40.67053510817685],[-122.36311397024488,40.6706586322853],[-122.36296428940041,40.67077201501845],[-122.36280087956743,40.670874228415244],[-122.36262522221446,40.670964345774806],[-122.36243890986863,40.67104155005949],[-122.35626926957201,40.67331774249722],[-122.35178960356208,40.675013840483224],[-122.3515877182437,40.675081116364744],[-122.35137794785099,40.675133153064884],[-122.35116234018318,40.6751694425908],[-122.35094300003566,40.675189630676044],[-122.35072206864851,40.67519352023979],[-122.35050170279915,40.67518107331132],[-122.35028405374288,40.6751524114004],[-122.35007124620758,40.675107814311126],[-122.34986535764764,40.67504771740981],[-122.34966839795973,40.67497270737389],[-122.34948228985881,40.674883516463424],[-122.34930885010607,40.674781015371266],[-122.34914977177212,40.674666204721696],[-122.34900660770857,40.6745402053007],[-122.34888075538983,40.67440424711279],[-122.34877344327236,40.674259657372154],[-122.3486857188053,40.67410784754494],[-122.34861843820883,40.67395029956903],[-122.34857225812029,40.673788551386515],[-122.34854762918903,40.6736241819297],[-122.348544791683,40.6734587957074],[-122.348563773149,40.67329400714179],[-122.34860438814962,40.673131424809384],[-122.34866624007945,40.67297263573918],[-122.34874872504183,40.67281918992163],[-122.3568090194011,40.65972932533645],[-122.35692587255704,40.65956439059683],[-122.36232948698935,40.65286761711643],[-122.36459612193501,40.6408067814681],[-122.36463820152935,40.64064268837787],[-122.36470191749869,40.64048255372004],[-122.36478663493631,40.640327972816856],[-122.36489150972602,40.640180485651385],[-122.3650154969562,40.64004156152662],[-122.3651573613332,40.6399125844299],[-122.36531568949059,40.63979483924689],[-122.365488904071,40.639689498963094],[-122.36567527944078,40.63959761298044],[-122.36587295888035,40.63952009666482],[-122.3660799730796,40.63945772222913],[-122.36629425975374,40.63941111104162],[-122.36651368418445,40.6393807274376],[-122.36673606048215,40.63936687409449],[-122.37878199930137,40.63906782451184],[-122.38188555577447,40.635025006308645],[-122.37600552201454,40.629188159055694],[-122.37587916573625,40.62904861947655],[-122.37577219270571,40.62890026910854],[-122.37568568791549,40.62874461279579],[-122.37562052871358,40.628583229482224],[-122.37557737590865,40.62841775619382],[-122.37555666707235,40.62824987143201],[-122.37555861210706,40.62808127814676],[-122.3755831911229,40.627913686462456],[-122.37563015464622,40.62774879633095],[-122.37569902615623,40.62758828028906],[-122.37578910692469,40.62743376649394],[-122.37589948310855,40.627286822209506],[-122.37824952772506,40.62449685894407],[-122.37837710421651,40.624360858522],[-122.37852205857882,40.624235003356134],[-122.37868296182971,40.62412053406663],[-122.37885822779319,40.62401857903114],[-122.37904612873592,40.62393014326363],[-122.37924481239749,40.62385609850939],[-122.37945232024755,40.62379717465313],[-122.37966660678924,40.62375395252611],[-122.3798855597193,40.62372685818166],[-122.38010702074575,40.623716158696325],[-122.38822682982975,40.623626160916935],[-122.38845421756926,40.62363230814961],[-122.388679592746,40.62365573749335],[-122.38890061992491,40.623696206164304],[-122.38911500871747,40.62375329481002],[-122.38932053751107,40.62382641185401],[-122.38951507648686,40.6239147996245],[-122.38969660968678,40.6240175422045],[-122.40166654577239,40.63153740001826],[-122.40189046406671,40.63169921545907],[-122.40839048768915,40.637099126209186],[-122.40852231262764,40.6372194312997],[-122.40863864951008,40.63734838304446],[-122.40873849293581,40.6374848671215],[-122.40882098001549,40.63762770411219],[-122.40888539783039,40.63777565969175],[-122.40916345278617,40.638531913133875],[-122.41550986913778,40.64168762036599],[-122.42128066818489,40.63399054676248],[-122.42139523145704,40.63385364919291],[-122.42152688281972,40.63372565895362],[-122.42167439605454,40.63360776807414],[-122.42183639723471,40.6335010745183],[-122.42201137752195,40.633406571959796],[-122.42219770721896,40.63332514052975],[-122.42239365094643,40.63325753862066],[-122.42259738380372,40.63320439582515],[-122.42280700836213,40.6331662070733],[-122.42302057233331,40.63314332802432],[-122.4232360867478,40.633135971754875],[-122.42345154447521,40.63314420677522],[-122.42366493891282,40.6331679563912],[-122.4238742826698,40.633206999418285],[-122.42407762607245,40.63326097224127],[-122.42427307531845,40.633329372199746],[-122.42445881011143,40.63341156226859],[-122.42463310061167,40.633506776989684],[-122.42479432354494,40.63361412959921],[-122.42494097731999,40.63373262028513],[-122.42507169601329,40.63386114549708],[-122.42518526209179,40.6339985082227],[-122.42528061775393,40.634143429134475],[-122.42535687478444,40.63429455850328],[-122.42541332283011,40.634450488768145],[-122.42763354357376,40.64201044868246],[-122.42767027951574,40.64217357996932],[-122.4276853324012,40.64233862969496],[-122.42767855507353,40.64250398599305],[-122.42765001356877,40.64266803399125],[-122.42759998647655,40.64282917158268],[-122.42752896222505,40.64298582507242],[-122.4274376343164,40.64313646454713],[-122.42732689455852,40.643279618817886],[-122.42719782435978,40.64341388978933],[-122.42705168417078,40.64353796611546],[-122.4268899011767,40.64365063600857],[-122.42671405536015,40.643750799075875],[-122.41533174216447,40.649591762817614],[-122.41611791161772,40.65326515606665],[-122.41613950164201,40.65340174082359],[-122.41614604260717,40.65353919147341],[-122.41613749027458,40.65367658022651],[-122.41549765959829,40.65912659201609],[-122.41546664480309,40.65929367814645],[-122.4154133247057,40.65945757934623],[-122.4153382405823,40.65961663131301],[-122.41524215472145,40.6597692189733],[-122.4151260426888,40.659913792884076],[-122.41499108342515,40.66004888496777],[-122.41483864727842,40.66017312342177],[-122.41467028209081,40.660285246650155],[-122.41448769748239,40.66038411607683],[-122.40404694250724,40.665457520175025],[-122.40606281905168,40.67310902710841]]]},"properties":{"fire_id":"F0001","date":"2026-08-21","area_ha":2289.5,"frp_sum":1077.1,"n_detections":84,"first_seen":"2026-08-18","last_seen":"2026-08-21","centroid":[-122.39015,40.6547],"history":[{"date":"2026-08-18","area_ha":242.8},{"date":"2026-08-19","area_ha":806.9},{"date":"2026-08-20","area_ha":1378.4},{"date":"2026-08-21","area_ha":2289.5}],"track":[[-122.39995862968424,40.62563349869898],[-122.39835509269727,40.62914708372974],[-122.39387512695416,40.640458473541486],[-122.39014718510178,40.65469645357964]],"growth_24h_ha":911.09,"speed_km_day":1.63,"bearing_deg":27.0,"direction":"NNE"}},{"type":"Feature","geometry":{"type":"Polygon","coordinates":[[[-120.8521990399091,39.297646199241],[-120.85434327366794,39.30348923688603],[-120.85439193053567,39.303653138834186],[-120.85441877434434,39.3038199353206],[-120.8544235340981,39.303987943426506],[-120.85440616161902,39.30415546799623],[-120.85436683203949,39.30432081874115],[-120.85430594204112,39.30448232729429],[-120.85422410585825,39.30463836404471],[-120.85412214908558,39.304787354581116],[-120.85400110035275,39.30492779557875],[-120.85386218094912,39.305058269969955],[-120.85370679250386,39.30517746124367],[-120.85353650284503,39.30528416673147],[-120.85335303018076,39.30537730974413],[-120.85315822576166,39.30545595043809],[-120.85295405519992,39.3055192952998],[-120.84991399702632,39.30632931328385],[-120.84971263316187,39.306374846085916],[-120.84950648150577,39.30640549450341],[-120.84929743058966,39.306420977768695],[-120.8490873955105,39.3064211540406],[-120.84887830038289,39.306406021704326],[-120.84867206070885,39.306375719386104],[-120.84847056582655,39.306330524683176],[-120.84827566159876,39.30627085161989],[-120.84808913350031,39.30619724685433],[-120.84791269025902,39.3061103846695],[-120.84774794820044,39.306011060795015],[-120.84759641643994,39.305900185116286],[-120.84569641993026,39.304370160377374],[-120.84554541168073,39.30423482931861],[-120.84541408124292,39.30408805211064],[-120.84530390980987,39.303931484300364],[-120.8452161398909,39.30376689185462],[-120.8437462215343,39.30052686694777],[-120.84368635913512,39.300370710110265],[-120.84364667418734,39.30021085861648],[-120.84362754184875,39.30004882414807],[-120.8436291429104,39.29988613902032],[-120.8439092574442,39.29608614403309],[-120.84393070135931,39.295928691243994],[-120.84397156719503,39.29577348863416],[-120.8440314889539,39.29562192574126],[-120.84410993003874,39.29547535950777],[-120.84420618806075,39.29533510213273],[-120.8479662722804,39.29043516030683],[-120.84808609467301,39.290295487404144],[-120.84822357162561,39.29016561312754],[-120.84837733482959,39.290046830029176],[-120.84854585391274,39.28994032027205],[-120.8487274516707,39.28984714386623],[-120.84892032075878,39.28976822812136],[-120.84912254167773,39.28970435841941],[-120.84933210187486,39.28965617039972],[-120.84954691577023,39.28962414363453],[-120.84976484550899,39.289608596857065],[-120.84998372223352,39.289609684789944],[-120.85020136766354,39.289627396606036],[-120.85041561577037,39.28966155603601],[-120.8506243343288,39.289711823122076],[-120.85082544613331,39.28977769760087],[-120.85101694966716,39.28985852388088],[-120.85119693901886,39.28995349756603],[-120.85136362284815,39.29006167345921],[-120.85151534221272,39.29018197496787],[-120.85165058707834,39.290313204816734],[-120.85176801134794,39.290454056961416],[-120.85186644626077,39.29060312958539],[-120.85194491202697,39.29075893904941],[-120.85200262758299,39.29091993465637],[-120.8520390183697,39.29108451408309],[-120.85205372205596,39.29125103932698],[-120.8521990399091,39.297646199241]]]},"properties":{"fire_id":"F0005","date":"2026-08-21","area_ha":118.9,"frp_sum":107.8,"n_detections":8,"first_seen":"2026-08-21","last_seen":"2026-08-21","centroid":[-120.84887,39.29867],"history":[{"date":"2026-08-21","area_ha":118.9}],"track":[[-120.84887422749534,39.29866966222319]],"growth_24h_ha":null,"speed_km_day":null,"bearing_deg":null,"direction":null}},{"type":"Feature","geometry":{"type":"Polygon","coordinates":[[[-123.31541801477519,41.05009528308965],[-123.31549737989964,41.05024982033238],[-123.31555587985426,41.05040943585322],[-123.31559294341612,41.050572571476884],[-123.31560820861685,41.05073763465321],[-123.31560152628198,41.05090301400303],[-123.31557296149312,41.05106709504887],[-123.31465307645966,41.054867111947694],[-123.3146004765547,41.05503459692516],[-123.31452508228868,41.05519718039624],[-123.31442768896648,41.05535314699674],[-123.31430932401669,41.05550085116312],[-123.30760943295103,41.06296095513217],[-123.30747836685181,41.06309246947879],[-123.3073306742168,41.06321382230696],[-123.30716776756782,41.0633238529364],[-123.30699120496317,41.06342150897278],[-123.30680267509541,41.06350585637483],[-123.30660398113933,41.06357608838986],[-123.30639702350348,41.06363153327142],[-123.30618378165111,41.063671660705815],[-123.30596629516414,41.06369608688526],[-123.30574664423146,41.063704578179724],[-123.30552692974865,41.06369705337214],[-123.30530925321929,41.06367358443549],[-123.30509569665038,41.06363439584384],[-123.3048883026346,41.063579862425314],[-123.30468905480981,41.06351050577589],[-123.30449985888323,41.0634269892695],[-123.30432252440129,41.063330111711835],[-123.3041587474406,41.06322079969844],[-123.30401009438478,41.06310009875086],[-123.30387798694301,41.06296916331476],[-123.30376368855313,41.06282924571663],[-123.30366829229976,41.062681684184376],[-123.30359271046258,41.06252789004649],[-123.30353766579485,41.0623693342323],[-123.30350368461527,41.062207533202454],[-123.30349109177915,41.062044034444405],[-123.30350000757706,41.061880401671644],[-123.30353034658985,41.06171819986776],[-123.30358181851129,41.06155898031939],[-123.30365393093012,41.06140426578004],[-123.30709378514953,41.055045809909664],[-123.30758465092423,41.05354971459716],[-123.30056855858415,41.0483423177851],[-123.29522528122008,41.05292443214259],[-123.29432776243078,41.053937794370455],[-123.29305716460621,41.059510341083815],[-123.29301109409023,41.05966668283765],[-123.29294518792835,41.05981903518664],[-123.29286004813152,41.059966006196355],[-123.29275645244805,41.060106253088605],[-123.29263534726161,41.06023849451103],[-123.29249783894767,41.06036152224499],[-123.29234518376731,41.06047421224588],[-123.29217877639105,41.06057553491456],[-123.29200013715682,41.06066456450587],[-123.2918108981791,41.06074048758807],[-123.2916127884359,41.06080261047644],[-123.29140761796977,41.060850365572236],[-123.29119726134779,41.060883316550246],[-123.29098364053105,41.060901162345814],[-123.29076870731083,41.06090373990612],[-123.29055442547208,41.060891025680675],[-123.29034275284701,41.06086313583629],[-123.29013562342311,41.06082032519548],[-123.28158545218075,41.05872027519618],[-123.28137386470269,41.0586593246059],[-123.281171601241,41.05858280992946],[-123.28098072030615,41.058491509900854],[-123.28080316454148,41.05838635372946],[-123.28064074095029,41.058268411641464],[-123.28049510250473,41.058138883985585],[-123.28036773132351,41.05799908901464],[-123.2802599235896,41.05785044946742],[-123.28017277636168,41.05769447808697],[-123.28010717641305,41.057532762223545],[-123.28006379121175,41.057366947678226],[-123.28004306213323,41.0571987219527],[-123.28004519997477,41.05702979707441],[-123.28042508954411,41.05231139986544],[-123.27821450421013,41.05151878705532],[-123.27802294508894,41.05144137021765],[-123.27784235037029,41.05135050634267],[-123.27767441668087,41.051247049091735],[-123.27752072167804,41.05113197043606],[-123.277382709228,41.051006351523576],[-123.2772616758413,41.05087137252008],[-123.27715875849428,41.05072830152029],[-123.27707492394984,41.05057848263289],[-123.27701095967838,41.05042332335161],[-123.2769674664638,41.05026428133138],[-123.27694485276403,41.05010285069322],[-123.27694333087882,41.049940547987255],[-123.2769629149606,41.04977889794504],[-123.27700342088703,41.04961941915576],[-123.27706446799591,41.049463609800505],[-123.27714548266646,41.04931293357848],[-123.2772457037126,41.04916880595767],[-123.27736418953778,41.049032580878894],[-123.27749982698379,41.048905538038106],[-123.27765134179042,41.048788870866524],[-123.27781731056743,41.04868367532101],[-123.27799617416683,41.048590939590525],[-123.2781862523289,41.04851153481485],[-123.27838575946556,41.04844620690268],[-123.2785928214318,41.04839556952621],[-123.27880549312856,41.04836009835759],[-123.27902177677129,41.04834012660149],[-123.2792396406528,41.04833584186609],[-123.28347011576238,41.04840534110341],[-123.28989845297718,41.041070053292394],[-123.29108171228101,41.03571794771973],[-123.29112947913555,41.0355537477986],[-123.29119909509657,41.03539393958128],[-123.2912898592464,41.03524013173722],[-123.29140085780092,41.035093872523746],[-123.29153097331246,41.03495663420232],[-123.29167889592193,41.03482979822044],[-123.29184313654663,41.034714641307616],[-123.29202204187098,41.03461232262566],[-123.29814197963546,41.03146238753577],[-123.29832629739958,41.03137699844878],[-123.29852081092584,41.031305248420836],[-123.29872370688629,41.031247806319584],[-123.29893309382537,41.03120520763011],[-123.29914701978946,41.031177849463546],[-123.2993634905202,41.03116598685639],[-123.29958048804137,41.03116973039333],[-123.29979598946701,41.031189045176625],[-123.3000079858551,41.031223751151494],[-123.30021450093125,41.031273524783906],[-123.30041360950854,41.03133790207638],[-123.30060345543124,41.031416282892124],[-123.30078226887575,41.03150793654877],[-123.30094838284766,41.03161200862849],[-123.30110024872087,41.03172752894156],[-123.30123645067415,41.03185342056926],[-123.3013557188909,41.031988509901716],[-123.30145694139836,41.03213153757728],[-123.3015391744365,41.032281170221175],[-123.3016016512596,41.03243601287464],[-123.3016437892882,41.03259462199883],[-123.30374691826755,41.04316777482388],[-123.30815422159853,41.042032797403735],[-123.32053314196756,41.03863859068538],[-123.32074671249207,41.03858885642081],[-123.32096586257838,41.03855518089194],[-123.32118842146255,41.03853789766511],[-123.3214121846225,41.0385371779358],[-123.32163493560986,41.038553028833135],[-123.32185446800011,41.03858529334929],[-123.32206860724325,41.03863365189448],[-123.32227523219943,41.03869762546168],[-123.32247229614573,41.038776580370445],[-123.32265784704678,41.038869734542565],[-123.32283004688823,41.03897616524705],[-123.3229871898819,41.03909481823865],[-123.32312771936218,41.039224518198914],[-123.32325024320647,41.039363980376194],[-123.32335354762705,41.03951182331044],[-123.32343660919717,41.03966658251542],[-123.32349860499288,41.039826724984096],[-123.32353892074921,41.03999066437295],[-123.32355715695066,41.04015677671523],[-123.32355313279426,41.04032341650669],[-123.32352688798692,41.040488933006195],[-123.32347868235821,41.04065168658757],[-123.32340899329257,41.04081006498278],[-123.32331851100584,41.04096249925385],[-123.323208131713,41.04110747933635],[-123.32307894875444,41.041243569],[-123.3229322417684,41.041369420078055],[-123.3227694640169,41.04148378582461],[-123.3225922279907,41.04158553326721],[-123.31324460073466,41.04641859588501],[-123.31541801477519,41.05009528308965]]]},"properties":{"fire_id":"F0006","date":"2026-08-21","area_ha":591.4,"frp_sum":255.4,"n_detections":22,"first_seen":"2026-08-21","last_seen":"2026-08-21","centroid":[-123.29883,41.04777],"history":[{"date":"2026-08-21","area_ha":591.4}],"track":[[-123.2988347641989,41.04777382072446]],"growth_24h_ha":null,"speed_km_day":null,"bearing_deg":null,"direction":null}},{"type":"Feature","geometry":{"type":"Polygon","coordinates":[[[-119.05208289232193,35.42299998164243],[-119.05207286707923,35.423164174970246],[-119.05204287886518,35.42332678735053],[-119.05199321635936,35.42348625272321],[-119.0519243577252,35.423641035326725],[-119.0518369660094,35.42378964448939],[-119.05173188276012,35.42393064898641],[-119.05161011992583,35.42406269082484],[-119.05147285011172,35.424184498323314],[-119.0513213952885,35.424294898361],[-119.05115721406158,35.42439282767713],[-119.05098188762328,35.424477343112706],[-119.05079710452381,35.42454763069522],[-119.05060464440719,35.42460301347946],[-119.05040636086918,35.424642958068375],[-119.05020416360226,35.424667079751],[-119.05,35.42467514620822],[-119.04979583639775,35.424667079751],[-119.04959363913083,35.42464295806839],[-119.04939535559281,35.42460301347946],[-119.04920289547618,35.42454763069521],[-119.04901811237674,35.42447734311269],[-119.04884278593842,35.42439282767713],[-119.0486786047115,35.42429489836101],[-119.04852714988827,35.424184498323314],[-119.04838988007418,35.42406269082482],[-119.04826811723987,35.42393064898639],[-119.0481630339906,35.423789644489396],[-119.0480756422748,35.42364103532672],[-119.04800678364063,35.423486252723194],[-119.04795712113483,35.423326787350554],[-119.04792713292078,35.42316417497023],[-119.04791710767807,35.42299998164243],[-119.04791727117937,35.416999981643784],[-119.0479273045403,35.41683578776578],[-119.04795729896333,35.41667317548854],[-119.04800696546243,35.4165137108431],[-119.0480758256085,35.41635892953843],[-119.04816321614105,35.41621032217244],[-119.04826829535973,35.41606931987801],[-119.04839005123351,35.41593728054173],[-119.04852731114941,35.415815475728394],[-119.04867875320676,35.41570507843689],[-119.04884291894838,35.41560715180543],[-119.04901822740585,35.41552263887484],[-119.04920299032364,35.415452353508265],[-119.04939542841555,35.41539697255482],[-119.04959368849718,35.41535702933276],[-119.0497958613292,35.41533290849446],[-119.05,35.41532484232273],[-119.05020413867078,35.41533290849446],[-119.05040631150281,35.41535702933277],[-119.05060457158444,35.41539697255482],[-119.05079700967636,35.415452353508265],[-119.05098177259414,35.41552263887484],[-119.05115708105163,35.41560715180543],[-119.05132124679324,35.41570507843689],[-119.05147268885058,35.41581547572839],[-119.05160994876645,35.41593728054176],[-119.05173170464026,35.41606931987801],[-119.05183678385896,35.41621032217244],[-119.05192417439149,35.41635892953841],[-119.05199303453756,35.4165137108431],[-119.05204270103665,35.41667317548854],[-119.05207269545969,35.4168357877658],[-119.05208272882064,35.41699998164377],[-119.05208281056797,35.41999998164312],[-119.05208289232193,35.42299998164243]]]},"properties":{"fire_id":"F0002","date":"2026-08-21","area_ha":36.2,"frp_sum":12.0,"n_detections":3,"first_seen":"2026-08-18","last_seen":"2026-08-21","centroid":[-119.05,35.42],"history":[{"date":"2026-08-18","area_ha":36.2},{"date":"2026-08-19","area_ha":36.2},{"date":"2026-08-20","area_ha":36.2},{"date":"2026-08-21","area_ha":36.2}],"track":[[-119.05,35.420000004014135],[-119.05,35.420000004014135],[-119.05,35.420000004014135],[-119.05,35.420000004014135]],"growth_24h_ha":0.0,"speed_km_day":0.0,"bearing_deg":0.0,"direction":"N"}}]}