{"type":"FeatureCollection","features":[{"type":"Feature","geometry":{"type":"Polygon","coordinates":[[[-122.40341902852273,40.62940666967078],[-122.40342987533633,40.629444144217736],[-122.40544009202765,40.636794107816606],[-122.40547336583985,40.63695540305007],[-122.40548550660735,40.63711835803435],[-122.40547639878697,40.63728142388073],[-122.40544612880392,40.63744305063578],[-122.40539498423585,40.637601702013626],[-122.40532345108487,40.63775586999911],[-122.40523220916276,40.63790408918267],[-122.40512212563391,40.63804495069031],[-122.40499424677631,40.63817711557671],[-122.40484978803923,40.638299327553845],[-122.40469012249231,40.63841042493435],[-122.40451676777498,40.638509351675005],[-122.40433137167079,40.638595167417336],[-122.40413569644375,40.63866705642734],[-122.40393160208544,40.63872433535136],[-122.40372102863228,40.638766459712734],[-122.40350597772127,40.63879302908891],[-122.40328849355964,40.6388037909183],[-122.40307064348916,40.63879864290168],[-122.40285449833048,40.638777633974776],[-122.4026421126946,40.63874096384307],[-122.40243550544811,40.638688981083035],[-122.40223664051888,40.63862217982772],[-122.40204740822448,40.63854119506917],[-122.40186960730092,40.638446796620556],[-122.4017049278027,40.63833988179784],[-122.40155493503711,40.63822146688806],[-122.40142105468487,40.638092677487826],[-122.39204120451882,40.62809846556718],[-122.3908482035406,40.62714404490101],[-122.39071525574207,40.627027403220545],[-122.39059711929639,40.62690213898742],[-122.3904947856298,40.62676930353337],[-122.39040911352274,40.626630011728395],[-122.3903408219046,40.62648543262258],[-122.39029048382264,40.626336779633974],[-122.38879064498816,40.62086675248111],[-122.38875708797136,40.62070417118082],[-122.38874499950579,40.62053990797505],[-122.38875449619107,40.62037554928803],[-122.38878548616185,40.620212682454586],[-122.38883766998077,40.62005288039051],[-122.38891054353587,40.61989768640171],[-122.38900340291417,40.61974859928085],[-122.38911535120454,40.619607058833715],[-122.38924530716353,40.61947443197533],[-122.38939201566042,40.61935199953081],[-122.38955405980093,40.61924094386754],[-122.38972987461162,40.61914233747824],[-122.38991776215374,40.61905713262554],[-122.39011590792,40.61898615214733],[-122.39032239835574,40.618930081511735],[-122.39053523933627,40.618889462199085],[-122.39075237542119,40.618864686473806],[-122.39097170970028,40.61885599359684],[-122.39119112403965,40.61886346751608],[-122.39140849953233,40.61888703605518],[-122.39162173695668,40.618926471611154],[-122.39182877704452,40.618981393351156],[-122.39202762036413,40.61905127089017],[-122.39221634662586,40.619135429411195],[-122.39669909404124,40.621364745410325],[-122.40036083464616,40.619968639113324],[-122.400587744923,40.61648836873629],[-122.40060981352254,40.616321683455546],[-122.40065401056538,40.61615748455408],[-122.40071989340007,40.6159974159886],[-122.40080680226912,40.61584308035167],[-122.40091386691991,40.61569602282749],[-122.40104001532214,40.6155577157232],[-122.40118398440441,40.61542954372982],[-122.4013443327027,40.61531279006127],[-122.40151945479349,40.61520862360864],[-122.40170759736722,40.61511808723987],[-122.40190687678142,40.615042087360635],[-122.40211529791718,40.614981384841585],[-122.40233077415095,40.614936587402646],[-122.40255114824141,40.6149081435296],[-122.40277421392271,40.61489633798569],[-122.4029977379879,40.614901288960745],[-122.40321948264204,40.61492294688866],[-122.40343722790075,40.61496109494325],[-122.40364879381117,40.615015351208626],[-122.40385206227216,40.61508517250196],[-122.40404499823605,40.615169859810166],[-122.40422567007975,40.61526856528672],[-122.40439226894135,40.61538030073846],[-122.4070222680555,40.61733026655052],[-122.40722930395165,40.61750699512374],[-122.40859931820015,40.61885697496927],[-122.40874720906623,40.6190222351029],[-122.40886788034321,40.61919946943648],[-122.41036794015437,40.62176944403748],[-122.4104475944861,40.62192709072852],[-122.41050567857262,40.62208993773207],[-122.41054160338697,40.62225633404798],[-122.41055500455178,40.622424592679806],[-122.41054574603962,40.62259300773748],[-122.41051392155866,40.62275987173238],[-122.41045985360893,40.62292349288902],[-122.41038409021897,40.62308221229769],[-122.41028739939529,40.6232344207348],[-122.41017076134095,40.62337857497967],[-122.41003535852185,40.62351321346234],[-122.40858536798882,40.624813234027776],[-122.40844522719077,40.62492764620763],[-122.40829153538043,40.62503184199799],[-122.40812561464986,40.62512492504224],[-122.40291971562392,40.62777220425393],[-122.40341902852273,40.62940666967078]]]},"properties":{"fire_id":"F0001","date":"2026-08-18","area_ha":242.8,"frp_sum":166.4,"n_detections":15,"first_seen":"2026-08-18","last_seen":"2026-08-18","centroid":[-122.39996,40.62563],"history":[{"date":"2026-08-18","area_ha":242.8}],"track":[[-122.39995862968424,40.62563349869898]],"growth_24h_ha":null,"speed_km_day":null,"bearing_deg":null,"direction":null}},{"type":"Feature","geometry":{"type":"Polygon","coordinates":[[[-119.05208289232193,35.42299998164243],[-119.05207286707923,35.423164174970246],[-119.05204287886518,35.42332678735053],[-119.05199321635936,35.42348625272321],[-119.0519243577252,35.423641035326725],[-119.0518369660094,35.42378964448939],[-119.05173188276012,35.42393064898641],[-119.05161011992583,35.42406269082484],[-119.05147285011172,35.424184498323314],[-119.0513213952885,35.424294898361],[-119.05115721406158,35.42439282767713],[-119.05098188762328,35.424477343112706],[-119.05079710452381,35.42454763069522],[-119.05060464440719,35.42460301347946],[-119.05040636086918,35.424642958068375],[-119.05020416360226,35.424667079751],[-119.05,35.42467514620822],[-119.04979583639775,35.424667079751],[-119.04959363913083,35.42464295806839],[-119.04939535559281,35.42460301347946],[-119.04920289547618,35.42454763069521],[-119.04901811237674,35.42447734311269],[-119.04884278593842,35.42439282767713],[-119.0486786047115,35.42429489836101],[-119.04852714988827,35.424184498323314],[-119.04838988007418,35.42406269082482],[-119.04826811723987,35.42393064898639],[-119.0481630339906,35.423789644489396],[-119.0480756422748,35.42364103532672],[-119.04800678364063,35.423486252723194],[-119.04795712113483,35.423326787350554],[-119.04792713292078,35.42316417497023],[-119.04791710767807,35.42299998164243],[-119.04791727117937,35.416999981643784],[-119.0479273045403,35.41683578776578],[-119.04795729896333,35.41667317548854],[-119.04800696546243,35.4165137108431],[-119.0480758256085,35.41635892953843],[-119.04816321614105,35.41621032217244],[-119.04826829535973,35.41606931987801],[-119.04839005123351,35.41593728054173],[-119.04852731114941,35.415815475728394],[-119.04867875320676,35.41570507843689],[-119.04884291894838,35.41560715180543],[-119.04901822740585,35.41552263887484],[-119.04920299032364,35.415452353508265],[-119.04939542841555,35.41539697255482],[-119.04959368849718,35.41535702933276],[-119.0497958613292,35.41533290849446],[-119.05,35.41532484232273],[-119.05020413867078,35.41533290849446],[-119.05040631150281,35.41535702933277],[-119.05060457158444,35.41539697255482],[-119.05079700967636,35.415452353508265],[-119.05098177259414,35.41552263887484],[-119.05115708105163,35.41560715180543],[-119.05132124679324,35.41570507843689],[-119.05147268885058,35.41581547572839],[-119.05160994876645,35.41593728054176],[-119.05173170464026,35.41606931987801],[-119.05183678385896,35.41621032217244],[-119.05192417439149,35.41635892953841],[-119.05199303453756,35.4165137108431],[-119.05204270103665,35.41667317548854],[-119.05207269545969,35.4168357877658],[-119.05208272882064,35.41699998164377],[-119.05208281056797,35.41999998164312],[-119.05208289232193,35.42299998164243]]]},"properties":{"fire_id":"F0002","date":"2026-08-18","area_ha":36.2,"frp_sum":12.0,"n_detections":3,"first_seen":"2026-08-18","last_seen":"2026-08-18","centroid":[-119.05,35.42],"history":[{"date":"2026-08-18","area_ha":36.2}],"track":[[-119.05,35.420000004014135]],"growth_24h_ha":null,"speed_km_day":null,"bearing_deg":null,"direction":null}}]}