{"type":"FeatureCollection","features":[{"type":"Feature","geometry":{"type":"GeometryCollection","geometries":[{"type":"MultiPolygon","coordinates":[[[[-120.82372,48.32497],[-120.82371,48.32505],[-120.82354,48.32506],[-120.82372,48.32497]]],[[[-120.82198,48.32556],[-120.82165,48.32554],[-120.8217,48.32528],[-120.82198,48.32556]]],[[[-120.82195,48.32584],[-120.82201,48.32587],[-120.82203,48.32594],[-120.82195,48.32584]]],[[[-120.8157,48.32699],[-120.81596,48.327],[-120.81592,48.32725],[-120.8157,48.32699]]],[[[-120.81586,48.32809],[-120.81607,48.32859],[-120.81571,48.32859],[-120.81586,48.32809]]],[[[-120.81697,48.33092],[-120.81669,48.33084],[-120.8168,48.33072],[-120.81697,48.33092]]],[[[-120.81647,48.33102],[-120.81674,48.3313],[-120.81664,48.3314],[-120.81647,48.33102]]],[[[-120.8162,48.33214],[-120.81624,48.33225],[-120.81605,48.33216],[-120.8162,48.33214]]],[[[-120.84829,48.34519],[-120.84856,48.34531],[-120.84842,48.34536],[-120.84829,48.34519]]],[[[-120.85066,48.34605],[-120.85061,48.34599],[-120.85068,48.34589],[-120.85066,48.34605]]],[[[-120.8588,48.35059],[-120.85902,48.35071],[-120.8588,48.35109],[-120.8588,48.35059]]],[[[-120.85193,48.35105],[-120.852,48.35082],[-120.85245,48.35097],[-120.85193,48.35105]]],[[[-120.85291,48.35129],[-120.85283,48.35087],[-120.85339,48.35105],[-120.85291,48.35129]]],[[[-120.85247,48.35112],[-120.85248,48.35121],[-120.85239,48.3512],[-120.85247,48.35112]]],[[[-120.8547,48.35256],[-120.85461,48.35256],[-120.85464,48.35242],[-120.8547,48.35256]]],[[[-120.86123,48.36068],[-120.86298,48.36273],[-120.86147,48.36316],[-120.86116,48.36415],[-120.86017,48.36363],[-120.86115,48.36297],[-120.86058,48.36238],[-120.85913,48.36361],[-120.85934,48.36418],[-120.85789,48.3652],[-120.85867,48.36523],[-120.85899,48.36622],[-120.85653,48.36767],[-120.857,48.3685],[-120.85488,48.36951],[-120.85293,48.36921],[-120.85159,48.37071],[-120.84813,48.37106],[-120.84787,48.37187],[-120.84564,48.37187],[-120.84526,48.37295],[-120.84632,48.37307],[-120.8466,48.37396],[-120.84042,48.37566],[-120.83943,48.37698],[-120.83817,48.37701],[-120.83829,48.37767],[-120.8306,48.37923],[-120.82645,48.37784],[-120.8201,48.37864],[-120.815,48.37822],[-120.81234,48.37722],[-120.81051,48.37835],[-120.80638,48.37678],[-120.8034,48.3769],[-120.804,48.37636],[-120.8033,48.37607],[-120.80133,48.37654],[-120.80011,48.37424],[-120.79778,48.37457],[-120.79745,48.37393],[-120.79846,48.3737],[-120.79761,48.37317],[-120.79904,48.37277],[-120.79622,48.3722],[-120.79494,48.37282],[-120.79469,48.37201],[-120.79757,48.3711],[-120.79768,48.37011],[-120.80037,48.36786],[-120.80194,48.36526],[-120.79867,48.36458],[-120.79708,48.36612],[-120.7947,48.3657],[-120.79402,48.36682],[-120.79297,48.3664],[-120.79347,48.36596],[-120.7921,48.36617],[-120.79232,48.36551],[-120.78986,48.36221],[-120.7897,48.3636],[-120.78698,48.36406],[-120.78714,48.3634],[-120.78482,48.36155],[-120.78749,48.35862],[-120.78684,48.3578],[-120.7886,48.35777],[-120.79234,48.35544],[-120.7932,48.35439],[-120.79271,48.35392],[-120.79507,48.3533],[-120.79578,48.35473],[-120.7987,48.35473],[-120.80001,48.35344],[-120.80115,48.35406],[-120.80214,48.35515],[-120.80037,48.35732],[-120.80134,48.35813],[-120.80327,48.35717],[-120.803,48.35659],[-120.8069,48.35513],[-120.80501,48.35389],[-120.80711,48.35212],[-120.80852,48.35232],[-120.80849,48.35298],[-120.81091,48.35281],[-120.81076,48.35431],[-120.81176,48.35518],[-120.81221,48.35404],[-120.81401,48.35546],[-120.81754,48.35551],[-120.81245,48.34954],[-120.8119,48.35147],[-120.81035,48.34677],[-120.80752,48.34473],[-120.8095,48.3448],[-120.8104,48.34624],[-120.80987,48.34449],[-120.80851,48.34331],[-120.80839,48.34211],[-120.8077,48.34309],[-120.80689,48.3422],[-120.80721,48.34093],[-120.80587,48.3402],[-120.80585,48.33792],[-120.80519,48.3377],[-120.81115,48.33729],[-120.81308,48.3389],[-120.8163,48.33915],[-120.81595,48.33812],[-120.81763,48.33635],[-120.81567,48.33479],[-120.81644,48.33404],[-120.81568,48.33314],[-120.81806,48.33141],[-120.81763,48.33085],[-120.8189,48.33081],[-120.81764,48.33038],[-120.81839,48.3299],[-120.81724,48.32923],[-120.81814,48.32867],[-120.81618,48.32842],[-120.81791,48.32797],[-120.81601,48.32736],[-120.81629,48.32638],[-120.81766,48.32603],[-120.81921,48.32683],[-120.82265,48.32692],[-120.82349,48.32777],[-120.82735,48.32791],[-120.82897,48.32685],[-120.8328,48.3276],[-120.83414,48.32936],[-120.83212,48.33036],[-120.83336,48.33114],[-120.83199,48.33145],[-120.83423,48.33225],[-120.83345,48.33281],[-120.83375,48.33361],[-120.83241,48.33413],[-120.83262,48.33546],[-120.8333,48.33567],[-120.83423,48.33967],[-120.83597,48.34],[-120.83435,48.34296],[-120.83536,48.3459],[-120.8365,48.34501],[-120.83527,48.34427],[-120.83838,48.34335],[-120.83874,48.34436],[-120.84047,48.3442],[-120.8406,48.34615],[-120.84135,48.34472],[-120.846,48.34545],[-120.84503,48.3472],[-120.84897,48.3453],[-120.85027,48.34622],[-120.852,48.34621],[-120.85245,48.34527],[-120.85255,48.34645],[-120.85401,48.34723],[-120.85316,48.34809],[-120.85503,48.34866],[-120.85526,48.35022],[-120.85608,48.34988],[-120.85723,48.35082],[-120.85385,48.35126],[-120.85355,48.35055],[-120.85151,48.35016],[-120.85137,48.3509],[-120.85457,48.35249],[-120.85479,48.35351],[-120.85408,48.35347],[-120.85408,48.35358],[-120.85465,48.35395],[-120.85453,48.35455],[-120.85703,48.35426],[-120.8594,48.35629],[-120.86034,48.35593],[-120.86229,48.35795],[-120.86123,48.36068]],[[-120.83562,48.34833],[-120.83542,48.34768],[-120.83511,48.34774],[-120.83562,48.34833]],[[-120.80277,48.37523],[-120.80342,48.37457],[-120.80221,48.37447],[-120.80277,48.37523]],[[-120.83829,48.3461],[-120.83643,48.34599],[-120.83517,48.34653],[-120.83829,48.3461]],[[-120.83496,48.34907],[-120.83469,48.35057],[-120.83652,48.3502],[-120.83496,48.34907]]],[[[-120.85434,48.35356],[-120.85434,48.35366],[-120.85413,48.3536],[-120.85434,48.35356]]],[[[-120.84673,48.37229],[-120.84674,48.37238],[-120.84659,48.37241],[-120.84673,48.37229]]],[[[-120.84478,48.37447],[-120.84491,48.37453],[-120.84485,48.37455],[-120.84478,48.37447]]],[[[-120.8151,48.32429],[-120.81556,48.32448],[-120.81548,48.32456],[-120.8151,48.32429]]],[[[-120.81575,48.332],[-120.81593,48.33227],[-120.81577,48.33227],[-120.81575,48.332]]],[[[-120.81536,48.33286],[-120.81535,48.33292],[-120.81519,48.33291],[-120.81536,48.33286]]],[[[-120.81533,48.33338],[-120.81543,48.33337],[-120.81544,48.3334],[-120.81533,48.33338]]],[[[-120.81521,48.33595],[-120.81518,48.33581],[-120.81537,48.33573],[-120.81521,48.33595]]],[[[-120.80143,48.33648],[-120.80136,48.33636],[-120.80154,48.33632],[-120.80143,48.33648]]],[[[-120.8054,48.33677],[-120.80546,48.33661],[-120.80582,48.33679],[-120.8054,48.33677]]],[[[-120.8046,48.33721],[-120.80448,48.33713],[-120.80452,48.3371],[-120.8046,48.33721]]],[[[-120.80507,48.33715],[-120.80526,48.33717],[-120.8052,48.33734],[-120.80507,48.33715]]],[[[-120.80398,48.33747],[-120.80401,48.3374],[-120.80414,48.33746],[-120.80398,48.33747]]],[[[-120.80494,48.33753],[-120.80509,48.33763],[-120.80495,48.33765],[-120.80494,48.33753]]],[[[-120.8034,48.34029],[-120.80354,48.34043],[-120.80339,48.34048],[-120.8034,48.34029]]],[[[-120.80707,48.34365],[-120.80794,48.3438],[-120.80794,48.34402],[-120.80707,48.34365]]],[[[-120.80723,48.34455],[-120.80721,48.34464],[-120.80706,48.34463],[-120.80723,48.34455]]],[[[-120.80877,48.3516],[-120.80833,48.35168],[-120.80827,48.35149],[-120.80877,48.3516]]],[[[-120.79287,48.35356],[-120.79302,48.35358],[-120.79297,48.35372],[-120.79287,48.35356]]],[[[-120.78778,48.35716],[-120.78718,48.35709],[-120.78725,48.3567],[-120.78778,48.35716]]],[[[-120.79037,48.36345],[-120.79041,48.36349],[-120.7903,48.3635],[-120.79037,48.36345]]]]},{"type":"MultiLineString","coordinates":[[[-120.86123,48.36068],[-120.86122,48.36068]],[[-120.86029,48.36261],[-120.86028,48.36261]],[[-120.85321,48.36918],[-120.85321,48.36917]]]}]},"properties":{"name":"Sisi"}}]}