{"type":"FeatureCollection","features":[{"type":"Feature","geometry":{"type":"Polygon","coordinates":[[[-117.65712,41.54215],[-117.65693,41.54061],[-117.66415,41.5407],[-117.66948,41.53962],[-117.67095,41.53859],[-117.67491,41.53914],[-117.67865,41.53805],[-117.68549,41.53487],[-117.68474,41.53432],[-117.68548,41.53284],[-117.68816,41.53287],[-117.68968,41.53396],[-117.70059,41.53317],[-117.71113,41.53433],[-117.72938,41.52997],[-117.73159,41.52889],[-117.73325,41.52687],[-117.73474,41.51926],[-117.73608,41.51825],[-117.74055,41.51791],[-117.74133,41.51943],[-117.74478,41.51969],[-117.74528,41.52127],[-117.74395,41.52224],[-117.74271,41.52571],[-117.74225,41.52788],[-117.74295,41.52912],[-117.74206,41.53217],[-117.74061,41.53415],[-117.73917,41.53391],[-117.7387,41.53562],[-117.73777,41.53536],[-117.73824,41.53633],[-117.73563,41.54229],[-117.73595,41.54333],[-117.73484,41.54459],[-117.7334,41.54464],[-117.73222,41.54717],[-117.7315,41.55047],[-117.73193,41.55379],[-117.73299,41.55548],[-117.73512,41.5568],[-117.73887,41.5554],[-117.74031,41.55592],[-117.74535,41.55342],[-117.74504,41.55532],[-117.74978,41.5559],[-117.75611,41.56084],[-117.75827,41.56372],[-117.75943,41.56787],[-117.75889,41.57106],[-117.75352,41.58197],[-117.75455,41.58903],[-117.75817,41.59386],[-117.7584,41.59585],[-117.75194,41.60147],[-117.75166,41.60309],[-117.75358,41.60991],[-117.75009,41.6143],[-117.74761,41.62044],[-117.74155,41.62461],[-117.73901,41.62744],[-117.73927,41.62921],[-117.74305,41.63598],[-117.73464,41.64739],[-117.7384,41.65612],[-117.73824,41.65776],[-117.736,41.6589],[-117.73106,41.65854],[-117.72951,41.65909],[-117.72919,41.66085],[-117.73194,41.66482],[-117.73081,41.66763],[-117.72791,41.66945],[-117.71562,41.67358],[-117.70942,41.68197],[-117.70684,41.68369],[-117.69275,41.68809],[-117.69201,41.68751],[-117.6924,41.68423],[-117.69146,41.68093],[-117.6821,41.68097],[-117.68065,41.68423],[-117.68316,41.68599],[-117.6833,41.68789],[-117.67881,41.69081],[-117.67704,41.69735],[-117.67289,41.70695],[-117.66989,41.71019],[-117.6672,41.71112],[-117.66553,41.71069],[-117.66091,41.70668],[-117.65034,41.70345],[-117.64713,41.70144],[-117.64611,41.69614],[-117.64316,41.69095],[-117.64093,41.68274],[-117.63203,41.67915],[-117.63875,41.67122],[-117.64032,41.6674],[-117.63983,41.66505],[-117.63311,41.66082],[-117.62461,41.65754],[-117.62116,41.65723],[-117.62127,41.65609],[-117.6191,41.65461],[-117.61834,41.65299],[-117.6194,41.65112],[-117.62627,41.64631],[-117.62838,41.64561],[-117.63087,41.64664],[-117.63363,41.64458],[-117.63607,41.63374],[-117.6352,41.63044],[-117.63222,41.62836],[-117.63303,41.62684],[-117.63402,41.62737],[-117.63548,41.62652],[-117.63335,41.62611],[-117.63486,41.62469],[-117.63695,41.62515],[-117.63993,41.6237],[-117.64103,41.6221],[-117.64034,41.61964],[-117.64242,41.62078],[-117.64478,41.62018],[-117.64757,41.62067],[-117.65285,41.62352],[-117.65434,41.62207],[-117.65538,41.62375],[-117.65682,41.62421],[-117.65686,41.62326],[-117.65774,41.62438],[-117.65682,41.62451],[-117.6583,41.62602],[-117.66041,41.62593],[-117.66233,41.62484],[-117.66111,41.62388],[-117.66185,41.62199],[-117.66087,41.62148],[-117.6627,41.62052],[-117.66476,41.61793],[-117.66248,41.61674],[-117.66423,41.61592],[-117.66283,41.6158],[-117.66327,41.6147],[-117.6624,41.61378],[-117.65513,41.61284],[-117.65319,41.61167],[-117.65153,41.60868],[-117.65284,41.60422],[-117.64841,41.59312],[-117.64845,41.59083],[-117.6453,41.5915],[-117.64754,41.58931],[-117.64716,41.58806],[-117.64808,41.58563],[-117.64728,41.58511],[-117.64799,41.58449],[-117.64754,41.5838],[-117.64922,41.58245],[-117.64892,41.58175],[-117.65026,41.57982],[-117.65333,41.58031],[-117.65463,41.57988],[-117.65511,41.57882],[-117.65679,41.57946],[-117.65955,41.58269],[-117.66086,41.58274],[-117.66129,41.58573],[-117.66309,41.58636],[-117.66277,41.58693],[-117.66581,41.58686],[-117.66664,41.58615],[-117.66838,41.58667],[-117.6679,41.586],[-117.66851,41.58568],[-117.66936,41.58654],[-117.67111,41.58621],[-117.67534,41.58462],[-117.67923,41.58168],[-117.68142,41.5784],[-117.68215,41.57576],[-117.68124,41.57478],[-117.67997,41.57461],[-117.67486,41.56928],[-117.66728,41.56549],[-117.66538,41.56236],[-117.66151,41.5591],[-117.6576,41.55393],[-117.65555,41.54681],[-117.65747,41.54672],[-117.65881,41.54791],[-117.65991,41.54746],[-117.65986,41.54814],[-117.66034,41.54843],[-117.66084,41.54775],[-117.65967,41.54613],[-117.66207,41.54729],[-117.66273,41.54688],[-117.66015,41.54535],[-117.65843,41.54242],[-117.65712,41.54215]]]},"properties":{"name":"McConnell"}},{"type":"Feature","geometry":{"type":"Polygon","coordinates":[[[-119.81249,38.16434],[-119.80861,38.16795],[-119.79625,38.17033],[-119.79684,38.16768],[-119.80615,38.16142],[-119.81053,38.16154],[-119.81249,38.16434]]]},"properties":{"name":"PIUTE"}},{"type":"Feature","geometry":{"type":"GeometryCollection","geometries":[{"type":"MultiPolygon","coordinates":[[[[-119.60308,37.57269],[-119.60336,37.57286],[-119.60328,37.57321],[-119.60269,37.57317],[-119.60308,37.57269]]],[[[-119.62504,37.59096],[-119.62501,37.59084],[-119.62509,37.59091],[-119.62504,37.59096]]],[[[-119.62575,37.59694],[-119.62575,37.59705],[-119.6257,37.59704],[-119.62575,37.59694]]],[[[-119.62516,37.59739],[-119.62512,37.59739],[-119.6252,37.59735],[-119.62516,37.59739]]],[[[-119.62487,37.59739],[-119.62492,37.59742],[-119.62489,37.59742],[-119.62487,37.59739]]],[[[-119.62281,37.59926],[-119.6228,37.59925],[-119.62283,37.59925],[-119.62281,37.59926]]],[[[-119.62479,37.59925],[-119.62529,37.59855],[-119.62617,37.59791],[-119.62622,37.59795],[-119.62632,37.59802],[-119.62683,37.59809],[-119.62741,37.59846],[-119.62798,37.60005],[-119.62715,37.60104],[-119.62534,37.60038],[-119.62479,37.59925]]],[[[-119.6179,37.60184],[-119.61726,37.60185],[-119.61746,37.60162],[-119.6179,37.60184]]],[[[-119.58123,37.6473],[-119.57722,37.64731],[-119.5763,37.64543],[-119.57442,37.64405],[-119.57636,37.64194],[-119.57592,37.64125],[-119.57673,37.63923],[-119.57563,37.63825],[-119.57621,37.63658],[-119.57572,37.63563],[-119.57692,37.63434],[-119.57628,37.63353],[-119.57759,37.6334],[-119.57996,37.63062],[-119.58143,37.63029],[-119.58541,37.63193],[-119.58734,37.63179],[-119.58752,37.63101],[-119.5921,37.6311],[-119.59191,37.63185],[-119.5927,37.63222],[-119.59251,37.63144],[-119.59588,37.62959],[-119.5943,37.62927],[-119.59566,37.62831],[-119.59614,37.6254],[-119.5975,37.62501],[-119.59898,37.62308],[-119.60015,37.62323],[-119.60039,37.62242],[-119.59963,37.62245],[-119.59971,37.62136],[-119.59823,37.62047],[-119.5965,37.6165],[-119.59713,37.61564],[-119.59619,37.61577],[-119.59589,37.61493],[-119.59352,37.61526],[-119.59415,37.61446],[-119.58977,37.6125],[-119.59079,37.61143],[-119.59004,37.611],[-119.58938,37.61223],[-119.58976,37.61342],[-119.58629,37.61244],[-119.58627,37.61073],[-119.58472,37.61063],[-119.58447,37.60886],[-119.58345,37.60894],[-119.58366,37.60733],[-119.58695,37.60727],[-119.58819,37.60766],[-119.58818,37.60852],[-119.58891,37.60912],[-119.58917,37.60899],[-119.58801,37.60728],[-119.58815,37.60604],[-119.58568,37.60643],[-119.58515,37.60499],[-119.58189,37.60547],[-119.58052,37.60381],[-119.58102,37.60108],[-119.58248,37.60005],[-119.582,37.59921],[-119.58292,37.59834],[-119.58272,37.59768],[-119.58341,37.59754],[-119.58227,37.59681],[-119.58254,37.59571],[-119.58423,37.59541],[-119.58546,37.59372],[-119.58654,37.59347],[-119.58508,37.59295],[-119.58512,37.59104],[-119.58735,37.58954],[-119.58801,37.58878],[-119.58888,37.58723],[-119.59212,37.58614],[-119.59502,37.58672],[-119.59568,37.58557],[-119.59522,37.58496],[-119.59784,37.5858],[-119.59818,37.58516],[-119.59854,37.58506],[-119.59895,37.58449],[-119.59926,37.58438],[-119.59886,37.584],[-119.59966,37.58349],[-119.59799,37.58351],[-119.59727,37.58143],[-119.59599,37.58235],[-119.59653,37.58102],[-119.59751,37.58081],[-119.59719,37.58004],[-119.59605,37.58099],[-119.59522,37.58042],[-119.59611,37.58058],[-119.59699,37.57964],[-119.59584,37.57887],[-119.59636,37.57782],[-119.5983,37.57929],[-119.59706,37.57736],[-119.59918,37.5764],[-119.60022,37.57738],[-119.60025,37.57641],[-119.60093,37.57632],[-119.60189,37.57859],[-119.60322,37.57768],[-119.60321,37.57759],[-119.60304,37.57742],[-119.60289,37.57732],[-119.60253,37.57731],[-119.60293,37.57493],[-119.60234,37.57466],[-119.60343,37.57413],[-119.60359,37.57261],[-119.60237,37.5717],[-119.60363,37.56966],[-119.60524,37.5686],[-119.60655,37.56965],[-119.6068,37.56915],[-119.60735,37.56969],[-119.60765,37.5697],[-119.60914,37.568],[-119.61084,37.5684],[-119.61156,37.5678],[-119.61353,37.56947],[-119.61349,37.56859],[-119.61475,37.56793],[-119.61757,37.57148],[-119.61779,37.57499],[-119.61926,37.5766],[-119.61914,37.57951],[-119.62012,37.58019],[-119.61883,37.5807],[-119.61882,37.58239],[-119.6171,37.58297],[-119.61906,37.58333],[-119.61958,37.58445],[-119.61869,37.58527],[-119.61899,37.58614],[-119.62012,37.5862],[-119.62063,37.58498],[-119.62279,37.58702],[-119.62113,37.58878],[-119.62225,37.5891],[-119.62388,37.59164],[-119.62298,37.59199],[-119.62275,37.59409],[-119.62453,37.5943],[-119.62579,37.59648],[-119.624,37.59652],[-119.62343,37.59723],[-119.62371,37.59787],[-119.62537,37.5979],[-119.62515,37.59854],[-119.62209,37.5991],[-119.61971,37.60027],[-119.61807,37.59986],[-119.61803,37.60086],[-119.61629,37.60205],[-119.61796,37.6024],[-119.61842,37.60371],[-119.62068,37.60343],[-119.62229,37.60443],[-119.62381,37.6078],[-119.62497,37.60795],[-119.62467,37.60942],[-119.62423,37.60976],[-119.62346,37.60965],[-119.62346,37.61159],[-119.62587,37.61512],[-119.61957,37.61756],[-119.62285,37.61806],[-119.62339,37.61893],[-119.6229,37.61932],[-119.62435,37.61885],[-119.6251,37.61986],[-119.62758,37.61944],[-119.6279,37.6207],[-119.63052,37.62184],[-119.62948,37.62334],[-119.62866,37.6219],[-119.62828,37.62208],[-119.62886,37.62347],[-119.62793,37.62412],[-119.63089,37.62454],[-119.63132,37.62537],[-119.63104,37.62691],[-119.62879,37.62751],[-119.63041,37.62815],[-119.62898,37.62954],[-119.62975,37.63014],[-119.62894,37.6306],[-119.62965,37.63091],[-119.62692,37.63268],[-119.62811,37.63366],[-119.62766,37.63553],[-119.62923,37.63837],[-119.62781,37.63942],[-119.62873,37.64211],[-119.62767,37.64395],[-119.63128,37.64646],[-119.63273,37.64892],[-119.63221,37.65063],[-119.62991,37.65138],[-119.63022,37.65211],[-119.62938,37.65279],[-119.63019,37.65374],[-119.62945,37.65488],[-119.63033,37.65572],[-119.62882,37.6572],[-119.62402,37.65854],[-119.62187,37.6572],[-119.62195,37.65655],[-119.61987,37.65618],[-119.62001,37.6557],[-119.61607,37.65315],[-119.61247,37.65374],[-119.61115,37.64982],[-119.60671,37.64838],[-119.60097,37.64423],[-119.60094,37.64279],[-119.59868,37.64007],[-119.60212,37.63731],[-119.60269,37.63531],[-119.60151,37.63424],[-119.60142,37.63486],[-119.60026,37.63485],[-119.59957,37.6359],[-119.59873,37.63621],[-119.5983,37.63358],[-119.59933,37.63277],[-119.60042,37.6332],[-119.59979,37.6323],[-119.59773,37.63286],[-119.59826,37.63237],[-119.59727,37.63164],[-119.59588,37.63389],[-119.59412,37.63445],[-119.59517,37.63894],[-119.59038,37.63955],[-119.5894,37.64032],[-119.59016,37.64092],[-119.58983,37.64174],[-119.5877,37.64201],[-119.58498,37.64698],[-119.58395,37.64726],[-119.58256,37.64636],[-119.58123,37.6473]],[[-119.59548,37.58622],[-119.59549,37.58622],[-119.59547,37.58617],[-119.59548,37.58622]],[[-119.60785,37.64863],[-119.60785,37.64864],[-119.60786,37.64864],[-119.60785,37.64863]],[[-119.61053,37.64878],[-119.61091,37.64876],[-119.61083,37.64852],[-119.61053,37.64878]],[[-119.58628,37.60428],[-119.5863,37.60414],[-119.58576,37.60413],[-119.58628,37.60428]],[[-119.61057,37.6421],[-119.61015,37.64204],[-119.6101,37.64226],[-119.61057,37.6421]],[[-119.60858,37.6473],[-119.60908,37.64728],[-119.60898,37.64685],[-119.60858,37.6473]],[[-119.58506,37.60005],[-119.58482,37.60013],[-119.58484,37.60076],[-119.58506,37.60005]],[[-119.60865,37.64274],[-119.60836,37.64318],[-119.60955,37.6431],[-119.60865,37.64274]],[[-119.59228,37.60583],[-119.59346,37.60605],[-119.59347,37.60581],[-119.59228,37.60583]],[[-119.61332,37.64966],[-119.61272,37.64985],[-119.61351,37.65041],[-119.61332,37.64966]],[[-119.61004,37.64418],[-119.61039,37.64446],[-119.61099,37.64389],[-119.61026,37.64346],[-119.61004,37.64418]],[[-119.59319,37.60809],[-119.59432,37.60804],[-119.59431,37.6079],[-119.59334,37.60741],[-119.59319,37.60809]],[[-119.58578,37.64328],[-119.58344,37.64285],[-119.58386,37.64392],[-119.58472,37.64427],[-119.58578,37.64328]],[[-119.59241,37.60303],[-119.59186,37.60306],[-119.59248,37.60362],[-119.5919,37.6037],[-119.59201,37.60478],[-119.59357,37.60491],[-119.59385,37.60397],[-119.59241,37.60303]],[[-119.60805,37.64615],[-119.60993,37.64543],[-119.60951,37.64477],[-119.60671,37.64588],[-119.60837,37.64667],[-119.60805,37.64615]],[[-119.60486,37.63541],[-119.60389,37.63703],[-119.60478,37.63783],[-119.60379,37.6382],[-119.60462,37.63874],[-119.60533,37.63855],[-119.60486,37.63541]],[[-119.59813,37.59447],[-119.59685,37.59415],[-119.59731,37.59574],[-119.59874,37.59605],[-119.60252,37.59981],[-119.60248,37.59869],[-119.59813,37.59447]],[[-119.58858,37.59456],[-119.58684,37.5939],[-119.58778,37.59595],[-119.58693,37.59777],[-119.58854,37.59781],[-119.58881,37.5991],[-119.58957,37.59928],[-119.58953,37.5978],[-119.58862,37.5972],[-119.58858,37.59456]],[[-119.61538,37.63834],[-119.61461,37.63742],[-119.61212,37.63773],[-119.61228,37.63879],[-119.61092,37.63933],[-119.61208,37.64108],[-119.61538,37.63834]]],[[[-119.62684,37.61789],[-119.62644,37.61816],[-119.62651,37.61778],[-119.62684,37.61789]]],[[[-119.59917,37.62277],[-119.59939,37.62252],[-119.59961,37.62278],[-119.59917,37.62277]]],[[[-119.60169,37.63692],[-119.60149,37.63697],[-119.60153,37.63686],[-119.60169,37.63692]]],[[[-119.62954,37.63721],[-119.62884,37.63745],[-119.62886,37.63697],[-119.62954,37.63721]]],[[[-119.60935,37.65023],[-119.60915,37.6505],[-119.6091,37.65041],[-119.60935,37.65023]]],[[[-119.6184,37.65516],[-119.61875,37.65514],[-119.61884,37.65551],[-119.6184,37.65516]]],[[[-119.60564,37.65593],[-119.60549,37.65606],[-119.60538,37.65593],[-119.60564,37.65593]]],[[[-119.62181,37.65665],[-119.6217,37.65674],[-119.62169,37.65661],[-119.62181,37.65665]]],[[[-119.59588,37.58209],[-119.59575,37.58219],[-119.59572,37.58185],[-119.59597,37.5817],[-119.59588,37.58209]]],[[[-119.5979,37.58466],[-119.59785,37.58482],[-119.59766,37.58483],[-119.5979,37.58466]]],[[[-119.597,37.58526],[-119.59647,37.58508],[-119.59674,37.58482],[-119.597,37.58526]]],[[[-119.59765,37.58535],[-119.59768,37.58538],[-119.59758,37.58542],[-119.59765,37.58535]]],[[[-119.58905,37.58698],[-119.58907,37.58691],[-119.58918,37.58691],[-119.58905,37.58698]]],[[[-119.58285,37.59826],[-119.58277,37.59821],[-119.5828,37.59816],[-119.58285,37.59826]]],[[[-119.5803,37.60235],[-119.58016,37.60216],[-119.58062,37.60216],[-119.5803,37.60235]]],[[[-119.58288,37.60842],[-119.58249,37.60815],[-119.58266,37.60805],[-119.58288,37.60842]]],[[[-119.58581,37.61142],[-119.5859,37.61156],[-119.58547,37.6117],[-119.58581,37.61142]]],[[[-119.59276,37.6251],[-119.59278,37.62526],[-119.59203,37.62526],[-119.59276,37.6251]]],[[[-119.59744,37.63219],[-119.59781,37.63246],[-119.59695,37.63264],[-119.59744,37.63219]]],[[[-119.59753,37.63387],[-119.59821,37.63403],[-119.5979,37.63426],[-119.59753,37.63387]]],[[[-119.59619,37.63497],[-119.59589,37.63447],[-119.59628,37.63441],[-119.59619,37.63497]]],[[[-119.59843,37.63473],[-119.59845,37.63478],[-119.59842,37.63476],[-119.59843,37.63473]]],[[[-119.59833,37.63613],[-119.59867,37.63614],[-119.5987,37.63631],[-119.59833,37.63613]]],[[[-119.57498,37.63615],[-119.57536,37.63625],[-119.57464,37.63651],[-119.57498,37.63615]]],[[[-119.59771,37.63673],[-119.59781,37.63695],[-119.59734,37.63693],[-119.59771,37.63673]]],[[[-119.58414,37.64359],[-119.58403,37.64364],[-119.58396,37.64353],[-119.58414,37.64359]]],[[[-119.5734,37.64422],[-119.57385,37.64424],[-119.5734,37.64505],[-119.5734,37.64422]]],[[[-119.57687,37.65731],[-119.57681,37.65676],[-119.57837,37.65627],[-119.57803,37.65718],[-119.57687,37.65731]]]]},{"type":"MultiLineString","coordinates":[[[-119.59572,37.58185],[-119.59573,37.58185]],[[-119.5855,37.59343],[-119.5855,37.59344]],[[-119.58867,37.58756],[-119.58866,37.58756]],[[-119.59893,37.58457],[-119.59894,37.58457]],[[-119.59895,37.58449],[-119.59895,37.58448]],[[-119.59659,37.58227],[-119.5966,37.58227]],[[-119.60299,37.5774],[-119.60299,37.57741]],[[-119.60355,37.57278],[-119.60356,37.57278]],[[-119.61912,37.5775],[-119.61911,37.5775]],[[-119.62433,37.60771],[-119.62433,37.6077]],[[-119.62423,37.60976],[-119.62423,37.60975]],[[-119.62411,37.60955],[-119.62411,37.60954]],[[-119.59902,37.64118],[-119.59903,37.64119]],[[-119.59903,37.64119],[-119.59904,37.64121]]]}]},"properties":{"name":"Dome"}}]}