{"type":"FeatureCollection","features":[{"type":"Feature","geometry":{"type":"Point","coordinates":[-74.22134,40.63462]},"properties":{"frp":1.18,"date":"2026-09-17","daynight":"N"}},{"type":"Feature","geometry":{"type":"Point","coordinates":[-74.22035,40.63815]},"properties":{"frp":2.64,"date":"2026-09-17","daynight":"N"}},{"type":"Feature","geometry":{"type":"Point","coordinates":[-74.22059,40.63836]},"properties":{"frp":1.18,"date":"2026-09-17","daynight":"N"}},{"type":"Feature","geometry":{"type":"Point","coordinates":[-82.03699,37.23572]},"properties":{"frp":0.97,"date":"2026-09-17","daynight":"N"}},{"type":"Feature","geometry":{"type":"Point","coordinates":[-82.04147,37.23598]},"properties":{"frp":0.97,"date":"2026-09-17","daynight":"N"}},{"type":"Feature","geometry":{"type":"Point","coordinates":[-81.20576,37.31525]},"properties":{"frp":0.47,"date":"2026-09-17","daynight":"N"}},{"type":"Feature","geometry":{"type":"Point","coordinates":[-81.21281,37.321]},"properties":{"frp":1.49,"date":"2026-09-17","daynight":"N"}},{"type":"Feature","geometry":{"type":"Point","coordinates":[-77.44346,37.81883]},"properties":{"frp":2.04,"date":"2026-09-17","daynight":"N"}},{"type":"Feature","geometry":{"type":"Point","coordinates":[-85.41511,38.58113]},"properties":{"frp":0.98,"date":"2026-09-17","daynight":"N"}},{"type":"Feature","geometry":{"type":"Point","coordinates":[-85.4141,38.58314]},"properties":{"frp":0.76,"date":"2026-09-17","daynight":"N"}},{"type":"Feature","geometry":{"type":"Point","coordinates":[-82.83389,38.59719]},"properties":{"frp":1.2,"date":"2026-09-17","daynight":"N"}},{"type":"Feature","geometry":{"type":"Point","coordinates":[-84.2402,38.83469]},"properties":{"frp":3.27,"date":"2026-09-17","daynight":"N"}},{"type":"Feature","geometry":{"type":"Point","coordinates":[-84.23908,38.83722]},"properties":{"frp":2.0,"date":"2026-09-17","daynight":"N"}},{"type":"Feature","geometry":{"type":"Point","coordinates":[-84.24465,38.83743]},"properties":{"frp":2.48,"date":"2026-09-17","daynight":"N"}},{"type":"Feature","geometry":{"type":"Point","coordinates":[-87.72861,38.99879]},"properties":{"frp":2.09,"date":"2026-09-17","daynight":"N"}},{"type":"Feature","geometry":{"type":"Point","coordinates":[-87.72439,38.99924]},"properties":{"frp":2.11,"date":"2026-09-17","daynight":"N"}},{"type":"Feature","geometry":{"type":"Point","coordinates":[-82.33281,39.08548]},"properties":{"frp":1.04,"date":"2026-09-17","daynight":"N"}},{"type":"Feature","geometry":{"type":"Point","coordinates":[-82.33759,39.0857]},"properties":{"frp":1.04,"date":"2026-09-17","daynight":"N"}},{"type":"Feature","geometry":{"type":"Point","coordinates":[-84.38677,39.46749]},"properties":{"frp":0.66,"date":"2026-09-17","daynight":"N"}},{"type":"Feature","geometry":{"type":"Point","coordinates":[-84.40359,39.47219]},"properties":{"frp":1.31,"date":"2026-09-17","daynight":"N"}},{"type":"Feature","geometry":{"type":"Point","coordinates":[-84.40562,39.47434]},"properties":{"frp":0.83,"date":"2026-09-17","daynight":"N"}},{"type":"Feature","geometry":{"type":"Point","coordinates":[-84.37962,39.47994]},"properties":{"frp":1.69,"date":"2026-09-17","daynight":"N"}},{"type":"Feature","geometry":{"type":"Point","coordinates":[-84.37731,39.48396]},"properties":{"frp":1.2,"date":"2026-09-17","daynight":"N"}},{"type":"Feature","geometry":{"type":"Point","coordinates":[-76.81454,39.93996]},"properties":{"frp":1.03,"date":"2026-09-17","daynight":"N"}},{"type":"Feature","geometry":{"type":"Point","coordinates":[-83.53095,33.83138]},"properties":{"frp":0.38,"date":"2026-09-17","daynight":"N"}},{"type":"Feature","geometry":{"type":"Point","coordinates":[-79.88737,34.37573]},"properties":{"frp":1.55,"date":"2026-09-17","daynight":"N"}},{"type":"Feature","geometry":{"type":"Point","coordinates":[-79.88693,34.37675]},"properties":{"frp":0.94,"date":"2026-09-17","daynight":"N"}},{"type":"Feature","geometry":{"type":"Point","coordinates":[-85.87067,35.45014]},"properties":{"frp":0.67,"date":"2026-09-17","daynight":"N"}},{"type":"Feature","geometry":{"type":"Point","coordinates":[-85.87332,35.45268]},"properties":{"frp":0.85,"date":"2026-09-17","daynight":"N"}},{"type":"Feature","geometry":{"type":"Point","coordinates":[-76.81449,36.354]},"properties":{"frp":1.15,"date":"2026-09-17","daynight":"N"}},{"type":"Feature","geometry":{"type":"Point","coordinates":[-76.80508,36.35713]},"properties":{"frp":1.6,"date":"2026-09-17","daynight":"N"}},{"type":"Feature","geometry":{"type":"Point","coordinates":[-77.46487,36.50924]},"properties":{"frp":0.7,"date":"2026-09-17","daynight":"N"}},{"type":"Feature","geometry":{"type":"Point","coordinates":[-77.46422,36.51344]},"properties":{"frp":0.7,"date":"2026-09-17","daynight":"N"}},{"type":"Feature","geometry":{"type":"Point","coordinates":[-83.11306,36.7074]},"properties":{"frp":0.46,"date":"2026-09-17","daynight":"N"}},{"type":"Feature","geometry":{"type":"Point","coordinates":[-83.11335,36.70786]},"properties":{"frp":0.92,"date":"2026-09-17","daynight":"N"}},{"type":"Feature","geometry":{"type":"Point","coordinates":[-83.11235,36.71318]},"properties":{"frp":0.46,"date":"2026-09-17","daynight":"N"}},{"type":"Feature","geometry":{"type":"Point","coordinates":[-88.01579,30.94017]},"properties":{"frp":2.58,"date":"2026-09-17","daynight":"N"}},{"type":"Feature","geometry":{"type":"Point","coordinates":[-87.98988,31.15223]},"properties":{"frp":5.05,"date":"2026-09-17","daynight":"N"}},{"type":"Feature","geometry":{"type":"Point","coordinates":[-83.4313,32.77246]},"properties":{"frp":1.89,"date":"2026-09-17","daynight":"N"}},{"type":"Feature","geometry":{"type":"Point","coordinates":[-79.87779,33.00323]},"properties":{"frp":2.17,"date":"2026-09-17","daynight":"N"}},{"type":"Feature","geometry":{"type":"Point","coordinates":[-79.87834,33.00482]},"properties":{"frp":1.62,"date":"2026-09-17","daynight":"N"}},{"type":"Feature","geometry":{"type":"Point","coordinates":[-79.88279,33.01462]},"properties":{"frp":3.99,"date":"2026-09-17","daynight":"N"}},{"type":"Feature","geometry":{"type":"Point","coordinates":[-86.8056,33.09278]},"properties":{"frp":2.04,"date":"2026-09-17","daynight":"N"}},{"type":"Feature","geometry":{"type":"Point","coordinates":[-87.51278,33.23365]},"properties":{"frp":2.65,"date":"2026-09-17","daynight":"N"}},{"type":"Feature","geometry":{"type":"Point","coordinates":[-87.51027,33.23737]},"properties":{"frp":1.97,"date":"2026-09-17","daynight":"N"}},{"type":"Feature","geometry":{"type":"Point","coordinates":[-86.80761,33.54752]},"properties":{"frp":0.81,"date":"2026-09-17","daynight":"N"}},{"type":"Feature","geometry":{"type":"Point","coordinates":[-86.80478,33.54765]},"properties":{"frp":0.37,"date":"2026-09-17","daynight":"N"}},{"type":"Feature","geometry":{"type":"Point","coordinates":[-82.33408,39.08523]},"properties":{"frp":3.35,"date":"2026-09-17","daynight":"N"}},{"type":"Feature","geometry":{"type":"Point","coordinates":[-82.33337,39.08917]},"properties":{"frp":0.73,"date":"2026-09-17","daynight":"N"}},{"type":"Feature","geometry":{"type":"Point","coordinates":[-84.38706,39.46965]},"properties":{"frp":0.66,"date":"2026-09-17","daynight":"N"}},{"type":"Feature","geometry":{"type":"Point","coordinates":[-84.4018,39.4744]},"properties":{"frp":1.87,"date":"2026-09-17","daynight":"N"}},{"type":"Feature","geometry":{"type":"Point","coordinates":[-84.40322,39.47558]},"properties":{"frp":2.33,"date":"2026-09-17","daynight":"N"}},{"type":"Feature","geometry":{"type":"Point","coordinates":[-84.37806,39.48139]},"properties":{"frp":2.26,"date":"2026-09-17","daynight":"N"}},{"type":"Feature","geometry":{"type":"Point","coordinates":[-84.37952,39.48243]},"properties":{"frp":2.39,"date":"2026-09-17","daynight":"N"}},{"type":"Feature","geometry":{"type":"Point","coordinates":[-84.3886,39.48675]},"properties":{"frp":1.07,"date":"2026-09-17","daynight":"N"}},{"type":"Feature","geometry":{"type":"Point","coordinates":[-76.81483,39.93899]},"properties":{"frp":1.56,"date":"2026-09-17","daynight":"N"}},{"type":"Feature","geometry":{"type":"Point","coordinates":[-76.814,39.94228]},"properties":{"frp":0.64,"date":"2026-09-17","daynight":"N"}},{"type":"Feature","geometry":{"type":"Point","coordinates":[-74.21894,40.63752]},"properties":{"frp":0.97,"date":"2026-09-17","daynight":"N"}},{"type":"Feature","geometry":{"type":"Point","coordinates":[-74.22353,40.63831]},"properties":{"frp":0.97,"date":"2026-09-17","daynight":"N"}},{"type":"Feature","geometry":{"type":"Point","coordinates":[-76.81428,36.35494]},"properties":{"frp":1.33,"date":"2026-09-17","daynight":"N"}},{"type":"Feature","geometry":{"type":"Point","coordinates":[-76.805,36.35685]},"properties":{"frp":0.89,"date":"2026-09-17","daynight":"N"}},{"type":"Feature","geometry":{"type":"Point","coordinates":[-76.80923,36.35754]},"properties":{"frp":0.89,"date":"2026-09-17","daynight":"N"}},{"type":"Feature","geometry":{"type":"Point","coordinates":[-77.46441,36.51255]},"properties":{"frp":1.38,"date":"2026-09-17","daynight":"N"}},{"type":"Feature","geometry":{"type":"Point","coordinates":[-83.10992,36.71169]},"properties":{"frp":2.04,"date":"2026-09-17","daynight":"N"}},{"type":"Feature","geometry":{"type":"Point","coordinates":[-83.11423,36.71214]},"properties":{"frp":1.55,"date":"2026-09-17","daynight":"N"}},{"type":"Feature","geometry":{"type":"Point","coordinates":[-82.03642,37.23539]},"properties":{"frp":2.46,"date":"2026-09-17","daynight":"N"}},{"type":"Feature","geometry":{"type":"Point","coordinates":[-82.0423,37.23605]},"properties":{"frp":1.92,"date":"2026-09-17","daynight":"N"}},{"type":"Feature","geometry":{"type":"Point","coordinates":[-81.20618,37.31414]},"properties":{"frp":0.76,"date":"2026-09-17","daynight":"N"}},{"type":"Feature","geometry":{"type":"Point","coordinates":[-81.20893,37.3212]},"properties":{"frp":1.23,"date":"2026-09-17","daynight":"N"}},{"type":"Feature","geometry":{"type":"Point","coordinates":[-81.2143,37.32183]},"properties":{"frp":1.23,"date":"2026-09-17","daynight":"N"}},{"type":"Feature","geometry":{"type":"Point","coordinates":[-81.21003,37.3221]},"properties":{"frp":2.25,"date":"2026-09-17","daynight":"N"}},{"type":"Feature","geometry":{"type":"Point","coordinates":[-77.44078,37.82016]},"properties":{"frp":1.02,"date":"2026-09-17","daynight":"N"}},{"type":"Feature","geometry":{"type":"Point","coordinates":[-77.44513,37.82081]},"properties":{"frp":1.02,"date":"2026-09-17","daynight":"N"}},{"type":"Feature","geometry":{"type":"Point","coordinates":[-85.41293,38.58097]},"properties":{"frp":1.51,"date":"2026-09-17","daynight":"N"}},{"type":"Feature","geometry":{"type":"Point","coordinates":[-82.83164,38.5959]},"properties":{"frp":0.95,"date":"2026-09-17","daynight":"N"}},{"type":"Feature","geometry":{"type":"Point","coordinates":[-82.83096,38.59993]},"properties":{"frp":0.95,"date":"2026-09-17","daynight":"N"}},{"type":"Feature","geometry":{"type":"Point","coordinates":[-90.14671,38.69281]},"properties":{"frp":2.11,"date":"2026-09-17","daynight":"N"}},{"type":"Feature","geometry":{"type":"Point","coordinates":[-90.15236,38.69305]},"properties":{"frp":2.37,"date":"2026-09-17","daynight":"N"}},{"type":"Feature","geometry":{"type":"Point","coordinates":[-90.14623,38.69481]},"properties":{"frp":1.91,"date":"2026-09-17","daynight":"N"}},{"type":"Feature","geometry":{"type":"Point","coordinates":[-90.15189,38.69502]},"properties":{"frp":1.91,"date":"2026-09-17","daynight":"N"}},{"type":"Feature","geometry":{"type":"Point","coordinates":[-90.13449,38.70039]},"properties":{"frp":2.84,"date":"2026-09-17","daynight":"N"}},{"type":"Feature","geometry":{"type":"Point","coordinates":[-84.24273,38.83508]},"properties":{"frp":5.15,"date":"2026-09-17","daynight":"N"}},{"type":"Feature","geometry":{"type":"Point","coordinates":[-87.7237,38.99417]},"properties":{"frp":0.51,"date":"2026-09-17","daynight":"N"}},{"type":"Feature","geometry":{"type":"Point","coordinates":[-87.72735,38.99971]},"properties":{"frp":1.96,"date":"2026-09-17","daynight":"N"}},{"type":"Feature","geometry":{"type":"Point","coordinates":[-83.43136,32.77022]},"properties":{"frp":3.28,"date":"2026-09-17","daynight":"N"}},{"type":"Feature","geometry":{"type":"Point","coordinates":[-83.43076,32.77409]},"properties":{"frp":0.76,"date":"2026-09-17","daynight":"N"}},{"type":"Feature","geometry":{"type":"Point","coordinates":[-79.87678,33.00495]},"properties":{"frp":0.73,"date":"2026-09-17","daynight":"N"}},{"type":"Feature","geometry":{"type":"Point","coordinates":[-79.88103,33.00556]},"properties":{"frp":0.84,"date":"2026-09-17","daynight":"N"}},{"type":"Feature","geometry":{"type":"Point","coordinates":[-79.88528,33.00618]},"properties":{"frp":0.84,"date":"2026-09-17","daynight":"N"}},{"type":"Feature","geometry":{"type":"Point","coordinates":[-79.88324,33.01624]},"properties":{"frp":1.91,"date":"2026-09-17","daynight":"N"}},{"type":"Feature","geometry":{"type":"Point","coordinates":[-86.80807,33.09163]},"properties":{"frp":4.0,"date":"2026-09-17","daynight":"N"}},{"type":"Feature","geometry":{"type":"Point","coordinates":[-86.80658,33.09289]},"properties":{"frp":3.06,"date":"2026-09-17","daynight":"N"}},{"type":"Feature","geometry":{"type":"Point","coordinates":[-87.51343,33.23029]},"properties":{"frp":1.83,"date":"2026-09-17","daynight":"N"}},{"type":"Feature","geometry":{"type":"Point","coordinates":[-87.51276,33.23521]},"properties":{"frp":1.83,"date":"2026-09-17","daynight":"N"}},{"type":"Feature","geometry":{"type":"Point","coordinates":[-87.51293,33.23655]},"properties":{"frp":3.5,"date":"2026-09-17","daynight":"N"}},{"type":"Feature","geometry":{"type":"Point","coordinates":[-86.8073,33.54692]},"properties":{"frp":1.71,"date":"2026-09-17","daynight":"N"}},{"type":"Feature","geometry":{"type":"Point","coordinates":[-83.53047,33.83165]},"properties":{"frp":0.78,"date":"2026-09-17","daynight":"N"}},{"type":"Feature","geometry":{"type":"Point","coordinates":[-83.53147,33.83258]},"properties":{"frp":0.94,"date":"2026-09-17","daynight":"N"}},{"type":"Feature","geometry":{"type":"Point","coordinates":[-79.88895,34.37573]},"properties":{"frp":0.93,"date":"2026-09-17","daynight":"N"}},{"type":"Feature","geometry":{"type":"Point","coordinates":[-85.87032,35.45065]},"properties":{"frp":1.27,"date":"2026-09-17","daynight":"N"}},{"type":"Feature","geometry":{"type":"Point","coordinates":[-85.87085,35.45118]},"properties":{"frp":1.32,"date":"2026-09-17","daynight":"N"}},{"type":"Feature","geometry":{"type":"Point","coordinates":[-89.7175,35.93482]},"properties":{"frp":0.5,"date":"2026-09-17","daynight":"N"}},{"type":"Feature","geometry":{"type":"Point","coordinates":[-89.71638,35.93568]},"properties":{"frp":3.64,"date":"2026-09-17","daynight":"N"}},{"type":"Feature","geometry":{"type":"Point","coordinates":[-89.71209,35.94029]},"properties":{"frp":2.59,"date":"2026-09-17","daynight":"N"}},{"type":"Feature","geometry":{"type":"Point","coordinates":[-89.717,35.94057]},"properties":{"frp":3.85,"date":"2026-09-17","daynight":"N"}},{"type":"Feature","geometry":{"type":"Point","coordinates":[-89.71585,35.94143]},"properties":{"frp":1.37,"date":"2026-09-17","daynight":"N"}},{"type":"Feature","geometry":{"type":"Point","coordinates":[-90.3957,30.00078]},"properties":{"frp":1.26,"date":"2026-09-17","daynight":"N"}},{"type":"Feature","geometry":{"type":"Point","coordinates":[-90.40009,30.00108]},"properties":{"frp":1.54,"date":"2026-09-17","daynight":"N"}},{"type":"Feature","geometry":{"type":"Point","coordinates":[-90.4045,30.00138]},"properties":{"frp":1.54,"date":"2026-09-17","daynight":"N"}},{"type":"Feature","geometry":{"type":"Point","coordinates":[-88.01244,30.94172]},"properties":{"frp":4.44,"date":"2026-09-17","daynight":"N"}},{"type":"Feature","geometry":{"type":"Point","coordinates":[-88.01183,30.94668]},"properties":{"frp":3.66,"date":"2026-09-17","daynight":"N"}},{"type":"Feature","geometry":{"type":"Point","coordinates":[-88.01192,30.9476]},"properties":{"frp":2.99,"date":"2026-09-17","daynight":"N"}},{"type":"Feature","geometry":{"type":"Point","coordinates":[-87.98088,31.15644]},"properties":{"frp":2.14,"date":"2026-09-17","daynight":"N"}},{"type":"Feature","geometry":{"type":"Point","coordinates":[-87.981,31.1573]},"properties":{"frp":3.41,"date":"2026-09-17","daynight":"N"}}]}