{"type":"FeatureCollection","features":[{"type":"Feature","geometry":{"type":"Point","coordinates":[-83.4046,45.06869]},"properties":{"frp":1.44,"date":"2026-09-06","daynight":"N"}},{"type":"Feature","geometry":{"type":"Point","coordinates":[-83.40528,45.06904]},"properties":{"frp":1.92,"date":"2026-09-06","daynight":"N"}},{"type":"Feature","geometry":{"type":"Point","coordinates":[-83.4043,45.07444]},"properties":{"frp":1.78,"date":"2026-09-06","daynight":"N"}},{"type":"Feature","geometry":{"type":"Point","coordinates":[-83.40496,45.07479]},"properties":{"frp":1.09,"date":"2026-09-06","daynight":"N"}},{"type":"Feature","geometry":{"type":"Point","coordinates":[-73.91072,45.78144]},"properties":{"frp":0.81,"date":"2026-09-06","daynight":"N"}},{"type":"Feature","geometry":{"type":"Point","coordinates":[-73.14381,46.04366]},"properties":{"frp":1.83,"date":"2026-09-06","daynight":"N"}},{"type":"Feature","geometry":{"type":"Point","coordinates":[-81.0344,46.49192]},"properties":{"frp":1.83,"date":"2026-09-06","daynight":"N"}},{"type":"Feature","geometry":{"type":"Point","coordinates":[-74.22205,40.63635]},"properties":{"frp":2.05,"date":"2026-09-06","daynight":"N"}},{"type":"Feature","geometry":{"type":"Point","coordinates":[-84.91281,41.36897]},"properties":{"frp":1.07,"date":"2026-09-06","daynight":"N"}},{"type":"Feature","geometry":{"type":"Point","coordinates":[-84.91872,41.36915]},"properties":{"frp":2.23,"date":"2026-09-06","daynight":"N"}},{"type":"Feature","geometry":{"type":"Point","coordinates":[-84.92466,41.36932]},"properties":{"frp":2.23,"date":"2026-09-06","daynight":"N"}},{"type":"Feature","geometry":{"type":"Point","coordinates":[-81.67818,41.45098]},"properties":{"frp":2.21,"date":"2026-09-06","daynight":"N"}},{"type":"Feature","geometry":{"type":"Point","coordinates":[-81.67765,41.4561]},"properties":{"frp":2.21,"date":"2026-09-06","daynight":"N"}},{"type":"Feature","geometry":{"type":"Point","coordinates":[-81.67303,41.46097]},"properties":{"frp":1.44,"date":"2026-09-06","daynight":"N"}},{"type":"Feature","geometry":{"type":"Point","coordinates":[-81.6771,41.46122]},"properties":{"frp":1.44,"date":"2026-09-06","daynight":"N"}},{"type":"Feature","geometry":{"type":"Point","coordinates":[-83.36867,41.46732]},"properties":{"frp":2.98,"date":"2026-09-06","daynight":"N"}},{"type":"Feature","geometry":{"type":"Point","coordinates":[-81.66331,41.47583]},"properties":{"frp":0.99,"date":"2026-09-06","daynight":"N"}},{"type":"Feature","geometry":{"type":"Point","coordinates":[-84.04585,41.5655]},"properties":{"frp":5.71,"date":"2026-09-06","daynight":"N"}},{"type":"Feature","geometry":{"type":"Point","coordinates":[-84.05609,41.5717]},"properties":{"frp":1.83,"date":"2026-09-06","daynight":"N"}},{"type":"Feature","geometry":{"type":"Point","coordinates":[-83.50521,41.63147]},"properties":{"frp":0.85,"date":"2026-09-06","daynight":"N"}},{"type":"Feature","geometry":{"type":"Point","coordinates":[-83.50112,41.63406]},"properties":{"frp":0.9,"date":"2026-09-06","daynight":"N"}},{"type":"Feature","geometry":{"type":"Point","coordinates":[-83.11407,42.28107]},"properties":{"frp":1.47,"date":"2026-09-06","daynight":"N"}},{"type":"Feature","geometry":{"type":"Point","coordinates":[-82.41792,42.94289]},"properties":{"frp":0.82,"date":"2026-09-06","daynight":"N"}},{"type":"Feature","geometry":{"type":"Point","coordinates":[-82.41833,42.94665]},"properties":{"frp":1.44,"date":"2026-09-06","daynight":"N"}},{"type":"Feature","geometry":{"type":"Point","coordinates":[-82.41742,42.94828]},"properties":{"frp":0.59,"date":"2026-09-06","daynight":"N"}},{"type":"Feature","geometry":{"type":"Point","coordinates":[-82.42204,42.94849]},"properties":{"frp":0.59,"date":"2026-09-06","daynight":"N"}},{"type":"Feature","geometry":{"type":"Point","coordinates":[-80.85772,43.06992]},"properties":{"frp":1.22,"date":"2026-09-06","daynight":"N"}},{"type":"Feature","geometry":{"type":"Point","coordinates":[-80.8558,43.06999]},"properties":{"frp":1.82,"date":"2026-09-06","daynight":"N"}},{"type":"Feature","geometry":{"type":"Point","coordinates":[-84.38614,39.47017]},"properties":{"frp":0.57,"date":"2026-09-06","daynight":"N"}},{"type":"Feature","geometry":{"type":"Point","coordinates":[-84.38606,39.47076]},"properties":{"frp":0.66,"date":"2026-09-06","daynight":"N"}},{"type":"Feature","geometry":{"type":"Point","coordinates":[-84.40176,39.47082]},"properties":{"frp":1.5,"date":"2026-09-06","daynight":"N"}},{"type":"Feature","geometry":{"type":"Point","coordinates":[-84.40167,39.4715]},"properties":{"frp":1.09,"date":"2026-09-06","daynight":"N"}},{"type":"Feature","geometry":{"type":"Point","coordinates":[-75.63584,39.5864]},"properties":{"frp":1.55,"date":"2026-09-06","daynight":"N"}},{"type":"Feature","geometry":{"type":"Point","coordinates":[-75.63512,39.59006]},"properties":{"frp":1.55,"date":"2026-09-06","daynight":"N"}},{"type":"Feature","geometry":{"type":"Point","coordinates":[-74.11841,40.23833]},"properties":{"frp":0.6,"date":"2026-09-06","daynight":"N"}},{"type":"Feature","geometry":{"type":"Point","coordinates":[-74.11681,40.24527]},"properties":{"frp":0.36,"date":"2026-09-06","daynight":"N"}},{"type":"Feature","geometry":{"type":"Point","coordinates":[-79.87646,40.30436]},"properties":{"frp":1.66,"date":"2026-09-06","daynight":"N"}},{"type":"Feature","geometry":{"type":"Point","coordinates":[-80.61124,40.30806]},"properties":{"frp":1.2,"date":"2026-09-06","daynight":"N"}},{"type":"Feature","geometry":{"type":"Point","coordinates":[-80.61024,40.3086]},"properties":{"frp":2.32,"date":"2026-09-06","daynight":"N"}},{"type":"Feature","geometry":{"type":"Point","coordinates":[-80.60394,40.31235]},"properties":{"frp":1.2,"date":"2026-09-06","daynight":"N"}},{"type":"Feature","geometry":{"type":"Point","coordinates":[-80.61063,40.31283]},"properties":{"frp":1.2,"date":"2026-09-06","daynight":"N"}},{"type":"Feature","geometry":{"type":"Point","coordinates":[-80.60285,40.31284]},"properties":{"frp":1.6,"date":"2026-09-06","daynight":"N"}},{"type":"Feature","geometry":{"type":"Point","coordinates":[-79.85627,40.39027]},"properties":{"frp":2.5,"date":"2026-09-06","daynight":"N"}},{"type":"Feature","geometry":{"type":"Point","coordinates":[-79.84933,40.39435]},"properties":{"frp":2.86,"date":"2026-09-06","daynight":"N"}},{"type":"Feature","geometry":{"type":"Point","coordinates":[-79.85558,40.39485]},"properties":{"frp":2.86,"date":"2026-09-06","daynight":"N"}},{"type":"Feature","geometry":{"type":"Point","coordinates":[-79.43112,40.52514]},"properties":{"frp":0.58,"date":"2026-09-06","daynight":"N"}},{"type":"Feature","geometry":{"type":"Point","coordinates":[-79.43009,40.52694]},"properties":{"frp":0.69,"date":"2026-09-06","daynight":"N"}},{"type":"Feature","geometry":{"type":"Point","coordinates":[-83.13788,40.56913]},"properties":{"frp":0.88,"date":"2026-09-06","daynight":"N"}},{"type":"Feature","geometry":{"type":"Point","coordinates":[-83.13861,40.56936]},"properties":{"frp":0.82,"date":"2026-09-06","daynight":"N"}},{"type":"Feature","geometry":{"type":"Point","coordinates":[-81.44124,40.75583]},"properties":{"frp":1.29,"date":"2026-09-06","daynight":"N"}},{"type":"Feature","geometry":{"type":"Point","coordinates":[-83.20758,41.22268]},"properties":{"frp":1.21,"date":"2026-09-06","daynight":"N"}},{"type":"Feature","geometry":{"type":"Point","coordinates":[-83.21239,41.2229]},"properties":{"frp":1.64,"date":"2026-09-06","daynight":"N"}},{"type":"Feature","geometry":{"type":"Point","coordinates":[-84.91788,41.36825]},"properties":{"frp":2.88,"date":"2026-09-06","daynight":"N"}},{"type":"Feature","geometry":{"type":"Point","coordinates":[-84.92379,41.36845]},"properties":{"frp":3.29,"date":"2026-09-06","daynight":"N"}},{"type":"Feature","geometry":{"type":"Point","coordinates":[-79.56022,34.15179]},"properties":{"frp":1.05,"date":"2026-09-06","daynight":"N"}},{"type":"Feature","geometry":{"type":"Point","coordinates":[-79.56252,34.15273]},"properties":{"frp":1.07,"date":"2026-09-06","daynight":"N"}},{"type":"Feature","geometry":{"type":"Point","coordinates":[-79.88979,34.37348]},"properties":{"frp":0.79,"date":"2026-09-06","daynight":"N"}},{"type":"Feature","geometry":{"type":"Point","coordinates":[-79.88921,34.37776]},"properties":{"frp":0.98,"date":"2026-09-06","daynight":"N"}},{"type":"Feature","geometry":{"type":"Point","coordinates":[-80.32964,35.5018]},"properties":{"frp":1.27,"date":"2026-09-06","daynight":"N"}},{"type":"Feature","geometry":{"type":"Point","coordinates":[-80.33065,35.5035]},"properties":{"frp":1.55,"date":"2026-09-06","daynight":"N"}},{"type":"Feature","geometry":{"type":"Point","coordinates":[-80.32896,35.50624]},"properties":{"frp":1.27,"date":"2026-09-06","daynight":"N"}},{"type":"Feature","geometry":{"type":"Point","coordinates":[-87.98559,31.14767]},"properties":{"frp":2.89,"date":"2026-09-06","daynight":"N"}},{"type":"Feature","geometry":{"type":"Point","coordinates":[-87.99204,31.14798]},"properties":{"frp":3.82,"date":"2026-09-06","daynight":"N"}},{"type":"Feature","geometry":{"type":"Point","coordinates":[-86.37297,31.4358]},"properties":{"frp":0.41,"date":"2026-09-06","daynight":"N"}},{"type":"Feature","geometry":{"type":"Point","coordinates":[-86.37254,31.43644]},"properties":{"frp":0.51,"date":"2026-09-06","daynight":"N"}},{"type":"Feature","geometry":{"type":"Point","coordinates":[-81.577,32.32158]},"properties":{"frp":1.78,"date":"2026-09-06","daynight":"N"}},{"type":"Feature","geometry":{"type":"Point","coordinates":[-81.57719,32.32292]},"properties":{"frp":1.43,"date":"2026-09-06","daynight":"N"}},{"type":"Feature","geometry":{"type":"Point","coordinates":[-79.87767,33.00305]},"properties":{"frp":1.57,"date":"2026-09-06","daynight":"N"}},{"type":"Feature","geometry":{"type":"Point","coordinates":[-79.88397,33.01196]},"properties":{"frp":1.2,"date":"2026-09-06","daynight":"N"}},{"type":"Feature","geometry":{"type":"Point","coordinates":[-79.88857,33.01242]},"properties":{"frp":1.54,"date":"2026-09-06","daynight":"N"}},{"type":"Feature","geometry":{"type":"Point","coordinates":[-79.88556,33.01243]},"properties":{"frp":4.78,"date":"2026-09-06","daynight":"N"}},{"type":"Feature","geometry":{"type":"Point","coordinates":[-79.88334,33.01616]},"properties":{"frp":1.2,"date":"2026-09-06","daynight":"N"}},{"type":"Feature","geometry":{"type":"Point","coordinates":[-79.88792,33.01662]},"properties":{"frp":1.54,"date":"2026-09-06","daynight":"N"}},{"type":"Feature","geometry":{"type":"Point","coordinates":[-79.88493,33.01663]},"properties":{"frp":0.83,"date":"2026-09-06","daynight":"N"}},{"type":"Feature","geometry":{"type":"Point","coordinates":[-87.5132,33.23444]},"properties":{"frp":2.35,"date":"2026-09-06","daynight":"N"}},{"type":"Feature","geometry":{"type":"Point","coordinates":[-87.5125,33.2352]},"properties":{"frp":1.75,"date":"2026-09-06","daynight":"N"}},{"type":"Feature","geometry":{"type":"Point","coordinates":[-88.56995,33.44236]},"properties":{"frp":1.68,"date":"2026-09-06","daynight":"N"}},{"type":"Feature","geometry":{"type":"Point","coordinates":[-80.08894,33.77161]},"properties":{"frp":1.31,"date":"2026-09-06","daynight":"N"}},{"type":"Feature","geometry":{"type":"Point","coordinates":[-80.08831,33.7759]},"properties":{"frp":2.62,"date":"2026-09-06","daynight":"N"}},{"type":"Feature","geometry":{"type":"Point","coordinates":[-80.09314,33.7764]},"properties":{"frp":2.62,"date":"2026-09-06","daynight":"N"}},{"type":"Feature","geometry":{"type":"Point","coordinates":[-88.72957,33.90077]},"properties":{"frp":0.8,"date":"2026-09-06","daynight":"N"}},{"type":"Feature","geometry":{"type":"Point","coordinates":[-88.73167,33.90227]},"properties":{"frp":1.03,"date":"2026-09-06","daynight":"N"}},{"type":"Feature","geometry":{"type":"Point","coordinates":[-88.01481,30.94131]},"properties":{"frp":2.04,"date":"2026-09-06","daynight":"N"}},{"type":"Feature","geometry":{"type":"Point","coordinates":[-88.01431,30.94791]},"properties":{"frp":1.48,"date":"2026-09-06","daynight":"N"}},{"type":"Feature","geometry":{"type":"Point","coordinates":[-73.90482,45.7748]},"properties":{"frp":0.25,"date":"2026-09-06","daynight":"N"}},{"type":"Feature","geometry":{"type":"Point","coordinates":[-73.91242,45.78308]},"properties":{"frp":1.01,"date":"2026-09-06","daynight":"N"}},{"type":"Feature","geometry":{"type":"Point","coordinates":[-73.14318,46.04355]},"properties":{"frp":0.58,"date":"2026-09-06","daynight":"N"}},{"type":"Feature","geometry":{"type":"Point","coordinates":[-73.14196,46.04686]},"properties":{"frp":0.58,"date":"2026-09-06","daynight":"N"}},{"type":"Feature","geometry":{"type":"Point","coordinates":[-81.03724,46.47895]},"properties":{"frp":0.48,"date":"2026-09-06","daynight":"N"}},{"type":"Feature","geometry":{"type":"Point","coordinates":[-81.03579,46.4795]},"properties":{"frp":0.61,"date":"2026-09-06","daynight":"N"}},{"type":"Feature","geometry":{"type":"Point","coordinates":[-81.03465,46.49026]},"properties":{"frp":1.47,"date":"2026-09-06","daynight":"N"}},{"type":"Feature","geometry":{"type":"Point","coordinates":[-82.41662,42.94552]},"properties":{"frp":1.14,"date":"2026-09-06","daynight":"N"}},{"type":"Feature","geometry":{"type":"Point","coordinates":[-82.42239,42.95007]},"properties":{"frp":1.89,"date":"2026-09-06","daynight":"N"}},{"type":"Feature","geometry":{"type":"Point","coordinates":[-80.85565,43.06882]},"properties":{"frp":0.98,"date":"2026-09-06","daynight":"N"}},{"type":"Feature","geometry":{"type":"Point","coordinates":[-80.86132,43.0695]},"properties":{"frp":0.98,"date":"2026-09-06","daynight":"N"}},{"type":"Feature","geometry":{"type":"Point","coordinates":[-79.80615,43.26684]},"properties":{"frp":0.73,"date":"2026-09-06","daynight":"N"}},{"type":"Feature","geometry":{"type":"Point","coordinates":[-79.80531,43.27031]},"properties":{"frp":0.73,"date":"2026-09-06","daynight":"N"}},{"type":"Feature","geometry":{"type":"Point","coordinates":[-79.79393,43.27242]},"properties":{"frp":1.75,"date":"2026-09-06","daynight":"N"}},{"type":"Feature","geometry":{"type":"Point","coordinates":[-79.7992,43.27311]},"properties":{"frp":0.86,"date":"2026-09-06","daynight":"N"}},{"type":"Feature","geometry":{"type":"Point","coordinates":[-79.79837,43.27657]},"properties":{"frp":0.86,"date":"2026-09-06","daynight":"N"}},{"type":"Feature","geometry":{"type":"Point","coordinates":[-83.40379,45.07111]},"properties":{"frp":2.39,"date":"2026-09-06","daynight":"N"}},{"type":"Feature","geometry":{"type":"Point","coordinates":[-84.38552,39.47013]},"properties":{"frp":3.4,"date":"2026-09-06","daynight":"N"}},{"type":"Feature","geometry":{"type":"Point","coordinates":[-84.39942,39.47151]},"properties":{"frp":1.36,"date":"2026-09-06","daynight":"N"}},{"type":"Feature","geometry":{"type":"Point","coordinates":[-84.40407,39.47197]},"properties":{"frp":1.08,"date":"2026-09-06","daynight":"N"}},{"type":"Feature","geometry":{"type":"Point","coordinates":[-75.63177,39.5919]},"properties":{"frp":1.39,"date":"2026-09-06","daynight":"N"}},{"type":"Feature","geometry":{"type":"Point","coordinates":[-75.6364,39.59271]},"properties":{"frp":1.39,"date":"2026-09-06","daynight":"N"}},{"type":"Feature","geometry":{"type":"Point","coordinates":[-74.11858,40.23797]},"properties":{"frp":0.56,"date":"2026-09-06","daynight":"N"}},{"type":"Feature","geometry":{"type":"Point","coordinates":[-74.11532,40.2483]},"properties":{"frp":0.44,"date":"2026-09-06","daynight":"N"}},{"type":"Feature","geometry":{"type":"Point","coordinates":[-79.87809,40.30392]},"properties":{"frp":1.79,"date":"2026-09-06","daynight":"N"}},{"type":"Feature","geometry":{"type":"Point","coordinates":[-79.87727,40.3073]},"properties":{"frp":1.21,"date":"2026-09-06","daynight":"N"}},{"type":"Feature","geometry":{"type":"Point","coordinates":[-80.61065,40.31057]},"properties":{"frp":1.76,"date":"2026-09-06","daynight":"N"}},{"type":"Feature","geometry":{"type":"Point","coordinates":[-80.60487,40.31339]},"properties":{"frp":1.76,"date":"2026-09-06","daynight":"N"}},{"type":"Feature","geometry":{"type":"Point","coordinates":[-79.85505,40.39187]},"properties":{"frp":1.88,"date":"2026-09-06","daynight":"N"}},{"type":"Feature","geometry":{"type":"Point","coordinates":[-79.85741,40.39202]},"properties":{"frp":1.32,"date":"2026-09-06","daynight":"N"}},{"type":"Feature","geometry":{"type":"Point","coordinates":[-79.85985,40.39252]},"properties":{"frp":1.88,"date":"2026-09-06","daynight":"N"}},{"type":"Feature","geometry":{"type":"Point","coordinates":[-79.8494,40.39461]},"properties":{"frp":2.8,"date":"2026-09-06","daynight":"N"}},{"type":"Feature","geometry":{"type":"Point","coordinates":[-79.85423,40.39526]},"properties":{"frp":1.88,"date":"2026-09-06","daynight":"N"}},{"type":"Feature","geometry":{"type":"Point","coordinates":[-79.43278,40.52906]},"properties":{"frp":0.36,"date":"2026-09-06","daynight":"N"}},{"type":"Feature","geometry":{"type":"Point","coordinates":[-83.13987,40.56916]},"properties":{"frp":0.85,"date":"2026-09-06","daynight":"N"}},{"type":"Feature","geometry":{"type":"Point","coordinates":[-83.14024,40.57208]},"properties":{"frp":1.98,"date":"2026-09-06","daynight":"N"}},{"type":"Feature","geometry":{"type":"Point","coordinates":[-83.13916,40.57302]},"properties":{"frp":0.85,"date":"2026-09-06","daynight":"N"}},{"type":"Feature","geometry":{"type":"Point","coordinates":[-74.22241,40.63589]},"properties":{"frp":1.72,"date":"2026-09-06","daynight":"N"}},{"type":"Feature","geometry":{"type":"Point","coordinates":[-74.22132,40.63931]},"properties":{"frp":0.87,"date":"2026-09-06","daynight":"N"}},{"type":"Feature","geometry":{"type":"Point","coordinates":[-81.44223,40.75367]},"properties":{"frp":0.48,"date":"2026-09-06","daynight":"N"}},{"type":"Feature","geometry":{"type":"Point","coordinates":[-81.4306,40.75593]},"properties":{"frp":1.19,"date":"2026-09-06","daynight":"N"}},{"type":"Feature","geometry":{"type":"Point","coordinates":[-81.44149,40.75726]},"properties":{"frp":0.48,"date":"2026-09-06","daynight":"N"}},{"type":"Feature","geometry":{"type":"Point","coordinates":[-83.20822,41.22379]},"properties":{"frp":1.99,"date":"2026-09-06","daynight":"N"}},{"type":"Feature","geometry":{"type":"Point","coordinates":[-83.20879,41.22404]},"properties":{"frp":3.24,"date":"2026-09-06","daynight":"N"}},{"type":"Feature","geometry":{"type":"Point","coordinates":[-83.20752,41.2277]},"properties":{"frp":0.58,"date":"2026-09-06","daynight":"N"}},{"type":"Feature","geometry":{"type":"Point","coordinates":[-84.92094,41.36815]},"properties":{"frp":2.47,"date":"2026-09-06","daynight":"N"}},{"type":"Feature","geometry":{"type":"Point","coordinates":[-84.91492,41.37194]},"properties":{"frp":2.47,"date":"2026-09-06","daynight":"N"}},{"type":"Feature","geometry":{"type":"Point","coordinates":[-84.92559,41.37291]},"properties":{"frp":1.89,"date":"2026-09-06","daynight":"N"}},{"type":"Feature","geometry":{"type":"Point","coordinates":[-81.67726,41.45139]},"properties":{"frp":4.48,"date":"2026-09-06","daynight":"N"}},{"type":"Feature","geometry":{"type":"Point","coordinates":[-81.6765,41.45504]},"properties":{"frp":4.48,"date":"2026-09-06","daynight":"N"}},{"type":"Feature","geometry":{"type":"Point","coordinates":[-81.67575,41.4587]},"properties":{"frp":4.06,"date":"2026-09-06","daynight":"N"}},{"type":"Feature","geometry":{"type":"Point","coordinates":[-81.675,41.46235]},"properties":{"frp":4.06,"date":"2026-09-06","daynight":"N"}},{"type":"Feature","geometry":{"type":"Point","coordinates":[-83.36713,41.46755]},"properties":{"frp":3.73,"date":"2026-09-06","daynight":"N"}},{"type":"Feature","geometry":{"type":"Point","coordinates":[-83.36742,41.47026]},"properties":{"frp":3.77,"date":"2026-09-06","daynight":"N"}},{"type":"Feature","geometry":{"type":"Point","coordinates":[-81.66699,41.47263]},"properties":{"frp":1.04,"date":"2026-09-06","daynight":"N"}},{"type":"Feature","geometry":{"type":"Point","coordinates":[-84.04582,41.56929]},"properties":{"frp":5.85,"date":"2026-09-06","daynight":"N"}},{"type":"Feature","geometry":{"type":"Point","coordinates":[-84.05556,41.57021]},"properties":{"frp":2.18,"date":"2026-09-06","daynight":"N"}},{"type":"Feature","geometry":{"type":"Point","coordinates":[-83.50439,41.63554]},"properties":{"frp":0.49,"date":"2026-09-06","daynight":"N"}},{"type":"Feature","geometry":{"type":"Point","coordinates":[-87.13865,41.63821]},"properties":{"frp":3.74,"date":"2026-09-06","daynight":"N"}},{"type":"Feature","geometry":{"type":"Point","coordinates":[-87.14576,41.63871]},"properties":{"frp":3.74,"date":"2026-09-06","daynight":"N"}},{"type":"Feature","geometry":{"type":"Point","coordinates":[-87.13107,41.64255]},"properties":{"frp":2.4,"date":"2026-09-06","daynight":"N"}},{"type":"Feature","geometry":{"type":"Point","coordinates":[-87.13812,41.64304]},"properties":{"frp":3.49,"date":"2026-09-06","daynight":"N"}},{"type":"Feature","geometry":{"type":"Point","coordinates":[-87.1452,41.64354]},"properties":{"frp":3.49,"date":"2026-09-06","daynight":"N"}},{"type":"Feature","geometry":{"type":"Point","coordinates":[-87.42336,41.67927]},"properties":{"frp":3.79,"date":"2026-09-06","daynight":"N"}},{"type":"Feature","geometry":{"type":"Point","coordinates":[-87.42188,41.68227]},"properties":{"frp":6.06,"date":"2026-09-06","daynight":"N"}},{"type":"Feature","geometry":{"type":"Point","coordinates":[-87.4228,41.68418]},"properties":{"frp":3.79,"date":"2026-09-06","daynight":"N"}},{"type":"Feature","geometry":{"type":"Point","coordinates":[-83.12904,42.27692]},"properties":{"frp":0.48,"date":"2026-09-06","daynight":"N"}},{"type":"Feature","geometry":{"type":"Point","coordinates":[-83.11382,42.28224]},"properties":{"frp":1.79,"date":"2026-09-06","daynight":"N"}},{"type":"Feature","geometry":{"type":"Point","coordinates":[-83.11395,42.28339]},"properties":{"frp":2.34,"date":"2026-09-06","daynight":"N"}},{"type":"Feature","geometry":{"type":"Point","coordinates":[-80.33021,35.50484]},"properties":{"frp":1.54,"date":"2026-09-06","daynight":"N"}},{"type":"Feature","geometry":{"type":"Point","coordinates":[-90.14976,38.69144]},"properties":{"frp":1.43,"date":"2026-09-06","daynight":"N"}},{"type":"Feature","geometry":{"type":"Point","coordinates":[-90.13411,38.69575]},"properties":{"frp":1.59,"date":"2026-09-06","daynight":"N"}},{"type":"Feature","geometry":{"type":"Point","coordinates":[-90.1387,38.69598]},"properties":{"frp":1.59,"date":"2026-09-06","daynight":"N"}},{"type":"Feature","geometry":{"type":"Point","coordinates":[-90.13542,38.69618]},"properties":{"frp":3.24,"date":"2026-09-06","daynight":"N"}},{"type":"Feature","geometry":{"type":"Point","coordinates":[-90.1433,38.69621]},"properties":{"frp":2.86,"date":"2026-09-06","daynight":"N"}},{"type":"Feature","geometry":{"type":"Point","coordinates":[-90.14001,38.69645]},"properties":{"frp":2.89,"date":"2026-09-06","daynight":"N"}},{"type":"Feature","geometry":{"type":"Point","coordinates":[-81.57439,32.32133]},"properties":{"frp":1.04,"date":"2026-09-06","daynight":"N"}},{"type":"Feature","geometry":{"type":"Point","coordinates":[-81.5786,32.32195]},"properties":{"frp":1.04,"date":"2026-09-06","daynight":"N"}},{"type":"Feature","geometry":{"type":"Point","coordinates":[-81.57372,32.32468]},"properties":{"frp":0.84,"date":"2026-09-06","daynight":"N"}},{"type":"Feature","geometry":{"type":"Point","coordinates":[-81.57792,32.32529]},"properties":{"frp":0.84,"date":"2026-09-06","daynight":"N"}},{"type":"Feature","geometry":{"type":"Point","coordinates":[-86.40793,32.95487]},"properties":{"frp":0.76,"date":"2026-09-06","daynight":"N"}},{"type":"Feature","geometry":{"type":"Point","coordinates":[-86.39811,32.95809]},"properties":{"frp":4.16,"date":"2026-09-06","daynight":"N"}},{"type":"Feature","geometry":{"type":"Point","coordinates":[-86.39734,32.96226]},"properties":{"frp":4.16,"date":"2026-09-06","daynight":"N"}},{"type":"Feature","geometry":{"type":"Point","coordinates":[-86.3967,32.96644]},"properties":{"frp":1.92,"date":"2026-09-06","daynight":"N"}},{"type":"Feature","geometry":{"type":"Point","coordinates":[-79.87617,33.00345]},"properties":{"frp":0.74,"date":"2026-09-06","daynight":"N"}},{"type":"Feature","geometry":{"type":"Point","coordinates":[-79.87952,33.00737]},"properties":{"frp":0.76,"date":"2026-09-06","daynight":"N"}},{"type":"Feature","geometry":{"type":"Point","coordinates":[-79.88359,33.00801]},"properties":{"frp":0.76,"date":"2026-09-06","daynight":"N"}},{"type":"Feature","geometry":{"type":"Point","coordinates":[-79.88621,33.01522]},"properties":{"frp":4.12,"date":"2026-09-06","daynight":"N"}},{"type":"Feature","geometry":{"type":"Point","coordinates":[-86.80448,33.09433]},"properties":{"frp":3.66,"date":"2026-09-06","daynight":"N"}},{"type":"Feature","geometry":{"type":"Point","coordinates":[-86.79775,33.10672]},"properties":{"frp":1.35,"date":"2026-09-06","daynight":"N"}},{"type":"Feature","geometry":{"type":"Point","coordinates":[-86.80263,33.10722]},"properties":{"frp":1.27,"date":"2026-09-06","daynight":"N"}},{"type":"Feature","geometry":{"type":"Point","coordinates":[-87.51453,33.22976]},"properties":{"frp":1.9,"date":"2026-09-06","daynight":"N"}},{"type":"Feature","geometry":{"type":"Point","coordinates":[-87.50852,33.23375]},"properties":{"frp":1.9,"date":"2026-09-06","daynight":"N"}},{"type":"Feature","geometry":{"type":"Point","coordinates":[-88.57055,33.43876]},"properties":{"frp":2.58,"date":"2026-09-06","daynight":"N"}},{"type":"Feature","geometry":{"type":"Point","coordinates":[-88.56991,33.44355]},"properties":{"frp":2.58,"date":"2026-09-06","daynight":"N"}},{"type":"Feature","geometry":{"type":"Point","coordinates":[-88.58167,33.44938]},"properties":{"frp":2.91,"date":"2026-09-06","daynight":"N"}},{"type":"Feature","geometry":{"type":"Point","coordinates":[-80.09079,33.77545]},"properties":{"frp":1.89,"date":"2026-09-06","daynight":"N"}},{"type":"Feature","geometry":{"type":"Point","coordinates":[-88.72904,33.9012]},"properties":{"frp":2.16,"date":"2026-09-06","daynight":"N"}},{"type":"Feature","geometry":{"type":"Point","coordinates":[-93.15851,33.90636]},"properties":{"frp":3.41,"date":"2026-09-06","daynight":"N"}},{"type":"Feature","geometry":{"type":"Point","coordinates":[-93.16,33.90851]},"properties":{"frp":6.14,"date":"2026-09-06","daynight":"N"}},{"type":"Feature","geometry":{"type":"Point","coordinates":[-93.15807,33.91262]},"properties":{"frp":3.41,"date":"2026-09-06","daynight":"N"}},{"type":"Feature","geometry":{"type":"Point","coordinates":[-79.56146,34.15301]},"properties":{"frp":1.03,"date":"2026-09-06","daynight":"N"}},{"type":"Feature","geometry":{"type":"Point","coordinates":[-79.88873,34.37748]},"properties":{"frp":1.0,"date":"2026-09-06","daynight":"N"}},{"type":"Feature","geometry":{"type":"Point","coordinates":[-90.60099,30.06135]},"properties":{"frp":0.89,"date":"2026-09-06","daynight":"N"}},{"type":"Feature","geometry":{"type":"Point","coordinates":[-90.59946,30.06591]},"properties":{"frp":1.76,"date":"2026-09-06","daynight":"N"}},{"type":"Feature","geometry":{"type":"Point","coordinates":[-90.6004,30.06656]},"properties":{"frp":0.89,"date":"2026-09-06","daynight":"N"}},{"type":"Feature","geometry":{"type":"Point","coordinates":[-88.01231,30.94328]},"properties":{"frp":4.33,"date":"2026-09-06","daynight":"N"}},{"type":"Feature","geometry":{"type":"Point","coordinates":[-88.01169,30.94778]},"properties":{"frp":1.32,"date":"2026-09-06","daynight":"N"}},{"type":"Feature","geometry":{"type":"Point","coordinates":[-87.98611,31.14965]},"properties":{"frp":4.64,"date":"2026-09-06","daynight":"N"}},{"type":"Feature","geometry":{"type":"Point","coordinates":[-87.99133,31.15016]},"properties":{"frp":2.93,"date":"2026-09-06","daynight":"N"}},{"type":"Feature","geometry":{"type":"Point","coordinates":[-86.37273,31.43777]},"properties":{"frp":2.3,"date":"2026-09-06","daynight":"N"}}]}