{"type":"FeatureCollection","features":[{"type":"Feature","geometry":{"type":"Point","coordinates":[-73.25212,45.8357]},"properties":{"frp":1.61,"date":"2026-09-14","daynight":"N"}},{"type":"Feature","geometry":{"type":"Point","coordinates":[-73.24864,45.83667]},"properties":{"frp":1.19,"date":"2026-09-14","daynight":"N"}},{"type":"Feature","geometry":{"type":"Point","coordinates":[-73.25639,45.83677]},"properties":{"frp":1.19,"date":"2026-09-14","daynight":"N"}},{"type":"Feature","geometry":{"type":"Point","coordinates":[-73.25211,45.8422]},"properties":{"frp":0.69,"date":"2026-09-14","daynight":"N"}},{"type":"Feature","geometry":{"type":"Point","coordinates":[-73.14568,46.04128]},"properties":{"frp":0.67,"date":"2026-09-14","daynight":"N"}},{"type":"Feature","geometry":{"type":"Point","coordinates":[-73.1424,46.04184]},"properties":{"frp":1.05,"date":"2026-09-14","daynight":"N"}},{"type":"Feature","geometry":{"type":"Point","coordinates":[-75.63846,39.59047]},"properties":{"frp":1.48,"date":"2026-09-14","daynight":"N"}},{"type":"Feature","geometry":{"type":"Point","coordinates":[-73.25232,45.83612]},"properties":{"frp":1.26,"date":"2026-09-14","daynight":"N"}},{"type":"Feature","geometry":{"type":"Point","coordinates":[-73.245,45.8389]},"properties":{"frp":0.96,"date":"2026-09-14","daynight":"N"}},{"type":"Feature","geometry":{"type":"Point","coordinates":[-73.25031,45.84016]},"properties":{"frp":1.26,"date":"2026-09-14","daynight":"N"}},{"type":"Feature","geometry":{"type":"Point","coordinates":[-73.14119,46.04378]},"properties":{"frp":1.59,"date":"2026-09-14","daynight":"N"}},{"type":"Feature","geometry":{"type":"Point","coordinates":[-81.04423,46.47787]},"properties":{"frp":0.65,"date":"2026-09-14","daynight":"N"}},{"type":"Feature","geometry":{"type":"Point","coordinates":[-81.03103,46.48607]},"properties":{"frp":2.26,"date":"2026-09-14","daynight":"N"}},{"type":"Feature","geometry":{"type":"Point","coordinates":[-81.02991,46.48933]},"properties":{"frp":6.32,"date":"2026-09-14","daynight":"N"}},{"type":"Feature","geometry":{"type":"Point","coordinates":[-79.02224,48.25088]},"properties":{"frp":2.95,"date":"2026-09-14","daynight":"N"}},{"type":"Feature","geometry":{"type":"Point","coordinates":[-79.02097,48.25416]},"properties":{"frp":2.95,"date":"2026-09-14","daynight":"N"}},{"type":"Feature","geometry":{"type":"Point","coordinates":[-80.10087,42.8019]},"properties":{"frp":2.08,"date":"2026-09-14","daynight":"N"}},{"type":"Feature","geometry":{"type":"Point","coordinates":[-80.10583,42.80281]},"properties":{"frp":2.06,"date":"2026-09-14","daynight":"N"}},{"type":"Feature","geometry":{"type":"Point","coordinates":[-80.09476,42.80437]},"properties":{"frp":1.66,"date":"2026-09-14","daynight":"N"}},{"type":"Feature","geometry":{"type":"Point","coordinates":[-80.09974,42.80527]},"properties":{"frp":1.66,"date":"2026-09-14","daynight":"N"}},{"type":"Feature","geometry":{"type":"Point","coordinates":[-80.09363,42.80773]},"properties":{"frp":1.66,"date":"2026-09-14","daynight":"N"}},{"type":"Feature","geometry":{"type":"Point","coordinates":[-80.09747,42.81202]},"properties":{"frp":0.93,"date":"2026-09-14","daynight":"N"}},{"type":"Feature","geometry":{"type":"Point","coordinates":[-80.09135,42.81447]},"properties":{"frp":0.93,"date":"2026-09-14","daynight":"N"}},{"type":"Feature","geometry":{"type":"Point","coordinates":[-80.09633,42.81538]},"properties":{"frp":0.93,"date":"2026-09-14","daynight":"N"}},{"type":"Feature","geometry":{"type":"Point","coordinates":[-80.09521,42.81875]},"properties":{"frp":0.9,"date":"2026-09-14","daynight":"N"}},{"type":"Feature","geometry":{"type":"Point","coordinates":[-79.80935,43.25995]},"properties":{"frp":0.4,"date":"2026-09-14","daynight":"N"}},{"type":"Feature","geometry":{"type":"Point","coordinates":[-79.80818,43.26332]},"properties":{"frp":2.34,"date":"2026-09-14","daynight":"N"}},{"type":"Feature","geometry":{"type":"Point","coordinates":[-79.80621,43.26499]},"properties":{"frp":1.98,"date":"2026-09-14","daynight":"N"}},{"type":"Feature","geometry":{"type":"Point","coordinates":[-79.80701,43.2667]},"properties":{"frp":2.34,"date":"2026-09-14","daynight":"N"}},{"type":"Feature","geometry":{"type":"Point","coordinates":[-79.80505,43.26837]},"properties":{"frp":1.98,"date":"2026-09-14","daynight":"N"}},{"type":"Feature","geometry":{"type":"Point","coordinates":[-79.80892,43.27268]},"properties":{"frp":1.02,"date":"2026-09-14","daynight":"N"}},{"type":"Feature","geometry":{"type":"Point","coordinates":[-79.79767,43.27418]},"properties":{"frp":5.04,"date":"2026-09-14","daynight":"N"}},{"type":"Feature","geometry":{"type":"Point","coordinates":[-79.8027,43.27512]},"properties":{"frp":1.02,"date":"2026-09-14","daynight":"N"}},{"type":"Feature","geometry":{"type":"Point","coordinates":[-79.98542,43.29197]},"properties":{"frp":1.72,"date":"2026-09-14","daynight":"N"}},{"type":"Feature","geometry":{"type":"Point","coordinates":[-79.62683,43.49144]},"properties":{"frp":0.47,"date":"2026-09-14","daynight":"N"}},{"type":"Feature","geometry":{"type":"Point","coordinates":[-98.25063,47.31293]},"properties":{"frp":0.83,"date":"2026-09-14","daynight":"N"}},{"type":"Feature","geometry":{"type":"Point","coordinates":[-97.12305,47.73651]},"properties":{"frp":1.43,"date":"2026-09-14","daynight":"N"}},{"type":"Feature","geometry":{"type":"Point","coordinates":[-97.12984,47.7366]},"properties":{"frp":1.9,"date":"2026-09-14","daynight":"N"}},{"type":"Feature","geometry":{"type":"Point","coordinates":[-97.12738,47.73751]},"properties":{"frp":1.62,"date":"2026-09-14","daynight":"N"}},{"type":"Feature","geometry":{"type":"Point","coordinates":[-79.87613,40.30341]},"properties":{"frp":1.87,"date":"2026-09-14","daynight":"N"}},{"type":"Feature","geometry":{"type":"Point","coordinates":[-79.87402,40.30545]},"properties":{"frp":0.79,"date":"2026-09-14","daynight":"N"}},{"type":"Feature","geometry":{"type":"Point","coordinates":[-79.87917,40.30646]},"properties":{"frp":1.49,"date":"2026-09-14","daynight":"N"}},{"type":"Feature","geometry":{"type":"Point","coordinates":[-79.85161,40.39031]},"properties":{"frp":2.84,"date":"2026-09-14","daynight":"N"}},{"type":"Feature","geometry":{"type":"Point","coordinates":[-79.85677,40.3913]},"properties":{"frp":2.84,"date":"2026-09-14","daynight":"N"}},{"type":"Feature","geometry":{"type":"Point","coordinates":[-79.86197,40.39229]},"properties":{"frp":2.19,"date":"2026-09-14","daynight":"N"}},{"type":"Feature","geometry":{"type":"Point","coordinates":[-79.85049,40.39381]},"properties":{"frp":2.84,"date":"2026-09-14","daynight":"N"}},{"type":"Feature","geometry":{"type":"Point","coordinates":[-81.44019,40.7528]},"properties":{"frp":3.24,"date":"2026-09-14","daynight":"N"}},{"type":"Feature","geometry":{"type":"Point","coordinates":[-81.43446,40.75531]},"properties":{"frp":0.84,"date":"2026-09-14","daynight":"N"}},{"type":"Feature","geometry":{"type":"Point","coordinates":[-81.43343,40.75864]},"properties":{"frp":0.84,"date":"2026-09-14","daynight":"N"}},{"type":"Feature","geometry":{"type":"Point","coordinates":[-87.34029,40.92645]},"properties":{"frp":1.98,"date":"2026-09-14","daynight":"N"}},{"type":"Feature","geometry":{"type":"Point","coordinates":[-87.33259,40.9365]},"properties":{"frp":0.54,"date":"2026-09-14","daynight":"N"}},{"type":"Feature","geometry":{"type":"Point","coordinates":[-85.35374,41.11774]},"properties":{"frp":1.45,"date":"2026-09-14","daynight":"N"}},{"type":"Feature","geometry":{"type":"Point","coordinates":[-85.35291,41.12111]},"properties":{"frp":1.45,"date":"2026-09-14","daynight":"N"}},{"type":"Feature","geometry":{"type":"Point","coordinates":[-85.34731,41.12381]},"properties":{"frp":1.17,"date":"2026-09-14","daynight":"N"}},{"type":"Feature","geometry":{"type":"Point","coordinates":[-80.69035,41.13061]},"properties":{"frp":0.79,"date":"2026-09-14","daynight":"N"}},{"type":"Feature","geometry":{"type":"Point","coordinates":[-80.68926,41.13399]},"properties":{"frp":0.2,"date":"2026-09-14","daynight":"N"}},{"type":"Feature","geometry":{"type":"Point","coordinates":[-80.69792,41.13916]},"properties":{"frp":0.82,"date":"2026-09-14","daynight":"N"}},{"type":"Feature","geometry":{"type":"Point","coordinates":[-87.85681,41.17854]},"properties":{"frp":1.99,"date":"2026-09-14","daynight":"N"}},{"type":"Feature","geometry":{"type":"Point","coordinates":[-87.85604,41.1822]},"properties":{"frp":0.73,"date":"2026-09-14","daynight":"N"}},{"type":"Feature","geometry":{"type":"Point","coordinates":[-80.81492,41.20689]},"properties":{"frp":0.83,"date":"2026-09-14","daynight":"N"}},{"type":"Feature","geometry":{"type":"Point","coordinates":[-84.91399,41.36899]},"properties":{"frp":0.82,"date":"2026-09-14","daynight":"N"}},{"type":"Feature","geometry":{"type":"Point","coordinates":[-84.91869,41.36967]},"properties":{"frp":0.82,"date":"2026-09-14","daynight":"N"}},{"type":"Feature","geometry":{"type":"Point","coordinates":[-84.92339,41.37035]},"properties":{"frp":1.37,"date":"2026-09-14","daynight":"N"}},{"type":"Feature","geometry":{"type":"Point","coordinates":[-88.18072,41.40823]},"properties":{"frp":1.63,"date":"2026-09-14","daynight":"N"}},{"type":"Feature","geometry":{"type":"Point","coordinates":[-88.17995,41.41195]},"properties":{"frp":1.93,"date":"2026-09-14","daynight":"N"}},{"type":"Feature","geometry":{"type":"Point","coordinates":[-81.67741,41.45125]},"properties":{"frp":0.91,"date":"2026-09-14","daynight":"N"}},{"type":"Feature","geometry":{"type":"Point","coordinates":[-81.67641,41.45456]},"properties":{"frp":1.23,"date":"2026-09-14","daynight":"N"}},{"type":"Feature","geometry":{"type":"Point","coordinates":[-81.67539,41.45787]},"properties":{"frp":1.23,"date":"2026-09-14","daynight":"N"}},{"type":"Feature","geometry":{"type":"Point","coordinates":[-81.68005,41.45868]},"properties":{"frp":1.72,"date":"2026-09-14","daynight":"N"}},{"type":"Feature","geometry":{"type":"Point","coordinates":[-81.67439,41.46118]},"properties":{"frp":1.73,"date":"2026-09-14","daynight":"N"}},{"type":"Feature","geometry":{"type":"Point","coordinates":[-83.36833,41.4616]},"properties":{"frp":1.07,"date":"2026-09-14","daynight":"N"}},{"type":"Feature","geometry":{"type":"Point","coordinates":[-81.67904,41.46198]},"properties":{"frp":0.98,"date":"2026-09-14","daynight":"N"}},{"type":"Feature","geometry":{"type":"Point","coordinates":[-81.67337,41.46449]},"properties":{"frp":1.73,"date":"2026-09-14","daynight":"N"}},{"type":"Feature","geometry":{"type":"Point","coordinates":[-83.36945,41.46765]},"properties":{"frp":1.65,"date":"2026-09-14","daynight":"N"}},{"type":"Feature","geometry":{"type":"Point","coordinates":[-84.05473,41.56762]},"properties":{"frp":0.91,"date":"2026-09-14","daynight":"N"}},{"type":"Feature","geometry":{"type":"Point","coordinates":[-84.04463,41.56952]},"properties":{"frp":2.36,"date":"2026-09-14","daynight":"N"}},{"type":"Feature","geometry":{"type":"Point","coordinates":[-84.04923,41.57021]},"properties":{"frp":0.91,"date":"2026-09-14","daynight":"N"}},{"type":"Feature","geometry":{"type":"Point","coordinates":[-84.05385,41.57091]},"properties":{"frp":0.91,"date":"2026-09-14","daynight":"N"}},{"type":"Feature","geometry":{"type":"Point","coordinates":[-87.32808,41.6114]},"properties":{"frp":2.83,"date":"2026-09-14","daynight":"N"}},{"type":"Feature","geometry":{"type":"Point","coordinates":[-87.32729,41.615]},"properties":{"frp":2.83,"date":"2026-09-14","daynight":"N"}},{"type":"Feature","geometry":{"type":"Point","coordinates":[-87.33203,41.61927]},"properties":{"frp":3.38,"date":"2026-09-14","daynight":"N"}},{"type":"Feature","geometry":{"type":"Point","coordinates":[-87.34865,41.62127]},"properties":{"frp":2.43,"date":"2026-09-14","daynight":"N"}},{"type":"Feature","geometry":{"type":"Point","coordinates":[-87.32575,41.6222]},"properties":{"frp":2.02,"date":"2026-09-14","daynight":"N"}},{"type":"Feature","geometry":{"type":"Point","coordinates":[-87.33127,41.62287]},"properties":{"frp":3.38,"date":"2026-09-14","daynight":"N"}},{"type":"Feature","geometry":{"type":"Point","coordinates":[-87.14494,41.6259]},"properties":{"frp":1.78,"date":"2026-09-14","daynight":"N"}},{"type":"Feature","geometry":{"type":"Point","coordinates":[-87.36449,41.62688]},"properties":{"frp":1.44,"date":"2026-09-14","daynight":"N"}},{"type":"Feature","geometry":{"type":"Point","coordinates":[-87.37004,41.62754]},"properties":{"frp":1.44,"date":"2026-09-14","daynight":"N"}},{"type":"Feature","geometry":{"type":"Point","coordinates":[-87.13713,41.63594]},"properties":{"frp":1.65,"date":"2026-09-14","daynight":"N"}},{"type":"Feature","geometry":{"type":"Point","coordinates":[-87.14259,41.63662]},"properties":{"frp":1.65,"date":"2026-09-14","daynight":"N"}},{"type":"Feature","geometry":{"type":"Point","coordinates":[-87.13091,41.63885]},"properties":{"frp":1.59,"date":"2026-09-14","daynight":"N"}},{"type":"Feature","geometry":{"type":"Point","coordinates":[-87.13636,41.63952]},"properties":{"frp":4.43,"date":"2026-09-14","daynight":"N"}},{"type":"Feature","geometry":{"type":"Point","coordinates":[-87.14182,41.6402]},"properties":{"frp":4.43,"date":"2026-09-14","daynight":"N"}},{"type":"Feature","geometry":{"type":"Point","coordinates":[-87.13559,41.6431]},"properties":{"frp":4.43,"date":"2026-09-14","daynight":"N"}},{"type":"Feature","geometry":{"type":"Point","coordinates":[-87.14105,41.64378]},"properties":{"frp":4.43,"date":"2026-09-14","daynight":"N"}},{"type":"Feature","geometry":{"type":"Point","coordinates":[-87.13483,41.64668]},"properties":{"frp":9.84,"date":"2026-09-14","daynight":"N"}},{"type":"Feature","geometry":{"type":"Point","coordinates":[-87.4257,41.66019]},"properties":{"frp":2.27,"date":"2026-09-14","daynight":"N"}},{"type":"Feature","geometry":{"type":"Point","coordinates":[-87.48237,41.66331]},"properties":{"frp":1.42,"date":"2026-09-14","daynight":"N"}},{"type":"Feature","geometry":{"type":"Point","coordinates":[-87.4249,41.66381]},"properties":{"frp":2.27,"date":"2026-09-14","daynight":"N"}},{"type":"Feature","geometry":{"type":"Point","coordinates":[-87.43047,41.66448]},"properties":{"frp":2.27,"date":"2026-09-14","daynight":"N"}},{"type":"Feature","geometry":{"type":"Point","coordinates":[-87.48158,41.66693]},"properties":{"frp":1.31,"date":"2026-09-14","daynight":"N"}},{"type":"Feature","geometry":{"type":"Point","coordinates":[-87.48719,41.66761]},"properties":{"frp":1.31,"date":"2026-09-14","daynight":"N"}},{"type":"Feature","geometry":{"type":"Point","coordinates":[-87.45762,41.67147]},"properties":{"frp":1.21,"date":"2026-09-14","daynight":"N"}},{"type":"Feature","geometry":{"type":"Point","coordinates":[-87.46323,41.67215]},"properties":{"frp":1.21,"date":"2026-09-14","daynight":"N"}},{"type":"Feature","geometry":{"type":"Point","coordinates":[-87.43374,41.67601]},"properties":{"frp":2.0,"date":"2026-09-14","daynight":"N"}},{"type":"Feature","geometry":{"type":"Point","coordinates":[-87.42178,41.67827]},"properties":{"frp":1.16,"date":"2026-09-14","daynight":"N"}},{"type":"Feature","geometry":{"type":"Point","coordinates":[-83.45531,41.67921]},"properties":{"frp":1.26,"date":"2026-09-14","daynight":"N"}},{"type":"Feature","geometry":{"type":"Point","coordinates":[-87.43295,41.67963]},"properties":{"frp":2.0,"date":"2026-09-14","daynight":"N"}},{"type":"Feature","geometry":{"type":"Point","coordinates":[-87.42101,41.68188]},"properties":{"frp":3.14,"date":"2026-09-14","daynight":"N"}},{"type":"Feature","geometry":{"type":"Point","coordinates":[-87.42659,41.68257]},"properties":{"frp":3.14,"date":"2026-09-14","daynight":"N"}},{"type":"Feature","geometry":{"type":"Point","coordinates":[-89.60708,41.77498]},"properties":{"frp":1.1,"date":"2026-09-14","daynight":"N"}},{"type":"Feature","geometry":{"type":"Point","coordinates":[-89.71749,41.786]},"properties":{"frp":1.0,"date":"2026-09-14","daynight":"N"}},{"type":"Feature","geometry":{"type":"Point","coordinates":[-83.12965,42.27821]},"properties":{"frp":0.75,"date":"2026-09-14","daynight":"N"}},{"type":"Feature","geometry":{"type":"Point","coordinates":[-83.10932,42.28186]},"properties":{"frp":1.57,"date":"2026-09-14","daynight":"N"}},{"type":"Feature","geometry":{"type":"Point","coordinates":[-83.11395,42.28259]},"properties":{"frp":1.2,"date":"2026-09-14","daynight":"N"}},{"type":"Feature","geometry":{"type":"Point","coordinates":[-85.99911,42.82055]},"properties":{"frp":1.44,"date":"2026-09-14","daynight":"N"}},{"type":"Feature","geometry":{"type":"Point","coordinates":[-85.99664,42.82083]},"properties":{"frp":1.35,"date":"2026-09-14","daynight":"N"}},{"type":"Feature","geometry":{"type":"Point","coordinates":[-82.41504,42.94439]},"properties":{"frp":0.66,"date":"2026-09-14","daynight":"N"}},{"type":"Feature","geometry":{"type":"Point","coordinates":[-82.41872,42.94843]},"properties":{"frp":0.66,"date":"2026-09-14","daynight":"N"}},{"type":"Feature","geometry":{"type":"Point","coordinates":[-82.41595,42.95088]},"properties":{"frp":0.6,"date":"2026-09-14","daynight":"N"}},{"type":"Feature","geometry":{"type":"Point","coordinates":[-80.33193,35.50599]},"properties":{"frp":1.47,"date":"2026-09-14","daynight":"N"}},{"type":"Feature","geometry":{"type":"Point","coordinates":[-83.95618,35.9772]},"properties":{"frp":1.18,"date":"2026-09-14","daynight":"N"}},{"type":"Feature","geometry":{"type":"Point","coordinates":[-83.95535,35.9805]},"properties":{"frp":2.0,"date":"2026-09-14","daynight":"N"}},{"type":"Feature","geometry":{"type":"Point","coordinates":[-78.38029,36.9283]},"properties":{"frp":1.18,"date":"2026-09-14","daynight":"N"}},{"type":"Feature","geometry":{"type":"Point","coordinates":[-84.11421,37.11663]},"properties":{"frp":1.02,"date":"2026-09-14","daynight":"N"}},{"type":"Feature","geometry":{"type":"Point","coordinates":[-84.11851,37.11733]},"properties":{"frp":1.35,"date":"2026-09-14","daynight":"N"}},{"type":"Feature","geometry":{"type":"Point","coordinates":[-77.44898,37.17843]},"properties":{"frp":1.33,"date":"2026-09-14","daynight":"N"}},{"type":"Feature","geometry":{"type":"Point","coordinates":[-77.44753,37.18254]},"properties":{"frp":1.33,"date":"2026-09-14","daynight":"N"}},{"type":"Feature","geometry":{"type":"Point","coordinates":[-82.03945,37.23234]},"properties":{"frp":1.15,"date":"2026-09-14","daynight":"N"}},{"type":"Feature","geometry":{"type":"Point","coordinates":[-82.0441,37.23318]},"properties":{"frp":1.15,"date":"2026-09-14","daynight":"N"}},{"type":"Feature","geometry":{"type":"Point","coordinates":[-82.03844,37.23573]},"properties":{"frp":0.59,"date":"2026-09-14","daynight":"N"}},{"type":"Feature","geometry":{"type":"Point","coordinates":[-82.83022,38.59563]},"properties":{"frp":0.58,"date":"2026-09-14","daynight":"N"}},{"type":"Feature","geometry":{"type":"Point","coordinates":[-82.83468,38.59639]},"properties":{"frp":0.62,"date":"2026-09-14","daynight":"N"}},{"type":"Feature","geometry":{"type":"Point","coordinates":[-82.82931,38.59894]},"properties":{"frp":0.6,"date":"2026-09-14","daynight":"N"}},{"type":"Feature","geometry":{"type":"Point","coordinates":[-83.67144,38.62028]},"properties":{"frp":0.54,"date":"2026-09-14","daynight":"N"}},{"type":"Feature","geometry":{"type":"Point","coordinates":[-83.67056,38.62356]},"properties":{"frp":1.48,"date":"2026-09-14","daynight":"N"}},{"type":"Feature","geometry":{"type":"Point","coordinates":[-84.99474,38.75689]},"properties":{"frp":2.24,"date":"2026-09-14","daynight":"N"}},{"type":"Feature","geometry":{"type":"Point","coordinates":[-84.99838,38.76087]},"properties":{"frp":1.26,"date":"2026-09-14","daynight":"N"}},{"type":"Feature","geometry":{"type":"Point","coordinates":[-84.99759,38.76418]},"properties":{"frp":0.62,"date":"2026-09-14","daynight":"N"}},{"type":"Feature","geometry":{"type":"Point","coordinates":[-84.23823,38.83349]},"properties":{"frp":1.76,"date":"2026-09-14","daynight":"N"}},{"type":"Feature","geometry":{"type":"Point","coordinates":[-84.24261,38.83418]},"properties":{"frp":1.27,"date":"2026-09-14","daynight":"N"}},{"type":"Feature","geometry":{"type":"Point","coordinates":[-84.23738,38.83678]},"properties":{"frp":2.09,"date":"2026-09-14","daynight":"N"}},{"type":"Feature","geometry":{"type":"Point","coordinates":[-84.24177,38.83747]},"properties":{"frp":1.39,"date":"2026-09-14","daynight":"N"}},{"type":"Feature","geometry":{"type":"Point","coordinates":[-87.71961,38.98876]},"properties":{"frp":0.43,"date":"2026-09-14","daynight":"N"}},{"type":"Feature","geometry":{"type":"Point","coordinates":[-87.71888,38.99231]},"properties":{"frp":0.47,"date":"2026-09-14","daynight":"N"}},{"type":"Feature","geometry":{"type":"Point","coordinates":[-84.38567,39.47105]},"properties":{"frp":0.6,"date":"2026-09-14","daynight":"N"}},{"type":"Feature","geometry":{"type":"Point","coordinates":[-84.39899,39.4731]},"properties":{"frp":0.71,"date":"2026-09-14","daynight":"N"}},{"type":"Feature","geometry":{"type":"Point","coordinates":[-84.40343,39.47379]},"properties":{"frp":0.89,"date":"2026-09-14","daynight":"N"}},{"type":"Feature","geometry":{"type":"Point","coordinates":[-84.36366,39.48476]},"properties":{"frp":0.36,"date":"2026-09-14","daynight":"N"}},{"type":"Feature","geometry":{"type":"Point","coordinates":[-84.36282,39.48806]},"properties":{"frp":0.35,"date":"2026-09-14","daynight":"N"}},{"type":"Feature","geometry":{"type":"Point","coordinates":[-86.83271,39.97376]},"properties":{"frp":0.96,"date":"2026-09-14","daynight":"N"}},{"type":"Feature","geometry":{"type":"Point","coordinates":[-86.83772,39.97442]},"properties":{"frp":6.4,"date":"2026-09-14","daynight":"N"}},{"type":"Feature","geometry":{"type":"Point","coordinates":[-86.83193,39.97725]},"properties":{"frp":0.98,"date":"2026-09-14","daynight":"N"}},{"type":"Feature","geometry":{"type":"Point","coordinates":[-86.83694,39.9779]},"properties":{"frp":2.41,"date":"2026-09-14","daynight":"N"}},{"type":"Feature","geometry":{"type":"Point","coordinates":[-80.41167,33.04067]},"properties":{"frp":1.29,"date":"2026-09-14","daynight":"N"}},{"type":"Feature","geometry":{"type":"Point","coordinates":[-80.41019,33.04356]},"properties":{"frp":1.42,"date":"2026-09-14","daynight":"N"}},{"type":"Feature","geometry":{"type":"Point","coordinates":[-80.41058,33.04453]},"properties":{"frp":0.61,"date":"2026-09-14","daynight":"N"}},{"type":"Feature","geometry":{"type":"Point","coordinates":[-87.08217,34.63687]},"properties":{"frp":1.21,"date":"2026-09-14","daynight":"N"}},{"type":"Feature","geometry":{"type":"Point","coordinates":[-87.08649,34.6375]},"properties":{"frp":1.58,"date":"2026-09-14","daynight":"N"}},{"type":"Feature","geometry":{"type":"Point","coordinates":[-87.08146,34.64023]},"properties":{"frp":1.21,"date":"2026-09-14","daynight":"N"}},{"type":"Feature","geometry":{"type":"Point","coordinates":[-87.08579,34.64086]},"properties":{"frp":1.58,"date":"2026-09-14","daynight":"N"}},{"type":"Feature","geometry":{"type":"Point","coordinates":[-87.09013,34.64149]},"properties":{"frp":1.58,"date":"2026-09-14","daynight":"N"}},{"type":"Feature","geometry":{"type":"Point","coordinates":[-87.08437,34.64758]},"properties":{"frp":1.2,"date":"2026-09-14","daynight":"N"}},{"type":"Feature","geometry":{"type":"Point","coordinates":[-87.08633,34.64856]},"properties":{"frp":0.78,"date":"2026-09-14","daynight":"N"}},{"type":"Feature","geometry":{"type":"Point","coordinates":[-98.23789,35.33162]},"properties":{"frp":1.49,"date":"2026-09-14","daynight":"N"}},{"type":"Feature","geometry":{"type":"Point","coordinates":[-98.24335,35.33188]},"properties":{"frp":1.49,"date":"2026-09-14","daynight":"N"}},{"type":"Feature","geometry":{"type":"Point","coordinates":[-98.23729,35.3376]},"properties":{"frp":1.49,"date":"2026-09-14","daynight":"N"}},{"type":"Feature","geometry":{"type":"Point","coordinates":[-98.24282,35.33787]},"properties":{"frp":1.49,"date":"2026-09-14","daynight":"N"}},{"type":"Feature","geometry":{"type":"Point","coordinates":[-98.24828,35.33814]},"properties":{"frp":4.33,"date":"2026-09-14","daynight":"N"}},{"type":"Feature","geometry":{"type":"Point","coordinates":[-98.23671,35.34359]},"properties":{"frp":2.02,"date":"2026-09-14","daynight":"N"}},{"type":"Feature","geometry":{"type":"Point","coordinates":[-98.24219,35.34386]},"properties":{"frp":2.02,"date":"2026-09-14","daynight":"N"}},{"type":"Feature","geometry":{"type":"Point","coordinates":[-98.24762,35.34412]},"properties":{"frp":2.23,"date":"2026-09-14","daynight":"N"}},{"type":"Feature","geometry":{"type":"Point","coordinates":[-98.25296,35.34439]},"properties":{"frp":2.23,"date":"2026-09-14","daynight":"N"}},{"type":"Feature","geometry":{"type":"Point","coordinates":[-98.23606,35.34958]},"properties":{"frp":2.02,"date":"2026-09-14","daynight":"N"}},{"type":"Feature","geometry":{"type":"Point","coordinates":[-98.24152,35.34985]},"properties":{"frp":2.02,"date":"2026-09-14","daynight":"N"}},{"type":"Feature","geometry":{"type":"Point","coordinates":[-98.24699,35.35012]},"properties":{"frp":2.23,"date":"2026-09-14","daynight":"N"}},{"type":"Feature","geometry":{"type":"Point","coordinates":[-98.2523,35.35038]},"properties":{"frp":2.23,"date":"2026-09-14","daynight":"N"}},{"type":"Feature","geometry":{"type":"Point","coordinates":[-98.24086,35.35583]},"properties":{"frp":1.75,"date":"2026-09-14","daynight":"N"}},{"type":"Feature","geometry":{"type":"Point","coordinates":[-98.24632,35.3561]},"properties":{"frp":2.31,"date":"2026-09-14","daynight":"N"}},{"type":"Feature","geometry":{"type":"Point","coordinates":[-98.25165,35.35637]},"properties":{"frp":2.31,"date":"2026-09-14","daynight":"N"}},{"type":"Feature","geometry":{"type":"Point","coordinates":[-98.25701,35.35663]},"properties":{"frp":2.67,"date":"2026-09-14","daynight":"N"}},{"type":"Feature","geometry":{"type":"Point","coordinates":[-98.24027,35.36182]},"properties":{"frp":1.75,"date":"2026-09-14","daynight":"N"}},{"type":"Feature","geometry":{"type":"Point","coordinates":[-98.24567,35.36208]},"properties":{"frp":2.31,"date":"2026-09-14","daynight":"N"}},{"type":"Feature","geometry":{"type":"Point","coordinates":[-98.251,35.36235]},"properties":{"frp":2.31,"date":"2026-09-14","daynight":"N"}},{"type":"Feature","geometry":{"type":"Point","coordinates":[-98.25636,35.36262]},"properties":{"frp":2.67,"date":"2026-09-14","daynight":"N"}},{"type":"Feature","geometry":{"type":"Point","coordinates":[-98.26176,35.36289]},"properties":{"frp":2.67,"date":"2026-09-14","daynight":"N"}},{"type":"Feature","geometry":{"type":"Point","coordinates":[-98.26122,35.36889]},"properties":{"frp":2.92,"date":"2026-09-14","daynight":"N"}},{"type":"Feature","geometry":{"type":"Point","coordinates":[-89.94488,35.60981]},"properties":{"frp":6.28,"date":"2026-09-14","daynight":"N"}},{"type":"Feature","geometry":{"type":"Point","coordinates":[-89.95049,35.61047]},"properties":{"frp":2.77,"date":"2026-09-14","daynight":"N"}},{"type":"Feature","geometry":{"type":"Point","coordinates":[-89.93257,35.64688]},"properties":{"frp":5.62,"date":"2026-09-14","daynight":"N"}},{"type":"Feature","geometry":{"type":"Point","coordinates":[-88.80861,35.7265]},"properties":{"frp":1.56,"date":"2026-09-14","daynight":"N"}},{"type":"Feature","geometry":{"type":"Point","coordinates":[-91.74709,35.7942]},"properties":{"frp":1.85,"date":"2026-09-14","daynight":"N"}},{"type":"Feature","geometry":{"type":"Point","coordinates":[-89.71223,35.93464]},"properties":{"frp":3.1,"date":"2026-09-14","daynight":"N"}},{"type":"Feature","geometry":{"type":"Point","coordinates":[-89.71572,35.94654]},"properties":{"frp":1.58,"date":"2026-09-14","daynight":"N"}},{"type":"Feature","geometry":{"type":"Point","coordinates":[-95.81241,36.19511]},"properties":{"frp":1.13,"date":"2026-09-14","daynight":"N"}},{"type":"Feature","geometry":{"type":"Point","coordinates":[-97.83936,36.51731]},"properties":{"frp":0.68,"date":"2026-09-14","daynight":"N"}},{"type":"Feature","geometry":{"type":"Point","coordinates":[-97.83894,36.5202]},"properties":{"frp":1.4,"date":"2026-09-14","daynight":"N"}},{"type":"Feature","geometry":{"type":"Point","coordinates":[-88.48627,30.34283]},"properties":{"frp":2.66,"date":"2026-09-14","daynight":"N"}},{"type":"Feature","geometry":{"type":"Point","coordinates":[-101.69781,31.72483]},"properties":{"frp":2.85,"date":"2026-09-14","daynight":"N"}},{"type":"Feature","geometry":{"type":"Point","coordinates":[-101.69442,31.72705]},"properties":{"frp":2.31,"date":"2026-09-14","daynight":"N"}},{"type":"Feature","geometry":{"type":"Point","coordinates":[-101.70206,31.72736]},"properties":{"frp":3.79,"date":"2026-09-14","daynight":"N"}},{"type":"Feature","geometry":{"type":"Point","coordinates":[-101.69739,31.73184]},"properties":{"frp":2.85,"date":"2026-09-14","daynight":"N"}},{"type":"Feature","geometry":{"type":"Point","coordinates":[-102.10386,31.79556]},"properties":{"frp":0.71,"date":"2026-09-14","daynight":"N"}},{"type":"Feature","geometry":{"type":"Point","coordinates":[-102.05038,31.79712]},"properties":{"frp":2.38,"date":"2026-09-14","daynight":"N"}},{"type":"Feature","geometry":{"type":"Point","coordinates":[-102.05576,31.80106]},"properties":{"frp":1.75,"date":"2026-09-14","daynight":"N"}},{"type":"Feature","geometry":{"type":"Point","coordinates":[-101.7943,31.83877]},"properties":{"frp":1.51,"date":"2026-09-14","daynight":"N"}},{"type":"Feature","geometry":{"type":"Point","coordinates":[-101.79227,31.84096]},"properties":{"frp":2.38,"date":"2026-09-14","daynight":"N"}},{"type":"Feature","geometry":{"type":"Point","coordinates":[-101.80002,31.84127]},"properties":{"frp":2.86,"date":"2026-09-14","daynight":"N"}},{"type":"Feature","geometry":{"type":"Point","coordinates":[-101.79388,31.84581]},"properties":{"frp":2.11,"date":"2026-09-14","daynight":"N"}},{"type":"Feature","geometry":{"type":"Point","coordinates":[-73.24635,45.83832]},"properties":{"frp":1.46,"date":"2026-09-14","daynight":"N"}},{"type":"Feature","geometry":{"type":"Point","coordinates":[-73.25364,45.8388]},"properties":{"frp":1.46,"date":"2026-09-14","daynight":"N"}},{"type":"Feature","geometry":{"type":"Point","coordinates":[-73.14076,46.04317]},"properties":{"frp":1.24,"date":"2026-09-14","daynight":"N"}},{"type":"Feature","geometry":{"type":"Point","coordinates":[-80.10864,42.80065]},"properties":{"frp":1.78,"date":"2026-09-14","daynight":"N"}},{"type":"Feature","geometry":{"type":"Point","coordinates":[-80.09576,42.80687]},"properties":{"frp":1.48,"date":"2026-09-14","daynight":"N"}},{"type":"Feature","geometry":{"type":"Point","coordinates":[-80.10306,42.80696]},"properties":{"frp":1.48,"date":"2026-09-14","daynight":"N"}},{"type":"Feature","geometry":{"type":"Point","coordinates":[-80.10107,42.807]},"properties":{"frp":2.54,"date":"2026-09-14","daynight":"N"}},{"type":"Feature","geometry":{"type":"Point","coordinates":[-80.09546,42.81334]},"properties":{"frp":1.48,"date":"2026-09-14","daynight":"N"}},{"type":"Feature","geometry":{"type":"Point","coordinates":[-80.10271,42.81344]},"properties":{"frp":1.48,"date":"2026-09-14","daynight":"N"}},{"type":"Feature","geometry":{"type":"Point","coordinates":[-80.10076,42.81347]},"properties":{"frp":2.54,"date":"2026-09-14","daynight":"N"}},{"type":"Feature","geometry":{"type":"Point","coordinates":[-80.09328,42.81981]},"properties":{"frp":1.25,"date":"2026-09-14","daynight":"N"}},{"type":"Feature","geometry":{"type":"Point","coordinates":[-80.09516,42.81982]},"properties":{"frp":1.95,"date":"2026-09-14","daynight":"N"}},{"type":"Feature","geometry":{"type":"Point","coordinates":[-79.81354,43.26288]},"properties":{"frp":3.0,"date":"2026-09-14","daynight":"N"}},{"type":"Feature","geometry":{"type":"Point","coordinates":[-79.79911,43.26905]},"properties":{"frp":0.97,"date":"2026-09-14","daynight":"N"}},{"type":"Feature","geometry":{"type":"Point","coordinates":[-79.80616,43.26917]},"properties":{"frp":0.97,"date":"2026-09-14","daynight":"N"}},{"type":"Feature","geometry":{"type":"Point","coordinates":[-79.79889,43.27546]},"properties":{"frp":0.97,"date":"2026-09-14","daynight":"N"}},{"type":"Feature","geometry":{"type":"Point","coordinates":[-79.80593,43.27557]},"properties":{"frp":0.97,"date":"2026-09-14","daynight":"N"}},{"type":"Feature","geometry":{"type":"Point","coordinates":[-79.98767,43.29139]},"properties":{"frp":1.01,"date":"2026-09-14","daynight":"N"}},{"type":"Feature","geometry":{"type":"Point","coordinates":[-79.62846,43.4929]},"properties":{"frp":0.81,"date":"2026-09-14","daynight":"N"}},{"type":"Feature","geometry":{"type":"Point","coordinates":[-76.80509,44.16703]},"properties":{"frp":1.37,"date":"2026-09-14","daynight":"N"}},{"type":"Feature","geometry":{"type":"Point","coordinates":[-76.80306,44.16858]},"properties":{"frp":0.59,"date":"2026-09-14","daynight":"N"}},{"type":"Feature","geometry":{"type":"Point","coordinates":[-77.17481,39.56094]},"properties":{"frp":0.63,"date":"2026-09-14","daynight":"N"}},{"type":"Feature","geometry":{"type":"Point","coordinates":[-80.33189,35.50494]},"properties":{"frp":1.17,"date":"2026-09-14","daynight":"N"}},{"type":"Feature","geometry":{"type":"Point","coordinates":[-80.33508,35.5085]},"properties":{"frp":0.72,"date":"2026-09-14","daynight":"N"}},{"type":"Feature","geometry":{"type":"Point","coordinates":[-78.38051,36.93013]},"properties":{"frp":1.17,"date":"2026-09-14","daynight":"N"}},{"type":"Feature","geometry":{"type":"Point","coordinates":[-82.04175,37.23561]},"properties":{"frp":1.27,"date":"2026-09-14","daynight":"N"}},{"type":"Feature","geometry":{"type":"Point","coordinates":[-82.03938,37.23595]},"properties":{"frp":1.29,"date":"2026-09-14","daynight":"N"}},{"type":"Feature","geometry":{"type":"Point","coordinates":[-73.25099,45.83654]},"properties":{"frp":2.83,"date":"2026-09-14","daynight":"N"}},{"type":"Feature","geometry":{"type":"Point","coordinates":[-73.24773,45.8395]},"properties":{"frp":4.02,"date":"2026-09-14","daynight":"N"}},{"type":"Feature","geometry":{"type":"Point","coordinates":[-73.2527,45.84103]},"properties":{"frp":3.06,"date":"2026-09-14","daynight":"N"}},{"type":"Feature","geometry":{"type":"Point","coordinates":[-73.24767,45.84175]},"properties":{"frp":2.83,"date":"2026-09-14","daynight":"N"}},{"type":"Feature","geometry":{"type":"Point","coordinates":[-73.14232,46.04163]},"properties":{"frp":0.71,"date":"2026-09-14","daynight":"N"}},{"type":"Feature","geometry":{"type":"Point","coordinates":[-73.1387,46.04465]},"properties":{"frp":1.1,"date":"2026-09-14","daynight":"N"}},{"type":"Feature","geometry":{"type":"Point","coordinates":[-79.02215,48.25248]},"properties":{"frp":3.23,"date":"2026-09-14","daynight":"N"}},{"type":"Feature","geometry":{"type":"Point","coordinates":[-76.80254,44.16895]},"properties":{"frp":0.62,"date":"2026-09-14","daynight":"N"}},{"type":"Feature","geometry":{"type":"Point","coordinates":[-81.02778,46.48822]},"properties":{"frp":3.16,"date":"2026-09-14","daynight":"N"}},{"type":"Feature","geometry":{"type":"Point","coordinates":[-98.24834,47.3157]},"properties":{"frp":1.49,"date":"2026-09-14","daynight":"N"}},{"type":"Feature","geometry":{"type":"Point","coordinates":[-98.24838,47.31688]},"properties":{"frp":1.1,"date":"2026-09-14","daynight":"N"}},{"type":"Feature","geometry":{"type":"Point","coordinates":[-97.12434,47.74021]},"properties":{"frp":2.28,"date":"2026-09-14","daynight":"N"}},{"type":"Feature","geometry":{"type":"Point","coordinates":[-77.17397,39.5596]},"properties":{"frp":1.65,"date":"2026-09-14","daynight":"N"}},{"type":"Feature","geometry":{"type":"Point","coordinates":[-77.16931,39.56269]},"properties":{"frp":1.92,"date":"2026-09-14","daynight":"N"}},{"type":"Feature","geometry":{"type":"Point","coordinates":[-75.63743,39.58698]},"properties":{"frp":0.79,"date":"2026-09-14","daynight":"N"}},{"type":"Feature","geometry":{"type":"Point","coordinates":[-75.63519,39.59024]},"properties":{"frp":2.55,"date":"2026-09-14","daynight":"N"}},{"type":"Feature","geometry":{"type":"Point","coordinates":[-75.63452,39.59265]},"properties":{"frp":1.07,"date":"2026-09-14","daynight":"N"}},{"type":"Feature","geometry":{"type":"Point","coordinates":[-79.84946,40.39162]},"properties":{"frp":1.78,"date":"2026-09-14","daynight":"N"}},{"type":"Feature","geometry":{"type":"Point","coordinates":[-79.84921,40.39222]},"properties":{"frp":4.13,"date":"2026-09-14","daynight":"N"}},{"type":"Feature","geometry":{"type":"Point","coordinates":[-79.8625,40.39498]},"properties":{"frp":2.75,"date":"2026-09-14","daynight":"N"}},{"type":"Feature","geometry":{"type":"Point","coordinates":[-79.8623,40.3955]},"properties":{"frp":3.38,"date":"2026-09-14","daynight":"N"}},{"type":"Feature","geometry":{"type":"Point","coordinates":[-79.85432,40.39801]},"properties":{"frp":2.75,"date":"2026-09-14","daynight":"N"}},{"type":"Feature","geometry":{"type":"Point","coordinates":[-81.43872,40.7542]},"properties":{"frp":2.54,"date":"2026-09-14","daynight":"N"}},{"type":"Feature","geometry":{"type":"Point","coordinates":[-81.43147,40.75716]},"properties":{"frp":0.87,"date":"2026-09-14","daynight":"N"}},{"type":"Feature","geometry":{"type":"Point","coordinates":[-85.35232,41.11973]},"properties":{"frp":4.36,"date":"2026-09-14","daynight":"N"}},{"type":"Feature","geometry":{"type":"Point","coordinates":[-85.34433,41.12576]},"properties":{"frp":1.52,"date":"2026-09-14","daynight":"N"}},{"type":"Feature","geometry":{"type":"Point","coordinates":[-80.68867,41.13043]},"properties":{"frp":1.19,"date":"2026-09-14","daynight":"N"}},{"type":"Feature","geometry":{"type":"Point","coordinates":[-80.69456,41.13186]},"properties":{"frp":1.16,"date":"2026-09-14","daynight":"N"}},{"type":"Feature","geometry":{"type":"Point","coordinates":[-80.8149,41.20637]},"properties":{"frp":0.58,"date":"2026-09-14","daynight":"N"}},{"type":"Feature","geometry":{"type":"Point","coordinates":[-80.81305,41.2107]},"properties":{"frp":0.58,"date":"2026-09-14","daynight":"N"}},{"type":"Feature","geometry":{"type":"Point","coordinates":[-84.91904,41.36864]},"properties":{"frp":1.39,"date":"2026-09-14","daynight":"N"}},{"type":"Feature","geometry":{"type":"Point","coordinates":[-84.91777,41.37225]},"properties":{"frp":1.39,"date":"2026-09-14","daynight":"N"}},{"type":"Feature","geometry":{"type":"Point","coordinates":[-84.92345,41.37341]},"properties":{"frp":1.42,"date":"2026-09-14","daynight":"N"}},{"type":"Feature","geometry":{"type":"Point","coordinates":[-83.3663,41.46999]},"properties":{"frp":3.28,"date":"2026-09-14","daynight":"N"}},{"type":"Feature","geometry":{"type":"Point","coordinates":[-84.05563,41.56725]},"properties":{"frp":1.28,"date":"2026-09-14","daynight":"N"}},{"type":"Feature","geometry":{"type":"Point","coordinates":[-84.04198,41.56841]},"properties":{"frp":2.46,"date":"2026-09-14","daynight":"N"}},{"type":"Feature","geometry":{"type":"Point","coordinates":[-84.04813,41.56969]},"properties":{"frp":2.46,"date":"2026-09-14","daynight":"N"}},{"type":"Feature","geometry":{"type":"Point","coordinates":[-84.05425,41.57097]},"properties":{"frp":1.06,"date":"2026-09-14","daynight":"N"}},{"type":"Feature","geometry":{"type":"Point","coordinates":[-87.32595,41.61269]},"properties":{"frp":1.05,"date":"2026-09-14","daynight":"N"}},{"type":"Feature","geometry":{"type":"Point","coordinates":[-87.32487,41.61603]},"properties":{"frp":2.52,"date":"2026-09-14","daynight":"N"}},{"type":"Feature","geometry":{"type":"Point","coordinates":[-87.32864,41.62025]},"properties":{"frp":5.71,"date":"2026-09-14","daynight":"N"}},{"type":"Feature","geometry":{"type":"Point","coordinates":[-87.33825,41.62198]},"properties":{"frp":0.64,"date":"2026-09-14","daynight":"N"}},{"type":"Feature","geometry":{"type":"Point","coordinates":[-87.34306,41.62284]},"properties":{"frp":0.64,"date":"2026-09-14","daynight":"N"}},{"type":"Feature","geometry":{"type":"Point","coordinates":[-87.32755,41.62358]},"properties":{"frp":2.78,"date":"2026-09-14","daynight":"N"}},{"type":"Feature","geometry":{"type":"Point","coordinates":[-87.34788,41.62371]},"properties":{"frp":1.14,"date":"2026-09-14","daynight":"N"}},{"type":"Feature","geometry":{"type":"Point","coordinates":[-87.14255,41.6257]},"properties":{"frp":1.56,"date":"2026-09-14","daynight":"N"}},{"type":"Feature","geometry":{"type":"Point","coordinates":[-87.36711,41.62717]},"properties":{"frp":1.96,"date":"2026-09-14","daynight":"N"}},{"type":"Feature","geometry":{"type":"Point","coordinates":[-87.12957,41.63402]},"properties":{"frp":1.18,"date":"2026-09-14","daynight":"N"}},{"type":"Feature","geometry":{"type":"Point","coordinates":[-87.1393,41.63577]},"properties":{"frp":1.15,"date":"2026-09-14","daynight":"N"}},{"type":"Feature","geometry":{"type":"Point","coordinates":[-87.13821,41.63913]},"properties":{"frp":3.34,"date":"2026-09-14","daynight":"N"}},{"type":"Feature","geometry":{"type":"Point","coordinates":[-87.14307,41.64001]},"properties":{"frp":3.34,"date":"2026-09-14","daynight":"N"}},{"type":"Feature","geometry":{"type":"Point","coordinates":[-87.12991,41.64125]},"properties":{"frp":2.56,"date":"2026-09-14","daynight":"N"}},{"type":"Feature","geometry":{"type":"Point","coordinates":[-87.13226,41.64161]},"properties":{"frp":5.06,"date":"2026-09-14","daynight":"N"}},{"type":"Feature","geometry":{"type":"Point","coordinates":[-87.13477,41.64214]},"properties":{"frp":2.56,"date":"2026-09-14","daynight":"N"}},{"type":"Feature","geometry":{"type":"Point","coordinates":[-87.13712,41.64249]},"properties":{"frp":3.34,"date":"2026-09-14","daynight":"N"}},{"type":"Feature","geometry":{"type":"Point","coordinates":[-87.14197,41.64336]},"properties":{"frp":3.34,"date":"2026-09-14","daynight":"N"}},{"type":"Feature","geometry":{"type":"Point","coordinates":[-87.13367,41.6455]},"properties":{"frp":2.56,"date":"2026-09-14","daynight":"N"}},{"type":"Feature","geometry":{"type":"Point","coordinates":[-87.4221,41.66172]},"properties":{"frp":0.97,"date":"2026-09-14","daynight":"N"}},{"type":"Feature","geometry":{"type":"Point","coordinates":[-87.42691,41.66257]},"properties":{"frp":1.45,"date":"2026-09-14","daynight":"N"}},{"type":"Feature","geometry":{"type":"Point","coordinates":[-87.4317,41.66343]},"properties":{"frp":1.45,"date":"2026-09-14","daynight":"N"}},{"type":"Feature","geometry":{"type":"Point","coordinates":[-87.42104,41.66505]},"properties":{"frp":0.97,"date":"2026-09-14","daynight":"N"}},{"type":"Feature","geometry":{"type":"Point","coordinates":[-87.48169,41.66529]},"properties":{"frp":2.7,"date":"2026-09-14","daynight":"N"}},{"type":"Feature","geometry":{"type":"Point","coordinates":[-87.42584,41.66591]},"properties":{"frp":1.45,"date":"2026-09-14","daynight":"N"}},{"type":"Feature","geometry":{"type":"Point","coordinates":[-87.48542,41.66948]},"properties":{"frp":1.19,"date":"2026-09-14","daynight":"N"}},{"type":"Feature","geometry":{"type":"Point","coordinates":[-87.46417,41.67274]},"properties":{"frp":4.44,"date":"2026-09-14","daynight":"N"}},{"type":"Feature","geometry":{"type":"Point","coordinates":[-87.48436,41.67281]},"properties":{"frp":0.51,"date":"2026-09-14","daynight":"N"}},{"type":"Feature","geometry":{"type":"Point","coordinates":[-87.43225,41.67763]},"properties":{"frp":3.12,"date":"2026-09-14","daynight":"N"}},{"type":"Feature","geometry":{"type":"Point","coordinates":[-87.4168,41.67841]},"properties":{"frp":1.87,"date":"2026-09-14","daynight":"N"}},{"type":"Feature","geometry":{"type":"Point","coordinates":[-83.45506,41.67929]},"properties":{"frp":1.14,"date":"2026-09-14","daynight":"N"}},{"type":"Feature","geometry":{"type":"Point","coordinates":[-83.45544,41.67933]},"properties":{"frp":0.98,"date":"2026-09-14","daynight":"N"}},{"type":"Feature","geometry":{"type":"Point","coordinates":[-87.42053,41.68259]},"properties":{"frp":2.67,"date":"2026-09-14","daynight":"N"}},{"type":"Feature","geometry":{"type":"Point","coordinates":[-87.42532,41.68344]},"properties":{"frp":2.67,"date":"2026-09-14","daynight":"N"}},{"type":"Feature","geometry":{"type":"Point","coordinates":[-83.35133,41.89206]},"properties":{"frp":1.36,"date":"2026-09-14","daynight":"N"}},{"type":"Feature","geometry":{"type":"Point","coordinates":[-83.35761,41.89342]},"properties":{"frp":3.26,"date":"2026-09-14","daynight":"N"}},{"type":"Feature","geometry":{"type":"Point","coordinates":[-83.35782,41.89345]},"properties":{"frp":2.57,"date":"2026-09-14","daynight":"N"}},{"type":"Feature","geometry":{"type":"Point","coordinates":[-83.12951,42.27745]},"properties":{"frp":0.83,"date":"2026-09-14","daynight":"N"}},{"type":"Feature","geometry":{"type":"Point","coordinates":[-83.12959,42.2777]},"properties":{"frp":0.67,"date":"2026-09-14","daynight":"N"}},{"type":"Feature","geometry":{"type":"Point","coordinates":[-83.11343,42.2822]},"properties":{"frp":1.34,"date":"2026-09-14","daynight":"N"}},{"type":"Feature","geometry":{"type":"Point","coordinates":[-83.11346,42.28251]},"properties":{"frp":2.14,"date":"2026-09-14","daynight":"N"}},{"type":"Feature","geometry":{"type":"Point","coordinates":[-80.10189,42.80024]},"properties":{"frp":3.52,"date":"2026-09-14","daynight":"N"}},{"type":"Feature","geometry":{"type":"Point","coordinates":[-80.10772,42.80166]},"properties":{"frp":3.52,"date":"2026-09-14","daynight":"N"}},{"type":"Feature","geometry":{"type":"Point","coordinates":[-80.09998,42.80455]},"properties":{"frp":2.48,"date":"2026-09-14","daynight":"N"}},{"type":"Feature","geometry":{"type":"Point","coordinates":[-80.09221,42.80743]},"properties":{"frp":1.93,"date":"2026-09-14","daynight":"N"}},{"type":"Feature","geometry":{"type":"Point","coordinates":[-80.09805,42.80885]},"properties":{"frp":2.48,"date":"2026-09-14","daynight":"N"}},{"type":"Feature","geometry":{"type":"Point","coordinates":[-80.09528,42.81121]},"properties":{"frp":1.83,"date":"2026-09-14","daynight":"N"}},{"type":"Feature","geometry":{"type":"Point","coordinates":[-80.1011,42.81264]},"properties":{"frp":1.37,"date":"2026-09-14","daynight":"N"}},{"type":"Feature","geometry":{"type":"Point","coordinates":[-80.09612,42.81314]},"properties":{"frp":1.87,"date":"2026-09-14","daynight":"N"}},{"type":"Feature","geometry":{"type":"Point","coordinates":[-80.09335,42.8155]},"properties":{"frp":1.83,"date":"2026-09-14","daynight":"N"}},{"type":"Feature","geometry":{"type":"Point","coordinates":[-80.09418,42.81744]},"properties":{"frp":1.87,"date":"2026-09-14","daynight":"N"}},{"type":"Feature","geometry":{"type":"Point","coordinates":[-85.99714,42.82021]},"properties":{"frp":1.0,"date":"2026-09-14","daynight":"N"}},{"type":"Feature","geometry":{"type":"Point","coordinates":[-82.41499,42.94347]},"properties":{"frp":1.26,"date":"2026-09-14","daynight":"N"}},{"type":"Feature","geometry":{"type":"Point","coordinates":[-82.41637,42.95223]},"properties":{"frp":0.62,"date":"2026-09-14","daynight":"N"}},{"type":"Feature","geometry":{"type":"Point","coordinates":[-79.80656,43.26278]},"properties":{"frp":2.66,"date":"2026-09-14","daynight":"N"}},{"type":"Feature","geometry":{"type":"Point","coordinates":[-79.81245,43.26423]},"properties":{"frp":1.55,"date":"2026-09-14","daynight":"N"}},{"type":"Feature","geometry":{"type":"Point","coordinates":[-79.8046,43.26708]},"properties":{"frp":3.26,"date":"2026-09-14","daynight":"N"}},{"type":"Feature","geometry":{"type":"Point","coordinates":[-79.80851,43.27283]},"properties":{"frp":2.44,"date":"2026-09-14","daynight":"N"}},{"type":"Feature","geometry":{"type":"Point","coordinates":[-79.79467,43.27423]},"properties":{"frp":3.31,"date":"2026-09-14","daynight":"N"}},{"type":"Feature","geometry":{"type":"Point","coordinates":[-79.98365,43.29185]},"properties":{"frp":1.88,"date":"2026-09-14","daynight":"N"}},{"type":"Feature","geometry":{"type":"Point","coordinates":[-79.62559,43.49184]},"properties":{"frp":0.43,"date":"2026-09-14","daynight":"N"}},{"type":"Feature","geometry":{"type":"Point","coordinates":[-79.62569,43.49403]},"properties":{"frp":0.74,"date":"2026-09-14","daynight":"N"}},{"type":"Feature","geometry":{"type":"Point","coordinates":[-107.61979,45.53757]},"properties":{"frp":8.45,"date":"2026-09-14","daynight":"N"}},{"type":"Feature","geometry":{"type":"Point","coordinates":[-107.63129,45.53968]},"properties":{"frp":4.29,"date":"2026-09-14","daynight":"N"}},{"type":"Feature","geometry":{"type":"Point","coordinates":[-107.62086,45.53985]},"properties":{"frp":4.29,"date":"2026-09-14","daynight":"N"}},{"type":"Feature","geometry":{"type":"Point","coordinates":[-107.63103,45.5446]},"properties":{"frp":8.45,"date":"2026-09-14","daynight":"N"}},{"type":"Feature","geometry":{"type":"Point","coordinates":[-107.63197,45.54683]},"properties":{"frp":4.29,"date":"2026-09-14","daynight":"N"}},{"type":"Feature","geometry":{"type":"Point","coordinates":[-78.37991,36.92744]},"properties":{"frp":0.79,"date":"2026-09-14","daynight":"N"}},{"type":"Feature","geometry":{"type":"Point","coordinates":[-77.45004,37.18002]},"properties":{"frp":1.66,"date":"2026-09-14","daynight":"N"}},{"type":"Feature","geometry":{"type":"Point","coordinates":[-82.03946,37.23362]},"properties":{"frp":1.42,"date":"2026-09-14","daynight":"N"}},{"type":"Feature","geometry":{"type":"Point","coordinates":[-82.04539,37.23506]},"properties":{"frp":1.42,"date":"2026-09-14","daynight":"N"}},{"type":"Feature","geometry":{"type":"Point","coordinates":[-82.04063,37.23514]},"properties":{"frp":2.44,"date":"2026-09-14","daynight":"N"}},{"type":"Feature","geometry":{"type":"Point","coordinates":[-83.66975,38.62097]},"properties":{"frp":1.33,"date":"2026-09-14","daynight":"N"}},{"type":"Feature","geometry":{"type":"Point","coordinates":[-83.67143,38.62378]},"properties":{"frp":2.2,"date":"2026-09-14","daynight":"N"}},{"type":"Feature","geometry":{"type":"Point","coordinates":[-84.99255,38.75833]},"properties":{"frp":2.82,"date":"2026-09-14","daynight":"N"}},{"type":"Feature","geometry":{"type":"Point","coordinates":[-84.99707,38.76331]},"properties":{"frp":1.98,"date":"2026-09-14","daynight":"N"}},{"type":"Feature","geometry":{"type":"Point","coordinates":[-84.24044,38.83387]},"properties":{"frp":2.05,"date":"2026-09-14","daynight":"N"}},{"type":"Feature","geometry":{"type":"Point","coordinates":[-84.23893,38.83774]},"properties":{"frp":2.05,"date":"2026-09-14","daynight":"N"}},{"type":"Feature","geometry":{"type":"Point","coordinates":[-87.7192,38.9927]},"properties":{"frp":0.87,"date":"2026-09-14","daynight":"N"}},{"type":"Feature","geometry":{"type":"Point","coordinates":[-87.72516,38.99964]},"properties":{"frp":1.49,"date":"2026-09-14","daynight":"N"}},{"type":"Feature","geometry":{"type":"Point","coordinates":[-84.3822,39.46814]},"properties":{"frp":0.92,"date":"2026-09-14","daynight":"N"}},{"type":"Feature","geometry":{"type":"Point","coordinates":[-84.40103,39.47217]},"properties":{"frp":1.01,"date":"2026-09-14","daynight":"N"}},{"type":"Feature","geometry":{"type":"Point","coordinates":[-84.36143,39.4884]},"properties":{"frp":1.56,"date":"2026-09-14","daynight":"N"}},{"type":"Feature","geometry":{"type":"Point","coordinates":[-86.83163,39.97429]},"properties":{"frp":2.18,"date":"2026-09-14","daynight":"N"}},{"type":"Feature","geometry":{"type":"Point","coordinates":[-86.83664,39.97524]},"properties":{"frp":2.18,"date":"2026-09-14","daynight":"N"}},{"type":"Feature","geometry":{"type":"Point","coordinates":[-86.83554,39.97869]},"properties":{"frp":2.18,"date":"2026-09-14","daynight":"N"}},{"type":"Feature","geometry":{"type":"Point","coordinates":[-87.34231,40.92631]},"properties":{"frp":1.64,"date":"2026-09-14","daynight":"N"}},{"type":"Feature","geometry":{"type":"Point","coordinates":[-87.3343,40.93553]},"properties":{"frp":0.98,"date":"2026-09-14","daynight":"N"}},{"type":"Feature","geometry":{"type":"Point","coordinates":[-87.85887,41.18213]},"properties":{"frp":2.62,"date":"2026-09-14","daynight":"N"}},{"type":"Feature","geometry":{"type":"Point","coordinates":[-88.17966,41.40919]},"properties":{"frp":1.17,"date":"2026-09-14","daynight":"N"}},{"type":"Feature","geometry":{"type":"Point","coordinates":[-88.17866,41.4125]},"properties":{"frp":1.17,"date":"2026-09-14","daynight":"N"}},{"type":"Feature","geometry":{"type":"Point","coordinates":[-89.60432,41.77595]},"properties":{"frp":0.87,"date":"2026-09-14","daynight":"N"}},{"type":"Feature","geometry":{"type":"Point","coordinates":[-89.60889,41.77668]},"properties":{"frp":0.58,"date":"2026-09-14","daynight":"N"}},{"type":"Feature","geometry":{"type":"Point","coordinates":[-89.71571,41.78675]},"properties":{"frp":1.04,"date":"2026-09-14","daynight":"N"}},{"type":"Feature","geometry":{"type":"Point","coordinates":[-89.72484,41.7882]},"properties":{"frp":0.89,"date":"2026-09-14","daynight":"N"}},{"type":"Feature","geometry":{"type":"Point","coordinates":[-87.08609,34.63806]},"properties":{"frp":2.64,"date":"2026-09-14","daynight":"N"}},{"type":"Feature","geometry":{"type":"Point","coordinates":[-87.08498,34.64177]},"properties":{"frp":0.96,"date":"2026-09-14","daynight":"N"}},{"type":"Feature","geometry":{"type":"Point","coordinates":[-87.09045,34.64286]},"properties":{"frp":1.74,"date":"2026-09-14","daynight":"N"}},{"type":"Feature","geometry":{"type":"Point","coordinates":[-87.08388,34.64548]},"properties":{"frp":0.96,"date":"2026-09-14","daynight":"N"}},{"type":"Feature","geometry":{"type":"Point","coordinates":[-80.3306,35.50342]},"properties":{"frp":1.96,"date":"2026-09-14","daynight":"N"}},{"type":"Feature","geometry":{"type":"Point","coordinates":[-89.9475,35.61015]},"properties":{"frp":2.05,"date":"2026-09-14","daynight":"N"}},{"type":"Feature","geometry":{"type":"Point","coordinates":[-89.951,35.61422]},"properties":{"frp":0.82,"date":"2026-09-14","daynight":"N"}},{"type":"Feature","geometry":{"type":"Point","coordinates":[-89.93887,35.64343]},"properties":{"frp":1.36,"date":"2026-09-14","daynight":"N"}},{"type":"Feature","geometry":{"type":"Point","coordinates":[-89.9328,35.64933]},"properties":{"frp":3.43,"date":"2026-09-14","daynight":"N"}},{"type":"Feature","geometry":{"type":"Point","coordinates":[-88.8123,35.72686]},"properties":{"frp":1.55,"date":"2026-09-14","daynight":"N"}},{"type":"Feature","geometry":{"type":"Point","coordinates":[-88.81136,35.73029]},"properties":{"frp":1.55,"date":"2026-09-14","daynight":"N"}},{"type":"Feature","geometry":{"type":"Point","coordinates":[-91.74394,35.79369]},"properties":{"frp":0.94,"date":"2026-09-14","daynight":"N"}},{"type":"Feature","geometry":{"type":"Point","coordinates":[-91.74815,35.79436]},"properties":{"frp":0.87,"date":"2026-09-14","daynight":"N"}},{"type":"Feature","geometry":{"type":"Point","coordinates":[-89.71246,35.93989]},"properties":{"frp":3.04,"date":"2026-09-14","daynight":"N"}},{"type":"Feature","geometry":{"type":"Point","coordinates":[-83.95499,35.97979]},"properties":{"frp":2.48,"date":"2026-09-14","daynight":"N"}},{"type":"Feature","geometry":{"type":"Point","coordinates":[-95.81233,36.19492]},"properties":{"frp":1.86,"date":"2026-09-14","daynight":"N"}},{"type":"Feature","geometry":{"type":"Point","coordinates":[-95.81406,36.19596]},"properties":{"frp":1.7,"date":"2026-09-14","daynight":"N"}},{"type":"Feature","geometry":{"type":"Point","coordinates":[-97.83916,36.5199]},"properties":{"frp":1.68,"date":"2026-09-14","daynight":"N"}},{"type":"Feature","geometry":{"type":"Point","coordinates":[-84.11842,37.11689]},"properties":{"frp":1.5,"date":"2026-09-14","daynight":"N"}},{"type":"Feature","geometry":{"type":"Point","coordinates":[-87.98639,31.14351]},"properties":{"frp":1.61,"date":"2026-09-14","daynight":"N"}},{"type":"Feature","geometry":{"type":"Point","coordinates":[-87.98438,31.15107]},"properties":{"frp":2.46,"date":"2026-09-14","daynight":"N"}},{"type":"Feature","geometry":{"type":"Point","coordinates":[-87.98985,31.15216]},"properties":{"frp":2.46,"date":"2026-09-14","daynight":"N"}},{"type":"Feature","geometry":{"type":"Point","coordinates":[-86.8032,33.0903]},"properties":{"frp":2.32,"date":"2026-09-14","daynight":"N"}},{"type":"Feature","geometry":{"type":"Point","coordinates":[-86.80208,33.09417]},"properties":{"frp":1.07,"date":"2026-09-14","daynight":"N"}},{"type":"Feature","geometry":{"type":"Point","coordinates":[-86.79874,33.10578]},"properties":{"frp":1.63,"date":"2026-09-14","daynight":"N"}},{"type":"Feature","geometry":{"type":"Point","coordinates":[-87.5106,33.23125]},"properties":{"frp":1.57,"date":"2026-09-14","daynight":"N"}},{"type":"Feature","geometry":{"type":"Point","coordinates":[-87.51466,33.23185]},"properties":{"frp":1.8,"date":"2026-09-14","daynight":"N"}},{"type":"Feature","geometry":{"type":"Point","coordinates":[-87.50821,33.23449]},"properties":{"frp":1.8,"date":"2026-09-14","daynight":"N"}},{"type":"Feature","geometry":{"type":"Point","coordinates":[-87.50954,33.23498]},"properties":{"frp":1.57,"date":"2026-09-14","daynight":"N"}},{"type":"Feature","geometry":{"type":"Point","coordinates":[-87.50717,33.23822]},"properties":{"frp":0.94,"date":"2026-09-14","daynight":"N"}},{"type":"Feature","geometry":{"type":"Point","coordinates":[-98.23917,35.33288]},"properties":{"frp":1.77,"date":"2026-09-14","daynight":"N"}},{"type":"Feature","geometry":{"type":"Point","coordinates":[-98.24373,35.33335]},"properties":{"frp":5.03,"date":"2026-09-14","daynight":"N"}},{"type":"Feature","geometry":{"type":"Point","coordinates":[-98.24828,35.33382]},"properties":{"frp":5.03,"date":"2026-09-14","daynight":"N"}},{"type":"Feature","geometry":{"type":"Point","coordinates":[-98.23849,35.33699]},"properties":{"frp":1.77,"date":"2026-09-14","daynight":"N"}},{"type":"Feature","geometry":{"type":"Point","coordinates":[-98.24306,35.33746]},"properties":{"frp":5.03,"date":"2026-09-14","daynight":"N"}},{"type":"Feature","geometry":{"type":"Point","coordinates":[-98.24762,35.33793]},"properties":{"frp":5.03,"date":"2026-09-14","daynight":"N"}},{"type":"Feature","geometry":{"type":"Point","coordinates":[-98.25213,35.3384]},"properties":{"frp":9.6,"date":"2026-09-14","daynight":"N"}},{"type":"Feature","geometry":{"type":"Point","coordinates":[-98.23781,35.34109]},"properties":{"frp":1.28,"date":"2026-09-14","daynight":"N"}},{"type":"Feature","geometry":{"type":"Point","coordinates":[-98.24238,35.34157]},"properties":{"frp":2.17,"date":"2026-09-14","daynight":"N"}},{"type":"Feature","geometry":{"type":"Point","coordinates":[-98.24693,35.34204]},"properties":{"frp":2.17,"date":"2026-09-14","daynight":"N"}},{"type":"Feature","geometry":{"type":"Point","coordinates":[-98.2326,35.34474]},"properties":{"frp":1.28,"date":"2026-09-14","daynight":"N"}},{"type":"Feature","geometry":{"type":"Point","coordinates":[-98.23713,35.34521]},"properties":{"frp":1.28,"date":"2026-09-14","daynight":"N"}},{"type":"Feature","geometry":{"type":"Point","coordinates":[-98.24168,35.34568]},"properties":{"frp":2.17,"date":"2026-09-14","daynight":"N"}},{"type":"Feature","geometry":{"type":"Point","coordinates":[-98.24622,35.34615]},"properties":{"frp":2.17,"date":"2026-09-14","daynight":"N"}},{"type":"Feature","geometry":{"type":"Point","coordinates":[-98.25073,35.34661]},"properties":{"frp":2.76,"date":"2026-09-14","daynight":"N"}},{"type":"Feature","geometry":{"type":"Point","coordinates":[-98.2319,35.34884]},"properties":{"frp":1.11,"date":"2026-09-14","daynight":"N"}},{"type":"Feature","geometry":{"type":"Point","coordinates":[-98.23643,35.34931]},"properties":{"frp":1.11,"date":"2026-09-14","daynight":"N"}},{"type":"Feature","geometry":{"type":"Point","coordinates":[-98.24097,35.34978]},"properties":{"frp":1.89,"date":"2026-09-14","daynight":"N"}},{"type":"Feature","geometry":{"type":"Point","coordinates":[-98.24553,35.35025]},"properties":{"frp":1.89,"date":"2026-09-14","daynight":"N"}},{"type":"Feature","geometry":{"type":"Point","coordinates":[-98.25004,35.35072]},"properties":{"frp":2.14,"date":"2026-09-14","daynight":"N"}},{"type":"Feature","geometry":{"type":"Point","coordinates":[-98.25453,35.35119]},"properties":{"frp":2.14,"date":"2026-09-14","daynight":"N"}},{"type":"Feature","geometry":{"type":"Point","coordinates":[-98.23573,35.35341]},"properties":{"frp":1.11,"date":"2026-09-14","daynight":"N"}},{"type":"Feature","geometry":{"type":"Point","coordinates":[-98.24026,35.35389]},"properties":{"frp":1.89,"date":"2026-09-14","daynight":"N"}},{"type":"Feature","geometry":{"type":"Point","coordinates":[-98.24483,35.35436]},"properties":{"frp":1.89,"date":"2026-09-14","daynight":"N"}},{"type":"Feature","geometry":{"type":"Point","coordinates":[-98.25383,35.3553]},"properties":{"frp":2.14,"date":"2026-09-14","daynight":"N"}},{"type":"Feature","geometry":{"type":"Point","coordinates":[-98.25836,35.35577]},"properties":{"frp":2.46,"date":"2026-09-14","daynight":"N"}},{"type":"Feature","geometry":{"type":"Point","coordinates":[-98.23957,35.35799]},"properties":{"frp":1.21,"date":"2026-09-14","daynight":"N"}},{"type":"Feature","geometry":{"type":"Point","coordinates":[-98.24413,35.35847]},"properties":{"frp":1.21,"date":"2026-09-14","daynight":"N"}},{"type":"Feature","geometry":{"type":"Point","coordinates":[-98.24864,35.35894]},"properties":{"frp":1.72,"date":"2026-09-14","daynight":"N"}},{"type":"Feature","geometry":{"type":"Point","coordinates":[-98.25313,35.35941]},"properties":{"frp":1.72,"date":"2026-09-14","daynight":"N"}},{"type":"Feature","geometry":{"type":"Point","coordinates":[-98.25766,35.35988]},"properties":{"frp":1.89,"date":"2026-09-14","daynight":"N"}},{"type":"Feature","geometry":{"type":"Point","coordinates":[-98.23891,35.3621]},"properties":{"frp":1.21,"date":"2026-09-14","daynight":"N"}},{"type":"Feature","geometry":{"type":"Point","coordinates":[-98.24344,35.36258]},"properties":{"frp":1.21,"date":"2026-09-14","daynight":"N"}},{"type":"Feature","geometry":{"type":"Point","coordinates":[-98.24795,35.36305]},"properties":{"frp":1.72,"date":"2026-09-14","daynight":"N"}},{"type":"Feature","geometry":{"type":"Point","coordinates":[-98.25246,35.36352]},"properties":{"frp":1.72,"date":"2026-09-14","daynight":"N"}},{"type":"Feature","geometry":{"type":"Point","coordinates":[-98.25698,35.36399]},"properties":{"frp":1.89,"date":"2026-09-14","daynight":"N"}},{"type":"Feature","geometry":{"type":"Point","coordinates":[-98.26151,35.36446]},"properties":{"frp":1.89,"date":"2026-09-14","daynight":"N"}},{"type":"Feature","geometry":{"type":"Point","coordinates":[-98.26084,35.36858]},"properties":{"frp":1.92,"date":"2026-09-14","daynight":"N"}},{"type":"Feature","geometry":{"type":"Point","coordinates":[-98.26534,35.36905]},"properties":{"frp":1.51,"date":"2026-09-14","daynight":"N"}},{"type":"Feature","geometry":{"type":"Point","coordinates":[-98.24667,35.37128]},"properties":{"frp":1.69,"date":"2026-09-14","daynight":"N"}},{"type":"Feature","geometry":{"type":"Point","coordinates":[-98.26021,35.3727]},"properties":{"frp":1.92,"date":"2026-09-14","daynight":"N"}},{"type":"Feature","geometry":{"type":"Point","coordinates":[-97.11115,29.33919]},"properties":{"frp":0.85,"date":"2026-09-14","daynight":"N"}},{"type":"Feature","geometry":{"type":"Point","coordinates":[-97.10979,29.34005]},"properties":{"frp":1.84,"date":"2026-09-14","daynight":"N"}},{"type":"Feature","geometry":{"type":"Point","coordinates":[-97.11052,29.34279]},"properties":{"frp":1.11,"date":"2026-09-14","daynight":"N"}},{"type":"Feature","geometry":{"type":"Point","coordinates":[-95.00089,29.74088]},"properties":{"frp":2.57,"date":"2026-09-14","daynight":"N"}},{"type":"Feature","geometry":{"type":"Point","coordinates":[-95.00024,29.74424]},"properties":{"frp":2.34,"date":"2026-09-14","daynight":"N"}},{"type":"Feature","geometry":{"type":"Point","coordinates":[-95.01257,29.74603]},"properties":{"frp":3.03,"date":"2026-09-14","daynight":"N"}},{"type":"Feature","geometry":{"type":"Point","coordinates":[-93.8793,29.75654]},"properties":{"frp":3.22,"date":"2026-09-14","daynight":"N"}},{"type":"Feature","geometry":{"type":"Point","coordinates":[-93.87073,29.75862]},"properties":{"frp":3.19,"date":"2026-09-14","daynight":"N"}},{"type":"Feature","geometry":{"type":"Point","coordinates":[-93.87863,29.75984]},"properties":{"frp":3.06,"date":"2026-09-14","daynight":"N"}},{"type":"Feature","geometry":{"type":"Point","coordinates":[-88.48666,30.34317]},"properties":{"frp":4.81,"date":"2026-09-14","daynight":"N"}},{"type":"Feature","geometry":{"type":"Point","coordinates":[-88.4882,30.34369]},"properties":{"frp":6.01,"date":"2026-09-14","daynight":"N"}},{"type":"Feature","geometry":{"type":"Point","coordinates":[-102.10621,31.79685]},"properties":{"frp":0.68,"date":"2026-09-14","daynight":"N"}},{"type":"Feature","geometry":{"type":"Point","coordinates":[-102.10632,31.79797]},"properties":{"frp":3.5,"date":"2026-09-14","daynight":"N"}},{"type":"Feature","geometry":{"type":"Point","coordinates":[-102.05392,31.79875]},"properties":{"frp":1.56,"date":"2026-09-14","daynight":"N"}},{"type":"Feature","geometry":{"type":"Point","coordinates":[-102.05337,31.80223]},"properties":{"frp":1.87,"date":"2026-09-14","daynight":"N"}},{"type":"Feature","geometry":{"type":"Point","coordinates":[-99.93771,25.57759]},"properties":{"frp":2.76,"date":"2026-09-14","daynight":"N"}},{"type":"Feature","geometry":{"type":"Point","coordinates":[-99.93708,25.58159]},"properties":{"frp":1.18,"date":"2026-09-14","daynight":"N"}},{"type":"Feature","geometry":{"type":"Point","coordinates":[-99.93915,25.59409]},"properties":{"frp":2.68,"date":"2026-09-14","daynight":"N"}},{"type":"Feature","geometry":{"type":"Point","coordinates":[-100.29884,25.72019]},"properties":{"frp":2.99,"date":"2026-09-14","daynight":"N"}},{"type":"Feature","geometry":{"type":"Point","coordinates":[-100.30693,25.72115]},"properties":{"frp":1.74,"date":"2026-09-14","daynight":"N"}},{"type":"Feature","geometry":{"type":"Point","coordinates":[-100.29826,25.7243]},"properties":{"frp":2.44,"date":"2026-09-14","daynight":"N"}},{"type":"Feature","geometry":{"type":"Point","coordinates":[-103.54022,25.74306]},"properties":{"frp":2.78,"date":"2026-09-14","daynight":"N"}},{"type":"Feature","geometry":{"type":"Point","coordinates":[-103.53962,25.7481]},"properties":{"frp":2.78,"date":"2026-09-14","daynight":"N"}},{"type":"Feature","geometry":{"type":"Point","coordinates":[-103.54284,25.74842]},"properties":{"frp":2.78,"date":"2026-09-14","daynight":"N"}},{"type":"Feature","geometry":{"type":"Point","coordinates":[-103.53902,25.75315]},"properties":{"frp":2.67,"date":"2026-09-14","daynight":"N"}},{"type":"Feature","geometry":{"type":"Point","coordinates":[-103.54224,25.75346]},"properties":{"frp":2.67,"date":"2026-09-14","daynight":"N"}},{"type":"Feature","geometry":{"type":"Point","coordinates":[-97.86978,24.07656]},"properties":{"frp":3.7,"date":"2026-09-14","daynight":"N"}},{"type":"Feature","geometry":{"type":"Point","coordinates":[-97.87353,24.08069]},"properties":{"frp":3.91,"date":"2026-09-14","daynight":"N"}},{"type":"Feature","geometry":{"type":"Point","coordinates":[-97.87294,24.08422]},"properties":{"frp":3.91,"date":"2026-09-14","daynight":"N"}}]}