{"type":"FeatureCollection","features":[{"type":"Feature","geometry":{"type":"Point","coordinates":[-122.38061,40.68833]},"properties":{"frp":6.7,"date":"2026-08-23","daynight":"N"}},{"type":"Feature","geometry":{"type":"Point","coordinates":[-122.38372,40.68008]},"properties":{"frp":12.5,"date":"2026-08-23","daynight":"N"}},{"type":"Feature","geometry":{"type":"Point","coordinates":[-122.40673,40.6635]},"properties":{"frp":13.1,"date":"2026-08-23","daynight":"N"}},{"type":"Feature","geometry":{"type":"Point","coordinates":[-122.38497,40.63242]},"properties":{"frp":16.6,"date":"2026-08-23","daynight":"N"}},{"type":"Feature","geometry":{"type":"Point","coordinates":[-122.40444,40.67107]},"properties":{"frp":5.2,"date":"2026-08-23","daynight":"N"}},{"type":"Feature","geometry":{"type":"Point","coordinates":[-122.37898,40.66934]},"properties":{"frp":5.3,"date":"2026-08-23","daynight":"N"}},{"type":"Feature","geometry":{"type":"Point","coordinates":[-122.39739,40.62904]},"properties":{"frp":3.1,"date":"2026-08-23","daynight":"N"}},{"type":"Feature","geometry":{"type":"Point","coordinates":[-122.37265,40.67774]},"properties":{"frp":2.4,"date":"2026-08-23","daynight":"N"}},{"type":"Feature","geometry":{"type":"Point","coordinates":[-122.37699,40.64808]},"properties":{"frp":4.6,"date":"2026-08-23","daynight":"N"}},{"type":"Feature","geometry":{"type":"Point","coordinates":[-122.36524,40.68943]},"properties":{"frp":23.7,"date":"2026-08-23","daynight":"N"}},{"type":"Feature","geometry":{"type":"Point","coordinates":[-122.38889,40.66819]},"properties":{"frp":24.5,"date":"2026-08-23","daynight":"N"}},{"type":"Feature","geometry":{"type":"Point","coordinates":[-122.37111,40.65804]},"properties":{"frp":13.0,"date":"2026-08-23","daynight":"N"}},{"type":"Feature","geometry":{"type":"Point","coordinates":[-122.36804,40.67371]},"properties":{"frp":18.1,"date":"2026-08-23","daynight":"N"}},{"type":"Feature","geometry":{"type":"Point","coordinates":[-122.36444,40.67251]},"properties":{"frp":15.8,"date":"2026-08-23","daynight":"N"}},{"type":"Feature","geometry":{"type":"Point","coordinates":[-122.36509,40.6718]},"properties":{"frp":12.9,"date":"2026-08-23","daynight":"N"}},{"type":"Feature","geometry":{"type":"Point","coordinates":[-122.39529,40.68655]},"properties":{"frp":7.4,"date":"2026-08-23","daynight":"N"}},{"type":"Feature","geometry":{"type":"Point","coordinates":[-122.41258,40.67488]},"properties":{"frp":19.2,"date":"2026-08-23","daynight":"N"}},{"type":"Feature","geometry":{"type":"Point","coordinates":[-122.36533,40.65644]},"properties":{"frp":16.2,"date":"2026-08-23","daynight":"N"}},{"type":"Feature","geometry":{"type":"Point","coordinates":[-122.38973,40.66469]},"properties":{"frp":25.7,"date":"2026-08-23","daynight":"N"}},{"type":"Feature","geometry":{"type":"Point","coordinates":[-122.3999,40.69662]},"properties":{"frp":7.7,"date":"2026-08-23","daynight":"N"}},{"type":"Feature","geometry":{"type":"Point","coordinates":[-122.37598,40.65484]},"properties":{"frp":15.3,"date":"2026-08-23","daynight":"N"}},{"type":"Feature","geometry":{"type":"Point","coordinates":[-122.37057,40.67742]},"properties":{"frp":27.7,"date":"2026-08-23","daynight":"N"}},{"type":"Feature","geometry":{"type":"Point","coordinates":[-122.37623,40.68731]},"properties":{"frp":28.9,"date":"2026-08-23","daynight":"N"}},{"type":"Feature","geometry":{"type":"Point","coordinates":[-122.38492,40.6793]},"properties":{"frp":9.3,"date":"2026-08-23","daynight":"N"}},{"type":"Feature","geometry":{"type":"Point","coordinates":[-122.37796,40.67119]},"properties":{"frp":15.9,"date":"2026-08-23","daynight":"N"}},{"type":"Feature","geometry":{"type":"Point","coordinates":[-122.36532,40.67409]},"properties":{"frp":0.7,"date":"2026-08-23","daynight":"N"}},{"type":"Feature","geometry":{"type":"Point","coordinates":[-122.37916,40.68055]},"properties":{"frp":13.3,"date":"2026-08-23","daynight":"N"}},{"type":"Feature","geometry":{"type":"Point","coordinates":[-122.37871,40.65463]},"properties":{"frp":14.2,"date":"2026-08-23","daynight":"N"}},{"type":"Feature","geometry":{"type":"Point","coordinates":[-122.37633,40.66947]},"properties":{"frp":58.8,"date":"2026-08-23","daynight":"N"}},{"type":"Feature","geometry":{"type":"Point","coordinates":[-122.38995,40.71192]},"properties":{"frp":30.8,"date":"2026-08-23","daynight":"N"}},{"type":"Feature","geometry":{"type":"Point","coordinates":[-122.3597,40.67802]},"properties":{"frp":20.6,"date":"2026-08-23","daynight":"N"}},{"type":"Feature","geometry":{"type":"Point","coordinates":[-122.37384,40.66282]},"properties":{"frp":11.3,"date":"2026-08-23","daynight":"N"}},{"type":"Feature","geometry":{"type":"Point","coordinates":[-122.38668,40.65482]},"properties":{"frp":13.1,"date":"2026-08-23","daynight":"N"}},{"type":"Feature","geometry":{"type":"Point","coordinates":[-122.36392,40.67473]},"properties":{"frp":32.4,"date":"2026-08-23","daynight":"N"}},{"type":"Feature","geometry":{"type":"Point","coordinates":[-122.35608,40.67606]},"properties":{"frp":52.8,"date":"2026-08-23","daynight":"N"}},{"type":"Feature","geometry":{"type":"Point","coordinates":[-122.38631,40.6682]},"properties":{"frp":5.4,"date":"2026-08-23","daynight":"N"}},{"type":"Feature","geometry":{"type":"Point","coordinates":[-122.37251,40.72138]},"properties":{"frp":10.7,"date":"2026-08-23","daynight":"N"}},{"type":"Feature","geometry":{"type":"Point","coordinates":[-122.39319,40.65633]},"properties":{"frp":16.8,"date":"2026-08-23","daynight":"N"}},{"type":"Feature","geometry":{"type":"Point","coordinates":[-122.36221,40.65209]},"properties":{"frp":9.4,"date":"2026-08-23","daynight":"N"}},{"type":"Feature","geometry":{"type":"Point","coordinates":[-122.37758,40.66308]},"properties":{"frp":19.0,"date":"2026-08-23","daynight":"N"}},{"type":"Feature","geometry":{"type":"Point","coordinates":[-122.3661,40.66879]},"properties":{"frp":25.0,"date":"2026-08-23","daynight":"N"}},{"type":"Feature","geometry":{"type":"Point","coordinates":[-122.40044,40.65391]},"properties":{"frp":2.2,"date":"2026-08-23","daynight":"N"}},{"type":"Feature","geometry":{"type":"Point","coordinates":[-122.36858,40.67426]},"properties":{"frp":8.1,"date":"2026-08-23","daynight":"N"}},{"type":"Feature","geometry":{"type":"Point","coordinates":[-122.39538,40.67632]},"properties":{"frp":8.1,"date":"2026-08-23","daynight":"N"}},{"type":"Feature","geometry":{"type":"Point","coordinates":[-122.39413,40.68287]},"properties":{"frp":5.5,"date":"2026-08-23","daynight":"N"}},{"type":"Feature","geometry":{"type":"Point","coordinates":[-122.39794,40.66009]},"properties":{"frp":0.7,"date":"2026-08-23","daynight":"N"}},{"type":"Feature","geometry":{"type":"Point","coordinates":[-122.36796,40.69472]},"properties":{"frp":2.1,"date":"2026-08-23","daynight":"N"}},{"type":"Feature","geometry":{"type":"Point","coordinates":[-122.3563,40.68149]},"properties":{"frp":6.1,"date":"2026-08-23","daynight":"N"}},{"type":"Feature","geometry":{"type":"Point","coordinates":[-122.41248,40.72344]},"properties":{"frp":1.6,"date":"2026-08-23","daynight":"N"}},{"type":"Feature","geometry":{"type":"Point","coordinates":[-122.39171,40.65597]},"properties":{"frp":12.6,"date":"2026-08-23","daynight":"N"}},{"type":"Feature","geometry":{"type":"Point","coordinates":[-122.40047,40.65383]},"properties":{"frp":11.5,"date":"2026-08-23","daynight":"N"}},{"type":"Feature","geometry":{"type":"Point","coordinates":[-122.40312,40.66431]},"properties":{"frp":4.7,"date":"2026-08-23","daynight":"N"}},{"type":"Feature","geometry":{"type":"Point","coordinates":[-122.37902,40.67637]},"properties":{"frp":4.8,"date":"2026-08-23","daynight":"N"}},{"type":"Feature","geometry":{"type":"Point","coordinates":[-122.37035,40.67914]},"properties":{"frp":12.3,"date":"2026-08-23","daynight":"N"}},{"type":"Feature","geometry":{"type":"Point","coordinates":[-122.38709,40.68146]},"properties":{"frp":20.7,"date":"2026-08-23","daynight":"N"}},{"type":"Feature","geometry":{"type":"Point","coordinates":[-122.37555,40.7103]},"properties":{"frp":20.1,"date":"2026-08-23","daynight":"N"}},{"type":"Feature","geometry":{"type":"Point","coordinates":[-122.39905,40.63461]},"properties":{"frp":17.3,"date":"2026-08-23","daynight":"N"}},{"type":"Feature","geometry":{"type":"Point","coordinates":[-122.37967,40.63693]},"properties":{"frp":23.2,"date":"2026-08-23","daynight":"N"}},{"type":"Feature","geometry":{"type":"Point","coordinates":[-122.3889,40.66769]},"properties":{"frp":3.6,"date":"2026-08-23","daynight":"N"}},{"type":"Feature","geometry":{"type":"Point","coordinates":[-122.36957,40.70821]},"properties":{"frp":6.4,"date":"2026-08-23","daynight":"N"}},{"type":"Feature","geometry":{"type":"Point","coordinates":[-122.39769,40.6838]},"properties":{"frp":18.7,"date":"2026-08-23","daynight":"N"}},{"type":"Feature","geometry":{"type":"Point","coordinates":[-122.3793,40.65102]},"properties":{"frp":14.9,"date":"2026-08-23","daynight":"N"}},{"type":"Feature","geometry":{"type":"Point","coordinates":[-122.41527,40.67329]},"properties":{"frp":1.3,"date":"2026-08-23","daynight":"N"}},{"type":"Feature","geometry":{"type":"Point","coordinates":[-122.37973,40.66657]},"properties":{"frp":37.0,"date":"2026-08-23","daynight":"N"}},{"type":"Feature","geometry":{"type":"Point","coordinates":[-122.39545,40.66591]},"properties":{"frp":10.8,"date":"2026-08-23","daynight":"N"}},{"type":"Feature","geometry":{"type":"Point","coordinates":[-122.38336,40.65975]},"properties":{"frp":29.1,"date":"2026-08-23","daynight":"N"}},{"type":"Feature","geometry":{"type":"Point","coordinates":[-122.36851,40.67173]},"properties":{"frp":20.7,"date":"2026-08-23","daynight":"N"}},{"type":"Feature","geometry":{"type":"Point","coordinates":[-122.38559,40.69054]},"properties":{"frp":24.6,"date":"2026-08-23","daynight":"N"}},{"type":"Feature","geometry":{"type":"Point","coordinates":[-122.37168,40.66133]},"properties":{"frp":7.4,"date":"2026-08-23","daynight":"N"}},{"type":"Feature","geometry":{"type":"Point","coordinates":[-122.38825,40.68161]},"properties":{"frp":23.4,"date":"2026-08-23","daynight":"N"}},{"type":"Feature","geometry":{"type":"Point","coordinates":[-122.36139,40.68502]},"properties":{"frp":31.5,"date":"2026-08-23","daynight":"N"}},{"type":"Feature","geometry":{"type":"Point","coordinates":[-122.34621,40.69454]},"properties":{"frp":7.0,"date":"2026-08-23","daynight":"N"}},{"type":"Feature","geometry":{"type":"Point","coordinates":[-122.37974,40.65354]},"properties":{"frp":12.8,"date":"2026-08-23","daynight":"N"}},{"type":"Feature","geometry":{"type":"Point","coordinates":[-122.38186,40.67021]},"properties":{"frp":17.4,"date":"2026-08-23","daynight":"N"}},{"type":"Feature","geometry":{"type":"Point","coordinates":[-122.3836,40.66957]},"properties":{"frp":10.0,"date":"2026-08-23","daynight":"N"}},{"type":"Feature","geometry":{"type":"Point","coordinates":[-122.38074,40.66986]},"properties":{"frp":10.0,"date":"2026-08-23","daynight":"N"}},{"type":"Feature","geometry":{"type":"Point","coordinates":[-122.38022,40.67466]},"properties":{"frp":10.0,"date":"2026-08-23","daynight":"N"}},{"type":"Feature","geometry":{"type":"Point","coordinates":[-122.37578,40.67107]},"properties":{"frp":10.0,"date":"2026-08-23","daynight":"N"}},{"type":"Feature","geometry":{"type":"Point","coordinates":[-122.38134,40.67597]},"properties":{"frp":10.0,"date":"2026-08-23","daynight":"N"}},{"type":"Feature","geometry":{"type":"Point","coordinates":[-122.37416,40.6722]},"properties":{"frp":10.0,"date":"2026-08-23","daynight":"N"}},{"type":"Feature","geometry":{"type":"Point","coordinates":[-122.37987,40.67648]},"properties":{"frp":10.0,"date":"2026-08-23","daynight":"N"}},{"type":"Feature","geometry":{"type":"Point","coordinates":[-122.37382,40.6709]},"properties":{"frp":10.0,"date":"2026-08-23","daynight":"N"}},{"type":"Feature","geometry":{"type":"Point","coordinates":[-122.38597,40.68025]},"properties":{"frp":10.0,"date":"2026-08-23","daynight":"N"}},{"type":"Feature","geometry":{"type":"Point","coordinates":[-122.36849,40.67855]},"properties":{"frp":10.0,"date":"2026-08-23","daynight":"N"}},{"type":"Feature","geometry":{"type":"Point","coordinates":[-122.38315,40.6845]},"properties":{"frp":10.0,"date":"2026-08-23","daynight":"N"}},{"type":"Feature","geometry":{"type":"Point","coordinates":[-122.36846,40.67751]},"properties":{"frp":10.0,"date":"2026-08-23","daynight":"N"}},{"type":"Feature","geometry":{"type":"Point","coordinates":[-122.38654,40.68876]},"properties":{"frp":10.0,"date":"2026-08-23","daynight":"N"}},{"type":"Feature","geometry":{"type":"Point","coordinates":[-122.36645,40.67838]},"properties":{"frp":10.0,"date":"2026-08-23","daynight":"N"}},{"type":"Feature","geometry":{"type":"Point","coordinates":[-122.38637,40.68911]},"properties":{"frp":10.0,"date":"2026-08-23","daynight":"N"}},{"type":"Feature","geometry":{"type":"Point","coordinates":[-122.3644,40.67977]},"properties":{"frp":10.0,"date":"2026-08-23","daynight":"N"}},{"type":"Feature","geometry":{"type":"Point","coordinates":[-122.3876,40.68911]},"properties":{"frp":10.0,"date":"2026-08-23","daynight":"N"}},{"type":"Feature","geometry":{"type":"Point","coordinates":[-122.35863,40.6797]},"properties":{"frp":10.0,"date":"2026-08-23","daynight":"N"}},{"type":"Feature","geometry":{"type":"Point","coordinates":[-122.39337,40.6881]},"properties":{"frp":10.0,"date":"2026-08-23","daynight":"N"}},{"type":"Feature","geometry":{"type":"Point","coordinates":[-122.35874,40.67896]},"properties":{"frp":10.0,"date":"2026-08-23","daynight":"N"}},{"type":"Feature","geometry":{"type":"Point","coordinates":[-122.39262,40.69351]},"properties":{"frp":10.0,"date":"2026-08-23","daynight":"N"}},{"type":"Feature","geometry":{"type":"Point","coordinates":[-122.35908,40.68222]},"properties":{"frp":10.0,"date":"2026-08-23","daynight":"N"}},{"type":"Feature","geometry":{"type":"Point","coordinates":[-122.39268,40.69272]},"properties":{"frp":10.0,"date":"2026-08-23","daynight":"N"}},{"type":"Feature","geometry":{"type":"Point","coordinates":[-122.35791,40.68192]},"properties":{"frp":10.0,"date":"2026-08-23","daynight":"N"}},{"type":"Feature","geometry":{"type":"Point","coordinates":[-122.39232,40.69688]},"properties":{"frp":10.0,"date":"2026-08-23","daynight":"N"}},{"type":"Feature","geometry":{"type":"Point","coordinates":[-122.354,40.69013]},"properties":{"frp":10.0,"date":"2026-08-23","daynight":"N"}},{"type":"Feature","geometry":{"type":"Point","coordinates":[-122.394,40.7035]},"properties":{"frp":10.0,"date":"2026-08-23","daynight":"N"}},{"type":"Feature","geometry":{"type":"Point","coordinates":[-122.35426,40.68865]},"properties":{"frp":10.0,"date":"2026-08-23","daynight":"N"}},{"type":"Feature","geometry":{"type":"Point","coordinates":[-122.39582,40.70544]},"properties":{"frp":10.0,"date":"2026-08-23","daynight":"N"}},{"type":"Feature","geometry":{"type":"Point","coordinates":[-122.35133,40.69122]},"properties":{"frp":10.0,"date":"2026-08-23","daynight":"N"}},{"type":"Feature","geometry":{"type":"Point","coordinates":[-122.40145,40.70359]},"properties":{"frp":10.0,"date":"2026-08-23","daynight":"N"}},{"type":"Feature","geometry":{"type":"Point","coordinates":[-122.34905,40.6946]},"properties":{"frp":10.0,"date":"2026-08-23","daynight":"N"}},{"type":"Feature","geometry":{"type":"Point","coordinates":[-122.40464,40.70578]},"properties":{"frp":10.0,"date":"2026-08-23","daynight":"N"}},{"type":"Feature","geometry":{"type":"Point","coordinates":[-122.34707,40.6927]},"properties":{"frp":10.0,"date":"2026-08-23","daynight":"N"}},{"type":"Feature","geometry":{"type":"Point","coordinates":[-122.40125,40.7099]},"properties":{"frp":10.0,"date":"2026-08-23","daynight":"N"}},{"type":"Feature","geometry":{"type":"Point","coordinates":[-122.34662,40.69346]},"properties":{"frp":10.0,"date":"2026-08-23","daynight":"N"}},{"type":"Feature","geometry":{"type":"Point","coordinates":[-122.40399,40.71183]},"properties":{"frp":10.0,"date":"2026-08-23","daynight":"N"}},{"type":"Feature","geometry":{"type":"Point","coordinates":[-122.33876,40.69696]},"properties":{"frp":10.0,"date":"2026-08-23","daynight":"N"}},{"type":"Feature","geometry":{"type":"Point","coordinates":[-122.40402,40.71452]},"properties":{"frp":10.0,"date":"2026-08-23","daynight":"N"}},{"type":"Feature","geometry":{"type":"Point","coordinates":[-122.33859,40.69345]},"properties":{"frp":10.0,"date":"2026-08-23","daynight":"N"}},{"type":"Feature","geometry":{"type":"Point","coordinates":[-120.85966,39.32194]},"properties":{"frp":37.6,"date":"2026-08-23","daynight":"N"}},{"type":"Feature","geometry":{"type":"Point","coordinates":[-120.84802,39.2872]},"properties":{"frp":7.1,"date":"2026-08-23","daynight":"N"}},{"type":"Feature","geometry":{"type":"Point","coordinates":[-120.85336,39.28341]},"properties":{"frp":20.0,"date":"2026-08-23","daynight":"N"}},{"type":"Feature","geometry":{"type":"Point","coordinates":[-120.87674,39.32602]},"properties":{"frp":23.5,"date":"2026-08-23","daynight":"N"}},{"type":"Feature","geometry":{"type":"Point","coordinates":[-120.86445,39.29009]},"properties":{"frp":3.6,"date":"2026-08-23","daynight":"N"}},{"type":"Feature","geometry":{"type":"Point","coordinates":[-120.85512,39.30711]},"properties":{"frp":10.1,"date":"2026-08-23","daynight":"N"}},{"type":"Feature","geometry":{"type":"Point","coordinates":[-120.83664,39.32759]},"properties":{"frp":31.6,"date":"2026-08-23","daynight":"N"}},{"type":"Feature","geometry":{"type":"Point","coordinates":[-120.84796,39.31493]},"properties":{"frp":16.1,"date":"2026-08-23","daynight":"N"}},{"type":"Feature","geometry":{"type":"Point","coordinates":[-120.86207,39.31351]},"properties":{"frp":12.5,"date":"2026-08-23","daynight":"N"}},{"type":"Feature","geometry":{"type":"Point","coordinates":[-120.86557,39.32]},"properties":{"frp":10.5,"date":"2026-08-23","daynight":"N"}},{"type":"Feature","geometry":{"type":"Point","coordinates":[-120.83339,39.3197]},"properties":{"frp":19.7,"date":"2026-08-23","daynight":"N"}},{"type":"Feature","geometry":{"type":"Point","coordinates":[-120.85247,39.31095]},"properties":{"frp":12.7,"date":"2026-08-23","daynight":"N"}},{"type":"Feature","geometry":{"type":"Point","coordinates":[-120.85159,39.31223]},"properties":{"frp":14.9,"date":"2026-08-23","daynight":"N"}},{"type":"Feature","geometry":{"type":"Point","coordinates":[-120.84011,39.30729]},"properties":{"frp":35.8,"date":"2026-08-23","daynight":"N"}},{"type":"Feature","geometry":{"type":"Point","coordinates":[-120.86596,39.30695]},"properties":{"frp":19.9,"date":"2026-08-23","daynight":"N"}},{"type":"Feature","geometry":{"type":"Point","coordinates":[-120.84905,39.30602]},"properties":{"frp":4.9,"date":"2026-08-23","daynight":"N"}},{"type":"Feature","geometry":{"type":"Point","coordinates":[-120.84773,39.30961]},"properties":{"frp":11.7,"date":"2026-08-23","daynight":"N"}},{"type":"Feature","geometry":{"type":"Point","coordinates":[-120.8652,39.32255]},"properties":{"frp":31.8,"date":"2026-08-23","daynight":"N"}},{"type":"Feature","geometry":{"type":"Point","coordinates":[-120.83194,39.31046]},"properties":{"frp":22.9,"date":"2026-08-23","daynight":"N"}},{"type":"Feature","geometry":{"type":"Point","coordinates":[-120.84748,39.28372]},"properties":{"frp":16.7,"date":"2026-08-23","daynight":"N"}},{"type":"Feature","geometry":{"type":"Point","coordinates":[-120.85519,39.2998]},"properties":{"frp":81.4,"date":"2026-08-23","daynight":"N"}},{"type":"Feature","geometry":{"type":"Point","coordinates":[-120.85237,39.29533]},"properties":{"frp":7.5,"date":"2026-08-23","daynight":"N"}},{"type":"Feature","geometry":{"type":"Point","coordinates":[-120.8677,39.33378]},"properties":{"frp":21.8,"date":"2026-08-23","daynight":"N"}},{"type":"Feature","geometry":{"type":"Point","coordinates":[-120.86823,39.29163]},"properties":{"frp":38.7,"date":"2026-08-23","daynight":"N"}},{"type":"Feature","geometry":{"type":"Point","coordinates":[-120.85647,39.33218]},"properties":{"frp":7.1,"date":"2026-08-23","daynight":"N"}},{"type":"Feature","geometry":{"type":"Point","coordinates":[-120.85564,39.30764]},"properties":{"frp":36.0,"date":"2026-08-23","daynight":"N"}},{"type":"Feature","geometry":{"type":"Point","coordinates":[-120.85329,39.29478]},"properties":{"frp":22.0,"date":"2026-08-23","daynight":"N"}},{"type":"Feature","geometry":{"type":"Point","coordinates":[-120.84093,39.29606]},"properties":{"frp":28.9,"date":"2026-08-23","daynight":"N"}},{"type":"Feature","geometry":{"type":"Point","coordinates":[-120.87487,39.29636]},"properties":{"frp":5.6,"date":"2026-08-23","daynight":"N"}},{"type":"Feature","geometry":{"type":"Point","coordinates":[-120.83376,39.32227]},"properties":{"frp":27.7,"date":"2026-08-23","daynight":"N"}},{"type":"Feature","geometry":{"type":"Point","coordinates":[-123.30048,41.02536]},"properties":{"frp":25.4,"date":"2026-08-23","daynight":"N"}},{"type":"Feature","geometry":{"type":"Point","coordinates":[-123.31919,41.02084]},"properties":{"frp":14.1,"date":"2026-08-23","daynight":"N"}},{"type":"Feature","geometry":{"type":"Point","coordinates":[-123.31281,41.04302]},"properties":{"frp":4.3,"date":"2026-08-23","daynight":"N"}},{"type":"Feature","geometry":{"type":"Point","coordinates":[-123.29803,41.05515]},"properties":{"frp":9.2,"date":"2026-08-23","daynight":"N"}},{"type":"Feature","geometry":{"type":"Point","coordinates":[-123.29222,41.06162]},"properties":{"frp":13.8,"date":"2026-08-23","daynight":"N"}},{"type":"Feature","geometry":{"type":"Point","coordinates":[-123.30202,41.06483]},"properties":{"frp":19.2,"date":"2026-08-23","daynight":"N"}},{"type":"Feature","geometry":{"type":"Point","coordinates":[-123.29535,41.05395]},"properties":{"frp":17.5,"date":"2026-08-23","daynight":"N"}},{"type":"Feature","geometry":{"type":"Point","coordinates":[-123.30716,41.05184]},"properties":{"frp":8.9,"date":"2026-08-23","daynight":"N"}},{"type":"Feature","geometry":{"type":"Point","coordinates":[-123.31263,41.04568]},"properties":{"frp":16.6,"date":"2026-08-23","daynight":"N"}},{"type":"Feature","geometry":{"type":"Point","coordinates":[-123.30322,41.05548]},"properties":{"frp":5.8,"date":"2026-08-23","daynight":"N"}},{"type":"Feature","geometry":{"type":"Point","coordinates":[-123.31061,41.04138]},"properties":{"frp":11.0,"date":"2026-08-23","daynight":"N"}},{"type":"Feature","geometry":{"type":"Point","coordinates":[-123.28928,41.03426]},"properties":{"frp":2.3,"date":"2026-08-23","daynight":"N"}},{"type":"Feature","geometry":{"type":"Point","coordinates":[-123.31322,41.05102]},"properties":{"frp":7.7,"date":"2026-08-23","daynight":"N"}},{"type":"Feature","geometry":{"type":"Point","coordinates":[-123.30929,41.06051]},"properties":{"frp":26.6,"date":"2026-08-23","daynight":"N"}},{"type":"Feature","geometry":{"type":"Point","coordinates":[-123.28872,41.03172]},"properties":{"frp":7.3,"date":"2026-08-23","daynight":"N"}},{"type":"Feature","geometry":{"type":"Point","coordinates":[-123.30732,41.04302]},"properties":{"frp":3.8,"date":"2026-08-23","daynight":"N"}},{"type":"Feature","geometry":{"type":"Point","coordinates":[-123.28715,41.05054]},"properties":{"frp":7.0,"date":"2026-08-23","daynight":"N"}},{"type":"Feature","geometry":{"type":"Point","coordinates":[-123.31759,41.05026]},"properties":{"frp":2.1,"date":"2026-08-23","daynight":"N"}},{"type":"Feature","geometry":{"type":"Point","coordinates":[-123.3083,41.05707]},"properties":{"frp":21.0,"date":"2026-08-23","daynight":"N"}},{"type":"Feature","geometry":{"type":"Point","coordinates":[-123.30201,41.07454]},"properties":{"frp":21.5,"date":"2026-08-23","daynight":"N"}},{"type":"Feature","geometry":{"type":"Point","coordinates":[-123.29735,41.02094]},"properties":{"frp":3.9,"date":"2026-08-23","daynight":"N"}},{"type":"Feature","geometry":{"type":"Point","coordinates":[-123.28176,41.04566]},"properties":{"frp":6.8,"date":"2026-08-23","daynight":"N"}},{"type":"Feature","geometry":{"type":"Point","coordinates":[-123.27244,41.05894]},"properties":{"frp":5.5,"date":"2026-08-23","daynight":"N"}},{"type":"Feature","geometry":{"type":"Point","coordinates":[-123.30145,41.02988]},"properties":{"frp":19.2,"date":"2026-08-23","daynight":"N"}},{"type":"Feature","geometry":{"type":"Point","coordinates":[-123.32366,41.04399]},"properties":{"frp":7.1,"date":"2026-08-23","daynight":"N"}},{"type":"Feature","geometry":{"type":"Point","coordinates":[-123.30152,41.06378]},"properties":{"frp":5.1,"date":"2026-08-23","daynight":"N"}},{"type":"Feature","geometry":{"type":"Point","coordinates":[-123.26732,41.05962]},"properties":{"frp":8.7,"date":"2026-08-23","daynight":"N"}},{"type":"Feature","geometry":{"type":"Point","coordinates":[-123.30347,41.04541]},"properties":{"frp":7.5,"date":"2026-08-23","daynight":"N"}},{"type":"Feature","geometry":{"type":"Point","coordinates":[-123.28517,41.05154]},"properties":{"frp":3.6,"date":"2026-08-23","daynight":"N"}},{"type":"Feature","geometry":{"type":"Point","coordinates":[-123.3062,41.04263]},"properties":{"frp":12.9,"date":"2026-08-23","daynight":"N"}},{"type":"Feature","geometry":{"type":"Point","coordinates":[-123.29308,41.06374]},"properties":{"frp":1.3,"date":"2026-08-23","daynight":"N"}},{"type":"Feature","geometry":{"type":"Point","coordinates":[-123.31393,41.02342]},"properties":{"frp":2.7,"date":"2026-08-23","daynight":"N"}},{"type":"Feature","geometry":{"type":"Point","coordinates":[-123.29277,41.06952]},"properties":{"frp":12.7,"date":"2026-08-23","daynight":"N"}},{"type":"Feature","geometry":{"type":"Point","coordinates":[-123.30022,41.04009]},"properties":{"frp":14.7,"date":"2026-08-23","daynight":"N"}},{"type":"Feature","geometry":{"type":"Point","coordinates":[-123.28844,41.05017]},"properties":{"frp":3.8,"date":"2026-08-23","daynight":"N"}},{"type":"Feature","geometry":{"type":"Point","coordinates":[-123.30893,41.03234]},"properties":{"frp":4.3,"date":"2026-08-23","daynight":"N"}},{"type":"Feature","geometry":{"type":"Point","coordinates":[-123.2993,41.05355]},"properties":{"frp":4.9,"date":"2026-08-23","daynight":"N"}},{"type":"Feature","geometry":{"type":"Point","coordinates":[-123.31398,41.05743]},"properties":{"frp":7.8,"date":"2026-08-23","daynight":"N"}},{"type":"Feature","geometry":{"type":"Point","coordinates":[-123.28381,41.05464]},"properties":{"frp":3.7,"date":"2026-08-23","daynight":"N"}},{"type":"Feature","geometry":{"type":"Point","coordinates":[-123.29619,41.05633]},"properties":{"frp":13.0,"date":"2026-08-23","daynight":"N"}},{"type":"Feature","geometry":{"type":"Point","coordinates":[-123.30885,41.04875]},"properties":{"frp":6.6,"date":"2026-08-23","daynight":"N"}},{"type":"Feature","geometry":{"type":"Point","coordinates":[-123.28162,41.04906]},"properties":{"frp":8.6,"date":"2026-08-23","daynight":"N"}}]}