{"type":"FeatureCollection","features":[{"type":"Feature","geometry":{"type":"Point","coordinates":[-66.01472,45.27918]},"properties":{"frp":1.11,"date":"2026-08-30","daynight":"N"}},{"type":"Feature","geometry":{"type":"Point","coordinates":[-66.01176,45.27916]},"properties":{"frp":1.24,"date":"2026-08-30","daynight":"N"}},{"type":"Feature","geometry":{"type":"Point","coordinates":[-73.52395,45.33982]},"properties":{"frp":1.02,"date":"2026-08-30","daynight":"N"}},{"type":"Feature","geometry":{"type":"Point","coordinates":[-73.52493,45.34004]},"properties":{"frp":1.25,"date":"2026-08-30","daynight":"N"}},{"type":"Feature","geometry":{"type":"Point","coordinates":[-73.91086,45.78173]},"properties":{"frp":0.79,"date":"2026-08-30","daynight":"N"}},{"type":"Feature","geometry":{"type":"Point","coordinates":[-90.83171,41.48088]},"properties":{"frp":3.52,"date":"2026-08-30","daynight":"N"}},{"type":"Feature","geometry":{"type":"Point","coordinates":[-90.83633,41.48112]},"properties":{"frp":2.87,"date":"2026-08-30","daynight":"N"}},{"type":"Feature","geometry":{"type":"Point","coordinates":[-90.83001,41.4818]},"properties":{"frp":1.76,"date":"2026-08-30","daynight":"N"}},{"type":"Feature","geometry":{"type":"Point","coordinates":[-90.83463,41.48202]},"properties":{"frp":1.76,"date":"2026-08-30","daynight":"N"}},{"type":"Feature","geometry":{"type":"Point","coordinates":[-84.3959,35.73954]},"properties":{"frp":0.44,"date":"2026-08-30","daynight":"N"}},{"type":"Feature","geometry":{"type":"Point","coordinates":[-84.39523,35.74318]},"properties":{"frp":0.44,"date":"2026-08-30","daynight":"N"}},{"type":"Feature","geometry":{"type":"Point","coordinates":[-85.07981,38.72123]},"properties":{"frp":1.38,"date":"2026-08-30","daynight":"N"}},{"type":"Feature","geometry":{"type":"Point","coordinates":[-87.72597,39.00016]},"properties":{"frp":1.59,"date":"2026-08-30","daynight":"N"}},{"type":"Feature","geometry":{"type":"Point","coordinates":[-86.86326,32.49268]},"properties":{"frp":3.55,"date":"2026-08-30","daynight":"N"}},{"type":"Feature","geometry":{"type":"Point","coordinates":[-86.17867,32.62112]},"properties":{"frp":2.2,"date":"2026-08-30","daynight":"N"}},{"type":"Feature","geometry":{"type":"Point","coordinates":[-86.1797,32.62263]},"properties":{"frp":2.36,"date":"2026-08-30","daynight":"N"}},{"type":"Feature","geometry":{"type":"Point","coordinates":[-89.22429,32.92964]},"properties":{"frp":1.43,"date":"2026-08-30","daynight":"N"}},{"type":"Feature","geometry":{"type":"Point","coordinates":[-89.22305,32.92991]},"properties":{"frp":1.96,"date":"2026-08-30","daynight":"N"}},{"type":"Feature","geometry":{"type":"Point","coordinates":[-79.88374,33.00808]},"properties":{"frp":2.39,"date":"2026-08-30","daynight":"N"}},{"type":"Feature","geometry":{"type":"Point","coordinates":[-86.80515,33.08953]},"properties":{"frp":1.91,"date":"2026-08-30","daynight":"N"}},{"type":"Feature","geometry":{"type":"Point","coordinates":[-86.80453,33.09349]},"properties":{"frp":1.91,"date":"2026-08-30","daynight":"N"}},{"type":"Feature","geometry":{"type":"Point","coordinates":[-86.80264,33.10539]},"properties":{"frp":1.45,"date":"2026-08-30","daynight":"N"}},{"type":"Feature","geometry":{"type":"Point","coordinates":[-86.78962,33.217]},"properties":{"frp":1.66,"date":"2026-08-30","daynight":"N"}},{"type":"Feature","geometry":{"type":"Point","coordinates":[-86.78941,33.21927]},"properties":{"frp":1.07,"date":"2026-08-30","daynight":"N"}},{"type":"Feature","geometry":{"type":"Point","coordinates":[-86.81408,33.21966]},"properties":{"frp":1.79,"date":"2026-08-30","daynight":"N"}},{"type":"Feature","geometry":{"type":"Point","coordinates":[-86.81384,33.22207]},"properties":{"frp":1.47,"date":"2026-08-30","daynight":"N"}},{"type":"Feature","geometry":{"type":"Point","coordinates":[-87.51247,33.22883]},"properties":{"frp":1.29,"date":"2026-08-30","daynight":"N"}},{"type":"Feature","geometry":{"type":"Point","coordinates":[-87.51183,33.23296]},"properties":{"frp":1.46,"date":"2026-08-30","daynight":"N"}},{"type":"Feature","geometry":{"type":"Point","coordinates":[-84.75614,33.2622]},"properties":{"frp":0.95,"date":"2026-08-30","daynight":"N"}},{"type":"Feature","geometry":{"type":"Point","coordinates":[-88.57826,33.44656]},"properties":{"frp":2.0,"date":"2026-08-30","daynight":"N"}},{"type":"Feature","geometry":{"type":"Point","coordinates":[-86.75633,33.53245]},"properties":{"frp":3.52,"date":"2026-08-30","daynight":"N"}},{"type":"Feature","geometry":{"type":"Point","coordinates":[-86.75442,33.53416]},"properties":{"frp":2.5,"date":"2026-08-30","daynight":"N"}},{"type":"Feature","geometry":{"type":"Point","coordinates":[-86.76063,33.53484]},"properties":{"frp":2.5,"date":"2026-08-30","daynight":"N"}},{"type":"Feature","geometry":{"type":"Point","coordinates":[-89.86237,33.83224]},"properties":{"frp":0.74,"date":"2026-08-30","daynight":"N"}},{"type":"Feature","geometry":{"type":"Point","coordinates":[-89.86426,33.83269]},"properties":{"frp":1.34,"date":"2026-08-30","daynight":"N"}},{"type":"Feature","geometry":{"type":"Point","coordinates":[-85.17024,33.99386]},"properties":{"frp":0.44,"date":"2026-08-30","daynight":"N"}},{"type":"Feature","geometry":{"type":"Point","coordinates":[-95.2945,34.49056]},"properties":{"frp":1.49,"date":"2026-08-30","daynight":"N"}},{"type":"Feature","geometry":{"type":"Point","coordinates":[-95.30693,34.491]},"properties":{"frp":1.35,"date":"2026-08-30","daynight":"N"}},{"type":"Feature","geometry":{"type":"Point","coordinates":[-95.31339,34.49123]},"properties":{"frp":1.35,"date":"2026-08-30","daynight":"N"}},{"type":"Feature","geometry":{"type":"Point","coordinates":[-95.30484,34.49234]},"properties":{"frp":2.61,"date":"2026-08-30","daynight":"N"}},{"type":"Feature","geometry":{"type":"Point","coordinates":[-95.31118,34.4926]},"properties":{"frp":3.15,"date":"2026-08-30","daynight":"N"}},{"type":"Feature","geometry":{"type":"Point","coordinates":[-95.3063,34.49753]},"properties":{"frp":0.89,"date":"2026-08-30","daynight":"N"}},{"type":"Feature","geometry":{"type":"Point","coordinates":[-95.31905,34.50454]},"properties":{"frp":1.28,"date":"2026-08-30","daynight":"N"}},{"type":"Feature","geometry":{"type":"Point","coordinates":[-95.32521,34.50477]},"properties":{"frp":1.28,"date":"2026-08-30","daynight":"N"}},{"type":"Feature","geometry":{"type":"Point","coordinates":[-95.31673,34.50594]},"properties":{"frp":1.22,"date":"2026-08-30","daynight":"N"}},{"type":"Feature","geometry":{"type":"Point","coordinates":[-95.3233,34.50621]},"properties":{"frp":2.35,"date":"2026-08-30","daynight":"N"}},{"type":"Feature","geometry":{"type":"Point","coordinates":[-95.3292,34.50645]},"properties":{"frp":2.35,"date":"2026-08-30","daynight":"N"}},{"type":"Feature","geometry":{"type":"Point","coordinates":[-95.31817,34.51107]},"properties":{"frp":2.7,"date":"2026-08-30","daynight":"N"}},{"type":"Feature","geometry":{"type":"Point","coordinates":[-95.32469,34.51131]},"properties":{"frp":2.7,"date":"2026-08-30","daynight":"N"}},{"type":"Feature","geometry":{"type":"Point","coordinates":[-95.33109,34.51154]},"properties":{"frp":4.67,"date":"2026-08-30","daynight":"N"}},{"type":"Feature","geometry":{"type":"Point","coordinates":[-95.32285,34.51274]},"properties":{"frp":2.67,"date":"2026-08-30","daynight":"N"}},{"type":"Feature","geometry":{"type":"Point","coordinates":[-95.32912,34.51301]},"properties":{"frp":2.67,"date":"2026-08-30","daynight":"N"}},{"type":"Feature","geometry":{"type":"Point","coordinates":[-87.08766,34.63861]},"properties":{"frp":2.83,"date":"2026-08-30","daynight":"N"}},{"type":"Feature","geometry":{"type":"Point","coordinates":[-87.0921,34.63909]},"properties":{"frp":2.83,"date":"2026-08-30","daynight":"N"}},{"type":"Feature","geometry":{"type":"Point","coordinates":[-87.08492,34.64101]},"properties":{"frp":2.88,"date":"2026-08-30","daynight":"N"}},{"type":"Feature","geometry":{"type":"Point","coordinates":[-87.08431,34.64512]},"properties":{"frp":2.88,"date":"2026-08-30","daynight":"N"}},{"type":"Feature","geometry":{"type":"Point","coordinates":[-87.08199,34.64634]},"properties":{"frp":2.0,"date":"2026-08-30","daynight":"N"}},{"type":"Feature","geometry":{"type":"Point","coordinates":[-90.16748,35.0433]},"properties":{"frp":0.75,"date":"2026-08-30","daynight":"N"}},{"type":"Feature","geometry":{"type":"Point","coordinates":[-96.12242,35.22682]},"properties":{"frp":2.34,"date":"2026-08-30","daynight":"N"}},{"type":"Feature","geometry":{"type":"Point","coordinates":[-96.11301,35.23249]},"properties":{"frp":2.66,"date":"2026-08-30","daynight":"N"}},{"type":"Feature","geometry":{"type":"Point","coordinates":[-96.12084,35.23273]},"properties":{"frp":2.66,"date":"2026-08-30","daynight":"N"}},{"type":"Feature","geometry":{"type":"Point","coordinates":[-96.11412,35.23346]},"properties":{"frp":3.24,"date":"2026-08-30","daynight":"N"}},{"type":"Feature","geometry":{"type":"Point","coordinates":[-96.12194,35.23366]},"properties":{"frp":3.7,"date":"2026-08-30","daynight":"N"}},{"type":"Feature","geometry":{"type":"Point","coordinates":[-96.1127,35.23933]},"properties":{"frp":1.29,"date":"2026-08-30","daynight":"N"}},{"type":"Feature","geometry":{"type":"Point","coordinates":[-89.93268,35.64803]},"properties":{"frp":5.35,"date":"2026-08-30","daynight":"N"}},{"type":"Feature","geometry":{"type":"Point","coordinates":[-89.93178,35.6495]},"properties":{"frp":3.03,"date":"2026-08-30","daynight":"N"}},{"type":"Feature","geometry":{"type":"Point","coordinates":[-88.81357,35.72683]},"properties":{"frp":1.82,"date":"2026-08-30","daynight":"N"}},{"type":"Feature","geometry":{"type":"Point","coordinates":[-95.00029,29.74195]},"properties":{"frp":4.61,"date":"2026-08-30","daynight":"N"}},{"type":"Feature","geometry":{"type":"Point","coordinates":[-94.99976,29.74816]},"properties":{"frp":2.9,"date":"2026-08-30","daynight":"N"}},{"type":"Feature","geometry":{"type":"Point","coordinates":[-93.96771,29.83239]},"properties":{"frp":1.41,"date":"2026-08-30","daynight":"N"}},{"type":"Feature","geometry":{"type":"Point","coordinates":[-93.96345,29.83342]},"properties":{"frp":1.71,"date":"2026-08-30","daynight":"N"}},{"type":"Feature","geometry":{"type":"Point","coordinates":[-93.96717,29.83824]},"properties":{"frp":1.41,"date":"2026-08-30","daynight":"N"}},{"type":"Feature","geometry":{"type":"Point","coordinates":[-90.39585,29.99574]},"properties":{"frp":2.63,"date":"2026-08-30","daynight":"N"}},{"type":"Feature","geometry":{"type":"Point","coordinates":[-90.59979,30.06284]},"properties":{"frp":2.41,"date":"2026-08-30","daynight":"N"}},{"type":"Feature","geometry":{"type":"Point","coordinates":[-93.33092,30.17908]},"properties":{"frp":2.96,"date":"2026-08-30","daynight":"N"}},{"type":"Feature","geometry":{"type":"Point","coordinates":[-93.32601,30.18442]},"properties":{"frp":2.0,"date":"2026-08-30","daynight":"N"}},{"type":"Feature","geometry":{"type":"Point","coordinates":[-88.15034,30.77202]},"properties":{"frp":0.53,"date":"2026-08-30","daynight":"N"}},{"type":"Feature","geometry":{"type":"Point","coordinates":[-88.1546,30.77249]},"properties":{"frp":0.84,"date":"2026-08-30","daynight":"N"}},{"type":"Feature","geometry":{"type":"Point","coordinates":[-91.76163,31.09616]},"properties":{"frp":1.37,"date":"2026-08-30","daynight":"N"}},{"type":"Feature","geometry":{"type":"Point","coordinates":[-91.76408,31.10685]},"properties":{"frp":0.78,"date":"2026-08-30","daynight":"N"}},{"type":"Feature","geometry":{"type":"Point","coordinates":[-91.7599,31.11176]},"properties":{"frp":0.78,"date":"2026-08-30","daynight":"N"}},{"type":"Feature","geometry":{"type":"Point","coordinates":[-87.98801,31.14372]},"properties":{"frp":1.0,"date":"2026-08-30","daynight":"N"}},{"type":"Feature","geometry":{"type":"Point","coordinates":[-87.9775,31.1552]},"properties":{"frp":1.63,"date":"2026-08-30","daynight":"N"}},{"type":"Feature","geometry":{"type":"Point","coordinates":[-87.98182,31.15567]},"properties":{"frp":1.35,"date":"2026-08-30","daynight":"N"}},{"type":"Feature","geometry":{"type":"Point","coordinates":[-90.13679,32.31491]},"properties":{"frp":1.34,"date":"2026-08-30","daynight":"N"}},{"type":"Feature","geometry":{"type":"Point","coordinates":[-94.47668,32.90985]},"properties":{"frp":0.46,"date":"2026-08-30","daynight":"N"}},{"type":"Feature","geometry":{"type":"Point","coordinates":[-94.47729,32.91098]},"properties":{"frp":0.84,"date":"2026-08-30","daynight":"N"}},{"type":"Feature","geometry":{"type":"Point","coordinates":[-80.77467,26.4132]},"properties":{"frp":1.21,"date":"2026-08-30","daynight":"N"}},{"type":"Feature","geometry":{"type":"Point","coordinates":[-80.77393,26.41662]},"properties":{"frp":1.21,"date":"2026-08-30","daynight":"N"}},{"type":"Feature","geometry":{"type":"Point","coordinates":[-97.96292,26.6324]},"properties":{"frp":1.86,"date":"2026-08-30","daynight":"N"}},{"type":"Feature","geometry":{"type":"Point","coordinates":[-97.96382,26.63628]},"properties":{"frp":3.2,"date":"2026-08-30","daynight":"N"}},{"type":"Feature","geometry":{"type":"Point","coordinates":[-97.97146,26.63666]},"properties":{"frp":3.39,"date":"2026-08-30","daynight":"N"}},{"type":"Feature","geometry":{"type":"Point","coordinates":[-97.96243,26.63951]},"properties":{"frp":1.86,"date":"2026-08-30","daynight":"N"}},{"type":"Feature","geometry":{"type":"Point","coordinates":[-97.97007,26.63994]},"properties":{"frp":1.86,"date":"2026-08-30","daynight":"N"}},{"type":"Feature","geometry":{"type":"Point","coordinates":[-97.68029,28.91844]},"properties":{"frp":1.25,"date":"2026-08-30","daynight":"N"}},{"type":"Feature","geometry":{"type":"Point","coordinates":[-97.67808,28.92189]},"properties":{"frp":1.88,"date":"2026-08-30","daynight":"N"}},{"type":"Feature","geometry":{"type":"Point","coordinates":[-94.91154,29.36775]},"properties":{"frp":3.82,"date":"2026-08-30","daynight":"N"}},{"type":"Feature","geometry":{"type":"Point","coordinates":[-94.91234,29.36839]},"properties":{"frp":2.88,"date":"2026-08-30","daynight":"N"}},{"type":"Feature","geometry":{"type":"Point","coordinates":[-94.92165,29.37454]},"properties":{"frp":3.74,"date":"2026-08-30","daynight":"N"}},{"type":"Feature","geometry":{"type":"Point","coordinates":[-94.92245,29.37524]},"properties":{"frp":2.71,"date":"2026-08-30","daynight":"N"}},{"type":"Feature","geometry":{"type":"Point","coordinates":[-98.311,25.69217]},"properties":{"frp":1.53,"date":"2026-08-30","daynight":"N"}},{"type":"Feature","geometry":{"type":"Point","coordinates":[-98.21565,26.0474]},"properties":{"frp":1.93,"date":"2026-08-30","daynight":"N"}},{"type":"Feature","geometry":{"type":"Point","coordinates":[-98.21268,26.05026]},"properties":{"frp":3.76,"date":"2026-08-30","daynight":"N"}},{"type":"Feature","geometry":{"type":"Point","coordinates":[-98.22047,26.05066]},"properties":{"frp":5.91,"date":"2026-08-30","daynight":"N"}},{"type":"Feature","geometry":{"type":"Point","coordinates":[-98.21522,26.05458]},"properties":{"frp":4.86,"date":"2026-08-30","daynight":"N"}},{"type":"Feature","geometry":{"type":"Point","coordinates":[-73.52551,45.33942]},"properties":{"frp":0.69,"date":"2026-08-30","daynight":"N"}},{"type":"Feature","geometry":{"type":"Point","coordinates":[-73.52763,45.34115]},"properties":{"frp":0.6,"date":"2026-08-30","daynight":"N"}},{"type":"Feature","geometry":{"type":"Point","coordinates":[-73.91495,45.78292]},"properties":{"frp":0.19,"date":"2026-08-30","daynight":"N"}},{"type":"Feature","geometry":{"type":"Point","coordinates":[-66.01448,45.27818]},"properties":{"frp":1.18,"date":"2026-08-30","daynight":"N"}},{"type":"Feature","geometry":{"type":"Point","coordinates":[-66.01221,45.28098]},"properties":{"frp":1.52,"date":"2026-08-30","daynight":"N"}},{"type":"Feature","geometry":{"type":"Point","coordinates":[-73.9133,45.78299]},"properties":{"frp":0.48,"date":"2026-08-30","daynight":"N"}},{"type":"Feature","geometry":{"type":"Point","coordinates":[-73.52396,45.33993]},"properties":{"frp":0.94,"date":"2026-08-30","daynight":"N"}},{"type":"Feature","geometry":{"type":"Point","coordinates":[-90.83299,41.48213]},"properties":{"frp":1.64,"date":"2026-08-30","daynight":"N"}},{"type":"Feature","geometry":{"type":"Point","coordinates":[-90.82584,41.48531]},"properties":{"frp":1.64,"date":"2026-08-30","daynight":"N"}},{"type":"Feature","geometry":{"type":"Point","coordinates":[-85.0806,38.71963]},"properties":{"frp":0.47,"date":"2026-08-30","daynight":"N"}},{"type":"Feature","geometry":{"type":"Point","coordinates":[-85.0797,38.72291]},"properties":{"frp":0.47,"date":"2026-08-30","daynight":"N"}},{"type":"Feature","geometry":{"type":"Point","coordinates":[-87.72146,38.99183]},"properties":{"frp":1.34,"date":"2026-08-30","daynight":"N"}},{"type":"Feature","geometry":{"type":"Point","coordinates":[-87.72527,38.99582]},"properties":{"frp":0.97,"date":"2026-08-30","daynight":"N"}},{"type":"Feature","geometry":{"type":"Point","coordinates":[-79.87892,33.00792]},"properties":{"frp":0.82,"date":"2026-08-30","daynight":"N"}},{"type":"Feature","geometry":{"type":"Point","coordinates":[-79.884,33.00904]},"properties":{"frp":0.82,"date":"2026-08-30","daynight":"N"}},{"type":"Feature","geometry":{"type":"Point","coordinates":[-79.88264,33.01339]},"properties":{"frp":1.68,"date":"2026-08-30","daynight":"N"}},{"type":"Feature","geometry":{"type":"Point","coordinates":[-84.75442,33.2618]},"properties":{"frp":1.16,"date":"2026-08-30","daynight":"N"}},{"type":"Feature","geometry":{"type":"Point","coordinates":[-84.75223,33.2631]},"properties":{"frp":0.77,"date":"2026-08-30","daynight":"N"}},{"type":"Feature","geometry":{"type":"Point","coordinates":[-86.75856,33.53275]},"properties":{"frp":2.25,"date":"2026-08-30","daynight":"N"}},{"type":"Feature","geometry":{"type":"Point","coordinates":[-86.75779,33.53603]},"properties":{"frp":2.61,"date":"2026-08-30","daynight":"N"}},{"type":"Feature","geometry":{"type":"Point","coordinates":[-85.16944,33.99482]},"properties":{"frp":0.58,"date":"2026-08-30","daynight":"N"}},{"type":"Feature","geometry":{"type":"Point","coordinates":[-85.17085,33.99561]},"properties":{"frp":0.53,"date":"2026-08-30","daynight":"N"}},{"type":"Feature","geometry":{"type":"Point","coordinates":[-95.29864,34.48862]},"properties":{"frp":2.99,"date":"2026-08-30","daynight":"N"}},{"type":"Feature","geometry":{"type":"Point","coordinates":[-95.30923,34.48956]},"properties":{"frp":1.85,"date":"2026-08-30","daynight":"N"}},{"type":"Feature","geometry":{"type":"Point","coordinates":[-95.31477,34.49004]},"properties":{"frp":1.85,"date":"2026-08-30","daynight":"N"}},{"type":"Feature","geometry":{"type":"Point","coordinates":[-95.2924,34.49264]},"properties":{"frp":1.45,"date":"2026-08-30","daynight":"N"}},{"type":"Feature","geometry":{"type":"Point","coordinates":[-95.30311,34.4936]},"properties":{"frp":2.41,"date":"2026-08-30","daynight":"N"}},{"type":"Feature","geometry":{"type":"Point","coordinates":[-95.30852,34.49408]},"properties":{"frp":4.76,"date":"2026-08-30","daynight":"N"}},{"type":"Feature","geometry":{"type":"Point","coordinates":[-95.31406,34.49456]},"properties":{"frp":4.76,"date":"2026-08-30","daynight":"N"}},{"type":"Feature","geometry":{"type":"Point","coordinates":[-95.30249,34.49811]},"properties":{"frp":2.41,"date":"2026-08-30","daynight":"N"}},{"type":"Feature","geometry":{"type":"Point","coordinates":[-95.31263,34.50359]},"properties":{"frp":2.56,"date":"2026-08-30","daynight":"N"}},{"type":"Feature","geometry":{"type":"Point","coordinates":[-95.31828,34.50409]},"properties":{"frp":3.27,"date":"2026-08-30","daynight":"N"}},{"type":"Feature","geometry":{"type":"Point","coordinates":[-95.32368,34.50457]},"properties":{"frp":3.27,"date":"2026-08-30","daynight":"N"}},{"type":"Feature","geometry":{"type":"Point","coordinates":[-95.3175,34.5086]},"properties":{"frp":3.27,"date":"2026-08-30","daynight":"N"}},{"type":"Feature","geometry":{"type":"Point","coordinates":[-95.323,34.50909]},"properties":{"frp":3.27,"date":"2026-08-30","daynight":"N"}},{"type":"Feature","geometry":{"type":"Point","coordinates":[-95.32829,34.50956]},"properties":{"frp":7.3,"date":"2026-08-30","daynight":"N"}},{"type":"Feature","geometry":{"type":"Point","coordinates":[-95.31688,34.51311]},"properties":{"frp":6.01,"date":"2026-08-30","daynight":"N"}},{"type":"Feature","geometry":{"type":"Point","coordinates":[-95.32246,34.51361]},"properties":{"frp":6.01,"date":"2026-08-30","daynight":"N"}},{"type":"Feature","geometry":{"type":"Point","coordinates":[-95.32786,34.5141]},"properties":{"frp":9.07,"date":"2026-08-30","daynight":"N"}},{"type":"Feature","geometry":{"type":"Point","coordinates":[-87.08605,34.63999]},"properties":{"frp":1.46,"date":"2026-08-30","daynight":"N"}},{"type":"Feature","geometry":{"type":"Point","coordinates":[-87.08529,34.64326]},"properties":{"frp":1.46,"date":"2026-08-30","daynight":"N"}},{"type":"Feature","geometry":{"type":"Point","coordinates":[-87.08247,34.64646]},"properties":{"frp":1.21,"date":"2026-08-30","daynight":"N"}},{"type":"Feature","geometry":{"type":"Point","coordinates":[-90.16351,35.04454]},"properties":{"frp":3.63,"date":"2026-08-30","daynight":"N"}},{"type":"Feature","geometry":{"type":"Point","coordinates":[-90.16687,35.05214]},"properties":{"frp":0.73,"date":"2026-08-30","daynight":"N"}},{"type":"Feature","geometry":{"type":"Point","coordinates":[-96.11909,35.22901]},"properties":{"frp":7.41,"date":"2026-08-30","daynight":"N"}},{"type":"Feature","geometry":{"type":"Point","coordinates":[-96.11201,35.23326]},"properties":{"frp":7.41,"date":"2026-08-30","daynight":"N"}},{"type":"Feature","geometry":{"type":"Point","coordinates":[-96.11844,35.23378]},"properties":{"frp":7.41,"date":"2026-08-30","daynight":"N"}},{"type":"Feature","geometry":{"type":"Point","coordinates":[-96.12485,35.2343]},"properties":{"frp":10.32,"date":"2026-08-30","daynight":"N"}},{"type":"Feature","geometry":{"type":"Point","coordinates":[-96.11142,35.23804]},"properties":{"frp":4.77,"date":"2026-08-30","daynight":"N"}},{"type":"Feature","geometry":{"type":"Point","coordinates":[-96.1178,35.23856]},"properties":{"frp":4.77,"date":"2026-08-30","daynight":"N"}},{"type":"Feature","geometry":{"type":"Point","coordinates":[-96.12417,35.23908]},"properties":{"frp":3.29,"date":"2026-08-30","daynight":"N"}},{"type":"Feature","geometry":{"type":"Point","coordinates":[-89.93438,35.64925]},"properties":{"frp":4.72,"date":"2026-08-30","daynight":"N"}},{"type":"Feature","geometry":{"type":"Point","coordinates":[-88.80803,35.72934]},"properties":{"frp":1.51,"date":"2026-08-30","daynight":"N"}},{"type":"Feature","geometry":{"type":"Point","coordinates":[-88.81245,35.72997]},"properties":{"frp":1.51,"date":"2026-08-30","daynight":"N"}},{"type":"Feature","geometry":{"type":"Point","coordinates":[-84.39555,35.74301]},"properties":{"frp":1.06,"date":"2026-08-30","daynight":"N"}},{"type":"Feature","geometry":{"type":"Point","coordinates":[-88.14986,30.77408]},"properties":{"frp":0.9,"date":"2026-08-30","daynight":"N"}},{"type":"Feature","geometry":{"type":"Point","coordinates":[-91.76237,31.09748]},"properties":{"frp":1.57,"date":"2026-08-30","daynight":"N"}},{"type":"Feature","geometry":{"type":"Point","coordinates":[-91.76111,31.10464]},"properties":{"frp":1.2,"date":"2026-08-30","daynight":"N"}},{"type":"Feature","geometry":{"type":"Point","coordinates":[-91.76524,31.10883]},"properties":{"frp":1.2,"date":"2026-08-30","daynight":"N"}},{"type":"Feature","geometry":{"type":"Point","coordinates":[-91.75984,31.11179]},"properties":{"frp":1.44,"date":"2026-08-30","daynight":"N"}},{"type":"Feature","geometry":{"type":"Point","coordinates":[-87.98436,31.14303]},"properties":{"frp":1.18,"date":"2026-08-30","daynight":"N"}},{"type":"Feature","geometry":{"type":"Point","coordinates":[-87.97753,31.15553]},"properties":{"frp":1.59,"date":"2026-08-30","daynight":"N"}},{"type":"Feature","geometry":{"type":"Point","coordinates":[-87.98151,31.15616]},"properties":{"frp":0.84,"date":"2026-08-30","daynight":"N"}},{"type":"Feature","geometry":{"type":"Point","coordinates":[-87.98009,31.16273]},"properties":{"frp":1.28,"date":"2026-08-30","daynight":"N"}},{"type":"Feature","geometry":{"type":"Point","coordinates":[-90.13287,32.31458]},"properties":{"frp":1.08,"date":"2026-08-30","daynight":"N"}},{"type":"Feature","geometry":{"type":"Point","coordinates":[-90.13722,32.31519]},"properties":{"frp":1.08,"date":"2026-08-30","daynight":"N"}},{"type":"Feature","geometry":{"type":"Point","coordinates":[-86.86242,32.49503]},"properties":{"frp":2.39,"date":"2026-08-30","daynight":"N"}},{"type":"Feature","geometry":{"type":"Point","coordinates":[-86.86654,32.49572]},"properties":{"frp":2.39,"date":"2026-08-30","daynight":"N"}},{"type":"Feature","geometry":{"type":"Point","coordinates":[-86.17619,32.6223]},"properties":{"frp":1.64,"date":"2026-08-30","daynight":"N"}},{"type":"Feature","geometry":{"type":"Point","coordinates":[-94.47661,32.91223]},"properties":{"frp":0.65,"date":"2026-08-30","daynight":"N"}},{"type":"Feature","geometry":{"type":"Point","coordinates":[-94.47802,32.91236]},"properties":{"frp":0.74,"date":"2026-08-30","daynight":"N"}},{"type":"Feature","geometry":{"type":"Point","coordinates":[-89.22604,32.93141]},"properties":{"frp":1.97,"date":"2026-08-30","daynight":"N"}},{"type":"Feature","geometry":{"type":"Point","coordinates":[-86.80424,33.09303]},"properties":{"frp":3.79,"date":"2026-08-30","daynight":"N"}},{"type":"Feature","geometry":{"type":"Point","coordinates":[-86.80118,33.10619]},"properties":{"frp":1.03,"date":"2026-08-30","daynight":"N"}},{"type":"Feature","geometry":{"type":"Point","coordinates":[-86.78924,33.21698]},"properties":{"frp":1.22,"date":"2026-08-30","daynight":"N"}},{"type":"Feature","geometry":{"type":"Point","coordinates":[-86.81391,33.22105]},"properties":{"frp":1.94,"date":"2026-08-30","daynight":"N"}},{"type":"Feature","geometry":{"type":"Point","coordinates":[-87.51043,33.23149]},"properties":{"frp":1.27,"date":"2026-08-30","daynight":"N"}},{"type":"Feature","geometry":{"type":"Point","coordinates":[-87.51451,33.23214]},"properties":{"frp":1.39,"date":"2026-08-30","daynight":"N"}},{"type":"Feature","geometry":{"type":"Point","coordinates":[-87.50969,33.23477]},"properties":{"frp":1.78,"date":"2026-08-30","daynight":"N"}},{"type":"Feature","geometry":{"type":"Point","coordinates":[-88.57889,33.44768]},"properties":{"frp":1.62,"date":"2026-08-30","daynight":"N"}},{"type":"Feature","geometry":{"type":"Point","coordinates":[-88.56988,33.44973]},"properties":{"frp":1.45,"date":"2026-08-30","daynight":"N"}},{"type":"Feature","geometry":{"type":"Point","coordinates":[-89.86259,33.83335]},"properties":{"frp":0.8,"date":"2026-08-30","daynight":"N"}},{"type":"Feature","geometry":{"type":"Point","coordinates":[-95.30061,34.48726]},"properties":{"frp":2.18,"date":"2026-08-30","daynight":"N"}},{"type":"Feature","geometry":{"type":"Point","coordinates":[-95.3168,34.4888]},"properties":{"frp":1.1,"date":"2026-08-30","daynight":"N"}},{"type":"Feature","geometry":{"type":"Point","coordinates":[-95.29442,34.49125]},"properties":{"frp":2.18,"date":"2026-08-30","daynight":"N"}},{"type":"Feature","geometry":{"type":"Point","coordinates":[-95.31047,34.49277]},"properties":{"frp":9.31,"date":"2026-08-30","daynight":"N"}},{"type":"Feature","geometry":{"type":"Point","coordinates":[-95.31613,34.49331]},"properties":{"frp":1.1,"date":"2026-08-30","daynight":"N"}},{"type":"Feature","geometry":{"type":"Point","coordinates":[-98.70425,34.63311]},"properties":{"frp":2.55,"date":"2026-08-30","daynight":"N"}},{"type":"Feature","geometry":{"type":"Point","coordinates":[-98.70155,34.63315]},"properties":{"frp":1.45,"date":"2026-08-30","daynight":"N"}},{"type":"Feature","geometry":{"type":"Point","coordinates":[-98.70595,34.63344]},"properties":{"frp":2.04,"date":"2026-08-30","daynight":"N"}},{"type":"Feature","geometry":{"type":"Point","coordinates":[-80.775,26.41303]},"properties":{"frp":1.66,"date":"2026-08-30","daynight":"N"}},{"type":"Feature","geometry":{"type":"Point","coordinates":[-80.77427,26.41429]},"properties":{"frp":1.86,"date":"2026-08-30","daynight":"N"}},{"type":"Feature","geometry":{"type":"Point","coordinates":[-80.7737,26.4178]},"properties":{"frp":1.66,"date":"2026-08-30","daynight":"N"}},{"type":"Feature","geometry":{"type":"Point","coordinates":[-80.77296,26.41905]},"properties":{"frp":1.86,"date":"2026-08-30","daynight":"N"}},{"type":"Feature","geometry":{"type":"Point","coordinates":[-98.18613,28.45365]},"properties":{"frp":1.5,"date":"2026-08-30","daynight":"N"}},{"type":"Feature","geometry":{"type":"Point","coordinates":[-98.19231,28.45894]},"properties":{"frp":2.21,"date":"2026-08-30","daynight":"N"}},{"type":"Feature","geometry":{"type":"Point","coordinates":[-98.19206,28.45927]},"properties":{"frp":1.78,"date":"2026-08-30","daynight":"N"}},{"type":"Feature","geometry":{"type":"Point","coordinates":[-97.67863,28.92334]},"properties":{"frp":2.24,"date":"2026-08-30","daynight":"N"}},{"type":"Feature","geometry":{"type":"Point","coordinates":[-94.90987,29.37074]},"properties":{"frp":3.17,"date":"2026-08-30","daynight":"N"}},{"type":"Feature","geometry":{"type":"Point","coordinates":[-94.9221,29.37631]},"properties":{"frp":2.57,"date":"2026-08-30","daynight":"N"}},{"type":"Feature","geometry":{"type":"Point","coordinates":[-94.90865,29.37903]},"properties":{"frp":2.29,"date":"2026-08-30","daynight":"N"}},{"type":"Feature","geometry":{"type":"Point","coordinates":[-94.99979,29.74584]},"properties":{"frp":3.92,"date":"2026-08-30","daynight":"N"}},{"type":"Feature","geometry":{"type":"Point","coordinates":[-95.0149,29.7465]},"properties":{"frp":2.95,"date":"2026-08-30","daynight":"N"}},{"type":"Feature","geometry":{"type":"Point","coordinates":[-95.01299,29.74723]},"properties":{"frp":3.09,"date":"2026-08-30","daynight":"N"}},{"type":"Feature","geometry":{"type":"Point","coordinates":[-95.01742,29.74769]},"properties":{"frp":3.1,"date":"2026-08-30","daynight":"N"}},{"type":"Feature","geometry":{"type":"Point","coordinates":[-94.9967,29.74871]},"properties":{"frp":2.55,"date":"2026-08-30","daynight":"N"}},{"type":"Feature","geometry":{"type":"Point","coordinates":[-93.88935,29.95416]},"properties":{"frp":3.27,"date":"2026-08-30","daynight":"N"}},{"type":"Feature","geometry":{"type":"Point","coordinates":[-93.89015,29.95491]},"properties":{"frp":2.35,"date":"2026-08-30","daynight":"N"}},{"type":"Feature","geometry":{"type":"Point","coordinates":[-93.89328,29.96663]},"properties":{"frp":3.1,"date":"2026-08-30","daynight":"N"}},{"type":"Feature","geometry":{"type":"Point","coordinates":[-90.40689,29.99493]},"properties":{"frp":2.39,"date":"2026-08-30","daynight":"N"}},{"type":"Feature","geometry":{"type":"Point","coordinates":[-90.39375,29.9965]},"properties":{"frp":2.37,"date":"2026-08-30","daynight":"N"}},{"type":"Feature","geometry":{"type":"Point","coordinates":[-90.40496,30.00504]},"properties":{"frp":1.25,"date":"2026-08-30","daynight":"N"}},{"type":"Feature","geometry":{"type":"Point","coordinates":[-90.59787,30.06118]},"properties":{"frp":1.26,"date":"2026-08-30","daynight":"N"}},{"type":"Feature","geometry":{"type":"Point","coordinates":[-90.59723,30.06457]},"properties":{"frp":1.26,"date":"2026-08-30","daynight":"N"}},{"type":"Feature","geometry":{"type":"Point","coordinates":[-93.32627,30.1818]},"properties":{"frp":4.43,"date":"2026-08-30","daynight":"N"}},{"type":"Feature","geometry":{"type":"Point","coordinates":[-99.03204,31.07018]},"properties":{"frp":0.91,"date":"2026-08-30","daynight":"N"}},{"type":"Feature","geometry":{"type":"Point","coordinates":[-99.02988,31.07393]},"properties":{"frp":1.13,"date":"2026-08-30","daynight":"N"}},{"type":"Feature","geometry":{"type":"Point","coordinates":[-99.03394,31.07424]},"properties":{"frp":1.01,"date":"2026-08-30","daynight":"N"}},{"type":"Feature","geometry":{"type":"Point","coordinates":[-98.30932,25.69567]},"properties":{"frp":3.33,"date":"2026-08-30","daynight":"N"}},{"type":"Feature","geometry":{"type":"Point","coordinates":[-98.30951,25.69818]},"properties":{"frp":2.55,"date":"2026-08-30","daynight":"N"}},{"type":"Feature","geometry":{"type":"Point","coordinates":[-98.21548,26.05078]},"properties":{"frp":5.19,"date":"2026-08-30","daynight":"N"}},{"type":"Feature","geometry":{"type":"Point","coordinates":[-98.2149,26.05567]},"properties":{"frp":0.75,"date":"2026-08-30","daynight":"N"}},{"type":"Feature","geometry":{"type":"Point","coordinates":[-97.95808,26.63077]},"properties":{"frp":1.83,"date":"2026-08-30","daynight":"N"}},{"type":"Feature","geometry":{"type":"Point","coordinates":[-97.95939,26.632]},"properties":{"frp":2.48,"date":"2026-08-30","daynight":"N"}},{"type":"Feature","geometry":{"type":"Point","coordinates":[-97.95746,26.63561]},"properties":{"frp":1.83,"date":"2026-08-30","daynight":"N"}},{"type":"Feature","geometry":{"type":"Point","coordinates":[-97.96338,26.63617]},"properties":{"frp":1.83,"date":"2026-08-30","daynight":"N"}},{"type":"Feature","geometry":{"type":"Point","coordinates":[-97.96931,26.63672]},"properties":{"frp":2.37,"date":"2026-08-30","daynight":"N"}},{"type":"Feature","geometry":{"type":"Point","coordinates":[-97.95879,26.63684]},"properties":{"frp":2.48,"date":"2026-08-30","daynight":"N"}},{"type":"Feature","geometry":{"type":"Point","coordinates":[-97.96468,26.63743]},"properties":{"frp":2.02,"date":"2026-08-30","daynight":"N"}},{"type":"Feature","geometry":{"type":"Point","coordinates":[-97.97061,26.63803]},"properties":{"frp":2.02,"date":"2026-08-30","daynight":"N"}},{"type":"Feature","geometry":{"type":"Point","coordinates":[-97.96278,26.64101]},"properties":{"frp":3.03,"date":"2026-08-30","daynight":"N"}},{"type":"Feature","geometry":{"type":"Point","coordinates":[-97.96871,26.64157]},"properties":{"frp":3.49,"date":"2026-08-30","daynight":"N"}},{"type":"Feature","geometry":{"type":"Point","coordinates":[-97.9641,26.64227]},"properties":{"frp":1.99,"date":"2026-08-30","daynight":"N"}},{"type":"Feature","geometry":{"type":"Point","coordinates":[-97.97002,26.64287]},"properties":{"frp":1.99,"date":"2026-08-30","daynight":"N"}}]}