{"type":"FeatureCollection","features":[{"type":"Feature","geometry":{"type":"Point","coordinates":[-83.40305,45.07501]},"properties":{"frp":2.02,"date":"2026-09-07","daynight":"N"}},{"type":"Feature","geometry":{"type":"Point","coordinates":[-73.24938,45.8368]},"properties":{"frp":3.64,"date":"2026-09-07","daynight":"N"}},{"type":"Feature","geometry":{"type":"Point","coordinates":[-81.6812,41.44955]},"properties":{"frp":1.07,"date":"2026-09-07","daynight":"N"}},{"type":"Feature","geometry":{"type":"Point","coordinates":[-81.6736,41.45592]},"properties":{"frp":1.07,"date":"2026-09-07","daynight":"N"}},{"type":"Feature","geometry":{"type":"Point","coordinates":[-81.68102,41.45607]},"properties":{"frp":1.07,"date":"2026-09-07","daynight":"N"}},{"type":"Feature","geometry":{"type":"Point","coordinates":[-81.67345,41.46243]},"properties":{"frp":1.48,"date":"2026-09-07","daynight":"N"}},{"type":"Feature","geometry":{"type":"Point","coordinates":[-81.68076,41.46257]},"properties":{"frp":1.48,"date":"2026-09-07","daynight":"N"}},{"type":"Feature","geometry":{"type":"Point","coordinates":[-83.36591,41.46859]},"properties":{"frp":4.42,"date":"2026-09-07","daynight":"N"}},{"type":"Feature","geometry":{"type":"Point","coordinates":[-81.66573,41.4753]},"properties":{"frp":0.55,"date":"2026-09-07","daynight":"N"}},{"type":"Feature","geometry":{"type":"Point","coordinates":[-84.04507,41.56472]},"properties":{"frp":0.73,"date":"2026-09-07","daynight":"N"}},{"type":"Feature","geometry":{"type":"Point","coordinates":[-83.11643,42.28283]},"properties":{"frp":2.46,"date":"2026-09-07","daynight":"N"}},{"type":"Feature","geometry":{"type":"Point","coordinates":[-80.09808,42.80293]},"properties":{"frp":2.56,"date":"2026-09-07","daynight":"N"}},{"type":"Feature","geometry":{"type":"Point","coordinates":[-80.09657,42.80294]},"properties":{"frp":2.41,"date":"2026-09-07","daynight":"N"}},{"type":"Feature","geometry":{"type":"Point","coordinates":[-80.10277,42.80309]},"properties":{"frp":2.83,"date":"2026-09-07","daynight":"N"}},{"type":"Feature","geometry":{"type":"Point","coordinates":[-80.10427,42.80311]},"properties":{"frp":2.56,"date":"2026-09-07","daynight":"N"}},{"type":"Feature","geometry":{"type":"Point","coordinates":[-80.09769,42.809]},"properties":{"frp":2.23,"date":"2026-09-07","daynight":"N"}},{"type":"Feature","geometry":{"type":"Point","coordinates":[-80.09617,42.80901]},"properties":{"frp":2.41,"date":"2026-09-07","daynight":"N"}},{"type":"Feature","geometry":{"type":"Point","coordinates":[-80.10232,42.80917]},"properties":{"frp":2.83,"date":"2026-09-07","daynight":"N"}},{"type":"Feature","geometry":{"type":"Point","coordinates":[-80.09119,42.8149]},"properties":{"frp":2.21,"date":"2026-09-07","daynight":"N"}},{"type":"Feature","geometry":{"type":"Point","coordinates":[-80.09729,42.81508]},"properties":{"frp":2.23,"date":"2026-09-07","daynight":"N"}},{"type":"Feature","geometry":{"type":"Point","coordinates":[-80.09576,42.81509]},"properties":{"frp":2.07,"date":"2026-09-07","daynight":"N"}},{"type":"Feature","geometry":{"type":"Point","coordinates":[-82.41801,42.94442]},"properties":{"frp":0.9,"date":"2026-09-07","daynight":"N"}},{"type":"Feature","geometry":{"type":"Point","coordinates":[-82.42032,42.94608]},"properties":{"frp":2.12,"date":"2026-09-07","daynight":"N"}},{"type":"Feature","geometry":{"type":"Point","coordinates":[-82.41792,42.9512]},"properties":{"frp":0.9,"date":"2026-09-07","daynight":"N"}},{"type":"Feature","geometry":{"type":"Point","coordinates":[-79.80852,43.25926]},"properties":{"frp":2.26,"date":"2026-09-07","daynight":"N"}},{"type":"Feature","geometry":{"type":"Point","coordinates":[-79.80816,43.26527]},"properties":{"frp":2.26,"date":"2026-09-07","daynight":"N"}},{"type":"Feature","geometry":{"type":"Point","coordinates":[-79.79583,43.27094]},"properties":{"frp":2.34,"date":"2026-09-07","daynight":"N"}},{"type":"Feature","geometry":{"type":"Point","coordinates":[-79.80177,43.27111]},"properties":{"frp":2.34,"date":"2026-09-07","daynight":"N"}},{"type":"Feature","geometry":{"type":"Point","coordinates":[-79.79552,43.27695]},"properties":{"frp":2.34,"date":"2026-09-07","daynight":"N"}},{"type":"Feature","geometry":{"type":"Point","coordinates":[-79.98575,43.28837]},"properties":{"frp":0.67,"date":"2026-09-07","daynight":"N"}},{"type":"Feature","geometry":{"type":"Point","coordinates":[-79.98537,43.29443]},"properties":{"frp":0.67,"date":"2026-09-07","daynight":"N"}},{"type":"Feature","geometry":{"type":"Point","coordinates":[-75.2002,43.29487]},"properties":{"frp":2.22,"date":"2026-09-07","daynight":"N"}},{"type":"Feature","geometry":{"type":"Point","coordinates":[-75.19943,43.29961]},"properties":{"frp":2.22,"date":"2026-09-07","daynight":"N"}},{"type":"Feature","geometry":{"type":"Point","coordinates":[-77.12043,44.05305]},"properties":{"frp":1.29,"date":"2026-09-07","daynight":"N"}},{"type":"Feature","geometry":{"type":"Point","coordinates":[-77.11975,44.05426]},"properties":{"frp":0.98,"date":"2026-09-07","daynight":"N"}},{"type":"Feature","geometry":{"type":"Point","coordinates":[-84.24272,38.83234]},"properties":{"frp":3.54,"date":"2026-09-07","daynight":"N"}},{"type":"Feature","geometry":{"type":"Point","coordinates":[-84.23798,38.83373]},"properties":{"frp":2.22,"date":"2026-09-07","daynight":"N"}},{"type":"Feature","geometry":{"type":"Point","coordinates":[-84.24622,38.83376]},"properties":{"frp":2.7,"date":"2026-09-07","daynight":"N"}},{"type":"Feature","geometry":{"type":"Point","coordinates":[-84.40275,39.47057]},"properties":{"frp":1.37,"date":"2026-09-07","daynight":"N"}},{"type":"Feature","geometry":{"type":"Point","coordinates":[-84.37819,39.47821]},"properties":{"frp":3.21,"date":"2026-09-07","daynight":"N"}},{"type":"Feature","geometry":{"type":"Point","coordinates":[-84.36471,39.48497]},"properties":{"frp":1.56,"date":"2026-09-07","daynight":"N"}},{"type":"Feature","geometry":{"type":"Point","coordinates":[-84.38363,39.48509]},"properties":{"frp":4.07,"date":"2026-09-07","daynight":"N"}},{"type":"Feature","geometry":{"type":"Point","coordinates":[-84.39314,39.48514]},"properties":{"frp":2.07,"date":"2026-09-07","daynight":"N"}},{"type":"Feature","geometry":{"type":"Point","coordinates":[-84.38754,39.48553]},"properties":{"frp":3.42,"date":"2026-09-07","daynight":"N"}},{"type":"Feature","geometry":{"type":"Point","coordinates":[-75.63832,39.5855]},"properties":{"frp":1.6,"date":"2026-09-07","daynight":"N"}},{"type":"Feature","geometry":{"type":"Point","coordinates":[-75.6377,39.59018]},"properties":{"frp":2.82,"date":"2026-09-07","daynight":"N"}},{"type":"Feature","geometry":{"type":"Point","coordinates":[-76.81591,39.94068]},"properties":{"frp":1.89,"date":"2026-09-07","daynight":"N"}},{"type":"Feature","geometry":{"type":"Point","coordinates":[-76.81403,39.94156]},"properties":{"frp":2.6,"date":"2026-09-07","daynight":"N"}},{"type":"Feature","geometry":{"type":"Point","coordinates":[-79.88077,40.3039]},"properties":{"frp":1.9,"date":"2026-09-07","daynight":"N"}},{"type":"Feature","geometry":{"type":"Point","coordinates":[-79.85229,40.39479]},"properties":{"frp":1.71,"date":"2026-09-07","daynight":"N"}},{"type":"Feature","geometry":{"type":"Point","coordinates":[-79.858,40.39503]},"properties":{"frp":1.71,"date":"2026-09-07","daynight":"N"}},{"type":"Feature","geometry":{"type":"Point","coordinates":[-74.22258,40.63535]},"properties":{"frp":2.04,"date":"2026-09-07","daynight":"N"}},{"type":"Feature","geometry":{"type":"Point","coordinates":[-81.43185,40.75839]},"properties":{"frp":0.47,"date":"2026-09-07","daynight":"N"}},{"type":"Feature","geometry":{"type":"Point","coordinates":[-81.43394,40.75912]},"properties":{"frp":0.79,"date":"2026-09-07","daynight":"N"}},{"type":"Feature","geometry":{"type":"Point","coordinates":[-83.21419,41.22241]},"properties":{"frp":1.54,"date":"2026-09-07","daynight":"N"}},{"type":"Feature","geometry":{"type":"Point","coordinates":[-83.21061,41.22719]},"properties":{"frp":1.99,"date":"2026-09-07","daynight":"N"}},{"type":"Feature","geometry":{"type":"Point","coordinates":[-76.80589,36.35342]},"properties":{"frp":1.1,"date":"2026-09-07","daynight":"N"}},{"type":"Feature","geometry":{"type":"Point","coordinates":[-76.80515,36.35505]},"properties":{"frp":3.39,"date":"2026-09-07","daynight":"N"}},{"type":"Feature","geometry":{"type":"Point","coordinates":[-76.80533,36.35825]},"properties":{"frp":1.1,"date":"2026-09-07","daynight":"N"}},{"type":"Feature","geometry":{"type":"Point","coordinates":[-82.26208,33.62164]},"properties":{"frp":21.78,"date":"2026-09-07","daynight":"N"}},{"type":"Feature","geometry":{"type":"Point","coordinates":[-82.26807,33.62191]},"properties":{"frp":20.71,"date":"2026-09-07","daynight":"N"}},{"type":"Feature","geometry":{"type":"Point","coordinates":[-81.48962,28.29495]},"properties":{"frp":1.87,"date":"2026-09-07","daynight":"N"}},{"type":"Feature","geometry":{"type":"Point","coordinates":[-81.49081,28.29651]},"properties":{"frp":2.34,"date":"2026-09-07","daynight":"N"}},{"type":"Feature","geometry":{"type":"Point","coordinates":[-81.48905,28.3008]},"properties":{"frp":1.16,"date":"2026-09-07","daynight":"N"}},{"type":"Feature","geometry":{"type":"Point","coordinates":[-80.15375,26.27997]},"properties":{"frp":0.84,"date":"2026-09-07","daynight":"N"}},{"type":"Feature","geometry":{"type":"Point","coordinates":[-80.15578,26.28145]},"properties":{"frp":0.92,"date":"2026-09-07","daynight":"N"}},{"type":"Feature","geometry":{"type":"Point","coordinates":[-79.80967,43.26101]},"properties":{"frp":1.35,"date":"2026-09-07","daynight":"N"}},{"type":"Feature","geometry":{"type":"Point","coordinates":[-79.80897,43.26531]},"properties":{"frp":1.77,"date":"2026-09-07","daynight":"N"}},{"type":"Feature","geometry":{"type":"Point","coordinates":[-79.80824,43.2696]},"properties":{"frp":1.77,"date":"2026-09-07","daynight":"N"}},{"type":"Feature","geometry":{"type":"Point","coordinates":[-79.80204,43.27341]},"properties":{"frp":1.78,"date":"2026-09-07","daynight":"N"}},{"type":"Feature","geometry":{"type":"Point","coordinates":[-79.80756,43.27389]},"properties":{"frp":1.91,"date":"2026-09-07","daynight":"N"}},{"type":"Feature","geometry":{"type":"Point","coordinates":[-79.98878,43.29094]},"properties":{"frp":0.74,"date":"2026-09-07","daynight":"N"}},{"type":"Feature","geometry":{"type":"Point","coordinates":[-79.98423,43.2937]},"properties":{"frp":2.19,"date":"2026-09-07","daynight":"N"}},{"type":"Feature","geometry":{"type":"Point","coordinates":[-79.98808,43.29528]},"properties":{"frp":0.74,"date":"2026-09-07","daynight":"N"}},{"type":"Feature","geometry":{"type":"Point","coordinates":[-75.19726,43.29952]},"properties":{"frp":2.58,"date":"2026-09-07","daynight":"N"}},{"type":"Feature","geometry":{"type":"Point","coordinates":[-75.20263,43.3002]},"properties":{"frp":2.58,"date":"2026-09-07","daynight":"N"}},{"type":"Feature","geometry":{"type":"Point","coordinates":[-77.12041,44.05351]},"properties":{"frp":1.85,"date":"2026-09-07","daynight":"N"}},{"type":"Feature","geometry":{"type":"Point","coordinates":[-83.40374,45.07576]},"properties":{"frp":1.31,"date":"2026-09-07","daynight":"N"}},{"type":"Feature","geometry":{"type":"Point","coordinates":[-83.40819,45.07598]},"properties":{"frp":1.31,"date":"2026-09-07","daynight":"N"}},{"type":"Feature","geometry":{"type":"Point","coordinates":[-73.2485,45.83868]},"properties":{"frp":2.48,"date":"2026-09-07","daynight":"N"}},{"type":"Feature","geometry":{"type":"Point","coordinates":[-73.25372,45.83939]},"properties":{"frp":1.3,"date":"2026-09-07","daynight":"N"}},{"type":"Feature","geometry":{"type":"Point","coordinates":[-75.63334,39.58949]},"properties":{"frp":2.11,"date":"2026-09-07","daynight":"N"}},{"type":"Feature","geometry":{"type":"Point","coordinates":[-75.63258,39.5929]},"properties":{"frp":0.99,"date":"2026-09-07","daynight":"N"}},{"type":"Feature","geometry":{"type":"Point","coordinates":[-76.81636,39.94204]},"properties":{"frp":1.75,"date":"2026-09-07","daynight":"N"}},{"type":"Feature","geometry":{"type":"Point","coordinates":[-75.89666,40.17393]},"properties":{"frp":0.51,"date":"2026-09-07","daynight":"N"}},{"type":"Feature","geometry":{"type":"Point","coordinates":[-75.89975,40.17551]},"properties":{"frp":0.69,"date":"2026-09-07","daynight":"N"}},{"type":"Feature","geometry":{"type":"Point","coordinates":[-75.91159,40.1759]},"properties":{"frp":0.45,"date":"2026-09-07","daynight":"N"}},{"type":"Feature","geometry":{"type":"Point","coordinates":[-79.87537,40.30732]},"properties":{"frp":1.78,"date":"2026-09-07","daynight":"N"}},{"type":"Feature","geometry":{"type":"Point","coordinates":[-79.88038,40.30778]},"properties":{"frp":1.2,"date":"2026-09-07","daynight":"N"}},{"type":"Feature","geometry":{"type":"Point","coordinates":[-79.85104,40.39366]},"properties":{"frp":1.54,"date":"2026-09-07","daynight":"N"}},{"type":"Feature","geometry":{"type":"Point","coordinates":[-79.85604,40.39415]},"properties":{"frp":2.62,"date":"2026-09-07","daynight":"N"}},{"type":"Feature","geometry":{"type":"Point","coordinates":[-79.86105,40.39463]},"properties":{"frp":2.62,"date":"2026-09-07","daynight":"N"}},{"type":"Feature","geometry":{"type":"Point","coordinates":[-74.20638,40.62725]},"properties":{"frp":0.71,"date":"2026-09-07","daynight":"N"}},{"type":"Feature","geometry":{"type":"Point","coordinates":[-74.21861,40.63591]},"properties":{"frp":1.2,"date":"2026-09-07","daynight":"N"}},{"type":"Feature","geometry":{"type":"Point","coordinates":[-74.22324,40.63657]},"properties":{"frp":1.2,"date":"2026-09-07","daynight":"N"}},{"type":"Feature","geometry":{"type":"Point","coordinates":[-81.4319,40.75843]},"properties":{"frp":1.54,"date":"2026-09-07","daynight":"N"}},{"type":"Feature","geometry":{"type":"Point","coordinates":[-81.43152,40.75894]},"properties":{"frp":0.72,"date":"2026-09-07","daynight":"N"}},{"type":"Feature","geometry":{"type":"Point","coordinates":[-83.2114,41.22412]},"properties":{"frp":2.83,"date":"2026-09-07","daynight":"N"}},{"type":"Feature","geometry":{"type":"Point","coordinates":[-84.9245,41.36574]},"properties":{"frp":0.92,"date":"2026-09-07","daynight":"N"}},{"type":"Feature","geometry":{"type":"Point","coordinates":[-84.91449,41.37078]},"properties":{"frp":1.27,"date":"2026-09-07","daynight":"N"}},{"type":"Feature","geometry":{"type":"Point","coordinates":[-84.91923,41.37101]},"properties":{"frp":1.27,"date":"2026-09-07","daynight":"N"}},{"type":"Feature","geometry":{"type":"Point","coordinates":[-81.68049,41.45225]},"properties":{"frp":1.25,"date":"2026-09-07","daynight":"N"}},{"type":"Feature","geometry":{"type":"Point","coordinates":[-83.36865,41.46011]},"properties":{"frp":1.03,"date":"2026-09-07","daynight":"N"}},{"type":"Feature","geometry":{"type":"Point","coordinates":[-81.67923,41.46154]},"properties":{"frp":2.61,"date":"2026-09-07","daynight":"N"}},{"type":"Feature","geometry":{"type":"Point","coordinates":[-81.67213,41.46569]},"properties":{"frp":2.14,"date":"2026-09-07","daynight":"N"}},{"type":"Feature","geometry":{"type":"Point","coordinates":[-81.67859,41.46618]},"properties":{"frp":3.02,"date":"2026-09-07","daynight":"N"}},{"type":"Feature","geometry":{"type":"Point","coordinates":[-83.36756,41.47028]},"properties":{"frp":3.14,"date":"2026-09-07","daynight":"N"}},{"type":"Feature","geometry":{"type":"Point","coordinates":[-81.66437,41.47448]},"properties":{"frp":2.44,"date":"2026-09-07","daynight":"N"}},{"type":"Feature","geometry":{"type":"Point","coordinates":[-84.04596,41.56674]},"properties":{"frp":3.57,"date":"2026-09-07","daynight":"N"}},{"type":"Feature","geometry":{"type":"Point","coordinates":[-84.05026,41.56696]},"properties":{"frp":1.91,"date":"2026-09-07","daynight":"N"}},{"type":"Feature","geometry":{"type":"Point","coordinates":[-84.0433,41.56739]},"properties":{"frp":2.55,"date":"2026-09-07","daynight":"N"}},{"type":"Feature","geometry":{"type":"Point","coordinates":[-84.05888,41.56741]},"properties":{"frp":1.14,"date":"2026-09-07","daynight":"N"}},{"type":"Feature","geometry":{"type":"Point","coordinates":[-84.04759,41.56764]},"properties":{"frp":4.5,"date":"2026-09-07","daynight":"N"}},{"type":"Feature","geometry":{"type":"Point","coordinates":[-84.05619,41.56813]},"properties":{"frp":0.72,"date":"2026-09-07","daynight":"N"}},{"type":"Feature","geometry":{"type":"Point","coordinates":[-84.05402,41.57246]},"properties":{"frp":1.91,"date":"2026-09-07","daynight":"N"}},{"type":"Feature","geometry":{"type":"Point","coordinates":[-84.05565,41.57341]},"properties":{"frp":0.72,"date":"2026-09-07","daynight":"N"}},{"type":"Feature","geometry":{"type":"Point","coordinates":[-83.12974,42.28004]},"properties":{"frp":0.44,"date":"2026-09-07","daynight":"N"}},{"type":"Feature","geometry":{"type":"Point","coordinates":[-83.11337,42.28417]},"properties":{"frp":1.18,"date":"2026-09-07","daynight":"N"}},{"type":"Feature","geometry":{"type":"Point","coordinates":[-80.10144,42.80267]},"properties":{"frp":1.91,"date":"2026-09-07","daynight":"N"}},{"type":"Feature","geometry":{"type":"Point","coordinates":[-80.10708,42.80314]},"properties":{"frp":1.91,"date":"2026-09-07","daynight":"N"}},{"type":"Feature","geometry":{"type":"Point","coordinates":[-80.09509,42.80653]},"properties":{"frp":3.04,"date":"2026-09-07","daynight":"N"}},{"type":"Feature","geometry":{"type":"Point","coordinates":[-80.10072,42.80701]},"properties":{"frp":1.91,"date":"2026-09-07","daynight":"N"}},{"type":"Feature","geometry":{"type":"Point","coordinates":[-80.09368,42.8152]},"properties":{"frp":2.1,"date":"2026-09-07","daynight":"N"}},{"type":"Feature","geometry":{"type":"Point","coordinates":[-76.80553,36.35654]},"properties":{"frp":4.39,"date":"2026-09-07","daynight":"N"}},{"type":"Feature","geometry":{"type":"Point","coordinates":[-84.99168,38.7566]},"properties":{"frp":1.31,"date":"2026-09-07","daynight":"N"}},{"type":"Feature","geometry":{"type":"Point","coordinates":[-84.99635,38.75687]},"properties":{"frp":1.31,"date":"2026-09-07","daynight":"N"}},{"type":"Feature","geometry":{"type":"Point","coordinates":[-84.99631,38.76231]},"properties":{"frp":1.31,"date":"2026-09-07","daynight":"N"}},{"type":"Feature","geometry":{"type":"Point","coordinates":[-85.00078,38.76257]},"properties":{"frp":2.11,"date":"2026-09-07","daynight":"N"}},{"type":"Feature","geometry":{"type":"Point","coordinates":[-84.99763,38.76436]},"properties":{"frp":1.2,"date":"2026-09-07","daynight":"N"}},{"type":"Feature","geometry":{"type":"Point","coordinates":[-85.00201,38.7646]},"properties":{"frp":1.56,"date":"2026-09-07","daynight":"N"}},{"type":"Feature","geometry":{"type":"Point","coordinates":[-84.24045,38.83709]},"properties":{"frp":4.34,"date":"2026-09-07","daynight":"N"}},{"type":"Feature","geometry":{"type":"Point","coordinates":[-84.2421,38.83799]},"properties":{"frp":4.67,"date":"2026-09-07","daynight":"N"}},{"type":"Feature","geometry":{"type":"Point","coordinates":[-84.38639,39.4682]},"properties":{"frp":0.76,"date":"2026-09-07","daynight":"N"}},{"type":"Feature","geometry":{"type":"Point","coordinates":[-84.38402,39.46876]},"properties":{"frp":0.9,"date":"2026-09-07","daynight":"N"}},{"type":"Feature","geometry":{"type":"Point","coordinates":[-84.38821,39.46901]},"properties":{"frp":0.9,"date":"2026-09-07","daynight":"N"}},{"type":"Feature","geometry":{"type":"Point","coordinates":[-84.38586,39.47347]},"properties":{"frp":0.76,"date":"2026-09-07","daynight":"N"}},{"type":"Feature","geometry":{"type":"Point","coordinates":[-84.40252,39.4744]},"properties":{"frp":1.1,"date":"2026-09-07","daynight":"N"}},{"type":"Feature","geometry":{"type":"Point","coordinates":[-84.40016,39.47505]},"properties":{"frp":0.69,"date":"2026-09-07","daynight":"N"}},{"type":"Feature","geometry":{"type":"Point","coordinates":[-84.40434,39.47531]},"properties":{"frp":0.69,"date":"2026-09-07","daynight":"N"}},{"type":"Feature","geometry":{"type":"Point","coordinates":[-84.37642,39.48354]},"properties":{"frp":1.73,"date":"2026-09-07","daynight":"N"}},{"type":"Feature","geometry":{"type":"Point","coordinates":[-84.38057,39.48377]},"properties":{"frp":1.73,"date":"2026-09-07","daynight":"N"}},{"type":"Feature","geometry":{"type":"Point","coordinates":[-84.38474,39.484]},"properties":{"frp":2.09,"date":"2026-09-07","daynight":"N"}},{"type":"Feature","geometry":{"type":"Point","coordinates":[-84.38891,39.48424]},"properties":{"frp":2.09,"date":"2026-09-07","daynight":"N"}},{"type":"Feature","geometry":{"type":"Point","coordinates":[-84.37826,39.4843]},"properties":{"frp":3.07,"date":"2026-09-07","daynight":"N"}},{"type":"Feature","geometry":{"type":"Point","coordinates":[-84.38658,39.48482]},"properties":{"frp":4.64,"date":"2026-09-07","daynight":"N"}},{"type":"Feature","geometry":{"type":"Point","coordinates":[-84.3634,39.4881]},"properties":{"frp":1.27,"date":"2026-09-07","daynight":"N"}},{"type":"Feature","geometry":{"type":"Point","coordinates":[-86.80817,33.09134]},"properties":{"frp":2.0,"date":"2026-09-07","daynight":"N"}},{"type":"Feature","geometry":{"type":"Point","coordinates":[-86.80467,33.09476]},"properties":{"frp":2.38,"date":"2026-09-07","daynight":"N"}},{"type":"Feature","geometry":{"type":"Point","coordinates":[-86.79893,33.10582]},"properties":{"frp":1.62,"date":"2026-09-07","daynight":"N"}},{"type":"Feature","geometry":{"type":"Point","coordinates":[-86.80363,33.10613]},"properties":{"frp":2.07,"date":"2026-09-07","daynight":"N"}},{"type":"Feature","geometry":{"type":"Point","coordinates":[-86.80199,33.10814]},"properties":{"frp":2.05,"date":"2026-09-07","daynight":"N"}},{"type":"Feature","geometry":{"type":"Point","coordinates":[-87.51553,33.22987]},"properties":{"frp":1.6,"date":"2026-09-07","daynight":"N"}},{"type":"Feature","geometry":{"type":"Point","coordinates":[-87.5126,33.23189]},"properties":{"frp":1.67,"date":"2026-09-07","daynight":"N"}},{"type":"Feature","geometry":{"type":"Point","coordinates":[-87.50694,33.23752]},"properties":{"frp":1.12,"date":"2026-09-07","daynight":"N"}},{"type":"Feature","geometry":{"type":"Point","coordinates":[-87.51192,33.23781]},"properties":{"frp":1.12,"date":"2026-09-07","daynight":"N"}},{"type":"Feature","geometry":{"type":"Point","coordinates":[-82.26302,33.62296]},"properties":{"frp":55.41,"date":"2026-09-07","daynight":"N"}},{"type":"Feature","geometry":{"type":"Point","coordinates":[-88.49001,30.34116]},"properties":{"frp":2.33,"date":"2026-09-07","daynight":"N"}},{"type":"Feature","geometry":{"type":"Point","coordinates":[-88.48753,30.34162]},"properties":{"frp":3.31,"date":"2026-09-07","daynight":"N"}},{"type":"Feature","geometry":{"type":"Point","coordinates":[-88.49287,30.34192]},"properties":{"frp":2.54,"date":"2026-09-07","daynight":"N"}},{"type":"Feature","geometry":{"type":"Point","coordinates":[-88.0168,30.94126]},"properties":{"frp":1.64,"date":"2026-09-07","daynight":"N"}},{"type":"Feature","geometry":{"type":"Point","coordinates":[-88.01413,30.94399]},"properties":{"frp":1.1,"date":"2026-09-07","daynight":"N"}},{"type":"Feature","geometry":{"type":"Point","coordinates":[-88.01123,30.94691]},"properties":{"frp":2.09,"date":"2026-09-07","daynight":"N"}},{"type":"Feature","geometry":{"type":"Point","coordinates":[-88.01355,30.94996]},"properties":{"frp":1.1,"date":"2026-09-07","daynight":"N"}},{"type":"Feature","geometry":{"type":"Point","coordinates":[-87.98679,31.14933]},"properties":{"frp":3.53,"date":"2026-09-07","daynight":"N"}},{"type":"Feature","geometry":{"type":"Point","coordinates":[-87.99182,31.14964]},"properties":{"frp":3.24,"date":"2026-09-07","daynight":"N"}},{"type":"Feature","geometry":{"type":"Point","coordinates":[-87.98923,31.15235]},"properties":{"frp":5.82,"date":"2026-09-07","daynight":"N"}},{"type":"Feature","geometry":{"type":"Point","coordinates":[-87.98119,31.15499]},"properties":{"frp":2.4,"date":"2026-09-07","daynight":"N"}},{"type":"Feature","geometry":{"type":"Point","coordinates":[-87.98312,31.16402]},"properties":{"frp":1.23,"date":"2026-09-07","daynight":"N"}},{"type":"Feature","geometry":{"type":"Point","coordinates":[-80.15514,26.28077]},"properties":{"frp":1.56,"date":"2026-09-07","daynight":"N"}},{"type":"Feature","geometry":{"type":"Point","coordinates":[-81.49087,28.29923]},"properties":{"frp":4.31,"date":"2026-09-07","daynight":"N"}}]}