{"type":"FeatureCollection","features":[{"type":"Feature","geometry":{"type":"Point","coordinates":[-79.80714,43.26675]},"properties":{"frp":1.01,"date":"2026-09-20","daynight":"N"}},{"type":"Feature","geometry":{"type":"Point","coordinates":[-79.80149,43.26931]},"properties":{"frp":0.5,"date":"2026-09-20","daynight":"N"}},{"type":"Feature","geometry":{"type":"Point","coordinates":[-79.80619,43.27003]},"properties":{"frp":0.94,"date":"2026-09-20","daynight":"N"}},{"type":"Feature","geometry":{"type":"Point","coordinates":[-79.79585,43.27187]},"properties":{"frp":0.5,"date":"2026-09-20","daynight":"N"}},{"type":"Feature","geometry":{"type":"Point","coordinates":[-79.80054,43.27259]},"properties":{"frp":0.5,"date":"2026-09-20","daynight":"N"}},{"type":"Feature","geometry":{"type":"Point","coordinates":[-79.80524,43.27332]},"properties":{"frp":0.94,"date":"2026-09-20","daynight":"N"}},{"type":"Feature","geometry":{"type":"Point","coordinates":[-79.79488,43.27515]},"properties":{"frp":0.86,"date":"2026-09-20","daynight":"N"}},{"type":"Feature","geometry":{"type":"Point","coordinates":[-79.79958,43.27588]},"properties":{"frp":0.86,"date":"2026-09-20","daynight":"N"}},{"type":"Feature","geometry":{"type":"Point","coordinates":[-77.44265,37.18026]},"properties":{"frp":0.9,"date":"2026-09-20","daynight":"N"}},{"type":"Feature","geometry":{"type":"Point","coordinates":[-77.44779,37.18124]},"properties":{"frp":0.9,"date":"2026-09-20","daynight":"N"}},{"type":"Feature","geometry":{"type":"Point","coordinates":[-81.33717,38.06593]},"properties":{"frp":2.58,"date":"2026-09-20","daynight":"N"}},{"type":"Feature","geometry":{"type":"Point","coordinates":[-87.72066,38.98988]},"properties":{"frp":0.97,"date":"2026-09-20","daynight":"N"}},{"type":"Feature","geometry":{"type":"Point","coordinates":[-87.72408,38.99863]},"properties":{"frp":1.7,"date":"2026-09-20","daynight":"N"}},{"type":"Feature","geometry":{"type":"Point","coordinates":[-86.83641,39.97562]},"properties":{"frp":9.81,"date":"2026-09-20","daynight":"N"}},{"type":"Feature","geometry":{"type":"Point","coordinates":[-87.08563,34.64038]},"properties":{"frp":2.01,"date":"2026-09-20","daynight":"N"}},{"type":"Feature","geometry":{"type":"Point","coordinates":[-87.09124,34.64104]},"properties":{"frp":1.57,"date":"2026-09-20","daynight":"N"}},{"type":"Feature","geometry":{"type":"Point","coordinates":[-87.08499,34.64417]},"properties":{"frp":2.01,"date":"2026-09-20","daynight":"N"}},{"type":"Feature","geometry":{"type":"Point","coordinates":[-88.32135,34.80411]},"properties":{"frp":1.33,"date":"2026-09-20","daynight":"N"}},{"type":"Feature","geometry":{"type":"Point","coordinates":[-88.32565,34.80458]},"properties":{"frp":1.33,"date":"2026-09-20","daynight":"N"}},{"type":"Feature","geometry":{"type":"Point","coordinates":[-90.04158,34.98265]},"properties":{"frp":1.99,"date":"2026-09-20","daynight":"N"}},{"type":"Feature","geometry":{"type":"Point","coordinates":[-87.20534,35.02439]},"properties":{"frp":2.23,"date":"2026-09-20","daynight":"N"}},{"type":"Feature","geometry":{"type":"Point","coordinates":[-87.20591,35.0267]},"properties":{"frp":2.89,"date":"2026-09-20","daynight":"N"}},{"type":"Feature","geometry":{"type":"Point","coordinates":[-87.20457,35.02822]},"properties":{"frp":0.65,"date":"2026-09-20","daynight":"N"}},{"type":"Feature","geometry":{"type":"Point","coordinates":[-86.96611,35.21141]},"properties":{"frp":1.3,"date":"2026-09-20","daynight":"N"}},{"type":"Feature","geometry":{"type":"Point","coordinates":[-86.9669,35.21266]},"properties":{"frp":2.08,"date":"2026-09-20","daynight":"N"}},{"type":"Feature","geometry":{"type":"Point","coordinates":[-80.33046,35.504]},"properties":{"frp":1.79,"date":"2026-09-20","daynight":"N"}},{"type":"Feature","geometry":{"type":"Point","coordinates":[-89.94571,35.61102]},"properties":{"frp":5.82,"date":"2026-09-20","daynight":"N"}},{"type":"Feature","geometry":{"type":"Point","coordinates":[-89.93452,35.64757]},"properties":{"frp":4.0,"date":"2026-09-20","daynight":"N"}},{"type":"Feature","geometry":{"type":"Point","coordinates":[-88.80909,35.726]},"properties":{"frp":1.29,"date":"2026-09-20","daynight":"N"}},{"type":"Feature","geometry":{"type":"Point","coordinates":[-88.81076,35.7296]},"properties":{"frp":1.13,"date":"2026-09-20","daynight":"N"}},{"type":"Feature","geometry":{"type":"Point","coordinates":[-91.74776,35.79391]},"properties":{"frp":1.83,"date":"2026-09-20","daynight":"N"}},{"type":"Feature","geometry":{"type":"Point","coordinates":[-91.74641,35.79461]},"properties":{"frp":1.83,"date":"2026-09-20","daynight":"N"}},{"type":"Feature","geometry":{"type":"Point","coordinates":[-89.71388,35.93294]},"properties":{"frp":0.87,"date":"2026-09-20","daynight":"N"}},{"type":"Feature","geometry":{"type":"Point","coordinates":[-89.71486,35.9349]},"properties":{"frp":3.34,"date":"2026-09-20","daynight":"N"}},{"type":"Feature","geometry":{"type":"Point","coordinates":[-89.71323,35.9374]},"properties":{"frp":4.79,"date":"2026-09-20","daynight":"N"}},{"type":"Feature","geometry":{"type":"Point","coordinates":[-89.71196,35.94631]},"properties":{"frp":1.36,"date":"2026-09-20","daynight":"N"}},{"type":"Feature","geometry":{"type":"Point","coordinates":[-89.71736,35.94679]},"properties":{"frp":1.36,"date":"2026-09-20","daynight":"N"}},{"type":"Feature","geometry":{"type":"Point","coordinates":[-83.95513,35.97996]},"properties":{"frp":1.58,"date":"2026-09-20","daynight":"N"}},{"type":"Feature","geometry":{"type":"Point","coordinates":[-83.95963,35.98059]},"properties":{"frp":0.91,"date":"2026-09-20","daynight":"N"}},{"type":"Feature","geometry":{"type":"Point","coordinates":[-79.56599,36.25803]},"properties":{"frp":1.76,"date":"2026-09-20","daynight":"N"}},{"type":"Feature","geometry":{"type":"Point","coordinates":[-76.80771,36.35704]},"properties":{"frp":5.81,"date":"2026-09-20","daynight":"N"}},{"type":"Feature","geometry":{"type":"Point","coordinates":[-82.04118,37.23196]},"properties":{"frp":1.26,"date":"2026-09-20","daynight":"N"}},{"type":"Feature","geometry":{"type":"Point","coordinates":[-82.03608,37.23459]},"properties":{"frp":1.3,"date":"2026-09-20","daynight":"N"}},{"type":"Feature","geometry":{"type":"Point","coordinates":[-82.0404,37.23526]},"properties":{"frp":1.3,"date":"2026-09-20","daynight":"N"}},{"type":"Feature","geometry":{"type":"Point","coordinates":[-86.98711,37.26714]},"properties":{"frp":2.25,"date":"2026-09-20","daynight":"N"}},{"type":"Feature","geometry":{"type":"Point","coordinates":[-90.07657,37.96576]},"properties":{"frp":2.51,"date":"2026-09-20","daynight":"N"}},{"type":"Feature","geometry":{"type":"Point","coordinates":[-90.07655,37.96778]},"properties":{"frp":1.52,"date":"2026-09-20","daynight":"N"}},{"type":"Feature","geometry":{"type":"Point","coordinates":[-90.06944,37.97457]},"properties":{"frp":1.5,"date":"2026-09-20","daynight":"N"}},{"type":"Feature","geometry":{"type":"Point","coordinates":[-86.14381,38.00399]},"properties":{"frp":1.21,"date":"2026-09-20","daynight":"N"}},{"type":"Feature","geometry":{"type":"Point","coordinates":[-90.0835,38.01073]},"properties":{"frp":3.22,"date":"2026-09-20","daynight":"N"}},{"type":"Feature","geometry":{"type":"Point","coordinates":[-87.98454,31.14974]},"properties":{"frp":2.7,"date":"2026-09-20","daynight":"N"}},{"type":"Feature","geometry":{"type":"Point","coordinates":[-87.98997,31.15037]},"properties":{"frp":2.58,"date":"2026-09-20","daynight":"N"}},{"type":"Feature","geometry":{"type":"Point","coordinates":[-87.9785,31.15291]},"properties":{"frp":1.36,"date":"2026-09-20","daynight":"N"}},{"type":"Feature","geometry":{"type":"Point","coordinates":[-87.97787,31.15672]},"properties":{"frp":1.36,"date":"2026-09-20","daynight":"N"}},{"type":"Feature","geometry":{"type":"Point","coordinates":[-86.16557,31.37353]},"properties":{"frp":0.8,"date":"2026-09-20","daynight":"N"}},{"type":"Feature","geometry":{"type":"Point","coordinates":[-86.16491,31.37704]},"properties":{"frp":0.56,"date":"2026-09-20","daynight":"N"}},{"type":"Feature","geometry":{"type":"Point","coordinates":[-90.13564,32.31413]},"properties":{"frp":2.39,"date":"2026-09-20","daynight":"N"}},{"type":"Feature","geometry":{"type":"Point","coordinates":[-82.78394,32.92646]},"properties":{"frp":0.71,"date":"2026-09-20","daynight":"N"}},{"type":"Feature","geometry":{"type":"Point","coordinates":[-82.78321,32.92976]},"properties":{"frp":0.71,"date":"2026-09-20","daynight":"N"}},{"type":"Feature","geometry":{"type":"Point","coordinates":[-79.87614,33.00327]},"properties":{"frp":0.82,"date":"2026-09-20","daynight":"N"}},{"type":"Feature","geometry":{"type":"Point","coordinates":[-79.88068,33.0041]},"properties":{"frp":2.0,"date":"2026-09-20","daynight":"N"}},{"type":"Feature","geometry":{"type":"Point","coordinates":[-79.88345,33.01183]},"properties":{"frp":4.03,"date":"2026-09-20","daynight":"N"}},{"type":"Feature","geometry":{"type":"Point","coordinates":[-79.88798,33.01265]},"properties":{"frp":5.1,"date":"2026-09-20","daynight":"N"}},{"type":"Feature","geometry":{"type":"Point","coordinates":[-79.88258,33.01528]},"properties":{"frp":4.03,"date":"2026-09-20","daynight":"N"}},{"type":"Feature","geometry":{"type":"Point","coordinates":[-79.8871,33.0161]},"properties":{"frp":5.1,"date":"2026-09-20","daynight":"N"}},{"type":"Feature","geometry":{"type":"Point","coordinates":[-86.81599,33.21954]},"properties":{"frp":0.9,"date":"2026-09-20","daynight":"N"}},{"type":"Feature","geometry":{"type":"Point","coordinates":[-86.81532,33.22321]},"properties":{"frp":0.9,"date":"2026-09-20","daynight":"N"}},{"type":"Feature","geometry":{"type":"Point","coordinates":[-87.51108,33.22816]},"properties":{"frp":1.8,"date":"2026-09-20","daynight":"N"}},{"type":"Feature","geometry":{"type":"Point","coordinates":[-87.5104,33.23197]},"properties":{"frp":1.8,"date":"2026-09-20","daynight":"N"}},{"type":"Feature","geometry":{"type":"Point","coordinates":[-87.5083,33.23378]},"properties":{"frp":1.17,"date":"2026-09-20","daynight":"N"}},{"type":"Feature","geometry":{"type":"Point","coordinates":[-87.50977,33.23579]},"properties":{"frp":1.97,"date":"2026-09-20","daynight":"N"}},{"type":"Feature","geometry":{"type":"Point","coordinates":[-87.50765,33.23759]},"properties":{"frp":1.17,"date":"2026-09-20","daynight":"N"}},{"type":"Feature","geometry":{"type":"Point","coordinates":[-88.5507,33.42711]},"properties":{"frp":0.95,"date":"2026-09-20","daynight":"N"}},{"type":"Feature","geometry":{"type":"Point","coordinates":[-88.57049,33.43752]},"properties":{"frp":1.87,"date":"2026-09-20","daynight":"N"}},{"type":"Feature","geometry":{"type":"Point","coordinates":[-88.56983,33.44157]},"properties":{"frp":6.66,"date":"2026-09-20","daynight":"N"}},{"type":"Feature","geometry":{"type":"Point","coordinates":[-88.58186,33.44702]},"properties":{"frp":1.07,"date":"2026-09-20","daynight":"N"}},{"type":"Feature","geometry":{"type":"Point","coordinates":[-86.93197,33.4829]},"properties":{"frp":1.41,"date":"2026-09-20","daynight":"N"}},{"type":"Feature","geometry":{"type":"Point","coordinates":[-86.93721,33.48355]},"properties":{"frp":1.67,"date":"2026-09-20","daynight":"N"}},{"type":"Feature","geometry":{"type":"Point","coordinates":[-86.78315,33.58115]},"properties":{"frp":1.24,"date":"2026-09-20","daynight":"N"}},{"type":"Feature","geometry":{"type":"Point","coordinates":[-86.77877,33.58285]},"properties":{"frp":1.03,"date":"2026-09-20","daynight":"N"}},{"type":"Feature","geometry":{"type":"Point","coordinates":[-92.91584,33.94971]},"properties":{"frp":1.21,"date":"2026-09-20","daynight":"N"}},{"type":"Feature","geometry":{"type":"Point","coordinates":[-84.80016,34.24018]},"properties":{"frp":0.8,"date":"2026-09-20","daynight":"N"}},{"type":"Feature","geometry":{"type":"Point","coordinates":[-80.15421,26.28201]},"properties":{"frp":1.04,"date":"2026-09-20","daynight":"N"}},{"type":"Feature","geometry":{"type":"Point","coordinates":[-94.91039,29.36679]},"properties":{"frp":2.59,"date":"2026-09-20","daynight":"N"}},{"type":"Feature","geometry":{"type":"Point","coordinates":[-94.92274,29.37333]},"properties":{"frp":3.08,"date":"2026-09-20","daynight":"N"}},{"type":"Feature","geometry":{"type":"Point","coordinates":[-94.94009,29.37454]},"properties":{"frp":1.89,"date":"2026-09-20","daynight":"N"}},{"type":"Feature","geometry":{"type":"Point","coordinates":[-94.92019,29.37601]},"properties":{"frp":2.34,"date":"2026-09-20","daynight":"N"}},{"type":"Feature","geometry":{"type":"Point","coordinates":[-94.93747,29.37734]},"properties":{"frp":2.48,"date":"2026-09-20","daynight":"N"}},{"type":"Feature","geometry":{"type":"Point","coordinates":[-94.9395,29.3802]},"properties":{"frp":1.57,"date":"2026-09-20","daynight":"N"}},{"type":"Feature","geometry":{"type":"Point","coordinates":[-94.37365,29.55448]},"properties":{"frp":16.62,"date":"2026-09-20","daynight":"N"}},{"type":"Feature","geometry":{"type":"Point","coordinates":[-94.37101,29.5551]},"properties":{"frp":4.61,"date":"2026-09-20","daynight":"N"}},{"type":"Feature","geometry":{"type":"Point","coordinates":[-94.37502,29.5554]},"properties":{"frp":4.61,"date":"2026-09-20","daynight":"N"}},{"type":"Feature","geometry":{"type":"Point","coordinates":[-94.37306,29.55996]},"properties":{"frp":16.62,"date":"2026-09-20","daynight":"N"}},{"type":"Feature","geometry":{"type":"Point","coordinates":[-94.36239,29.55998]},"properties":{"frp":2.8,"date":"2026-09-20","daynight":"N"}},{"type":"Feature","geometry":{"type":"Point","coordinates":[-94.37706,29.56028]},"properties":{"frp":41.89,"date":"2026-09-20","daynight":"N"}},{"type":"Feature","geometry":{"type":"Point","coordinates":[-94.3704,29.56057]},"properties":{"frp":12.96,"date":"2026-09-20","daynight":"N"}},{"type":"Feature","geometry":{"type":"Point","coordinates":[-94.37441,29.56087]},"properties":{"frp":12.96,"date":"2026-09-20","daynight":"N"}},{"type":"Feature","geometry":{"type":"Point","coordinates":[-94.37842,29.56117]},"properties":{"frp":18.39,"date":"2026-09-20","daynight":"N"}},{"type":"Feature","geometry":{"type":"Point","coordinates":[-90.40997,29.56262]},"properties":{"frp":3.22,"date":"2026-09-20","daynight":"N"}},{"type":"Feature","geometry":{"type":"Point","coordinates":[-94.35378,29.56485]},"properties":{"frp":2.69,"date":"2026-09-20","daynight":"N"}},{"type":"Feature","geometry":{"type":"Point","coordinates":[-94.35778,29.56515]},"properties":{"frp":2.69,"date":"2026-09-20","daynight":"N"}},{"type":"Feature","geometry":{"type":"Point","coordinates":[-94.36178,29.56545]},"properties":{"frp":2.8,"date":"2026-09-20","daynight":"N"}},{"type":"Feature","geometry":{"type":"Point","coordinates":[-94.36581,29.56575]},"properties":{"frp":2.8,"date":"2026-09-20","daynight":"N"}},{"type":"Feature","geometry":{"type":"Point","coordinates":[-94.37383,29.56635]},"properties":{"frp":12.96,"date":"2026-09-20","daynight":"N"}},{"type":"Feature","geometry":{"type":"Point","coordinates":[-94.37782,29.56665]},"properties":{"frp":18.39,"date":"2026-09-20","daynight":"N"}},{"type":"Feature","geometry":{"type":"Point","coordinates":[-94.35319,29.57031]},"properties":{"frp":2.57,"date":"2026-09-20","daynight":"N"}},{"type":"Feature","geometry":{"type":"Point","coordinates":[-94.36121,29.57092]},"properties":{"frp":1.92,"date":"2026-09-20","daynight":"N"}},{"type":"Feature","geometry":{"type":"Point","coordinates":[-94.36523,29.57122]},"properties":{"frp":1.92,"date":"2026-09-20","daynight":"N"}},{"type":"Feature","geometry":{"type":"Point","coordinates":[-94.37726,29.57212]},"properties":{"frp":3.65,"date":"2026-09-20","daynight":"N"}},{"type":"Feature","geometry":{"type":"Point","coordinates":[-94.38127,29.57242]},"properties":{"frp":3.65,"date":"2026-09-20","daynight":"N"}},{"type":"Feature","geometry":{"type":"Point","coordinates":[-94.38071,29.57791]},"properties":{"frp":3.65,"date":"2026-09-20","daynight":"N"}},{"type":"Feature","geometry":{"type":"Point","coordinates":[-94.38473,29.57821]},"properties":{"frp":4.26,"date":"2026-09-20","daynight":"N"}},{"type":"Feature","geometry":{"type":"Point","coordinates":[-94.3876,29.58947]},"properties":{"frp":1.97,"date":"2026-09-20","daynight":"N"}},{"type":"Feature","geometry":{"type":"Point","coordinates":[-95.05293,29.62105]},"properties":{"frp":2.2,"date":"2026-09-20","daynight":"N"}},{"type":"Feature","geometry":{"type":"Point","coordinates":[-94.99702,29.74479]},"properties":{"frp":1.31,"date":"2026-09-20","daynight":"N"}},{"type":"Feature","geometry":{"type":"Point","coordinates":[-95.00144,29.74511]},"properties":{"frp":1.31,"date":"2026-09-20","daynight":"N"}},{"type":"Feature","geometry":{"type":"Point","coordinates":[-95.01472,29.74605]},"properties":{"frp":3.1,"date":"2026-09-20","daynight":"N"}},{"type":"Feature","geometry":{"type":"Point","coordinates":[-93.88004,29.75537]},"properties":{"frp":2.77,"date":"2026-09-20","daynight":"N"}},{"type":"Feature","geometry":{"type":"Point","coordinates":[-93.8719,29.7601]},"properties":{"frp":2.12,"date":"2026-09-20","daynight":"N"}},{"type":"Feature","geometry":{"type":"Point","coordinates":[-93.95935,29.88829]},"properties":{"frp":1.24,"date":"2026-09-20","daynight":"N"}},{"type":"Feature","geometry":{"type":"Point","coordinates":[-93.96318,29.88859]},"properties":{"frp":1.24,"date":"2026-09-20","daynight":"N"}},{"type":"Feature","geometry":{"type":"Point","coordinates":[-90.39606,29.99659]},"properties":{"frp":1.49,"date":"2026-09-20","daynight":"N"}},{"type":"Feature","geometry":{"type":"Point","coordinates":[-90.40074,29.99709]},"properties":{"frp":1.49,"date":"2026-09-20","daynight":"N"}},{"type":"Feature","geometry":{"type":"Point","coordinates":[-90.39546,30.0009]},"properties":{"frp":1.54,"date":"2026-09-20","daynight":"N"}},{"type":"Feature","geometry":{"type":"Point","coordinates":[-90.40013,30.0014]},"properties":{"frp":1.54,"date":"2026-09-20","daynight":"N"}},{"type":"Feature","geometry":{"type":"Point","coordinates":[-91.23637,30.32378]},"properties":{"frp":2.82,"date":"2026-09-20","daynight":"N"}},{"type":"Feature","geometry":{"type":"Point","coordinates":[-91.23909,30.32426]},"properties":{"frp":3.01,"date":"2026-09-20","daynight":"N"}},{"type":"Feature","geometry":{"type":"Point","coordinates":[-91.27898,30.32807]},"properties":{"frp":1.24,"date":"2026-09-20","daynight":"N"}},{"type":"Feature","geometry":{"type":"Point","coordinates":[-91.2818,30.32827]},"properties":{"frp":1.08,"date":"2026-09-20","daynight":"N"}},{"type":"Feature","geometry":{"type":"Point","coordinates":[-88.4866,30.3427]},"properties":{"frp":3.46,"date":"2026-09-20","daynight":"N"}},{"type":"Feature","geometry":{"type":"Point","coordinates":[-91.23238,30.6007]},"properties":{"frp":2.51,"date":"2026-09-20","daynight":"N"}},{"type":"Feature","geometry":{"type":"Point","coordinates":[-93.27839,30.82493]},"properties":{"frp":2.09,"date":"2026-09-20","daynight":"N"}},{"type":"Feature","geometry":{"type":"Point","coordinates":[-93.2762,30.82516]},"properties":{"frp":0.81,"date":"2026-09-20","daynight":"N"}},{"type":"Feature","geometry":{"type":"Point","coordinates":[-93.27979,30.82544]},"properties":{"frp":1.57,"date":"2026-09-20","daynight":"N"}},{"type":"Feature","geometry":{"type":"Point","coordinates":[-87.98597,31.14764]},"properties":{"frp":2.67,"date":"2026-09-20","daynight":"N"}},{"type":"Feature","geometry":{"type":"Point","coordinates":[-87.97455,31.15012]},"properties":{"frp":1.4,"date":"2026-09-20","daynight":"N"}},{"type":"Feature","geometry":{"type":"Point","coordinates":[-87.98534,31.15145]},"properties":{"frp":2.67,"date":"2026-09-20","daynight":"N"}},{"type":"Feature","geometry":{"type":"Point","coordinates":[-87.97931,31.1546]},"properties":{"frp":2.56,"date":"2026-09-20","daynight":"N"}},{"type":"Feature","geometry":{"type":"Point","coordinates":[-96.16513,31.35131]},"properties":{"frp":1.37,"date":"2026-09-20","daynight":"N"}},{"type":"Feature","geometry":{"type":"Point","coordinates":[-96.17067,31.3516]},"properties":{"frp":1.37,"date":"2026-09-20","daynight":"N"}},{"type":"Feature","geometry":{"type":"Point","coordinates":[-96.16573,31.3522]},"properties":{"frp":1.79,"date":"2026-09-20","daynight":"N"}},{"type":"Feature","geometry":{"type":"Point","coordinates":[-96.17125,31.35253]},"properties":{"frp":2.99,"date":"2026-09-20","daynight":"N"}},{"type":"Feature","geometry":{"type":"Point","coordinates":[-93.53564,31.59844]},"properties":{"frp":0.58,"date":"2026-09-20","daynight":"N"}},{"type":"Feature","geometry":{"type":"Point","coordinates":[-93.53431,31.59993]},"properties":{"frp":0.46,"date":"2026-09-20","daynight":"N"}},{"type":"Feature","geometry":{"type":"Point","coordinates":[-97.48505,27.81717]},"properties":{"frp":1.62,"date":"2026-09-20","daynight":"N"}},{"type":"Feature","geometry":{"type":"Point","coordinates":[-97.44154,28.06143]},"properties":{"frp":1.31,"date":"2026-09-20","daynight":"N"}},{"type":"Feature","geometry":{"type":"Point","coordinates":[-97.4385,28.06192]},"properties":{"frp":1.08,"date":"2026-09-20","daynight":"N"}},{"type":"Feature","geometry":{"type":"Point","coordinates":[-97.85846,24.1912]},"properties":{"frp":1.45,"date":"2026-09-20","daynight":"N"}},{"type":"Feature","geometry":{"type":"Point","coordinates":[-97.86403,24.19162]},"properties":{"frp":1.45,"date":"2026-09-20","daynight":"N"}},{"type":"Feature","geometry":{"type":"Point","coordinates":[-79.57082,36.25924]},"properties":{"frp":0.71,"date":"2026-09-20","daynight":"N"}},{"type":"Feature","geometry":{"type":"Point","coordinates":[-76.80637,36.35808]},"properties":{"frp":2.18,"date":"2026-09-20","daynight":"N"}},{"type":"Feature","geometry":{"type":"Point","coordinates":[-76.81231,36.35833]},"properties":{"frp":2.18,"date":"2026-09-20","daynight":"N"}},{"type":"Feature","geometry":{"type":"Point","coordinates":[-79.8875,33.01676]},"properties":{"frp":2.64,"date":"2026-09-20","daynight":"N"}},{"type":"Feature","geometry":{"type":"Point","coordinates":[-86.83265,39.97365]},"properties":{"frp":1.86,"date":"2026-09-20","daynight":"N"}},{"type":"Feature","geometry":{"type":"Point","coordinates":[-86.8362,39.97763]},"properties":{"frp":1.86,"date":"2026-09-20","daynight":"N"}},{"type":"Feature","geometry":{"type":"Point","coordinates":[-80.33145,35.50373]},"properties":{"frp":1.72,"date":"2026-09-20","daynight":"N"}},{"type":"Feature","geometry":{"type":"Point","coordinates":[-80.33041,35.50633]},"properties":{"frp":2.21,"date":"2026-09-20","daynight":"N"}},{"type":"Feature","geometry":{"type":"Point","coordinates":[-83.95488,35.97971]},"properties":{"frp":2.79,"date":"2026-09-20","daynight":"N"}},{"type":"Feature","geometry":{"type":"Point","coordinates":[-79.56686,36.2602]},"properties":{"frp":1.15,"date":"2026-09-20","daynight":"N"}},{"type":"Feature","geometry":{"type":"Point","coordinates":[-76.80897,36.35493]},"properties":{"frp":2.3,"date":"2026-09-20","daynight":"N"}},{"type":"Feature","geometry":{"type":"Point","coordinates":[-76.81287,36.35596]},"properties":{"frp":1.28,"date":"2026-09-20","daynight":"N"}},{"type":"Feature","geometry":{"type":"Point","coordinates":[-77.44843,37.18132]},"properties":{"frp":1.33,"date":"2026-09-20","daynight":"N"}},{"type":"Feature","geometry":{"type":"Point","coordinates":[-82.04364,37.23405]},"properties":{"frp":1.94,"date":"2026-09-20","daynight":"N"}},{"type":"Feature","geometry":{"type":"Point","coordinates":[-86.98542,37.26771]},"properties":{"frp":2.05,"date":"2026-09-20","daynight":"N"}},{"type":"Feature","geometry":{"type":"Point","coordinates":[-86.98652,37.27082]},"properties":{"frp":1.39,"date":"2026-09-20","daynight":"N"}},{"type":"Feature","geometry":{"type":"Point","coordinates":[-90.07581,37.96875]},"properties":{"frp":0.78,"date":"2026-09-20","daynight":"N"}},{"type":"Feature","geometry":{"type":"Point","coordinates":[-90.06507,37.97426]},"properties":{"frp":0.26,"date":"2026-09-20","daynight":"N"}},{"type":"Feature","geometry":{"type":"Point","coordinates":[-90.06969,37.9749]},"properties":{"frp":0.56,"date":"2026-09-20","daynight":"N"}},{"type":"Feature","geometry":{"type":"Point","coordinates":[-86.14159,38.00332]},"properties":{"frp":0.88,"date":"2026-09-20","daynight":"N"}},{"type":"Feature","geometry":{"type":"Point","coordinates":[-86.14511,38.0074]},"properties":{"frp":0.88,"date":"2026-09-20","daynight":"N"}},{"type":"Feature","geometry":{"type":"Point","coordinates":[-90.08154,38.00798]},"properties":{"frp":0.97,"date":"2026-09-20","daynight":"N"}},{"type":"Feature","geometry":{"type":"Point","coordinates":[-90.08084,38.01139]},"properties":{"frp":0.97,"date":"2026-09-20","daynight":"N"}},{"type":"Feature","geometry":{"type":"Point","coordinates":[-81.33993,38.06693]},"properties":{"frp":1.79,"date":"2026-09-20","daynight":"N"}},{"type":"Feature","geometry":{"type":"Point","coordinates":[-81.34075,38.0689]},"properties":{"frp":1.88,"date":"2026-09-20","daynight":"N"}},{"type":"Feature","geometry":{"type":"Point","coordinates":[-87.71896,38.99085]},"properties":{"frp":0.98,"date":"2026-09-20","daynight":"N"}},{"type":"Feature","geometry":{"type":"Point","coordinates":[-87.72607,38.99877]},"properties":{"frp":1.82,"date":"2026-09-20","daynight":"N"}},{"type":"Feature","geometry":{"type":"Point","coordinates":[-82.78233,32.92794]},"properties":{"frp":1.36,"date":"2026-09-20","daynight":"N"}},{"type":"Feature","geometry":{"type":"Point","coordinates":[-79.87717,33.00423]},"properties":{"frp":2.05,"date":"2026-09-20","daynight":"N"}},{"type":"Feature","geometry":{"type":"Point","coordinates":[-79.88337,33.00571]},"properties":{"frp":1.91,"date":"2026-09-20","daynight":"N"}},{"type":"Feature","geometry":{"type":"Point","coordinates":[-79.88643,33.01664]},"properties":{"frp":7.43,"date":"2026-09-20","daynight":"N"}},{"type":"Feature","geometry":{"type":"Point","coordinates":[-86.81665,33.22294]},"properties":{"frp":0.99,"date":"2026-09-20","daynight":"N"}},{"type":"Feature","geometry":{"type":"Point","coordinates":[-87.51026,33.2316]},"properties":{"frp":2.39,"date":"2026-09-20","daynight":"N"}},{"type":"Feature","geometry":{"type":"Point","coordinates":[-87.51449,33.23234]},"properties":{"frp":2.64,"date":"2026-09-20","daynight":"N"}},{"type":"Feature","geometry":{"type":"Point","coordinates":[-87.50945,33.23494]},"properties":{"frp":1.15,"date":"2026-09-20","daynight":"N"}},{"type":"Feature","geometry":{"type":"Point","coordinates":[-87.50864,33.23827]},"properties":{"frp":1.15,"date":"2026-09-20","daynight":"N"}},{"type":"Feature","geometry":{"type":"Point","coordinates":[-88.5491,33.43005]},"properties":{"frp":0.58,"date":"2026-09-20","daynight":"N"}},{"type":"Feature","geometry":{"type":"Point","coordinates":[-88.55322,33.43072]},"properties":{"frp":0.58,"date":"2026-09-20","daynight":"N"}},{"type":"Feature","geometry":{"type":"Point","coordinates":[-88.57893,33.44855]},"properties":{"frp":1.34,"date":"2026-09-20","daynight":"N"}},{"type":"Feature","geometry":{"type":"Point","coordinates":[-88.56995,33.4505]},"properties":{"frp":2.18,"date":"2026-09-20","daynight":"N"}},{"type":"Feature","geometry":{"type":"Point","coordinates":[-86.93382,33.4806]},"properties":{"frp":0.58,"date":"2026-09-20","daynight":"N"}},{"type":"Feature","geometry":{"type":"Point","coordinates":[-86.93298,33.48397]},"properties":{"frp":2.2,"date":"2026-09-20","daynight":"N"}},{"type":"Feature","geometry":{"type":"Point","coordinates":[-86.78234,33.58448]},"properties":{"frp":1.46,"date":"2026-09-20","daynight":"N"}},{"type":"Feature","geometry":{"type":"Point","coordinates":[-92.91565,33.94822]},"properties":{"frp":1.25,"date":"2026-09-20","daynight":"N"}},{"type":"Feature","geometry":{"type":"Point","coordinates":[-92.91499,33.95185]},"properties":{"frp":0.72,"date":"2026-09-20","daynight":"N"}},{"type":"Feature","geometry":{"type":"Point","coordinates":[-92.91433,33.95547]},"properties":{"frp":0.72,"date":"2026-09-20","daynight":"N"}},{"type":"Feature","geometry":{"type":"Point","coordinates":[-84.798,34.24115]},"properties":{"frp":0.85,"date":"2026-09-20","daynight":"N"}},{"type":"Feature","geometry":{"type":"Point","coordinates":[-84.79894,34.24122]},"properties":{"frp":1.34,"date":"2026-09-20","daynight":"N"}},{"type":"Feature","geometry":{"type":"Point","coordinates":[-87.08495,34.64062]},"properties":{"frp":5.43,"date":"2026-09-20","daynight":"N"}},{"type":"Feature","geometry":{"type":"Point","coordinates":[-87.08327,34.64728]},"properties":{"frp":1.18,"date":"2026-09-20","daynight":"N"}},{"type":"Feature","geometry":{"type":"Point","coordinates":[-88.32168,34.80577]},"properties":{"frp":1.53,"date":"2026-09-20","daynight":"N"}},{"type":"Feature","geometry":{"type":"Point","coordinates":[-90.03686,34.98188]},"properties":{"frp":1.35,"date":"2026-09-20","daynight":"N"}},{"type":"Feature","geometry":{"type":"Point","coordinates":[-90.04114,34.98251]},"properties":{"frp":1.42,"date":"2026-09-20","daynight":"N"}},{"type":"Feature","geometry":{"type":"Point","coordinates":[-87.20535,35.0264]},"properties":{"frp":2.41,"date":"2026-09-20","daynight":"N"}},{"type":"Feature","geometry":{"type":"Point","coordinates":[-86.96966,35.21179]},"properties":{"frp":0.68,"date":"2026-09-20","daynight":"N"}},{"type":"Feature","geometry":{"type":"Point","coordinates":[-86.96883,35.21512]},"properties":{"frp":1.21,"date":"2026-09-20","daynight":"N"}},{"type":"Feature","geometry":{"type":"Point","coordinates":[-89.94616,35.61048]},"properties":{"frp":3.58,"date":"2026-09-20","daynight":"N"}},{"type":"Feature","geometry":{"type":"Point","coordinates":[-89.95049,35.61111]},"properties":{"frp":0.76,"date":"2026-09-20","daynight":"N"}},{"type":"Feature","geometry":{"type":"Point","coordinates":[-89.94976,35.61444]},"properties":{"frp":1.03,"date":"2026-09-20","daynight":"N"}},{"type":"Feature","geometry":{"type":"Point","coordinates":[-89.93887,35.64378]},"properties":{"frp":1.25,"date":"2026-09-20","daynight":"N"}},{"type":"Feature","geometry":{"type":"Point","coordinates":[-89.93307,35.6498]},"properties":{"frp":5.17,"date":"2026-09-20","daynight":"N"}},{"type":"Feature","geometry":{"type":"Point","coordinates":[-88.81103,35.72881]},"properties":{"frp":1.57,"date":"2026-09-20","daynight":"N"}},{"type":"Feature","geometry":{"type":"Point","coordinates":[-91.74335,35.79712]},"properties":{"frp":0.5,"date":"2026-09-20","daynight":"N"}},{"type":"Feature","geometry":{"type":"Point","coordinates":[-91.74512,35.7975]},"properties":{"frp":0.48,"date":"2026-09-20","daynight":"N"}},{"type":"Feature","geometry":{"type":"Point","coordinates":[-91.74822,35.79774]},"properties":{"frp":0.25,"date":"2026-09-20","daynight":"N"}},{"type":"Feature","geometry":{"type":"Point","coordinates":[-89.71463,35.93708]},"properties":{"frp":2.07,"date":"2026-09-20","daynight":"N"}},{"type":"Feature","geometry":{"type":"Point","coordinates":[-89.71241,35.94705]},"properties":{"frp":0.82,"date":"2026-09-20","daynight":"N"}},{"type":"Feature","geometry":{"type":"Point","coordinates":[-89.71674,35.94768]},"properties":{"frp":0.82,"date":"2026-09-20","daynight":"N"}},{"type":"Feature","geometry":{"type":"Point","coordinates":[-90.41042,29.56061]},"properties":{"frp":1.77,"date":"2026-09-20","daynight":"N"}},{"type":"Feature","geometry":{"type":"Point","coordinates":[-90.40974,29.5639]},"properties":{"frp":1.18,"date":"2026-09-20","daynight":"N"}},{"type":"Feature","geometry":{"type":"Point","coordinates":[-90.40651,29.99558]},"properties":{"frp":1.56,"date":"2026-09-20","daynight":"N"}},{"type":"Feature","geometry":{"type":"Point","coordinates":[-90.39398,29.99702]},"properties":{"frp":2.47,"date":"2026-09-20","daynight":"N"}},{"type":"Feature","geometry":{"type":"Point","coordinates":[-90.4012,30.00154]},"properties":{"frp":3.44,"date":"2026-09-20","daynight":"N"}},{"type":"Feature","geometry":{"type":"Point","coordinates":[-91.2395,30.32268]},"properties":{"frp":1.27,"date":"2026-09-20","daynight":"N"}},{"type":"Feature","geometry":{"type":"Point","coordinates":[-91.2429,30.3266]},"properties":{"frp":1.27,"date":"2026-09-20","daynight":"N"}},{"type":"Feature","geometry":{"type":"Point","coordinates":[-91.28007,30.32868]},"properties":{"frp":1.2,"date":"2026-09-20","daynight":"N"}},{"type":"Feature","geometry":{"type":"Point","coordinates":[-88.48384,30.34306]},"properties":{"frp":2.55,"date":"2026-09-20","daynight":"N"}},{"type":"Feature","geometry":{"type":"Point","coordinates":[-88.48794,30.34376]},"properties":{"frp":2.94,"date":"2026-09-20","daynight":"N"}},{"type":"Feature","geometry":{"type":"Point","coordinates":[-91.23343,30.60072]},"properties":{"frp":1.49,"date":"2026-09-20","daynight":"N"}},{"type":"Feature","geometry":{"type":"Point","coordinates":[-91.23277,30.60405]},"properties":{"frp":1.49,"date":"2026-09-20","daynight":"N"}},{"type":"Feature","geometry":{"type":"Point","coordinates":[-93.28137,30.82271]},"properties":{"frp":2.28,"date":"2026-09-20","daynight":"N"}},{"type":"Feature","geometry":{"type":"Point","coordinates":[-93.27603,30.82565]},"properties":{"frp":2.28,"date":"2026-09-20","daynight":"N"}},{"type":"Feature","geometry":{"type":"Point","coordinates":[-87.98352,31.14936]},"properties":{"frp":1.83,"date":"2026-09-20","daynight":"N"}},{"type":"Feature","geometry":{"type":"Point","coordinates":[-87.9877,31.15008]},"properties":{"frp":2.59,"date":"2026-09-20","daynight":"N"}},{"type":"Feature","geometry":{"type":"Point","coordinates":[-87.98038,31.16276]},"properties":{"frp":1.43,"date":"2026-09-20","daynight":"N"}},{"type":"Feature","geometry":{"type":"Point","coordinates":[-96.17191,31.35278]},"properties":{"frp":2.79,"date":"2026-09-20","daynight":"N"}},{"type":"Feature","geometry":{"type":"Point","coordinates":[-86.16628,31.37451]},"properties":{"frp":0.78,"date":"2026-09-20","daynight":"N"}},{"type":"Feature","geometry":{"type":"Point","coordinates":[-86.1654,31.37806]},"properties":{"frp":0.56,"date":"2026-09-20","daynight":"N"}},{"type":"Feature","geometry":{"type":"Point","coordinates":[-93.53553,31.59943]},"properties":{"frp":0.66,"date":"2026-09-20","daynight":"N"}},{"type":"Feature","geometry":{"type":"Point","coordinates":[-93.53323,31.59958]},"properties":{"frp":0.72,"date":"2026-09-20","daynight":"N"}},{"type":"Feature","geometry":{"type":"Point","coordinates":[-90.13216,32.31423]},"properties":{"frp":1.17,"date":"2026-09-20","daynight":"N"}},{"type":"Feature","geometry":{"type":"Point","coordinates":[-90.13622,32.31485]},"properties":{"frp":2.34,"date":"2026-09-20","daynight":"N"}},{"type":"Feature","geometry":{"type":"Point","coordinates":[-91.98763,32.83955]},"properties":{"frp":0.83,"date":"2026-09-20","daynight":"N"}},{"type":"Feature","geometry":{"type":"Point","coordinates":[-91.98631,32.84645]},"properties":{"frp":0.75,"date":"2026-09-20","daynight":"N"}},{"type":"Feature","geometry":{"type":"Point","coordinates":[-91.98948,32.85396]},"properties":{"frp":1.91,"date":"2026-09-20","daynight":"N"}},{"type":"Feature","geometry":{"type":"Point","coordinates":[-91.98881,32.85741]},"properties":{"frp":1.87,"date":"2026-09-20","daynight":"N"}},{"type":"Feature","geometry":{"type":"Point","coordinates":[-91.98814,32.86087]},"properties":{"frp":1.87,"date":"2026-09-20","daynight":"N"}},{"type":"Feature","geometry":{"type":"Point","coordinates":[-80.1531,26.28093]},"properties":{"frp":0.55,"date":"2026-09-20","daynight":"N"}},{"type":"Feature","geometry":{"type":"Point","coordinates":[-80.15276,26.28104]},"properties":{"frp":0.79,"date":"2026-09-20","daynight":"N"}},{"type":"Feature","geometry":{"type":"Point","coordinates":[-97.48266,27.81767]},"properties":{"frp":2.44,"date":"2026-09-20","daynight":"N"}},{"type":"Feature","geometry":{"type":"Point","coordinates":[-97.48727,27.81817]},"properties":{"frp":2.42,"date":"2026-09-20","daynight":"N"}},{"type":"Feature","geometry":{"type":"Point","coordinates":[-97.43886,28.06215]},"properties":{"frp":0.7,"date":"2026-09-20","daynight":"N"}},{"type":"Feature","geometry":{"type":"Point","coordinates":[-94.90726,29.36954]},"properties":{"frp":2.73,"date":"2026-09-20","daynight":"N"}},{"type":"Feature","geometry":{"type":"Point","coordinates":[-94.9225,29.37529]},"properties":{"frp":3.51,"date":"2026-09-20","daynight":"N"}},{"type":"Feature","geometry":{"type":"Point","coordinates":[-94.9384,29.37727]},"properties":{"frp":3.17,"date":"2026-09-20","daynight":"N"}},{"type":"Feature","geometry":{"type":"Point","coordinates":[-94.37254,29.55801]},"properties":{"frp":32.75,"date":"2026-09-20","daynight":"N"}},{"type":"Feature","geometry":{"type":"Point","coordinates":[-94.37193,29.5617]},"properties":{"frp":32.75,"date":"2026-09-20","daynight":"N"}},{"type":"Feature","geometry":{"type":"Point","coordinates":[-94.37694,29.56232]},"properties":{"frp":33.04,"date":"2026-09-20","daynight":"N"}},{"type":"Feature","geometry":{"type":"Point","coordinates":[-94.36127,29.56415]},"properties":{"frp":5.16,"date":"2026-09-20","daynight":"N"}},{"type":"Feature","geometry":{"type":"Point","coordinates":[-94.3713,29.5654]},"properties":{"frp":3.52,"date":"2026-09-20","daynight":"N"}},{"type":"Feature","geometry":{"type":"Point","coordinates":[-94.37632,29.56602]},"properties":{"frp":24.83,"date":"2026-09-20","daynight":"N"}},{"type":"Feature","geometry":{"type":"Point","coordinates":[-94.35065,29.56659]},"properties":{"frp":5.04,"date":"2026-09-20","daynight":"N"}},{"type":"Feature","geometry":{"type":"Point","coordinates":[-94.36066,29.56784]},"properties":{"frp":5.16,"date":"2026-09-20","daynight":"N"}},{"type":"Feature","geometry":{"type":"Point","coordinates":[-94.36568,29.56846]},"properties":{"frp":3.52,"date":"2026-09-20","daynight":"N"}},{"type":"Feature","geometry":{"type":"Point","coordinates":[-94.37571,29.56971]},"properties":{"frp":24.83,"date":"2026-09-20","daynight":"N"}},{"type":"Feature","geometry":{"type":"Point","coordinates":[-94.35003,29.57028]},"properties":{"frp":1.97,"date":"2026-09-20","daynight":"N"}},{"type":"Feature","geometry":{"type":"Point","coordinates":[-94.35503,29.5709]},"properties":{"frp":1.05,"date":"2026-09-20","daynight":"N"}},{"type":"Feature","geometry":{"type":"Point","coordinates":[-94.36005,29.57153]},"properties":{"frp":1.05,"date":"2026-09-20","daynight":"N"}},{"type":"Feature","geometry":{"type":"Point","coordinates":[-94.37508,29.57341]},"properties":{"frp":5.65,"date":"2026-09-20","daynight":"N"}},{"type":"Feature","geometry":{"type":"Point","coordinates":[-94.38011,29.57403]},"properties":{"frp":5.65,"date":"2026-09-20","daynight":"N"}},{"type":"Feature","geometry":{"type":"Point","coordinates":[-94.35943,29.57522]},"properties":{"frp":1.05,"date":"2026-09-20","daynight":"N"}},{"type":"Feature","geometry":{"type":"Point","coordinates":[-94.38708,29.59377]},"properties":{"frp":1.0,"date":"2026-09-20","daynight":"N"}},{"type":"Feature","geometry":{"type":"Point","coordinates":[-95.04967,29.62209]},"properties":{"frp":1.81,"date":"2026-09-20","daynight":"N"}},{"type":"Feature","geometry":{"type":"Point","coordinates":[-95.0529,29.62488]},"properties":{"frp":2.88,"date":"2026-09-20","daynight":"N"}},{"type":"Feature","geometry":{"type":"Point","coordinates":[-95.13521,29.73648]},"properties":{"frp":3.36,"date":"2026-09-20","daynight":"N"}},{"type":"Feature","geometry":{"type":"Point","coordinates":[-95.12764,29.74112]},"properties":{"frp":2.37,"date":"2026-09-20","daynight":"N"}},{"type":"Feature","geometry":{"type":"Point","coordinates":[-95.12298,29.74284]},"properties":{"frp":1.81,"date":"2026-09-20","daynight":"N"}},{"type":"Feature","geometry":{"type":"Point","coordinates":[-94.99838,29.74935]},"properties":{"frp":2.14,"date":"2026-09-20","daynight":"N"}},{"type":"Feature","geometry":{"type":"Point","coordinates":[-93.87881,29.75595]},"properties":{"frp":1.64,"date":"2026-09-20","daynight":"N"}},{"type":"Feature","geometry":{"type":"Point","coordinates":[-93.86859,29.75831]},"properties":{"frp":1.76,"date":"2026-09-20","daynight":"N"}},{"type":"Feature","geometry":{"type":"Point","coordinates":[-93.87339,29.75894]},"properties":{"frp":1.76,"date":"2026-09-20","daynight":"N"}},{"type":"Feature","geometry":{"type":"Point","coordinates":[-93.87818,29.75956]},"properties":{"frp":1.64,"date":"2026-09-20","daynight":"N"}},{"type":"Feature","geometry":{"type":"Point","coordinates":[-93.883,29.76019]},"properties":{"frp":1.64,"date":"2026-09-20","daynight":"N"}},{"type":"Feature","geometry":{"type":"Point","coordinates":[-93.96339,29.88963]},"properties":{"frp":3.68,"date":"2026-09-20","daynight":"N"}},{"type":"Feature","geometry":{"type":"Point","coordinates":[-97.8574,24.1929]},"properties":{"frp":1.57,"date":"2026-09-20","daynight":"N"}},{"type":"Feature","geometry":{"type":"Point","coordinates":[-97.86164,24.19339]},"properties":{"frp":2.3,"date":"2026-09-20","daynight":"N"}},{"type":"Feature","geometry":{"type":"Point","coordinates":[-97.86104,24.1976]},"properties":{"frp":1.29,"date":"2026-09-20","daynight":"N"}},{"type":"Feature","geometry":{"type":"Point","coordinates":[-97.94635,24.56812]},"properties":{"frp":1.86,"date":"2026-09-20","daynight":"N"}},{"type":"Feature","geometry":{"type":"Point","coordinates":[-97.9507,24.56863]},"properties":{"frp":1.86,"date":"2026-09-20","daynight":"N"}},{"type":"Feature","geometry":{"type":"Point","coordinates":[-97.94576,24.57238]},"properties":{"frp":1.12,"date":"2026-09-20","daynight":"N"}},{"type":"Feature","geometry":{"type":"Point","coordinates":[-100.29912,25.72023]},"properties":{"frp":1.22,"date":"2026-09-20","daynight":"N"}},{"type":"Feature","geometry":{"type":"Point","coordinates":[-100.30546,25.72082]},"properties":{"frp":1.64,"date":"2026-09-20","daynight":"N"}},{"type":"Feature","geometry":{"type":"Point","coordinates":[-100.30488,25.72585]},"properties":{"frp":1.8,"date":"2026-09-20","daynight":"N"}}]}