{"type":"FeatureCollection","features":[{"type":"Feature","geometry":{"type":"Point","coordinates":[-122.40854,40.691]},"properties":{"frp":0.5,"date":"2026-08-25","daynight":"N"}},{"type":"Feature","geometry":{"type":"Point","coordinates":[-122.38128,40.70273]},"properties":{"frp":22.7,"date":"2026-08-25","daynight":"N"}},{"type":"Feature","geometry":{"type":"Point","coordinates":[-122.38618,40.72603]},"properties":{"frp":9.9,"date":"2026-08-25","daynight":"N"}},{"type":"Feature","geometry":{"type":"Point","coordinates":[-122.33045,40.7146]},"properties":{"frp":31.3,"date":"2026-08-25","daynight":"N"}},{"type":"Feature","geometry":{"type":"Point","coordinates":[-122.37652,40.67009]},"properties":{"frp":1.8,"date":"2026-08-25","daynight":"N"}},{"type":"Feature","geometry":{"type":"Point","coordinates":[-122.39206,40.69909]},"properties":{"frp":11.2,"date":"2026-08-25","daynight":"N"}},{"type":"Feature","geometry":{"type":"Point","coordinates":[-122.37726,40.69632]},"properties":{"frp":5.8,"date":"2026-08-25","daynight":"N"}},{"type":"Feature","geometry":{"type":"Point","coordinates":[-122.37085,40.68427]},"properties":{"frp":3.8,"date":"2026-08-25","daynight":"N"}},{"type":"Feature","geometry":{"type":"Point","coordinates":[-122.36817,40.69167]},"properties":{"frp":10.5,"date":"2026-08-25","daynight":"N"}},{"type":"Feature","geometry":{"type":"Point","coordinates":[-122.38499,40.67599]},"properties":{"frp":2.7,"date":"2026-08-25","daynight":"N"}},{"type":"Feature","geometry":{"type":"Point","coordinates":[-122.37305,40.68723]},"properties":{"frp":16.5,"date":"2026-08-25","daynight":"N"}},{"type":"Feature","geometry":{"type":"Point","coordinates":[-122.36442,40.67973]},"properties":{"frp":15.9,"date":"2026-08-25","daynight":"N"}},{"type":"Feature","geometry":{"type":"Point","coordinates":[-122.38909,40.64753]},"properties":{"frp":6.7,"date":"2026-08-25","daynight":"N"}},{"type":"Feature","geometry":{"type":"Point","coordinates":[-122.39203,40.68345]},"properties":{"frp":16.3,"date":"2026-08-25","daynight":"N"}},{"type":"Feature","geometry":{"type":"Point","coordinates":[-122.37156,40.72812]},"properties":{"frp":10.0,"date":"2026-08-25","daynight":"N"}},{"type":"Feature","geometry":{"type":"Point","coordinates":[-122.38331,40.69414]},"properties":{"frp":7.1,"date":"2026-08-25","daynight":"N"}},{"type":"Feature","geometry":{"type":"Point","coordinates":[-122.40044,40.68963]},"properties":{"frp":9.7,"date":"2026-08-25","daynight":"N"}},{"type":"Feature","geometry":{"type":"Point","coordinates":[-122.39393,40.68603]},"properties":{"frp":19.0,"date":"2026-08-25","daynight":"N"}},{"type":"Feature","geometry":{"type":"Point","coordinates":[-122.4319,40.68351]},"properties":{"frp":13.2,"date":"2026-08-25","daynight":"N"}},{"type":"Feature","geometry":{"type":"Point","coordinates":[-122.33774,40.6636]},"properties":{"frp":15.6,"date":"2026-08-25","daynight":"N"}},{"type":"Feature","geometry":{"type":"Point","coordinates":[-122.34113,40.70943]},"properties":{"frp":8.8,"date":"2026-08-25","daynight":"N"}},{"type":"Feature","geometry":{"type":"Point","coordinates":[-122.35625,40.72247]},"properties":{"frp":14.2,"date":"2026-08-25","daynight":"N"}},{"type":"Feature","geometry":{"type":"Point","coordinates":[-122.39627,40.6794]},"properties":{"frp":18.5,"date":"2026-08-25","daynight":"N"}},{"type":"Feature","geometry":{"type":"Point","coordinates":[-122.37049,40.71683]},"properties":{"frp":10.0,"date":"2026-08-25","daynight":"N"}},{"type":"Feature","geometry":{"type":"Point","coordinates":[-122.38054,40.74836]},"properties":{"frp":11.5,"date":"2026-08-25","daynight":"N"}},{"type":"Feature","geometry":{"type":"Point","coordinates":[-122.37567,40.73617]},"properties":{"frp":1.8,"date":"2026-08-25","daynight":"N"}},{"type":"Feature","geometry":{"type":"Point","coordinates":[-122.3323,40.72126]},"properties":{"frp":4.9,"date":"2026-08-25","daynight":"N"}},{"type":"Feature","geometry":{"type":"Point","coordinates":[-122.38335,40.66606]},"properties":{"frp":25.4,"date":"2026-08-25","daynight":"N"}},{"type":"Feature","geometry":{"type":"Point","coordinates":[-122.40078,40.66583]},"properties":{"frp":3.4,"date":"2026-08-25","daynight":"N"}},{"type":"Feature","geometry":{"type":"Point","coordinates":[-122.3766,40.70561]},"properties":{"frp":22.2,"date":"2026-08-25","daynight":"N"}},{"type":"Feature","geometry":{"type":"Point","coordinates":[-122.35898,40.69123]},"properties":{"frp":11.6,"date":"2026-08-25","daynight":"N"}},{"type":"Feature","geometry":{"type":"Point","coordinates":[-122.35954,40.68183]},"properties":{"frp":8.4,"date":"2026-08-25","daynight":"N"}},{"type":"Feature","geometry":{"type":"Point","coordinates":[-122.33992,40.70452]},"properties":{"frp":6.5,"date":"2026-08-25","daynight":"N"}},{"type":"Feature","geometry":{"type":"Point","coordinates":[-122.42169,40.68755]},"properties":{"frp":29.0,"date":"2026-08-25","daynight":"N"}},{"type":"Feature","geometry":{"type":"Point","coordinates":[-122.3673,40.69134]},"properties":{"frp":14.9,"date":"2026-08-25","daynight":"N"}},{"type":"Feature","geometry":{"type":"Point","coordinates":[-122.40342,40.68155]},"properties":{"frp":1.7,"date":"2026-08-25","daynight":"N"}},{"type":"Feature","geometry":{"type":"Point","coordinates":[-122.38519,40.70571]},"properties":{"frp":11.3,"date":"2026-08-25","daynight":"N"}},{"type":"Feature","geometry":{"type":"Point","coordinates":[-122.38282,40.68049]},"properties":{"frp":14.0,"date":"2026-08-25","daynight":"N"}},{"type":"Feature","geometry":{"type":"Point","coordinates":[-122.37296,40.71891]},"properties":{"frp":5.7,"date":"2026-08-25","daynight":"N"}},{"type":"Feature","geometry":{"type":"Point","coordinates":[-122.38231,40.69185]},"properties":{"frp":29.0,"date":"2026-08-25","daynight":"N"}},{"type":"Feature","geometry":{"type":"Point","coordinates":[-122.34043,40.70083]},"properties":{"frp":2.6,"date":"2026-08-25","daynight":"N"}},{"type":"Feature","geometry":{"type":"Point","coordinates":[-122.35593,40.70516]},"properties":{"frp":7.4,"date":"2026-08-25","daynight":"N"}},{"type":"Feature","geometry":{"type":"Point","coordinates":[-122.4043,40.70419]},"properties":{"frp":13.9,"date":"2026-08-25","daynight":"N"}},{"type":"Feature","geometry":{"type":"Point","coordinates":[-122.3768,40.6695]},"properties":{"frp":5.4,"date":"2026-08-25","daynight":"N"}},{"type":"Feature","geometry":{"type":"Point","coordinates":[-122.39691,40.67301]},"properties":{"frp":6.4,"date":"2026-08-25","daynight":"N"}},{"type":"Feature","geometry":{"type":"Point","coordinates":[-122.40351,40.64619]},"properties":{"frp":26.7,"date":"2026-08-25","daynight":"N"}},{"type":"Feature","geometry":{"type":"Point","coordinates":[-122.37362,40.684]},"properties":{"frp":3.5,"date":"2026-08-25","daynight":"N"}},{"type":"Feature","geometry":{"type":"Point","coordinates":[-122.37015,40.67144]},"properties":{"frp":6.1,"date":"2026-08-25","daynight":"N"}},{"type":"Feature","geometry":{"type":"Point","coordinates":[-122.34648,40.67985]},"properties":{"frp":1.6,"date":"2026-08-25","daynight":"N"}},{"type":"Feature","geometry":{"type":"Point","coordinates":[-122.35571,40.68622]},"properties":{"frp":16.8,"date":"2026-08-25","daynight":"N"}},{"type":"Feature","geometry":{"type":"Point","coordinates":[-122.40481,40.69476]},"properties":{"frp":7.9,"date":"2026-08-25","daynight":"N"}},{"type":"Feature","geometry":{"type":"Point","coordinates":[-122.40091,40.68788]},"properties":{"frp":22.5,"date":"2026-08-25","daynight":"N"}},{"type":"Feature","geometry":{"type":"Point","coordinates":[-122.38944,40.68747]},"properties":{"frp":18.6,"date":"2026-08-25","daynight":"N"}},{"type":"Feature","geometry":{"type":"Point","coordinates":[-122.40341,40.69894]},"properties":{"frp":9.1,"date":"2026-08-25","daynight":"N"}},{"type":"Feature","geometry":{"type":"Point","coordinates":[-122.35861,40.69034]},"properties":{"frp":4.0,"date":"2026-08-25","daynight":"N"}},{"type":"Feature","geometry":{"type":"Point","coordinates":[-122.38988,40.71124]},"properties":{"frp":23.7,"date":"2026-08-25","daynight":"N"}},{"type":"Feature","geometry":{"type":"Point","coordinates":[-122.36769,40.69042]},"properties":{"frp":4.0,"date":"2026-08-25","daynight":"N"}},{"type":"Feature","geometry":{"type":"Point","coordinates":[-122.40666,40.7262]},"properties":{"frp":13.3,"date":"2026-08-25","daynight":"N"}},{"type":"Feature","geometry":{"type":"Point","coordinates":[-122.41625,40.68361]},"properties":{"frp":4.4,"date":"2026-08-25","daynight":"N"}},{"type":"Feature","geometry":{"type":"Point","coordinates":[-122.43679,40.67637]},"properties":{"frp":4.9,"date":"2026-08-25","daynight":"N"}},{"type":"Feature","geometry":{"type":"Point","coordinates":[-122.35305,40.69564]},"properties":{"frp":8.2,"date":"2026-08-25","daynight":"N"}},{"type":"Feature","geometry":{"type":"Point","coordinates":[-122.38301,40.66867]},"properties":{"frp":17.6,"date":"2026-08-25","daynight":"N"}},{"type":"Feature","geometry":{"type":"Point","coordinates":[-122.41296,40.71161]},"properties":{"frp":9.7,"date":"2026-08-25","daynight":"N"}},{"type":"Feature","geometry":{"type":"Point","coordinates":[-122.37888,40.6724]},"properties":{"frp":11.5,"date":"2026-08-25","daynight":"N"}},{"type":"Feature","geometry":{"type":"Point","coordinates":[-122.36699,40.66043]},"properties":{"frp":13.8,"date":"2026-08-25","daynight":"N"}},{"type":"Feature","geometry":{"type":"Point","coordinates":[-122.35915,40.68651]},"properties":{"frp":5.0,"date":"2026-08-25","daynight":"N"}},{"type":"Feature","geometry":{"type":"Point","coordinates":[-122.36716,40.69469]},"properties":{"frp":11.3,"date":"2026-08-25","daynight":"N"}},{"type":"Feature","geometry":{"type":"Point","coordinates":[-122.36047,40.65616]},"properties":{"frp":11.1,"date":"2026-08-25","daynight":"N"}},{"type":"Feature","geometry":{"type":"Point","coordinates":[-122.3759,40.68226]},"properties":{"frp":24.1,"date":"2026-08-25","daynight":"N"}},{"type":"Feature","geometry":{"type":"Point","coordinates":[-122.38883,40.71453]},"properties":{"frp":4.4,"date":"2026-08-25","daynight":"N"}},{"type":"Feature","geometry":{"type":"Point","coordinates":[-122.3382,40.72162]},"properties":{"frp":10.0,"date":"2026-08-25","daynight":"N"}},{"type":"Feature","geometry":{"type":"Point","coordinates":[-122.39495,40.70762]},"properties":{"frp":43.9,"date":"2026-08-25","daynight":"N"}},{"type":"Feature","geometry":{"type":"Point","coordinates":[-122.38944,40.69261]},"properties":{"frp":8.4,"date":"2026-08-25","daynight":"N"}},{"type":"Feature","geometry":{"type":"Point","coordinates":[-122.39216,40.71746]},"properties":{"frp":5.3,"date":"2026-08-25","daynight":"N"}},{"type":"Feature","geometry":{"type":"Point","coordinates":[-122.35972,40.68007]},"properties":{"frp":22.8,"date":"2026-08-25","daynight":"N"}},{"type":"Feature","geometry":{"type":"Point","coordinates":[-122.37456,40.66394]},"properties":{"frp":21.3,"date":"2026-08-25","daynight":"N"}},{"type":"Feature","geometry":{"type":"Point","coordinates":[-122.36706,40.71549]},"properties":{"frp":15.4,"date":"2026-08-25","daynight":"N"}},{"type":"Feature","geometry":{"type":"Point","coordinates":[-122.34547,40.71919]},"properties":{"frp":19.4,"date":"2026-08-25","daynight":"N"}},{"type":"Feature","geometry":{"type":"Point","coordinates":[-122.42668,40.69018]},"properties":{"frp":4.6,"date":"2026-08-25","daynight":"N"}},{"type":"Feature","geometry":{"type":"Point","coordinates":[-122.35414,40.66412]},"properties":{"frp":23.2,"date":"2026-08-25","daynight":"N"}},{"type":"Feature","geometry":{"type":"Point","coordinates":[-122.37964,40.65372]},"properties":{"frp":11.6,"date":"2026-08-25","daynight":"N"}},{"type":"Feature","geometry":{"type":"Point","coordinates":[-122.33761,40.69792]},"properties":{"frp":8.2,"date":"2026-08-25","daynight":"N"}},{"type":"Feature","geometry":{"type":"Point","coordinates":[-122.38706,40.67654]},"properties":{"frp":17.4,"date":"2026-08-25","daynight":"N"}},{"type":"Feature","geometry":{"type":"Point","coordinates":[-122.36379,40.68877]},"properties":{"frp":27.1,"date":"2026-08-25","daynight":"N"}},{"type":"Feature","geometry":{"type":"Point","coordinates":[-122.34745,40.68639]},"properties":{"frp":0.7,"date":"2026-08-25","daynight":"N"}},{"type":"Feature","geometry":{"type":"Point","coordinates":[-122.36919,40.6713]},"properties":{"frp":23.2,"date":"2026-08-25","daynight":"N"}},{"type":"Feature","geometry":{"type":"Point","coordinates":[-122.38137,40.70042]},"properties":{"frp":17.9,"date":"2026-08-25","daynight":"N"}},{"type":"Feature","geometry":{"type":"Point","coordinates":[-122.36851,40.70965]},"properties":{"frp":2.1,"date":"2026-08-25","daynight":"N"}},{"type":"Feature","geometry":{"type":"Point","coordinates":[-122.36746,40.70846]},"properties":{"frp":11.8,"date":"2026-08-25","daynight":"N"}},{"type":"Feature","geometry":{"type":"Point","coordinates":[-122.3868,40.69881]},"properties":{"frp":4.6,"date":"2026-08-25","daynight":"N"}},{"type":"Feature","geometry":{"type":"Point","coordinates":[-122.34335,40.67524]},"properties":{"frp":11.2,"date":"2026-08-25","daynight":"N"}},{"type":"Feature","geometry":{"type":"Point","coordinates":[-122.39594,40.70487]},"properties":{"frp":11.1,"date":"2026-08-25","daynight":"N"}},{"type":"Feature","geometry":{"type":"Point","coordinates":[-122.42755,40.69423]},"properties":{"frp":7.3,"date":"2026-08-25","daynight":"N"}},{"type":"Feature","geometry":{"type":"Point","coordinates":[-122.34951,40.67657]},"properties":{"frp":17.0,"date":"2026-08-25","daynight":"N"}},{"type":"Feature","geometry":{"type":"Point","coordinates":[-122.36924,40.68707]},"properties":{"frp":21.2,"date":"2026-08-25","daynight":"N"}},{"type":"Feature","geometry":{"type":"Point","coordinates":[-122.37323,40.68705]},"properties":{"frp":10.0,"date":"2026-08-25","daynight":"N"}},{"type":"Feature","geometry":{"type":"Point","coordinates":[-122.37201,40.69124]},"properties":{"frp":10.0,"date":"2026-08-25","daynight":"N"}},{"type":"Feature","geometry":{"type":"Point","coordinates":[-122.37001,40.6912]},"properties":{"frp":10.0,"date":"2026-08-25","daynight":"N"}},{"type":"Feature","geometry":{"type":"Point","coordinates":[-122.37028,40.69303]},"properties":{"frp":10.0,"date":"2026-08-25","daynight":"N"}},{"type":"Feature","geometry":{"type":"Point","coordinates":[-122.37247,40.69647]},"properties":{"frp":10.0,"date":"2026-08-25","daynight":"N"}},{"type":"Feature","geometry":{"type":"Point","coordinates":[-122.36655,40.69435]},"properties":{"frp":10.0,"date":"2026-08-25","daynight":"N"}},{"type":"Feature","geometry":{"type":"Point","coordinates":[-122.37475,40.6921]},"properties":{"frp":10.0,"date":"2026-08-25","daynight":"N"}},{"type":"Feature","geometry":{"type":"Point","coordinates":[-122.36774,40.69092]},"properties":{"frp":10.0,"date":"2026-08-25","daynight":"N"}},{"type":"Feature","geometry":{"type":"Point","coordinates":[-122.37609,40.6998]},"properties":{"frp":10.0,"date":"2026-08-25","daynight":"N"}},{"type":"Feature","geometry":{"type":"Point","coordinates":[-122.36505,40.69797]},"properties":{"frp":10.0,"date":"2026-08-25","daynight":"N"}},{"type":"Feature","geometry":{"type":"Point","coordinates":[-122.37855,40.69876]},"properties":{"frp":10.0,"date":"2026-08-25","daynight":"N"}},{"type":"Feature","geometry":{"type":"Point","coordinates":[-122.36231,40.70065]},"properties":{"frp":10.0,"date":"2026-08-25","daynight":"N"}},{"type":"Feature","geometry":{"type":"Point","coordinates":[-122.37771,40.70289]},"properties":{"frp":10.0,"date":"2026-08-25","daynight":"N"}},{"type":"Feature","geometry":{"type":"Point","coordinates":[-122.3579,40.6993]},"properties":{"frp":10.0,"date":"2026-08-25","daynight":"N"}},{"type":"Feature","geometry":{"type":"Point","coordinates":[-122.37972,40.7078]},"properties":{"frp":10.0,"date":"2026-08-25","daynight":"N"}},{"type":"Feature","geometry":{"type":"Point","coordinates":[-122.35574,40.69715]},"properties":{"frp":10.0,"date":"2026-08-25","daynight":"N"}},{"type":"Feature","geometry":{"type":"Point","coordinates":[-122.38538,40.71169]},"properties":{"frp":10.0,"date":"2026-08-25","daynight":"N"}},{"type":"Feature","geometry":{"type":"Point","coordinates":[-122.35557,40.70211]},"properties":{"frp":10.0,"date":"2026-08-25","daynight":"N"}},{"type":"Feature","geometry":{"type":"Point","coordinates":[-122.38248,40.71219]},"properties":{"frp":10.0,"date":"2026-08-25","daynight":"N"}},{"type":"Feature","geometry":{"type":"Point","coordinates":[-122.34853,40.69983]},"properties":{"frp":10.0,"date":"2026-08-25","daynight":"N"}},{"type":"Feature","geometry":{"type":"Point","coordinates":[-122.38552,40.71204]},"properties":{"frp":10.0,"date":"2026-08-25","daynight":"N"}},{"type":"Feature","geometry":{"type":"Point","coordinates":[-122.35033,40.70753]},"properties":{"frp":10.0,"date":"2026-08-25","daynight":"N"}},{"type":"Feature","geometry":{"type":"Point","coordinates":[-122.38331,40.71762]},"properties":{"frp":10.0,"date":"2026-08-25","daynight":"N"}},{"type":"Feature","geometry":{"type":"Point","coordinates":[-122.3468,40.70456]},"properties":{"frp":10.0,"date":"2026-08-25","daynight":"N"}},{"type":"Feature","geometry":{"type":"Point","coordinates":[-122.38777,40.71912]},"properties":{"frp":10.0,"date":"2026-08-25","daynight":"N"}},{"type":"Feature","geometry":{"type":"Point","coordinates":[-122.34632,40.70751]},"properties":{"frp":10.0,"date":"2026-08-25","daynight":"N"}},{"type":"Feature","geometry":{"type":"Point","coordinates":[-122.38882,40.72035]},"properties":{"frp":10.0,"date":"2026-08-25","daynight":"N"}},{"type":"Feature","geometry":{"type":"Point","coordinates":[-122.34684,40.70929]},"properties":{"frp":10.0,"date":"2026-08-25","daynight":"N"}},{"type":"Feature","geometry":{"type":"Point","coordinates":[-122.39305,40.72756]},"properties":{"frp":10.0,"date":"2026-08-25","daynight":"N"}},{"type":"Feature","geometry":{"type":"Point","coordinates":[-122.3394,40.71075]},"properties":{"frp":10.0,"date":"2026-08-25","daynight":"N"}},{"type":"Feature","geometry":{"type":"Point","coordinates":[-122.39546,40.72626]},"properties":{"frp":10.0,"date":"2026-08-25","daynight":"N"}},{"type":"Feature","geometry":{"type":"Point","coordinates":[-122.34309,40.71115]},"properties":{"frp":10.0,"date":"2026-08-25","daynight":"N"}},{"type":"Feature","geometry":{"type":"Point","coordinates":[-122.3955,40.72856]},"properties":{"frp":10.0,"date":"2026-08-25","daynight":"N"}},{"type":"Feature","geometry":{"type":"Point","coordinates":[-122.33527,40.71413]},"properties":{"frp":10.0,"date":"2026-08-25","daynight":"N"}},{"type":"Feature","geometry":{"type":"Point","coordinates":[-122.39729,40.73365]},"properties":{"frp":10.0,"date":"2026-08-25","daynight":"N"}},{"type":"Feature","geometry":{"type":"Point","coordinates":[-122.33418,40.71253]},"properties":{"frp":10.0,"date":"2026-08-25","daynight":"N"}},{"type":"Feature","geometry":{"type":"Point","coordinates":[-122.39541,40.73347]},"properties":{"frp":10.0,"date":"2026-08-25","daynight":"N"}},{"type":"Feature","geometry":{"type":"Point","coordinates":[-122.33285,40.71691]},"properties":{"frp":10.0,"date":"2026-08-25","daynight":"N"}},{"type":"Feature","geometry":{"type":"Point","coordinates":[-122.39976,40.73517]},"properties":{"frp":10.0,"date":"2026-08-25","daynight":"N"}},{"type":"Feature","geometry":{"type":"Point","coordinates":[-122.33085,40.71631]},"properties":{"frp":10.0,"date":"2026-08-25","daynight":"N"}},{"type":"Feature","geometry":{"type":"Point","coordinates":[-122.39758,40.73678]},"properties":{"frp":10.0,"date":"2026-08-25","daynight":"N"}},{"type":"Feature","geometry":{"type":"Point","coordinates":[-122.32695,40.7209]},"properties":{"frp":10.0,"date":"2026-08-25","daynight":"N"}},{"type":"Feature","geometry":{"type":"Point","coordinates":[-122.39851,40.74065]},"properties":{"frp":10.0,"date":"2026-08-25","daynight":"N"}},{"type":"Feature","geometry":{"type":"Point","coordinates":[-122.32428,40.71887]},"properties":{"frp":10.0,"date":"2026-08-25","daynight":"N"}},{"type":"Feature","geometry":{"type":"Point","coordinates":[-122.40284,40.74179]},"properties":{"frp":10.0,"date":"2026-08-25","daynight":"N"}},{"type":"Feature","geometry":{"type":"Point","coordinates":[-122.32592,40.72222]},"properties":{"frp":10.0,"date":"2026-08-25","daynight":"N"}},{"type":"Feature","geometry":{"type":"Point","coordinates":[-122.39949,40.74627]},"properties":{"frp":10.0,"date":"2026-08-25","daynight":"N"}},{"type":"Feature","geometry":{"type":"Point","coordinates":[-122.32211,40.72024]},"properties":{"frp":10.0,"date":"2026-08-25","daynight":"N"}},{"type":"Feature","geometry":{"type":"Point","coordinates":[-120.81608,39.31458]},"properties":{"frp":29.4,"date":"2026-08-25","daynight":"N"}},{"type":"Feature","geometry":{"type":"Point","coordinates":[-120.87375,39.29841]},"properties":{"frp":20.8,"date":"2026-08-25","daynight":"N"}},{"type":"Feature","geometry":{"type":"Point","coordinates":[-120.8787,39.34538]},"properties":{"frp":24.1,"date":"2026-08-25","daynight":"N"}},{"type":"Feature","geometry":{"type":"Point","coordinates":[-120.85158,39.31128]},"properties":{"frp":43.2,"date":"2026-08-25","daynight":"N"}},{"type":"Feature","geometry":{"type":"Point","coordinates":[-120.83526,39.34086]},"properties":{"frp":8.2,"date":"2026-08-25","daynight":"N"}},{"type":"Feature","geometry":{"type":"Point","coordinates":[-120.85966,39.32697]},"properties":{"frp":28.1,"date":"2026-08-25","daynight":"N"}},{"type":"Feature","geometry":{"type":"Point","coordinates":[-120.84761,39.33259]},"properties":{"frp":5.7,"date":"2026-08-25","daynight":"N"}},{"type":"Feature","geometry":{"type":"Point","coordinates":[-120.8653,39.28485]},"properties":{"frp":34.4,"date":"2026-08-25","daynight":"N"}},{"type":"Feature","geometry":{"type":"Point","coordinates":[-120.86283,39.31087]},"properties":{"frp":10.3,"date":"2026-08-25","daynight":"N"}},{"type":"Feature","geometry":{"type":"Point","coordinates":[-120.80733,39.31561]},"properties":{"frp":22.1,"date":"2026-08-25","daynight":"N"}},{"type":"Feature","geometry":{"type":"Point","coordinates":[-120.8179,39.287]},"properties":{"frp":6.2,"date":"2026-08-25","daynight":"N"}},{"type":"Feature","geometry":{"type":"Point","coordinates":[-120.89144,39.31482]},"properties":{"frp":20.6,"date":"2026-08-25","daynight":"N"}},{"type":"Feature","geometry":{"type":"Point","coordinates":[-120.82538,39.3331]},"properties":{"frp":7.9,"date":"2026-08-25","daynight":"N"}},{"type":"Feature","geometry":{"type":"Point","coordinates":[-120.83237,39.31335]},"properties":{"frp":15.6,"date":"2026-08-25","daynight":"N"}},{"type":"Feature","geometry":{"type":"Point","coordinates":[-120.86997,39.30362]},"properties":{"frp":21.2,"date":"2026-08-25","daynight":"N"}},{"type":"Feature","geometry":{"type":"Point","coordinates":[-120.86124,39.33345]},"properties":{"frp":17.7,"date":"2026-08-25","daynight":"N"}},{"type":"Feature","geometry":{"type":"Point","coordinates":[-120.87668,39.32901]},"properties":{"frp":44.6,"date":"2026-08-25","daynight":"N"}},{"type":"Feature","geometry":{"type":"Point","coordinates":[-120.83187,39.28354]},"properties":{"frp":26.0,"date":"2026-08-25","daynight":"N"}},{"type":"Feature","geometry":{"type":"Point","coordinates":[-120.82786,39.32206]},"properties":{"frp":39.5,"date":"2026-08-25","daynight":"N"}},{"type":"Feature","geometry":{"type":"Point","coordinates":[-120.86908,39.30322]},"properties":{"frp":30.4,"date":"2026-08-25","daynight":"N"}},{"type":"Feature","geometry":{"type":"Point","coordinates":[-120.88655,39.34866]},"properties":{"frp":13.5,"date":"2026-08-25","daynight":"N"}},{"type":"Feature","geometry":{"type":"Point","coordinates":[-120.86651,39.33664]},"properties":{"frp":15.7,"date":"2026-08-25","daynight":"N"}},{"type":"Feature","geometry":{"type":"Point","coordinates":[-120.85504,39.2964]},"properties":{"frp":28.4,"date":"2026-08-25","daynight":"N"}},{"type":"Feature","geometry":{"type":"Point","coordinates":[-120.87308,39.28492]},"properties":{"frp":12.0,"date":"2026-08-25","daynight":"N"}},{"type":"Feature","geometry":{"type":"Point","coordinates":[-120.83442,39.33147]},"properties":{"frp":27.6,"date":"2026-08-25","daynight":"N"}},{"type":"Feature","geometry":{"type":"Point","coordinates":[-120.83377,39.29081]},"properties":{"frp":4.7,"date":"2026-08-25","daynight":"N"}},{"type":"Feature","geometry":{"type":"Point","coordinates":[-120.81376,39.3269]},"properties":{"frp":5.4,"date":"2026-08-25","daynight":"N"}},{"type":"Feature","geometry":{"type":"Point","coordinates":[-120.82459,39.32966]},"properties":{"frp":11.0,"date":"2026-08-25","daynight":"N"}},{"type":"Feature","geometry":{"type":"Point","coordinates":[-120.82648,39.32745]},"properties":{"frp":30.1,"date":"2026-08-25","daynight":"N"}},{"type":"Feature","geometry":{"type":"Point","coordinates":[-120.85292,39.28511]},"properties":{"frp":11.4,"date":"2026-08-25","daynight":"N"}},{"type":"Feature","geometry":{"type":"Point","coordinates":[-120.85585,39.31506]},"properties":{"frp":21.9,"date":"2026-08-25","daynight":"N"}},{"type":"Feature","geometry":{"type":"Point","coordinates":[-120.83477,39.32665]},"properties":{"frp":72.3,"date":"2026-08-25","daynight":"N"}},{"type":"Feature","geometry":{"type":"Point","coordinates":[-120.85425,39.32541]},"properties":{"frp":17.2,"date":"2026-08-25","daynight":"N"}},{"type":"Feature","geometry":{"type":"Point","coordinates":[-120.82367,39.29834]},"properties":{"frp":49.0,"date":"2026-08-25","daynight":"N"}},{"type":"Feature","geometry":{"type":"Point","coordinates":[-120.87445,39.32439]},"properties":{"frp":11.2,"date":"2026-08-25","daynight":"N"}},{"type":"Feature","geometry":{"type":"Point","coordinates":[-120.89184,39.31135]},"properties":{"frp":22.7,"date":"2026-08-25","daynight":"N"}},{"type":"Feature","geometry":{"type":"Point","coordinates":[-120.85476,39.31685]},"properties":{"frp":14.0,"date":"2026-08-25","daynight":"N"}},{"type":"Feature","geometry":{"type":"Point","coordinates":[-120.81197,39.30221]},"properties":{"frp":1.0,"date":"2026-08-25","daynight":"N"}},{"type":"Feature","geometry":{"type":"Point","coordinates":[-120.83305,39.28825]},"properties":{"frp":19.7,"date":"2026-08-25","daynight":"N"}},{"type":"Feature","geometry":{"type":"Point","coordinates":[-120.87722,39.31524]},"properties":{"frp":11.8,"date":"2026-08-25","daynight":"N"}},{"type":"Feature","geometry":{"type":"Point","coordinates":[-120.85988,39.28331]},"properties":{"frp":12.4,"date":"2026-08-25","daynight":"N"}},{"type":"Feature","geometry":{"type":"Point","coordinates":[-120.86727,39.29951]},"properties":{"frp":34.7,"date":"2026-08-25","daynight":"N"}},{"type":"Feature","geometry":{"type":"Point","coordinates":[-120.85245,39.30817]},"properties":{"frp":61.5,"date":"2026-08-25","daynight":"N"}},{"type":"Feature","geometry":{"type":"Point","coordinates":[-120.87971,39.32765]},"properties":{"frp":9.3,"date":"2026-08-25","daynight":"N"}},{"type":"Feature","geometry":{"type":"Point","coordinates":[-120.85383,39.29963]},"properties":{"frp":50.8,"date":"2026-08-25","daynight":"N"}},{"type":"Feature","geometry":{"type":"Point","coordinates":[-120.80593,39.31131]},"properties":{"frp":9.7,"date":"2026-08-25","daynight":"N"}},{"type":"Feature","geometry":{"type":"Point","coordinates":[-120.88873,39.32157]},"properties":{"frp":13.4,"date":"2026-08-25","daynight":"N"}},{"type":"Feature","geometry":{"type":"Point","coordinates":[-120.8369,39.32604]},"properties":{"frp":31.6,"date":"2026-08-25","daynight":"N"}},{"type":"Feature","geometry":{"type":"Point","coordinates":[-120.87912,39.313]},"properties":{"frp":20.5,"date":"2026-08-25","daynight":"N"}},{"type":"Feature","geometry":{"type":"Point","coordinates":[-120.87568,39.35819]},"properties":{"frp":19.9,"date":"2026-08-25","daynight":"N"}},{"type":"Feature","geometry":{"type":"Point","coordinates":[-123.29544,41.0575]},"properties":{"frp":4.2,"date":"2026-08-25","daynight":"N"}},{"type":"Feature","geometry":{"type":"Point","coordinates":[-123.31069,41.04265]},"properties":{"frp":10.5,"date":"2026-08-25","daynight":"N"}},{"type":"Feature","geometry":{"type":"Point","coordinates":[-123.30488,41.05623]},"properties":{"frp":14.8,"date":"2026-08-25","daynight":"N"}},{"type":"Feature","geometry":{"type":"Point","coordinates":[-123.30369,41.0589]},"properties":{"frp":7.7,"date":"2026-08-25","daynight":"N"}},{"type":"Feature","geometry":{"type":"Point","coordinates":[-123.29798,41.05972]},"properties":{"frp":2.7,"date":"2026-08-25","daynight":"N"}},{"type":"Feature","geometry":{"type":"Point","coordinates":[-123.29695,41.04948]},"properties":{"frp":0.9,"date":"2026-08-25","daynight":"N"}},{"type":"Feature","geometry":{"type":"Point","coordinates":[-123.30082,41.05044]},"properties":{"frp":4.8,"date":"2026-08-25","daynight":"N"}},{"type":"Feature","geometry":{"type":"Point","coordinates":[-123.29058,41.06637]},"properties":{"frp":20.6,"date":"2026-08-25","daynight":"N"}},{"type":"Feature","geometry":{"type":"Point","coordinates":[-123.29996,41.05075]},"properties":{"frp":6.4,"date":"2026-08-25","daynight":"N"}},{"type":"Feature","geometry":{"type":"Point","coordinates":[-123.30364,41.04333]},"properties":{"frp":9.3,"date":"2026-08-25","daynight":"N"}},{"type":"Feature","geometry":{"type":"Point","coordinates":[-123.31254,41.05712]},"properties":{"frp":13.7,"date":"2026-08-25","daynight":"N"}},{"type":"Feature","geometry":{"type":"Point","coordinates":[-123.30284,41.05928]},"properties":{"frp":19.9,"date":"2026-08-25","daynight":"N"}},{"type":"Feature","geometry":{"type":"Point","coordinates":[-123.2893,41.04062]},"properties":{"frp":8.1,"date":"2026-08-25","daynight":"N"}},{"type":"Feature","geometry":{"type":"Point","coordinates":[-123.29949,41.0639]},"properties":{"frp":5.9,"date":"2026-08-25","daynight":"N"}},{"type":"Feature","geometry":{"type":"Point","coordinates":[-123.29471,41.05673]},"properties":{"frp":5.6,"date":"2026-08-25","daynight":"N"}},{"type":"Feature","geometry":{"type":"Point","coordinates":[-123.29508,41.06326]},"properties":{"frp":15.0,"date":"2026-08-25","daynight":"N"}},{"type":"Feature","geometry":{"type":"Point","coordinates":[-123.28291,41.03739]},"properties":{"frp":2.4,"date":"2026-08-25","daynight":"N"}},{"type":"Feature","geometry":{"type":"Point","coordinates":[-123.30684,41.06012]},"properties":{"frp":3.2,"date":"2026-08-25","daynight":"N"}},{"type":"Feature","geometry":{"type":"Point","coordinates":[-123.2972,41.04022]},"properties":{"frp":0.9,"date":"2026-08-25","daynight":"N"}},{"type":"Feature","geometry":{"type":"Point","coordinates":[-123.29887,41.04736]},"properties":{"frp":1.1,"date":"2026-08-25","daynight":"N"}},{"type":"Feature","geometry":{"type":"Point","coordinates":[-123.30738,41.05706]},"properties":{"frp":1.1,"date":"2026-08-25","daynight":"N"}},{"type":"Feature","geometry":{"type":"Point","coordinates":[-123.29833,41.0394]},"properties":{"frp":6.9,"date":"2026-08-25","daynight":"N"}},{"type":"Feature","geometry":{"type":"Point","coordinates":[-123.30061,41.04493]},"properties":{"frp":12.4,"date":"2026-08-25","daynight":"N"}},{"type":"Feature","geometry":{"type":"Point","coordinates":[-123.3044,41.03724]},"properties":{"frp":8.0,"date":"2026-08-25","daynight":"N"}},{"type":"Feature","geometry":{"type":"Point","coordinates":[-123.29624,41.05679]},"properties":{"frp":7.6,"date":"2026-08-25","daynight":"N"}},{"type":"Feature","geometry":{"type":"Point","coordinates":[-123.3131,41.04251]},"properties":{"frp":10.1,"date":"2026-08-25","daynight":"N"}},{"type":"Feature","geometry":{"type":"Point","coordinates":[-123.29667,41.05015]},"properties":{"frp":5.7,"date":"2026-08-25","daynight":"N"}},{"type":"Feature","geometry":{"type":"Point","coordinates":[-123.30687,41.05385]},"properties":{"frp":5.0,"date":"2026-08-25","daynight":"N"}},{"type":"Feature","geometry":{"type":"Point","coordinates":[-123.28773,41.05283]},"properties":{"frp":6.8,"date":"2026-08-25","daynight":"N"}},{"type":"Feature","geometry":{"type":"Point","coordinates":[-123.31751,41.05195]},"properties":{"frp":15.3,"date":"2026-08-25","daynight":"N"}},{"type":"Feature","geometry":{"type":"Point","coordinates":[-123.28258,41.05193]},"properties":{"frp":2.7,"date":"2026-08-25","daynight":"N"}},{"type":"Feature","geometry":{"type":"Point","coordinates":[-123.30172,41.03777]},"properties":{"frp":6.5,"date":"2026-08-25","daynight":"N"}},{"type":"Feature","geometry":{"type":"Point","coordinates":[-123.30109,41.04785]},"properties":{"frp":3.9,"date":"2026-08-25","daynight":"N"}},{"type":"Feature","geometry":{"type":"Point","coordinates":[-123.30533,41.04888]},"properties":{"frp":10.8,"date":"2026-08-25","daynight":"N"}},{"type":"Feature","geometry":{"type":"Point","coordinates":[-123.30055,41.04566]},"properties":{"frp":18.0,"date":"2026-08-25","daynight":"N"}},{"type":"Feature","geometry":{"type":"Point","coordinates":[-123.28404,41.04905]},"properties":{"frp":12.1,"date":"2026-08-25","daynight":"N"}},{"type":"Feature","geometry":{"type":"Point","coordinates":[-123.30974,41.05029]},"properties":{"frp":6.7,"date":"2026-08-25","daynight":"N"}},{"type":"Feature","geometry":{"type":"Point","coordinates":[-123.29668,41.03864]},"properties":{"frp":19.9,"date":"2026-08-25","daynight":"N"}},{"type":"Feature","geometry":{"type":"Point","coordinates":[-123.31284,41.03927]},"properties":{"frp":7.5,"date":"2026-08-25","daynight":"N"}},{"type":"Feature","geometry":{"type":"Point","coordinates":[-123.2915,41.05604]},"properties":{"frp":0.7,"date":"2026-08-25","daynight":"N"}},{"type":"Feature","geometry":{"type":"Point","coordinates":[-123.32275,41.05575]},"properties":{"frp":17.0,"date":"2026-08-25","daynight":"N"}},{"type":"Feature","geometry":{"type":"Point","coordinates":[-123.29766,41.0461]},"properties":{"frp":9.2,"date":"2026-08-25","daynight":"N"}},{"type":"Feature","geometry":{"type":"Point","coordinates":[-123.29723,41.05713]},"properties":{"frp":7.5,"date":"2026-08-25","daynight":"N"}},{"type":"Feature","geometry":{"type":"Point","coordinates":[-123.28729,41.06433]},"properties":{"frp":1.7,"date":"2026-08-25","daynight":"N"}},{"type":"Feature","geometry":{"type":"Point","coordinates":[-123.29988,41.04887]},"properties":{"frp":2.6,"date":"2026-08-25","daynight":"N"}},{"type":"Feature","geometry":{"type":"Point","coordinates":[-123.2959,41.03714]},"properties":{"frp":10.3,"date":"2026-08-25","daynight":"N"}},{"type":"Feature","geometry":{"type":"Point","coordinates":[-123.29825,41.06327]},"properties":{"frp":9.7,"date":"2026-08-25","daynight":"N"}},{"type":"Feature","geometry":{"type":"Point","coordinates":[-123.29579,41.07166]},"properties":{"frp":16.4,"date":"2026-08-25","daynight":"N"}},{"type":"Feature","geometry":{"type":"Point","coordinates":[-123.30334,41.03755]},"properties":{"frp":13.3,"date":"2026-08-25","daynight":"N"}},{"type":"Feature","geometry":{"type":"Point","coordinates":[-123.29237,41.04646]},"properties":{"frp":21.9,"date":"2026-08-25","daynight":"N"}},{"type":"Feature","geometry":{"type":"Point","coordinates":[-123.30083,41.041]},"properties":{"frp":10.7,"date":"2026-08-25","daynight":"N"}},{"type":"Feature","geometry":{"type":"Point","coordinates":[-123.30226,41.04847]},"properties":{"frp":11.0,"date":"2026-08-25","daynight":"N"}},{"type":"Feature","geometry":{"type":"Point","coordinates":[-123.29191,41.05771]},"properties":{"frp":2.3,"date":"2026-08-25","daynight":"N"}},{"type":"Feature","geometry":{"type":"Point","coordinates":[-123.30114,41.06108]},"properties":{"frp":10.2,"date":"2026-08-25","daynight":"N"}},{"type":"Feature","geometry":{"type":"Point","coordinates":[-123.31096,41.06142]},"properties":{"frp":2.6,"date":"2026-08-25","daynight":"N"}},{"type":"Feature","geometry":{"type":"Point","coordinates":[-123.30953,41.03681]},"properties":{"frp":12.2,"date":"2026-08-25","daynight":"N"}},{"type":"Feature","geometry":{"type":"Point","coordinates":[-123.28658,41.05009]},"properties":{"frp":19.3,"date":"2026-08-25","daynight":"N"}},{"type":"Feature","geometry":{"type":"Point","coordinates":[-123.30253,41.04428]},"properties":{"frp":5.3,"date":"2026-08-25","daynight":"N"}},{"type":"Feature","geometry":{"type":"Point","coordinates":[-123.29256,41.04795]},"properties":{"frp":2.9,"date":"2026-08-25","daynight":"N"}},{"type":"Feature","geometry":{"type":"Point","coordinates":[-123.30307,41.04546]},"properties":{"frp":15.9,"date":"2026-08-25","daynight":"N"}},{"type":"Feature","geometry":{"type":"Point","coordinates":[-123.30343,41.03722]},"properties":{"frp":19.7,"date":"2026-08-25","daynight":"N"}},{"type":"Feature","geometry":{"type":"Point","coordinates":[-123.29714,41.06119]},"properties":{"frp":4.8,"date":"2026-08-25","daynight":"N"}},{"type":"Feature","geometry":{"type":"Point","coordinates":[-123.28626,41.04297]},"properties":{"frp":14.4,"date":"2026-08-25","daynight":"N"}},{"type":"Feature","geometry":{"type":"Point","coordinates":[-123.28451,41.04444]},"properties":{"frp":10.5,"date":"2026-08-25","daynight":"N"}},{"type":"Feature","geometry":{"type":"Point","coordinates":[-123.29747,41.06333]},"properties":{"frp":7.4,"date":"2026-08-25","daynight":"N"}},{"type":"Feature","geometry":{"type":"Point","coordinates":[-123.27625,41.03576]},"properties":{"frp":4.9,"date":"2026-08-25","daynight":"N"}},{"type":"Feature","geometry":{"type":"Point","coordinates":[-123.30108,41.05368]},"properties":{"frp":11.2,"date":"2026-08-25","daynight":"N"}},{"type":"Feature","geometry":{"type":"Point","coordinates":[-123.29133,41.05908]},"properties":{"frp":2.1,"date":"2026-08-25","daynight":"N"}},{"type":"Feature","geometry":{"type":"Point","coordinates":[-120.67034,47.61843]},"properties":{"frp":16.0,"date":"2026-08-25","daynight":"N"}},{"type":"Feature","geometry":{"type":"Point","coordinates":[-120.63715,47.65461]},"properties":{"frp":10.6,"date":"2026-08-25","daynight":"N"}},{"type":"Feature","geometry":{"type":"Point","coordinates":[-120.65152,47.65948]},"properties":{"frp":11.5,"date":"2026-08-25","daynight":"N"}},{"type":"Feature","geometry":{"type":"Point","coordinates":[-120.60931,47.60793]},"properties":{"frp":3.8,"date":"2026-08-25","daynight":"N"}},{"type":"Feature","geometry":{"type":"Point","coordinates":[-120.65192,47.60728]},"properties":{"frp":16.3,"date":"2026-08-25","daynight":"N"}},{"type":"Feature","geometry":{"type":"Point","coordinates":[-120.67523,47.63584]},"properties":{"frp":25.6,"date":"2026-08-25","daynight":"N"}},{"type":"Feature","geometry":{"type":"Point","coordinates":[-120.63517,47.63565]},"properties":{"frp":2.5,"date":"2026-08-25","daynight":"N"}},{"type":"Feature","geometry":{"type":"Point","coordinates":[-120.62842,47.64793]},"properties":{"frp":15.0,"date":"2026-08-25","daynight":"N"}},{"type":"Feature","geometry":{"type":"Point","coordinates":[-120.65043,47.6486]},"properties":{"frp":10.8,"date":"2026-08-25","daynight":"N"}},{"type":"Feature","geometry":{"type":"Point","coordinates":[-120.60158,47.60102]},"properties":{"frp":13.6,"date":"2026-08-25","daynight":"N"}},{"type":"Feature","geometry":{"type":"Point","coordinates":[-120.67938,47.58641]},"properties":{"frp":4.3,"date":"2026-08-25","daynight":"N"}},{"type":"Feature","geometry":{"type":"Point","coordinates":[-120.61225,47.63243]},"properties":{"frp":34.6,"date":"2026-08-25","daynight":"N"}},{"type":"Feature","geometry":{"type":"Point","coordinates":[-120.62602,47.62417]},"properties":{"frp":18.6,"date":"2026-08-25","daynight":"N"}},{"type":"Feature","geometry":{"type":"Point","coordinates":[-120.65899,47.57609]},"properties":{"frp":5.7,"date":"2026-08-25","daynight":"N"}},{"type":"Feature","geometry":{"type":"Point","coordinates":[-120.63083,47.57877]},"properties":{"frp":1.8,"date":"2026-08-25","daynight":"N"}},{"type":"Feature","geometry":{"type":"Point","coordinates":[-120.67611,47.58596]},"properties":{"frp":14.3,"date":"2026-08-25","daynight":"N"}},{"type":"Feature","geometry":{"type":"Point","coordinates":[-120.62464,47.63131]},"properties":{"frp":3.8,"date":"2026-08-25","daynight":"N"}},{"type":"Feature","geometry":{"type":"Point","coordinates":[-120.63546,47.6165]},"properties":{"frp":5.3,"date":"2026-08-25","daynight":"N"}},{"type":"Feature","geometry":{"type":"Point","coordinates":[-120.65274,47.63183]},"properties":{"frp":7.2,"date":"2026-08-25","daynight":"N"}},{"type":"Feature","geometry":{"type":"Point","coordinates":[-120.63557,47.59592]},"properties":{"frp":1.8,"date":"2026-08-25","daynight":"N"}},{"type":"Feature","geometry":{"type":"Point","coordinates":[-120.62833,47.63349]},"properties":{"frp":20.9,"date":"2026-08-25","daynight":"N"}},{"type":"Feature","geometry":{"type":"Point","coordinates":[-120.67371,47.62687]},"properties":{"frp":8.1,"date":"2026-08-25","daynight":"N"}},{"type":"Feature","geometry":{"type":"Point","coordinates":[-120.64803,47.63519]},"properties":{"frp":26.0,"date":"2026-08-25","daynight":"N"}},{"type":"Feature","geometry":{"type":"Point","coordinates":[-120.65448,47.60938]},"properties":{"frp":4.9,"date":"2026-08-25","daynight":"N"}},{"type":"Feature","geometry":{"type":"Point","coordinates":[-120.62845,47.60481]},"properties":{"frp":11.4,"date":"2026-08-25","daynight":"N"}},{"type":"Feature","geometry":{"type":"Point","coordinates":[-120.66986,47.5888]},"properties":{"frp":14.2,"date":"2026-08-25","daynight":"N"}},{"type":"Feature","geometry":{"type":"Point","coordinates":[-120.6125,47.61277]},"properties":{"frp":2.9,"date":"2026-08-25","daynight":"N"}},{"type":"Feature","geometry":{"type":"Point","coordinates":[-120.6841,47.64319]},"properties":{"frp":4.9,"date":"2026-08-25","daynight":"N"}},{"type":"Feature","geometry":{"type":"Point","coordinates":[-120.61831,47.64973]},"properties":{"frp":14.1,"date":"2026-08-25","daynight":"N"}},{"type":"Feature","geometry":{"type":"Point","coordinates":[-120.70347,47.59417]},"properties":{"frp":9.7,"date":"2026-08-25","daynight":"N"}},{"type":"Feature","geometry":{"type":"Point","coordinates":[-120.62331,47.61841]},"properties":{"frp":4.9,"date":"2026-08-25","daynight":"N"}},{"type":"Feature","geometry":{"type":"Point","coordinates":[-120.66716,47.65501]},"properties":{"frp":8.7,"date":"2026-08-25","daynight":"N"}},{"type":"Feature","geometry":{"type":"Point","coordinates":[-120.65718,47.6119]},"properties":{"frp":13.1,"date":"2026-08-25","daynight":"N"}},{"type":"Feature","geometry":{"type":"Point","coordinates":[-120.61944,47.64535]},"properties":{"frp":4.3,"date":"2026-08-25","daynight":"N"}},{"type":"Feature","geometry":{"type":"Point","coordinates":[-120.67771,47.64099]},"properties":{"frp":8.7,"date":"2026-08-25","daynight":"N"}},{"type":"Feature","geometry":{"type":"Point","coordinates":[-120.6368,47.63898]},"properties":{"frp":11.6,"date":"2026-08-25","daynight":"N"}},{"type":"Feature","geometry":{"type":"Point","coordinates":[-120.69347,47.58323]},"properties":{"frp":23.6,"date":"2026-08-25","daynight":"N"}},{"type":"Feature","geometry":{"type":"Point","coordinates":[-120.65196,47.64284]},"properties":{"frp":7.9,"date":"2026-08-25","daynight":"N"}},{"type":"Feature","geometry":{"type":"Point","coordinates":[-120.65258,47.59173]},"properties":{"frp":7.4,"date":"2026-08-25","daynight":"N"}},{"type":"Feature","geometry":{"type":"Point","coordinates":[-120.64982,47.62801]},"properties":{"frp":9.0,"date":"2026-08-25","daynight":"N"}},{"type":"Feature","geometry":{"type":"Point","coordinates":[-120.60652,47.58586]},"properties":{"frp":11.9,"date":"2026-08-25","daynight":"N"}},{"type":"Feature","geometry":{"type":"Point","coordinates":[-120.65538,47.64209]},"properties":{"frp":20.0,"date":"2026-08-25","daynight":"N"}},{"type":"Feature","geometry":{"type":"Point","coordinates":[-120.64009,47.61351]},"properties":{"frp":27.8,"date":"2026-08-25","daynight":"N"}},{"type":"Feature","geometry":{"type":"Point","coordinates":[-120.6409,47.59515]},"properties":{"frp":5.9,"date":"2026-08-25","daynight":"N"}},{"type":"Feature","geometry":{"type":"Point","coordinates":[-120.64955,47.59072]},"properties":{"frp":1.2,"date":"2026-08-25","daynight":"N"}},{"type":"Feature","geometry":{"type":"Point","coordinates":[-120.6726,47.59429]},"properties":{"frp":7.9,"date":"2026-08-25","daynight":"N"}},{"type":"Feature","geometry":{"type":"Point","coordinates":[-120.6467,47.65621]},"properties":{"frp":3.8,"date":"2026-08-25","daynight":"N"}},{"type":"Feature","geometry":{"type":"Point","coordinates":[-120.69225,47.62456]},"properties":{"frp":31.5,"date":"2026-08-25","daynight":"N"}},{"type":"Feature","geometry":{"type":"Point","coordinates":[-120.63785,47.60687]},"properties":{"frp":21.8,"date":"2026-08-25","daynight":"N"}},{"type":"Feature","geometry":{"type":"Point","coordinates":[-120.69539,47.62427]},"properties":{"frp":5.7,"date":"2026-08-25","daynight":"N"}},{"type":"Feature","geometry":{"type":"Point","coordinates":[-120.63994,47.62456]},"properties":{"frp":36.6,"date":"2026-08-25","daynight":"N"}},{"type":"Feature","geometry":{"type":"Point","coordinates":[-120.66242,47.64824]},"properties":{"frp":6.6,"date":"2026-08-25","daynight":"N"}},{"type":"Feature","geometry":{"type":"Point","coordinates":[-120.66993,47.57067]},"properties":{"frp":4.4,"date":"2026-08-25","daynight":"N"}},{"type":"Feature","geometry":{"type":"Point","coordinates":[-120.63179,47.59586]},"properties":{"frp":4.9,"date":"2026-08-25","daynight":"N"}},{"type":"Feature","geometry":{"type":"Point","coordinates":[-120.65786,47.56023]},"properties":{"frp":11.0,"date":"2026-08-25","daynight":"N"}},{"type":"Feature","geometry":{"type":"Point","coordinates":[-120.64784,47.65137]},"properties":{"frp":10.0,"date":"2026-08-25","daynight":"N"}},{"type":"Feature","geometry":{"type":"Point","coordinates":[-120.68412,47.63972]},"properties":{"frp":11.4,"date":"2026-08-25","daynight":"N"}},{"type":"Feature","geometry":{"type":"Point","coordinates":[-120.61638,47.58476]},"properties":{"frp":17.3,"date":"2026-08-25","daynight":"N"}},{"type":"Feature","geometry":{"type":"Point","coordinates":[-120.64573,47.62223]},"properties":{"frp":8.8,"date":"2026-08-25","daynight":"N"}},{"type":"Feature","geometry":{"type":"Point","coordinates":[-120.64578,47.5954]},"properties":{"frp":6.2,"date":"2026-08-25","daynight":"N"}},{"type":"Feature","geometry":{"type":"Point","coordinates":[-120.62189,47.59479]},"properties":{"frp":3.1,"date":"2026-08-25","daynight":"N"}},{"type":"Feature","geometry":{"type":"Point","coordinates":[-120.70374,47.60603]},"properties":{"frp":2.6,"date":"2026-08-25","daynight":"N"}},{"type":"Feature","geometry":{"type":"Point","coordinates":[-120.61379,47.58294]},"properties":{"frp":9.6,"date":"2026-08-25","daynight":"N"}},{"type":"Feature","geometry":{"type":"Point","coordinates":[-120.65616,47.59736]},"properties":{"frp":8.6,"date":"2026-08-25","daynight":"N"}},{"type":"Feature","geometry":{"type":"Point","coordinates":[-121.42298,43.79921]},"properties":{"frp":1.3,"date":"2026-08-25","daynight":"N"}},{"type":"Feature","geometry":{"type":"Point","coordinates":[-121.44785,43.76508]},"properties":{"frp":15.7,"date":"2026-08-25","daynight":"N"}},{"type":"Feature","geometry":{"type":"Point","coordinates":[-121.44094,43.77816]},"properties":{"frp":7.6,"date":"2026-08-25","daynight":"N"}},{"type":"Feature","geometry":{"type":"Point","coordinates":[-121.4113,43.75873]},"properties":{"frp":5.8,"date":"2026-08-25","daynight":"N"}},{"type":"Feature","geometry":{"type":"Point","coordinates":[-121.3967,43.75167]},"properties":{"frp":9.9,"date":"2026-08-25","daynight":"N"}},{"type":"Feature","geometry":{"type":"Point","coordinates":[-121.42072,43.78364]},"properties":{"frp":11.1,"date":"2026-08-25","daynight":"N"}},{"type":"Feature","geometry":{"type":"Point","coordinates":[-121.40739,43.76393]},"properties":{"frp":6.3,"date":"2026-08-25","daynight":"N"}},{"type":"Feature","geometry":{"type":"Point","coordinates":[-121.43132,43.78095]},"properties":{"frp":12.9,"date":"2026-08-25","daynight":"N"}},{"type":"Feature","geometry":{"type":"Point","coordinates":[-121.44777,43.7843]},"properties":{"frp":2.8,"date":"2026-08-25","daynight":"N"}},{"type":"Feature","geometry":{"type":"Point","coordinates":[-121.43848,43.75402]},"properties":{"frp":12.4,"date":"2026-08-25","daynight":"N"}},{"type":"Feature","geometry":{"type":"Point","coordinates":[-121.42005,43.78677]},"properties":{"frp":1.0,"date":"2026-08-25","daynight":"N"}},{"type":"Feature","geometry":{"type":"Point","coordinates":[-121.43518,43.79831]},"properties":{"frp":1.5,"date":"2026-08-25","daynight":"N"}},{"type":"Feature","geometry":{"type":"Point","coordinates":[-121.42188,43.79048]},"properties":{"frp":1.5,"date":"2026-08-25","daynight":"N"}},{"type":"Feature","geometry":{"type":"Point","coordinates":[-121.43038,43.77991]},"properties":{"frp":9.4,"date":"2026-08-25","daynight":"N"}},{"type":"Feature","geometry":{"type":"Point","coordinates":[-121.42214,43.78169]},"properties":{"frp":11.3,"date":"2026-08-25","daynight":"N"}},{"type":"Feature","geometry":{"type":"Point","coordinates":[-121.42681,43.77846]},"properties":{"frp":6.6,"date":"2026-08-25","daynight":"N"}},{"type":"Feature","geometry":{"type":"Point","coordinates":[-121.41877,43.75947]},"properties":{"frp":2.8,"date":"2026-08-25","daynight":"N"}},{"type":"Feature","geometry":{"type":"Point","coordinates":[-121.43684,43.76776]},"properties":{"frp":3.4,"date":"2026-08-25","daynight":"N"}},{"type":"Feature","geometry":{"type":"Point","coordinates":[-121.40789,43.77703]},"properties":{"frp":7.8,"date":"2026-08-25","daynight":"N"}},{"type":"Feature","geometry":{"type":"Point","coordinates":[-121.42876,43.78406]},"properties":{"frp":2.0,"date":"2026-08-25","daynight":"N"}},{"type":"Feature","geometry":{"type":"Point","coordinates":[-121.40951,43.77157]},"properties":{"frp":4.2,"date":"2026-08-25","daynight":"N"}},{"type":"Feature","geometry":{"type":"Point","coordinates":[-121.40684,43.74145]},"properties":{"frp":5.3,"date":"2026-08-25","daynight":"N"}},{"type":"Feature","geometry":{"type":"Point","coordinates":[-121.44335,43.75008]},"properties":{"frp":10.8,"date":"2026-08-25","daynight":"N"}},{"type":"Feature","geometry":{"type":"Point","coordinates":[-121.38419,43.77251]},"properties":{"frp":19.1,"date":"2026-08-25","daynight":"N"}},{"type":"Feature","geometry":{"type":"Point","coordinates":[-121.45073,43.78688]},"properties":{"frp":1.7,"date":"2026-08-25","daynight":"N"}},{"type":"Feature","geometry":{"type":"Point","coordinates":[-121.42906,43.78359]},"properties":{"frp":2.6,"date":"2026-08-25","daynight":"N"}},{"type":"Feature","geometry":{"type":"Point","coordinates":[-121.40566,43.77323]},"properties":{"frp":11.5,"date":"2026-08-25","daynight":"N"}},{"type":"Feature","geometry":{"type":"Point","coordinates":[-121.41876,43.74906]},"properties":{"frp":7.4,"date":"2026-08-25","daynight":"N"}},{"type":"Feature","geometry":{"type":"Point","coordinates":[-121.42676,43.76649]},"properties":{"frp":2.8,"date":"2026-08-25","daynight":"N"}},{"type":"Feature","geometry":{"type":"Point","coordinates":[-121.43844,43.78603]},"properties":{"frp":6.6,"date":"2026-08-25","daynight":"N"}},{"type":"Feature","geometry":{"type":"Point","coordinates":[-121.4235,43.78371]},"properties":{"frp":10.9,"date":"2026-08-25","daynight":"N"}},{"type":"Feature","geometry":{"type":"Point","coordinates":[-121.42776,43.7701]},"properties":{"frp":2.6,"date":"2026-08-25","daynight":"N"}},{"type":"Feature","geometry":{"type":"Point","coordinates":[-121.43267,43.77845]},"properties":{"frp":21.2,"date":"2026-08-25","daynight":"N"}},{"type":"Feature","geometry":{"type":"Point","coordinates":[-121.42459,43.78112]},"properties":{"frp":5.8,"date":"2026-08-25","daynight":"N"}},{"type":"Feature","geometry":{"type":"Point","coordinates":[-121.39377,43.77091]},"properties":{"frp":2.6,"date":"2026-08-25","daynight":"N"}},{"type":"Feature","geometry":{"type":"Point","coordinates":[-121.42631,43.78785]},"properties":{"frp":7.2,"date":"2026-08-25","daynight":"N"}},{"type":"Feature","geometry":{"type":"Point","coordinates":[-121.43694,43.78341]},"properties":{"frp":4.9,"date":"2026-08-25","daynight":"N"}},{"type":"Feature","geometry":{"type":"Point","coordinates":[-121.42528,43.77379]},"properties":{"frp":12.9,"date":"2026-08-25","daynight":"N"}},{"type":"Feature","geometry":{"type":"Point","coordinates":[-121.41361,43.76043]},"properties":{"frp":1.8,"date":"2026-08-25","daynight":"N"}},{"type":"Feature","geometry":{"type":"Point","coordinates":[-121.42587,43.77266]},"properties":{"frp":0.7,"date":"2026-08-25","daynight":"N"}},{"type":"Feature","geometry":{"type":"Point","coordinates":[-121.37118,43.77162]},"properties":{"frp":10.6,"date":"2026-08-25","daynight":"N"}},{"type":"Feature","geometry":{"type":"Point","coordinates":[-121.45413,43.77007]},"properties":{"frp":3.9,"date":"2026-08-25","daynight":"N"}},{"type":"Feature","geometry":{"type":"Point","coordinates":[-118.94553,34.57773]},"properties":{"frp":8.9,"date":"2026-08-25","daynight":"N"}},{"type":"Feature","geometry":{"type":"Point","coordinates":[-118.97873,34.53036]},"properties":{"frp":37.2,"date":"2026-08-25","daynight":"N"}},{"type":"Feature","geometry":{"type":"Point","coordinates":[-118.95322,34.55165]},"properties":{"frp":30.1,"date":"2026-08-25","daynight":"N"}},{"type":"Feature","geometry":{"type":"Point","coordinates":[-118.97148,34.55162]},"properties":{"frp":27.6,"date":"2026-08-25","daynight":"N"}},{"type":"Feature","geometry":{"type":"Point","coordinates":[-118.97628,34.57059]},"properties":{"frp":30.6,"date":"2026-08-25","daynight":"N"}},{"type":"Feature","geometry":{"type":"Point","coordinates":[-118.97147,34.55746]},"properties":{"frp":52.9,"date":"2026-08-25","daynight":"N"}},{"type":"Feature","geometry":{"type":"Point","coordinates":[-118.96178,34.51281]},"properties":{"frp":133.6,"date":"2026-08-25","daynight":"N"}},{"type":"Feature","geometry":{"type":"Point","coordinates":[-118.94112,34.55672]},"properties":{"frp":41.9,"date":"2026-08-25","daynight":"N"}},{"type":"Feature","geometry":{"type":"Point","coordinates":[-118.98659,34.5601]},"properties":{"frp":23.3,"date":"2026-08-25","daynight":"N"}},{"type":"Feature","geometry":{"type":"Point","coordinates":[-119.00164,34.55535]},"properties":{"frp":4.4,"date":"2026-08-25","daynight":"N"}},{"type":"Feature","geometry":{"type":"Point","coordinates":[-118.95256,34.5382]},"properties":{"frp":55.7,"date":"2026-08-25","daynight":"N"}},{"type":"Feature","geometry":{"type":"Point","coordinates":[-118.94739,34.55555]},"properties":{"frp":33.5,"date":"2026-08-25","daynight":"N"}},{"type":"Feature","geometry":{"type":"Point","coordinates":[-118.96836,34.5246]},"properties":{"frp":75.2,"date":"2026-08-25","daynight":"N"}},{"type":"Feature","geometry":{"type":"Point","coordinates":[-118.94679,34.55144]},"properties":{"frp":24.4,"date":"2026-08-25","daynight":"N"}},{"type":"Feature","geometry":{"type":"Point","coordinates":[-118.95244,34.57211]},"properties":{"frp":21.2,"date":"2026-08-25","daynight":"N"}},{"type":"Feature","geometry":{"type":"Point","coordinates":[-118.97063,34.58775]},"properties":{"frp":45.1,"date":"2026-08-25","daynight":"N"}},{"type":"Feature","geometry":{"type":"Point","coordinates":[-118.9828,34.58403]},"properties":{"frp":45.0,"date":"2026-08-25","daynight":"N"}},{"type":"Feature","geometry":{"type":"Point","coordinates":[-118.95045,34.54054]},"properties":{"frp":26.0,"date":"2026-08-25","daynight":"N"}},{"type":"Feature","geometry":{"type":"Point","coordinates":[-118.95369,34.53291]},"properties":{"frp":44.2,"date":"2026-08-25","daynight":"N"}},{"type":"Feature","geometry":{"type":"Point","coordinates":[-118.94471,34.56182]},"properties":{"frp":57.2,"date":"2026-08-25","daynight":"N"}},{"type":"Feature","geometry":{"type":"Point","coordinates":[-118.96299,34.55893]},"properties":{"frp":26.7,"date":"2026-08-25","daynight":"N"}},{"type":"Feature","geometry":{"type":"Point","coordinates":[-118.97593,34.56917]},"properties":{"frp":5.8,"date":"2026-08-25","daynight":"N"}},{"type":"Feature","geometry":{"type":"Point","coordinates":[-118.95546,34.54729]},"properties":{"frp":48.9,"date":"2026-08-25","daynight":"N"}},{"type":"Feature","geometry":{"type":"Point","coordinates":[-118.97133,34.55947]},"properties":{"frp":29.4,"date":"2026-08-25","daynight":"N"}},{"type":"Feature","geometry":{"type":"Point","coordinates":[-118.9353,34.55851]},"properties":{"frp":12.4,"date":"2026-08-25","daynight":"N"}},{"type":"Feature","geometry":{"type":"Point","coordinates":[-118.9725,34.55203]},"properties":{"frp":67.5,"date":"2026-08-25","daynight":"N"}},{"type":"Feature","geometry":{"type":"Point","coordinates":[-118.96476,34.52927]},"properties":{"frp":74.5,"date":"2026-08-25","daynight":"N"}},{"type":"Feature","geometry":{"type":"Point","coordinates":[-118.94895,34.57182]},"properties":{"frp":36.3,"date":"2026-08-25","daynight":"N"}},{"type":"Feature","geometry":{"type":"Point","coordinates":[-118.94679,34.56195]},"properties":{"frp":53.0,"date":"2026-08-25","daynight":"N"}},{"type":"Feature","geometry":{"type":"Point","coordinates":[-118.94397,34.57316]},"properties":{"frp":1.0,"date":"2026-08-25","daynight":"N"}},{"type":"Feature","geometry":{"type":"Point","coordinates":[-118.93574,34.57772]},"properties":{"frp":55.6,"date":"2026-08-25","daynight":"N"}},{"type":"Feature","geometry":{"type":"Point","coordinates":[-118.98789,34.55695]},"properties":{"frp":30.0,"date":"2026-08-25","daynight":"N"}},{"type":"Feature","geometry":{"type":"Point","coordinates":[-118.94995,34.57195]},"properties":{"frp":3.7,"date":"2026-08-25","daynight":"N"}},{"type":"Feature","geometry":{"type":"Point","coordinates":[-118.94094,34.58826]},"properties":{"frp":14.4,"date":"2026-08-25","daynight":"N"}},{"type":"Feature","geometry":{"type":"Point","coordinates":[-118.95284,34.59502]},"properties":{"frp":29.0,"date":"2026-08-25","daynight":"N"}},{"type":"Feature","geometry":{"type":"Point","coordinates":[-118.98893,34.56412]},"properties":{"frp":42.1,"date":"2026-08-25","daynight":"N"}},{"type":"Feature","geometry":{"type":"Point","coordinates":[-118.97395,34.56555]},"properties":{"frp":21.4,"date":"2026-08-25","daynight":"N"}},{"type":"Feature","geometry":{"type":"Point","coordinates":[-118.96302,34.56381]},"properties":{"frp":7.8,"date":"2026-08-25","daynight":"N"}},{"type":"Feature","geometry":{"type":"Point","coordinates":[-118.96575,34.56849]},"properties":{"frp":6.0,"date":"2026-08-25","daynight":"N"}},{"type":"Feature","geometry":{"type":"Point","coordinates":[-118.94236,34.56342]},"properties":{"frp":27.3,"date":"2026-08-25","daynight":"N"}},{"type":"Feature","geometry":{"type":"Point","coordinates":[-118.95082,34.59366]},"properties":{"frp":24.8,"date":"2026-08-25","daynight":"N"}},{"type":"Feature","geometry":{"type":"Point","coordinates":[-118.96096,34.59033]},"properties":{"frp":7.1,"date":"2026-08-25","daynight":"N"}},{"type":"Feature","geometry":{"type":"Point","coordinates":[-118.95447,34.56005]},"properties":{"frp":22.7,"date":"2026-08-25","daynight":"N"}},{"type":"Feature","geometry":{"type":"Point","coordinates":[-118.97808,34.55994]},"properties":{"frp":45.2,"date":"2026-08-25","daynight":"N"}},{"type":"Feature","geometry":{"type":"Point","coordinates":[-118.98402,34.55073]},"properties":{"frp":6.5,"date":"2026-08-25","daynight":"N"}},{"type":"Feature","geometry":{"type":"Point","coordinates":[-118.96379,34.56951]},"properties":{"frp":37.5,"date":"2026-08-25","daynight":"N"}},{"type":"Feature","geometry":{"type":"Point","coordinates":[-118.9742,34.55351]},"properties":{"frp":37.0,"date":"2026-08-25","daynight":"N"}},{"type":"Feature","geometry":{"type":"Point","coordinates":[-118.94995,34.56909]},"properties":{"frp":21.5,"date":"2026-08-25","daynight":"N"}}]}