{"type":"FeatureCollection","features":[{"type":"Feature","geometry":{"type":"Point","coordinates":[-122.39555,40.64454]},"properties":{"frp":11.1,"date":"2026-08-20","daynight":"N"}},{"type":"Feature","geometry":{"type":"Point","coordinates":[-122.39583,40.64563]},"properties":{"frp":2.8,"date":"2026-08-20","daynight":"N"}},{"type":"Feature","geometry":{"type":"Point","coordinates":[-122.41471,40.6516]},"properties":{"frp":15.3,"date":"2026-08-20","daynight":"N"}},{"type":"Feature","geometry":{"type":"Point","coordinates":[-122.41669,40.63584]},"properties":{"frp":4.4,"date":"2026-08-20","daynight":"N"}},{"type":"Feature","geometry":{"type":"Point","coordinates":[-122.37509,40.62146]},"properties":{"frp":5.6,"date":"2026-08-20","daynight":"N"}},{"type":"Feature","geometry":{"type":"Point","coordinates":[-122.40092,40.6511]},"properties":{"frp":14.1,"date":"2026-08-20","daynight":"N"}},{"type":"Feature","geometry":{"type":"Point","coordinates":[-122.36199,40.63326]},"properties":{"frp":1.9,"date":"2026-08-20","daynight":"N"}},{"type":"Feature","geometry":{"type":"Point","coordinates":[-122.39894,40.64539]},"properties":{"frp":6.9,"date":"2026-08-20","daynight":"N"}},{"type":"Feature","geometry":{"type":"Point","coordinates":[-122.41136,40.64577]},"properties":{"frp":16.2,"date":"2026-08-20","daynight":"N"}},{"type":"Feature","geometry":{"type":"Point","coordinates":[-122.39077,40.63631]},"properties":{"frp":13.9,"date":"2026-08-20","daynight":"N"}},{"type":"Feature","geometry":{"type":"Point","coordinates":[-122.38219,40.63893]},"properties":{"frp":3.5,"date":"2026-08-20","daynight":"N"}},{"type":"Feature","geometry":{"type":"Point","coordinates":[-122.38371,40.64427]},"properties":{"frp":30.3,"date":"2026-08-20","daynight":"N"}},{"type":"Feature","geometry":{"type":"Point","coordinates":[-122.38087,40.63146]},"properties":{"frp":6.9,"date":"2026-08-20","daynight":"N"}},{"type":"Feature","geometry":{"type":"Point","coordinates":[-122.40403,40.6602]},"properties":{"frp":28.8,"date":"2026-08-20","daynight":"N"}},{"type":"Feature","geometry":{"type":"Point","coordinates":[-122.37544,40.62899]},"properties":{"frp":53.2,"date":"2026-08-20","daynight":"N"}},{"type":"Feature","geometry":{"type":"Point","coordinates":[-122.37459,40.63763]},"properties":{"frp":9.3,"date":"2026-08-20","daynight":"N"}},{"type":"Feature","geometry":{"type":"Point","coordinates":[-122.37396,40.63451]},"properties":{"frp":17.1,"date":"2026-08-20","daynight":"N"}},{"type":"Feature","geometry":{"type":"Point","coordinates":[-122.3888,40.64163]},"properties":{"frp":13.3,"date":"2026-08-20","daynight":"N"}},{"type":"Feature","geometry":{"type":"Point","coordinates":[-122.39649,40.6594]},"properties":{"frp":2.0,"date":"2026-08-20","daynight":"N"}},{"type":"Feature","geometry":{"type":"Point","coordinates":[-122.39756,40.62833]},"properties":{"frp":10.2,"date":"2026-08-20","daynight":"N"}},{"type":"Feature","geometry":{"type":"Point","coordinates":[-122.41142,40.64561]},"properties":{"frp":14.8,"date":"2026-08-20","daynight":"N"}},{"type":"Feature","geometry":{"type":"Point","coordinates":[-122.39868,40.6479]},"properties":{"frp":9.0,"date":"2026-08-20","daynight":"N"}},{"type":"Feature","geometry":{"type":"Point","coordinates":[-122.42169,40.65423]},"properties":{"frp":8.8,"date":"2026-08-20","daynight":"N"}},{"type":"Feature","geometry":{"type":"Point","coordinates":[-122.41291,40.63025]},"properties":{"frp":16.6,"date":"2026-08-20","daynight":"N"}},{"type":"Feature","geometry":{"type":"Point","coordinates":[-122.38893,40.62975]},"properties":{"frp":14.3,"date":"2026-08-20","daynight":"N"}},{"type":"Feature","geometry":{"type":"Point","coordinates":[-122.39514,40.63778]},"properties":{"frp":15.1,"date":"2026-08-20","daynight":"N"}},{"type":"Feature","geometry":{"type":"Point","coordinates":[-122.38948,40.63803]},"properties":{"frp":15.5,"date":"2026-08-20","daynight":"N"}},{"type":"Feature","geometry":{"type":"Point","coordinates":[-122.38324,40.62749]},"properties":{"frp":27.0,"date":"2026-08-20","daynight":"N"}},{"type":"Feature","geometry":{"type":"Point","coordinates":[-122.38723,40.64822]},"properties":{"frp":20.4,"date":"2026-08-20","daynight":"N"}},{"type":"Feature","geometry":{"type":"Point","coordinates":[-122.38832,40.6469]},"properties":{"frp":14.7,"date":"2026-08-20","daynight":"N"}},{"type":"Feature","geometry":{"type":"Point","coordinates":[-122.39308,40.66523]},"properties":{"frp":5.7,"date":"2026-08-20","daynight":"N"}},{"type":"Feature","geometry":{"type":"Point","coordinates":[-122.40134,40.63619]},"properties":{"frp":5.2,"date":"2026-08-20","daynight":"N"}},{"type":"Feature","geometry":{"type":"Point","coordinates":[-122.40743,40.6272]},"properties":{"frp":4.6,"date":"2026-08-20","daynight":"N"}},{"type":"Feature","geometry":{"type":"Point","coordinates":[-122.39288,40.62898]},"properties":{"frp":5.2,"date":"2026-08-20","daynight":"N"}},{"type":"Feature","geometry":{"type":"Point","coordinates":[-122.39137,40.64415]},"properties":{"frp":11.5,"date":"2026-08-20","daynight":"N"}},{"type":"Feature","geometry":{"type":"Point","coordinates":[-122.38084,40.63051]},"properties":{"frp":9.9,"date":"2026-08-20","daynight":"N"}},{"type":"Feature","geometry":{"type":"Point","coordinates":[-122.39398,40.64917]},"properties":{"frp":8.8,"date":"2026-08-20","daynight":"N"}},{"type":"Feature","geometry":{"type":"Point","coordinates":[-122.3852,40.6319]},"properties":{"frp":0.8,"date":"2026-08-20","daynight":"N"}},{"type":"Feature","geometry":{"type":"Point","coordinates":[-122.40996,40.64233]},"properties":{"frp":14.4,"date":"2026-08-20","daynight":"N"}},{"type":"Feature","geometry":{"type":"Point","coordinates":[-123.3178,41.05157]},"properties":{"frp":5.5,"date":"2026-08-20","daynight":"N"}},{"type":"Feature","geometry":{"type":"Point","coordinates":[-123.31866,41.05192]},"properties":{"frp":3.0,"date":"2026-08-20","daynight":"N"}},{"type":"Feature","geometry":{"type":"Point","coordinates":[-123.31745,41.05097]},"properties":{"frp":3.3,"date":"2026-08-20","daynight":"N"}},{"type":"Feature","geometry":{"type":"Point","coordinates":[-123.31518,41.05272]},"properties":{"frp":17.4,"date":"2026-08-20","daynight":"N"}},{"type":"Feature","geometry":{"type":"Point","coordinates":[-123.32587,41.04433]},"properties":{"frp":9.7,"date":"2026-08-20","daynight":"N"}},{"type":"Feature","geometry":{"type":"Point","coordinates":[-123.31384,41.05351]},"properties":{"frp":2.3,"date":"2026-08-20","daynight":"N"}},{"type":"Feature","geometry":{"type":"Point","coordinates":[-123.32451,41.04643]},"properties":{"frp":9.1,"date":"2026-08-20","daynight":"N"}},{"type":"Feature","geometry":{"type":"Point","coordinates":[-123.31474,41.05035]},"properties":{"frp":2.8,"date":"2026-08-20","daynight":"N"}},{"type":"Feature","geometry":{"type":"Point","coordinates":[-123.31619,41.05629]},"properties":{"frp":7.2,"date":"2026-08-20","daynight":"N"}},{"type":"Feature","geometry":{"type":"Point","coordinates":[-123.28113,41.05004]},"properties":{"frp":9.7,"date":"2026-08-20","daynight":"N"}},{"type":"Feature","geometry":{"type":"Point","coordinates":[-123.28271,41.05015]},"properties":{"frp":6.8,"date":"2026-08-20","daynight":"N"}},{"type":"Feature","geometry":{"type":"Point","coordinates":[-123.28253,41.04621]},"properties":{"frp":6.4,"date":"2026-08-20","daynight":"N"}},{"type":"Feature","geometry":{"type":"Point","coordinates":[-123.28638,41.04739]},"properties":{"frp":4.4,"date":"2026-08-20","daynight":"N"}},{"type":"Feature","geometry":{"type":"Point","coordinates":[-123.28063,41.05179]},"properties":{"frp":9.2,"date":"2026-08-20","daynight":"N"}},{"type":"Feature","geometry":{"type":"Point","coordinates":[-123.28243,41.04375]},"properties":{"frp":2.6,"date":"2026-08-20","daynight":"N"}},{"type":"Feature","geometry":{"type":"Point","coordinates":[-123.27829,41.05348]},"properties":{"frp":7.7,"date":"2026-08-20","daynight":"N"}},{"type":"Feature","geometry":{"type":"Point","coordinates":[-123.28186,41.05359]},"properties":{"frp":10.0,"date":"2026-08-20","daynight":"N"}},{"type":"Feature","geometry":{"type":"Point","coordinates":[-123.28579,41.04704]},"properties":{"frp":3.9,"date":"2026-08-20","daynight":"N"}},{"type":"Feature","geometry":{"type":"Point","coordinates":[-120.71119,47.63746]},"properties":{"frp":11.9,"date":"2026-08-20","daynight":"N"}},{"type":"Feature","geometry":{"type":"Point","coordinates":[-120.70766,47.6381]},"properties":{"frp":3.7,"date":"2026-08-20","daynight":"N"}},{"type":"Feature","geometry":{"type":"Point","coordinates":[-120.70889,47.63666]},"properties":{"frp":4.8,"date":"2026-08-20","daynight":"N"}},{"type":"Feature","geometry":{"type":"Point","coordinates":[-120.70453,47.62125]},"properties":{"frp":7.8,"date":"2026-08-20","daynight":"N"}},{"type":"Feature","geometry":{"type":"Point","coordinates":[-120.69991,47.6502]},"properties":{"frp":14.2,"date":"2026-08-20","daynight":"N"}},{"type":"Feature","geometry":{"type":"Point","coordinates":[-120.69879,47.61328]},"properties":{"frp":8.9,"date":"2026-08-20","daynight":"N"}},{"type":"Feature","geometry":{"type":"Point","coordinates":[-120.71265,47.61656]},"properties":{"frp":8.4,"date":"2026-08-20","daynight":"N"}},{"type":"Feature","geometry":{"type":"Point","coordinates":[-120.7077,47.62863]},"properties":{"frp":5.2,"date":"2026-08-20","daynight":"N"}},{"type":"Feature","geometry":{"type":"Point","coordinates":[-120.70787,47.62265]},"properties":{"frp":19.8,"date":"2026-08-20","daynight":"N"}},{"type":"Feature","geometry":{"type":"Point","coordinates":[-120.70396,47.6232]},"properties":{"frp":24.7,"date":"2026-08-20","daynight":"N"}},{"type":"Feature","geometry":{"type":"Point","coordinates":[-120.70167,47.6016]},"properties":{"frp":11.0,"date":"2026-08-20","daynight":"N"}},{"type":"Feature","geometry":{"type":"Point","coordinates":[-120.7217,47.61067]},"properties":{"frp":8.7,"date":"2026-08-20","daynight":"N"}},{"type":"Feature","geometry":{"type":"Point","coordinates":[-120.7072,47.61945]},"properties":{"frp":10.0,"date":"2026-08-20","daynight":"N"}},{"type":"Feature","geometry":{"type":"Point","coordinates":[-120.70011,47.61341]},"properties":{"frp":12.6,"date":"2026-08-20","daynight":"N"}},{"type":"Feature","geometry":{"type":"Point","coordinates":[-120.71187,47.60725]},"properties":{"frp":19.2,"date":"2026-08-20","daynight":"N"}},{"type":"Feature","geometry":{"type":"Point","coordinates":[-120.70844,47.61444]},"properties":{"frp":14.3,"date":"2026-08-20","daynight":"N"}},{"type":"Feature","geometry":{"type":"Point","coordinates":[-120.71757,47.62265]},"properties":{"frp":12.8,"date":"2026-08-20","daynight":"N"}},{"type":"Feature","geometry":{"type":"Point","coordinates":[-120.7074,47.62688]},"properties":{"frp":1.7,"date":"2026-08-20","daynight":"N"}},{"type":"Feature","geometry":{"type":"Point","coordinates":[-120.72661,47.60203]},"properties":{"frp":5.4,"date":"2026-08-20","daynight":"N"}},{"type":"Feature","geometry":{"type":"Point","coordinates":[-120.7101,47.61988]},"properties":{"frp":10.0,"date":"2026-08-20","daynight":"N"}},{"type":"Feature","geometry":{"type":"Point","coordinates":[-120.70827,47.61902]},"properties":{"frp":4.1,"date":"2026-08-20","daynight":"N"}},{"type":"Feature","geometry":{"type":"Point","coordinates":[-121.42668,43.7637]},"properties":{"frp":10.8,"date":"2026-08-20","daynight":"N"}},{"type":"Feature","geometry":{"type":"Point","coordinates":[-121.41969,43.77432]},"properties":{"frp":2.1,"date":"2026-08-20","daynight":"N"}},{"type":"Feature","geometry":{"type":"Point","coordinates":[-121.42096,43.76345]},"properties":{"frp":2.6,"date":"2026-08-20","daynight":"N"}},{"type":"Feature","geometry":{"type":"Point","coordinates":[-121.41445,43.76801]},"properties":{"frp":5.1,"date":"2026-08-20","daynight":"N"}},{"type":"Feature","geometry":{"type":"Point","coordinates":[-121.42937,43.757]},"properties":{"frp":9.0,"date":"2026-08-20","daynight":"N"}},{"type":"Feature","geometry":{"type":"Point","coordinates":[-121.42371,43.77594]},"properties":{"frp":0.6,"date":"2026-08-20","daynight":"N"}},{"type":"Feature","geometry":{"type":"Point","coordinates":[-121.41601,43.75325]},"properties":{"frp":14.9,"date":"2026-08-20","daynight":"N"}},{"type":"Feature","geometry":{"type":"Point","coordinates":[-121.43378,43.77017]},"properties":{"frp":4.3,"date":"2026-08-20","daynight":"N"}},{"type":"Feature","geometry":{"type":"Point","coordinates":[-121.41338,43.76807]},"properties":{"frp":11.8,"date":"2026-08-20","daynight":"N"}},{"type":"Feature","geometry":{"type":"Point","coordinates":[-121.41431,43.76937]},"properties":{"frp":11.0,"date":"2026-08-20","daynight":"N"}},{"type":"Feature","geometry":{"type":"Point","coordinates":[-121.41702,43.75336]},"properties":{"frp":4.3,"date":"2026-08-20","daynight":"N"}},{"type":"Feature","geometry":{"type":"Point","coordinates":[-121.42435,43.76328]},"properties":{"frp":2.1,"date":"2026-08-20","daynight":"N"}},{"type":"Feature","geometry":{"type":"Point","coordinates":[-121.40669,43.77384]},"properties":{"frp":1.8,"date":"2026-08-20","daynight":"N"}},{"type":"Feature","geometry":{"type":"Point","coordinates":[-121.40817,43.78215]},"properties":{"frp":7.3,"date":"2026-08-20","daynight":"N"}},{"type":"Feature","geometry":{"type":"Point","coordinates":[-121.41683,43.76501]},"properties":{"frp":4.6,"date":"2026-08-20","daynight":"N"}},{"type":"Feature","geometry":{"type":"Point","coordinates":[-121.41891,43.7729]},"properties":{"frp":2.5,"date":"2026-08-20","daynight":"N"}},{"type":"Feature","geometry":{"type":"Point","coordinates":[-121.41259,43.76718]},"properties":{"frp":5.7,"date":"2026-08-20","daynight":"N"}},{"type":"Feature","geometry":{"type":"Point","coordinates":[-121.42656,43.76547]},"properties":{"frp":3.0,"date":"2026-08-20","daynight":"N"}},{"type":"Feature","geometry":{"type":"Point","coordinates":[-121.41429,43.76227]},"properties":{"frp":4.1,"date":"2026-08-20","daynight":"N"}},{"type":"Feature","geometry":{"type":"Point","coordinates":[-121.41694,43.76603]},"properties":{"frp":9.2,"date":"2026-08-20","daynight":"N"}},{"type":"Feature","geometry":{"type":"Point","coordinates":[-119.05,35.42]},"properties":{"frp":4.0,"date":"2026-08-20","daynight":"N"}},{"type":"Feature","geometry":{"type":"Point","coordinates":[-119.05,35.423]},"properties":{"frp":4.0,"date":"2026-08-20","daynight":"N"}},{"type":"Feature","geometry":{"type":"Point","coordinates":[-119.05,35.417]},"properties":{"frp":4.0,"date":"2026-08-20","daynight":"N"}}]}