{"type":"FeatureCollection","features":[{"type":"Feature","geometry":{"type":"Point","coordinates":[-122.39599,40.65688]},"properties":{"frp":5.8,"date":"2026-08-22","daynight":"N"}},{"type":"Feature","geometry":{"type":"Point","coordinates":[-122.36174,40.63992]},"properties":{"frp":3.5,"date":"2026-08-22","daynight":"N"}},{"type":"Feature","geometry":{"type":"Point","coordinates":[-122.36232,40.65925]},"properties":{"frp":16.4,"date":"2026-08-22","daynight":"N"}},{"type":"Feature","geometry":{"type":"Point","coordinates":[-122.37085,40.6669]},"properties":{"frp":9.5,"date":"2026-08-22","daynight":"N"}},{"type":"Feature","geometry":{"type":"Point","coordinates":[-122.3752,40.64486]},"properties":{"frp":21.3,"date":"2026-08-22","daynight":"N"}},{"type":"Feature","geometry":{"type":"Point","coordinates":[-122.39369,40.67224]},"properties":{"frp":28.3,"date":"2026-08-22","daynight":"N"}},{"type":"Feature","geometry":{"type":"Point","coordinates":[-122.37449,40.6694]},"properties":{"frp":20.9,"date":"2026-08-22","daynight":"N"}},{"type":"Feature","geometry":{"type":"Point","coordinates":[-122.40286,40.65077]},"properties":{"frp":15.3,"date":"2026-08-22","daynight":"N"}},{"type":"Feature","geometry":{"type":"Point","coordinates":[-122.38255,40.64011]},"properties":{"frp":30.7,"date":"2026-08-22","daynight":"N"}},{"type":"Feature","geometry":{"type":"Point","coordinates":[-122.39731,40.66549]},"properties":{"frp":10.2,"date":"2026-08-22","daynight":"N"}},{"type":"Feature","geometry":{"type":"Point","coordinates":[-122.37441,40.66045]},"properties":{"frp":4.3,"date":"2026-08-22","daynight":"N"}},{"type":"Feature","geometry":{"type":"Point","coordinates":[-122.35793,40.67039]},"properties":{"frp":30.8,"date":"2026-08-22","daynight":"N"}},{"type":"Feature","geometry":{"type":"Point","coordinates":[-122.40082,40.68145]},"properties":{"frp":37.9,"date":"2026-08-22","daynight":"N"}},{"type":"Feature","geometry":{"type":"Point","coordinates":[-122.39292,40.68828]},"properties":{"frp":3.0,"date":"2026-08-22","daynight":"N"}},{"type":"Feature","geometry":{"type":"Point","coordinates":[-122.38286,40.67755]},"properties":{"frp":7.8,"date":"2026-08-22","daynight":"N"}},{"type":"Feature","geometry":{"type":"Point","coordinates":[-122.41437,40.65308]},"properties":{"frp":18.6,"date":"2026-08-22","daynight":"N"}},{"type":"Feature","geometry":{"type":"Point","coordinates":[-122.4102,40.65712]},"properties":{"frp":45.6,"date":"2026-08-22","daynight":"N"}},{"type":"Feature","geometry":{"type":"Point","coordinates":[-122.35852,40.67625]},"properties":{"frp":5.5,"date":"2026-08-22","daynight":"N"}},{"type":"Feature","geometry":{"type":"Point","coordinates":[-122.37893,40.64661]},"properties":{"frp":11.9,"date":"2026-08-22","daynight":"N"}},{"type":"Feature","geometry":{"type":"Point","coordinates":[-122.39456,40.64781]},"properties":{"frp":29.5,"date":"2026-08-22","daynight":"N"}},{"type":"Feature","geometry":{"type":"Point","coordinates":[-122.38465,40.67301]},"properties":{"frp":22.1,"date":"2026-08-22","daynight":"N"}},{"type":"Feature","geometry":{"type":"Point","coordinates":[-122.3921,40.68923]},"properties":{"frp":5.1,"date":"2026-08-22","daynight":"N"}},{"type":"Feature","geometry":{"type":"Point","coordinates":[-122.38236,40.67679]},"properties":{"frp":10.9,"date":"2026-08-22","daynight":"N"}},{"type":"Feature","geometry":{"type":"Point","coordinates":[-122.39151,40.67337]},"properties":{"frp":25.0,"date":"2026-08-22","daynight":"N"}},{"type":"Feature","geometry":{"type":"Point","coordinates":[-122.38594,40.65917]},"properties":{"frp":30.1,"date":"2026-08-22","daynight":"N"}},{"type":"Feature","geometry":{"type":"Point","coordinates":[-122.37288,40.64595]},"properties":{"frp":31.4,"date":"2026-08-22","daynight":"N"}},{"type":"Feature","geometry":{"type":"Point","coordinates":[-122.37403,40.67092]},"properties":{"frp":16.9,"date":"2026-08-22","daynight":"N"}},{"type":"Feature","geometry":{"type":"Point","coordinates":[-122.35965,40.68582]},"properties":{"frp":10.7,"date":"2026-08-22","daynight":"N"}},{"type":"Feature","geometry":{"type":"Point","coordinates":[-122.37773,40.6537]},"properties":{"frp":15.2,"date":"2026-08-22","daynight":"N"}},{"type":"Feature","geometry":{"type":"Point","coordinates":[-122.38361,40.64952]},"properties":{"frp":16.3,"date":"2026-08-22","daynight":"N"}},{"type":"Feature","geometry":{"type":"Point","coordinates":[-122.35678,40.64992]},"properties":{"frp":3.2,"date":"2026-08-22","daynight":"N"}},{"type":"Feature","geometry":{"type":"Point","coordinates":[-122.38766,40.66611]},"properties":{"frp":25.1,"date":"2026-08-22","daynight":"N"}},{"type":"Feature","geometry":{"type":"Point","coordinates":[-122.37063,40.62616]},"properties":{"frp":34.9,"date":"2026-08-22","daynight":"N"}},{"type":"Feature","geometry":{"type":"Point","coordinates":[-122.37979,40.66102]},"properties":{"frp":14.9,"date":"2026-08-22","daynight":"N"}},{"type":"Feature","geometry":{"type":"Point","coordinates":[-122.38439,40.63772]},"properties":{"frp":3.1,"date":"2026-08-22","daynight":"N"}},{"type":"Feature","geometry":{"type":"Point","coordinates":[-122.37015,40.69366]},"properties":{"frp":11.5,"date":"2026-08-22","daynight":"N"}},{"type":"Feature","geometry":{"type":"Point","coordinates":[-122.39138,40.66285]},"properties":{"frp":4.3,"date":"2026-08-22","daynight":"N"}},{"type":"Feature","geometry":{"type":"Point","coordinates":[-122.41977,40.65337]},"properties":{"frp":3.9,"date":"2026-08-22","daynight":"N"}},{"type":"Feature","geometry":{"type":"Point","coordinates":[-122.3698,40.66433]},"properties":{"frp":14.9,"date":"2026-08-22","daynight":"N"}},{"type":"Feature","geometry":{"type":"Point","coordinates":[-122.39511,40.63353]},"properties":{"frp":11.3,"date":"2026-08-22","daynight":"N"}},{"type":"Feature","geometry":{"type":"Point","coordinates":[-122.40022,40.64055]},"properties":{"frp":17.4,"date":"2026-08-22","daynight":"N"}},{"type":"Feature","geometry":{"type":"Point","coordinates":[-122.41902,40.6609]},"properties":{"frp":13.7,"date":"2026-08-22","daynight":"N"}},{"type":"Feature","geometry":{"type":"Point","coordinates":[-122.37134,40.67032]},"properties":{"frp":10.0,"date":"2026-08-22","daynight":"N"}},{"type":"Feature","geometry":{"type":"Point","coordinates":[-122.42568,40.65578]},"properties":{"frp":10.2,"date":"2026-08-22","daynight":"N"}},{"type":"Feature","geometry":{"type":"Point","coordinates":[-122.36329,40.64326]},"properties":{"frp":14.7,"date":"2026-08-22","daynight":"N"}},{"type":"Feature","geometry":{"type":"Point","coordinates":[-122.37048,40.64018]},"properties":{"frp":31.4,"date":"2026-08-22","daynight":"N"}},{"type":"Feature","geometry":{"type":"Point","coordinates":[-122.37721,40.64866]},"properties":{"frp":10.7,"date":"2026-08-22","daynight":"N"}},{"type":"Feature","geometry":{"type":"Point","coordinates":[-122.35315,40.6695]},"properties":{"frp":5.8,"date":"2026-08-22","daynight":"N"}},{"type":"Feature","geometry":{"type":"Point","coordinates":[-122.37768,40.65659]},"properties":{"frp":6.3,"date":"2026-08-22","daynight":"N"}},{"type":"Feature","geometry":{"type":"Point","coordinates":[-122.364,40.63505]},"properties":{"frp":6.9,"date":"2026-08-22","daynight":"N"}},{"type":"Feature","geometry":{"type":"Point","coordinates":[-122.39342,40.64722]},"properties":{"frp":10.4,"date":"2026-08-22","daynight":"N"}},{"type":"Feature","geometry":{"type":"Point","coordinates":[-122.41026,40.65963]},"properties":{"frp":4.1,"date":"2026-08-22","daynight":"N"}},{"type":"Feature","geometry":{"type":"Point","coordinates":[-122.36775,40.66384]},"properties":{"frp":13.2,"date":"2026-08-22","daynight":"N"}},{"type":"Feature","geometry":{"type":"Point","coordinates":[-122.41069,40.66492]},"properties":{"frp":9.8,"date":"2026-08-22","daynight":"N"}},{"type":"Feature","geometry":{"type":"Point","coordinates":[-122.37153,40.65792]},"properties":{"frp":3.6,"date":"2026-08-22","daynight":"N"}},{"type":"Feature","geometry":{"type":"Point","coordinates":[-122.40206,40.62845]},"properties":{"frp":15.1,"date":"2026-08-22","daynight":"N"}},{"type":"Feature","geometry":{"type":"Point","coordinates":[-122.37946,40.67473]},"properties":{"frp":6.4,"date":"2026-08-22","daynight":"N"}},{"type":"Feature","geometry":{"type":"Point","coordinates":[-122.35276,40.66692]},"properties":{"frp":22.4,"date":"2026-08-22","daynight":"N"}},{"type":"Feature","geometry":{"type":"Point","coordinates":[-122.37295,40.66787]},"properties":{"frp":3.0,"date":"2026-08-22","daynight":"N"}},{"type":"Feature","geometry":{"type":"Point","coordinates":[-122.38411,40.65786]},"properties":{"frp":10.0,"date":"2026-08-22","daynight":"N"}},{"type":"Feature","geometry":{"type":"Point","coordinates":[-122.38462,40.65716]},"properties":{"frp":10.0,"date":"2026-08-22","daynight":"N"}},{"type":"Feature","geometry":{"type":"Point","coordinates":[-122.38573,40.66274]},"properties":{"frp":10.0,"date":"2026-08-22","daynight":"N"}},{"type":"Feature","geometry":{"type":"Point","coordinates":[-122.38197,40.66091]},"properties":{"frp":10.0,"date":"2026-08-22","daynight":"N"}},{"type":"Feature","geometry":{"type":"Point","coordinates":[-122.38076,40.66577]},"properties":{"frp":10.0,"date":"2026-08-22","daynight":"N"}},{"type":"Feature","geometry":{"type":"Point","coordinates":[-122.37861,40.6613]},"properties":{"frp":10.0,"date":"2026-08-22","daynight":"N"}},{"type":"Feature","geometry":{"type":"Point","coordinates":[-122.3875,40.66941]},"properties":{"frp":10.0,"date":"2026-08-22","daynight":"N"}},{"type":"Feature","geometry":{"type":"Point","coordinates":[-122.3769,40.66742]},"properties":{"frp":10.0,"date":"2026-08-22","daynight":"N"}},{"type":"Feature","geometry":{"type":"Point","coordinates":[-122.38888,40.66775]},"properties":{"frp":10.0,"date":"2026-08-22","daynight":"N"}},{"type":"Feature","geometry":{"type":"Point","coordinates":[-122.37906,40.66782]},"properties":{"frp":10.0,"date":"2026-08-22","daynight":"N"}},{"type":"Feature","geometry":{"type":"Point","coordinates":[-122.39341,40.67136]},"properties":{"frp":10.0,"date":"2026-08-22","daynight":"N"}},{"type":"Feature","geometry":{"type":"Point","coordinates":[-122.37211,40.66614]},"properties":{"frp":10.0,"date":"2026-08-22","daynight":"N"}},{"type":"Feature","geometry":{"type":"Point","coordinates":[-122.38943,40.67388]},"properties":{"frp":10.0,"date":"2026-08-22","daynight":"N"}},{"type":"Feature","geometry":{"type":"Point","coordinates":[-122.36875,40.66746]},"properties":{"frp":10.0,"date":"2026-08-22","daynight":"N"}},{"type":"Feature","geometry":{"type":"Point","coordinates":[-122.39619,40.676]},"properties":{"frp":10.0,"date":"2026-08-22","daynight":"N"}},{"type":"Feature","geometry":{"type":"Point","coordinates":[-122.36892,40.67139]},"properties":{"frp":10.0,"date":"2026-08-22","daynight":"N"}},{"type":"Feature","geometry":{"type":"Point","coordinates":[-122.39076,40.67862]},"properties":{"frp":10.0,"date":"2026-08-22","daynight":"N"}},{"type":"Feature","geometry":{"type":"Point","coordinates":[-122.36705,40.67174]},"properties":{"frp":10.0,"date":"2026-08-22","daynight":"N"}},{"type":"Feature","geometry":{"type":"Point","coordinates":[-122.39884,40.681]},"properties":{"frp":10.0,"date":"2026-08-22","daynight":"N"}},{"type":"Feature","geometry":{"type":"Point","coordinates":[-122.36817,40.67225]},"properties":{"frp":10.0,"date":"2026-08-22","daynight":"N"}},{"type":"Feature","geometry":{"type":"Point","coordinates":[-122.3975,40.68208]},"properties":{"frp":10.0,"date":"2026-08-22","daynight":"N"}},{"type":"Feature","geometry":{"type":"Point","coordinates":[-122.36037,40.67304]},"properties":{"frp":10.0,"date":"2026-08-22","daynight":"N"}},{"type":"Feature","geometry":{"type":"Point","coordinates":[-122.39774,40.68481]},"properties":{"frp":10.0,"date":"2026-08-22","daynight":"N"}},{"type":"Feature","geometry":{"type":"Point","coordinates":[-122.36385,40.67446]},"properties":{"frp":10.0,"date":"2026-08-22","daynight":"N"}},{"type":"Feature","geometry":{"type":"Point","coordinates":[-122.40203,40.68859]},"properties":{"frp":10.0,"date":"2026-08-22","daynight":"N"}},{"type":"Feature","geometry":{"type":"Point","coordinates":[-122.36206,40.68169]},"properties":{"frp":10.0,"date":"2026-08-22","daynight":"N"}},{"type":"Feature","geometry":{"type":"Point","coordinates":[-122.40054,40.6896]},"properties":{"frp":10.0,"date":"2026-08-22","daynight":"N"}},{"type":"Feature","geometry":{"type":"Point","coordinates":[-122.35738,40.68216]},"properties":{"frp":10.0,"date":"2026-08-22","daynight":"N"}},{"type":"Feature","geometry":{"type":"Point","coordinates":[-122.40328,40.69261]},"properties":{"frp":10.0,"date":"2026-08-22","daynight":"N"}},{"type":"Feature","geometry":{"type":"Point","coordinates":[-122.35638,40.67954]},"properties":{"frp":10.0,"date":"2026-08-22","daynight":"N"}},{"type":"Feature","geometry":{"type":"Point","coordinates":[-122.4022,40.69424]},"properties":{"frp":10.0,"date":"2026-08-22","daynight":"N"}},{"type":"Feature","geometry":{"type":"Point","coordinates":[-122.35356,40.67838]},"properties":{"frp":10.0,"date":"2026-08-22","daynight":"N"}},{"type":"Feature","geometry":{"type":"Point","coordinates":[-122.40659,40.69784]},"properties":{"frp":10.0,"date":"2026-08-22","daynight":"N"}},{"type":"Feature","geometry":{"type":"Point","coordinates":[-122.3503,40.68266]},"properties":{"frp":10.0,"date":"2026-08-22","daynight":"N"}},{"type":"Feature","geometry":{"type":"Point","coordinates":[-122.40703,40.69712]},"properties":{"frp":10.0,"date":"2026-08-22","daynight":"N"}},{"type":"Feature","geometry":{"type":"Point","coordinates":[-122.34964,40.68362]},"properties":{"frp":10.0,"date":"2026-08-22","daynight":"N"}},{"type":"Feature","geometry":{"type":"Point","coordinates":[-120.84544,39.3173]},"properties":{"frp":19.7,"date":"2026-08-22","daynight":"N"}},{"type":"Feature","geometry":{"type":"Point","coordinates":[-120.84396,39.29219]},"properties":{"frp":41.5,"date":"2026-08-22","daynight":"N"}},{"type":"Feature","geometry":{"type":"Point","coordinates":[-120.85519,39.29703]},"properties":{"frp":36.9,"date":"2026-08-22","daynight":"N"}},{"type":"Feature","geometry":{"type":"Point","coordinates":[-120.85443,39.30682]},"properties":{"frp":14.4,"date":"2026-08-22","daynight":"N"}},{"type":"Feature","geometry":{"type":"Point","coordinates":[-120.85697,39.31204]},"properties":{"frp":16.3,"date":"2026-08-22","daynight":"N"}},{"type":"Feature","geometry":{"type":"Point","coordinates":[-120.85591,39.29843]},"properties":{"frp":25.4,"date":"2026-08-22","daynight":"N"}},{"type":"Feature","geometry":{"type":"Point","coordinates":[-120.84011,39.29891]},"properties":{"frp":18.3,"date":"2026-08-22","daynight":"N"}},{"type":"Feature","geometry":{"type":"Point","coordinates":[-120.83461,39.30966]},"properties":{"frp":2.2,"date":"2026-08-22","daynight":"N"}},{"type":"Feature","geometry":{"type":"Point","coordinates":[-120.85928,39.32441]},"properties":{"frp":12.5,"date":"2026-08-22","daynight":"N"}},{"type":"Feature","geometry":{"type":"Point","coordinates":[-120.86059,39.30463]},"properties":{"frp":14.9,"date":"2026-08-22","daynight":"N"}},{"type":"Feature","geometry":{"type":"Point","coordinates":[-120.85567,39.297]},"properties":{"frp":29.1,"date":"2026-08-22","daynight":"N"}},{"type":"Feature","geometry":{"type":"Point","coordinates":[-120.85947,39.29449]},"properties":{"frp":15.3,"date":"2026-08-22","daynight":"N"}},{"type":"Feature","geometry":{"type":"Point","coordinates":[-120.86095,39.3027]},"properties":{"frp":24.9,"date":"2026-08-22","daynight":"N"}},{"type":"Feature","geometry":{"type":"Point","coordinates":[-120.85826,39.31158]},"properties":{"frp":14.9,"date":"2026-08-22","daynight":"N"}},{"type":"Feature","geometry":{"type":"Point","coordinates":[-120.85406,39.32929]},"properties":{"frp":18.5,"date":"2026-08-22","daynight":"N"}},{"type":"Feature","geometry":{"type":"Point","coordinates":[-120.86166,39.30465]},"properties":{"frp":2.0,"date":"2026-08-22","daynight":"N"}},{"type":"Feature","geometry":{"type":"Point","coordinates":[-120.83992,39.31935]},"properties":{"frp":29.4,"date":"2026-08-22","daynight":"N"}},{"type":"Feature","geometry":{"type":"Point","coordinates":[-120.86212,39.30667]},"properties":{"frp":29.6,"date":"2026-08-22","daynight":"N"}},{"type":"Feature","geometry":{"type":"Point","coordinates":[-120.86009,39.3059]},"properties":{"frp":37.5,"date":"2026-08-22","daynight":"N"}},{"type":"Feature","geometry":{"type":"Point","coordinates":[-120.84272,39.31716]},"properties":{"frp":6.8,"date":"2026-08-22","daynight":"N"}},{"type":"Feature","geometry":{"type":"Point","coordinates":[-123.30809,41.05157]},"properties":{"frp":10.5,"date":"2026-08-22","daynight":"N"}},{"type":"Feature","geometry":{"type":"Point","coordinates":[-123.30971,41.05679]},"properties":{"frp":15.6,"date":"2026-08-22","daynight":"N"}},{"type":"Feature","geometry":{"type":"Point","coordinates":[-123.29728,41.05236]},"properties":{"frp":2.6,"date":"2026-08-22","daynight":"N"}},{"type":"Feature","geometry":{"type":"Point","coordinates":[-123.31216,41.04438]},"properties":{"frp":10.3,"date":"2026-08-22","daynight":"N"}},{"type":"Feature","geometry":{"type":"Point","coordinates":[-123.31664,41.03806]},"properties":{"frp":15.2,"date":"2026-08-22","daynight":"N"}},{"type":"Feature","geometry":{"type":"Point","coordinates":[-123.2987,41.03172]},"properties":{"frp":15.2,"date":"2026-08-22","daynight":"N"}},{"type":"Feature","geometry":{"type":"Point","coordinates":[-123.29175,41.06809]},"properties":{"frp":2.5,"date":"2026-08-22","daynight":"N"}},{"type":"Feature","geometry":{"type":"Point","coordinates":[-123.29875,41.03374]},"properties":{"frp":12.6,"date":"2026-08-22","daynight":"N"}},{"type":"Feature","geometry":{"type":"Point","coordinates":[-123.31057,41.06422]},"properties":{"frp":17.8,"date":"2026-08-22","daynight":"N"}},{"type":"Feature","geometry":{"type":"Point","coordinates":[-123.32608,41.05101]},"properties":{"frp":2.6,"date":"2026-08-22","daynight":"N"}},{"type":"Feature","geometry":{"type":"Point","coordinates":[-123.31664,41.05267]},"properties":{"frp":8.1,"date":"2026-08-22","daynight":"N"}},{"type":"Feature","geometry":{"type":"Point","coordinates":[-123.32161,41.052]},"properties":{"frp":1.1,"date":"2026-08-22","daynight":"N"}},{"type":"Feature","geometry":{"type":"Point","coordinates":[-123.29575,41.05543]},"properties":{"frp":26.2,"date":"2026-08-22","daynight":"N"}},{"type":"Feature","geometry":{"type":"Point","coordinates":[-123.31737,41.04217]},"properties":{"frp":4.3,"date":"2026-08-22","daynight":"N"}},{"type":"Feature","geometry":{"type":"Point","coordinates":[-123.30866,41.02844]},"properties":{"frp":2.5,"date":"2026-08-22","daynight":"N"}},{"type":"Feature","geometry":{"type":"Point","coordinates":[-123.32151,41.04418]},"properties":{"frp":4.4,"date":"2026-08-22","daynight":"N"}},{"type":"Feature","geometry":{"type":"Point","coordinates":[-123.29162,41.05485]},"properties":{"frp":7.0,"date":"2026-08-22","daynight":"N"}},{"type":"Feature","geometry":{"type":"Point","coordinates":[-123.2983,41.04911]},"properties":{"frp":4.3,"date":"2026-08-22","daynight":"N"}},{"type":"Feature","geometry":{"type":"Point","coordinates":[-123.29636,41.05797]},"properties":{"frp":16.1,"date":"2026-08-22","daynight":"N"}},{"type":"Feature","geometry":{"type":"Point","coordinates":[-123.29295,41.04693]},"properties":{"frp":11.8,"date":"2026-08-22","daynight":"N"}},{"type":"Feature","geometry":{"type":"Point","coordinates":[-123.3074,41.06697]},"properties":{"frp":7.4,"date":"2026-08-22","daynight":"N"}},{"type":"Feature","geometry":{"type":"Point","coordinates":[-123.31293,41.0577]},"properties":{"frp":4.3,"date":"2026-08-22","daynight":"N"}},{"type":"Feature","geometry":{"type":"Point","coordinates":[-123.27825,41.05217]},"properties":{"frp":3.8,"date":"2026-08-22","daynight":"N"}},{"type":"Feature","geometry":{"type":"Point","coordinates":[-123.29229,41.05489]},"properties":{"frp":1.8,"date":"2026-08-22","daynight":"N"}},{"type":"Feature","geometry":{"type":"Point","coordinates":[-123.29369,41.0444]},"properties":{"frp":5.1,"date":"2026-08-22","daynight":"N"}},{"type":"Feature","geometry":{"type":"Point","coordinates":[-123.30186,41.04748]},"properties":{"frp":5.4,"date":"2026-08-22","daynight":"N"}},{"type":"Feature","geometry":{"type":"Point","coordinates":[-123.29202,41.0471]},"properties":{"frp":14.9,"date":"2026-08-22","daynight":"N"}},{"type":"Feature","geometry":{"type":"Point","coordinates":[-123.30206,41.04233]},"properties":{"frp":12.0,"date":"2026-08-22","daynight":"N"}},{"type":"Feature","geometry":{"type":"Point","coordinates":[-123.29009,41.0364]},"properties":{"frp":3.1,"date":"2026-08-22","daynight":"N"}},{"type":"Feature","geometry":{"type":"Point","coordinates":[-123.29168,41.05545]},"properties":{"frp":2.7,"date":"2026-08-22","daynight":"N"}},{"type":"Feature","geometry":{"type":"Point","coordinates":[-123.29312,41.05965]},"properties":{"frp":39.4,"date":"2026-08-22","daynight":"N"}},{"type":"Feature","geometry":{"type":"Point","coordinates":[-123.29096,41.05392]},"properties":{"frp":5.0,"date":"2026-08-22","daynight":"N"}}]}