{"type":"FeatureCollection","features":[{"type":"Feature","geometry":{"type":"Point","coordinates":[-73.25251,45.8344]},"properties":{"frp":1.53,"date":"2026-09-19","daynight":"N"}},{"type":"Feature","geometry":{"type":"Point","coordinates":[-73.25416,45.83498]},"properties":{"frp":1.47,"date":"2026-09-19","daynight":"N"}},{"type":"Feature","geometry":{"type":"Point","coordinates":[-73.25233,45.84046]},"properties":{"frp":1.53,"date":"2026-09-19","daynight":"N"}},{"type":"Feature","geometry":{"type":"Point","coordinates":[-73.25396,45.84104]},"properties":{"frp":1.09,"date":"2026-09-19","daynight":"N"}},{"type":"Feature","geometry":{"type":"Point","coordinates":[-73.1414,46.0455]},"properties":{"frp":2.31,"date":"2026-09-19","daynight":"N"}},{"type":"Feature","geometry":{"type":"Point","coordinates":[-76.82011,39.93818]},"properties":{"frp":1.61,"date":"2026-09-19","daynight":"N"}},{"type":"Feature","geometry":{"type":"Point","coordinates":[-76.81612,39.93962]},"properties":{"frp":1.46,"date":"2026-09-19","daynight":"N"}},{"type":"Feature","geometry":{"type":"Point","coordinates":[-73.24851,45.83921]},"properties":{"frp":2.04,"date":"2026-09-19","daynight":"N"}},{"type":"Feature","geometry":{"type":"Point","coordinates":[-73.25462,45.83968]},"properties":{"frp":2.04,"date":"2026-09-19","daynight":"N"}},{"type":"Feature","geometry":{"type":"Point","coordinates":[-73.14117,46.04366]},"properties":{"frp":2.41,"date":"2026-09-19","daynight":"N"}},{"type":"Feature","geometry":{"type":"Point","coordinates":[-73.14725,46.04413]},"properties":{"frp":2.41,"date":"2026-09-19","daynight":"N"}},{"type":"Feature","geometry":{"type":"Point","coordinates":[-76.81487,39.94098]},"properties":{"frp":2.34,"date":"2026-09-19","daynight":"N"}},{"type":"Feature","geometry":{"type":"Point","coordinates":[-76.81591,39.94189]},"properties":{"frp":2.0,"date":"2026-09-19","daynight":"N"}}]}