{"type":"FeatureCollection","features":[{"type":"Feature","geometry":{"type":"Point","coordinates":[-76.80737,36.35548]},"properties":{"frp":1.42,"date":"2026-09-03","daynight":"N"}},{"type":"Feature","geometry":{"type":"Point","coordinates":[-83.4135,45.07196]},"properties":{"frp":1.88,"date":"2026-09-03","daynight":"N"}},{"type":"Feature","geometry":{"type":"Point","coordinates":[-83.40415,45.07204]},"properties":{"frp":1.88,"date":"2026-09-03","daynight":"N"}},{"type":"Feature","geometry":{"type":"Point","coordinates":[-83.41203,45.07444]},"properties":{"frp":1.55,"date":"2026-09-03","daynight":"N"}},{"type":"Feature","geometry":{"type":"Point","coordinates":[-84.04446,41.56528]},"properties":{"frp":1.63,"date":"2026-09-03","daynight":"N"}},{"type":"Feature","geometry":{"type":"Point","coordinates":[-84.05379,41.5653]},"properties":{"frp":1.63,"date":"2026-09-03","daynight":"N"}},{"type":"Feature","geometry":{"type":"Point","coordinates":[-84.05019,41.56804]},"properties":{"frp":4.21,"date":"2026-09-03","daynight":"N"}},{"type":"Feature","geometry":{"type":"Point","coordinates":[-76.80647,36.35726]},"properties":{"frp":1.62,"date":"2026-09-03","daynight":"N"}},{"type":"Feature","geometry":{"type":"Point","coordinates":[-76.80642,36.35751]},"properties":{"frp":2.31,"date":"2026-09-03","daynight":"N"}},{"type":"Feature","geometry":{"type":"Point","coordinates":[-79.88133,33.00641]},"properties":{"frp":1.16,"date":"2026-09-03","daynight":"N"}},{"type":"Feature","geometry":{"type":"Point","coordinates":[-79.88502,33.01218]},"properties":{"frp":1.16,"date":"2026-09-03","daynight":"N"}},{"type":"Feature","geometry":{"type":"Point","coordinates":[-79.88443,33.01768]},"properties":{"frp":1.49,"date":"2026-09-03","daynight":"N"}},{"type":"Feature","geometry":{"type":"Point","coordinates":[-79.88869,33.01797]},"properties":{"frp":1.54,"date":"2026-09-03","daynight":"N"}}]}