{"type":"FeatureCollection","features":[{"type":"Feature","geometry":{"type":"Point","coordinates":[-122.36622,40.68877]},"properties":{"frp":16.7,"date":"2026-08-24","daynight":"N"}},{"type":"Feature","geometry":{"type":"Point","coordinates":[-122.36606,40.66768]},"properties":{"frp":20.0,"date":"2026-08-24","daynight":"N"}},{"type":"Feature","geometry":{"type":"Point","coordinates":[-122.35313,40.66972]},"properties":{"frp":11.9,"date":"2026-08-24","daynight":"N"}},{"type":"Feature","geometry":{"type":"Point","coordinates":[-122.37361,40.64435]},"properties":{"frp":17.1,"date":"2026-08-24","daynight":"N"}},{"type":"Feature","geometry":{"type":"Point","coordinates":[-122.39212,40.71361]},"properties":{"frp":14.6,"date":"2026-08-24","daynight":"N"}},{"type":"Feature","geometry":{"type":"Point","coordinates":[-122.40365,40.68005]},"properties":{"frp":20.4,"date":"2026-08-24","daynight":"N"}},{"type":"Feature","geometry":{"type":"Point","coordinates":[-122.37777,40.7145]},"properties":{"frp":13.5,"date":"2026-08-24","daynight":"N"}},{"type":"Feature","geometry":{"type":"Point","coordinates":[-122.34729,40.68099]},"properties":{"frp":11.0,"date":"2026-08-24","daynight":"N"}},{"type":"Feature","geometry":{"type":"Point","coordinates":[-122.39456,40.69402]},"properties":{"frp":16.8,"date":"2026-08-24","daynight":"N"}},{"type":"Feature","geometry":{"type":"Point","coordinates":[-122.36551,40.66628]},"properties":{"frp":10.0,"date":"2026-08-24","daynight":"N"}},{"type":"Feature","geometry":{"type":"Point","coordinates":[-122.42089,40.66677]},"properties":{"frp":11.2,"date":"2026-08-24","daynight":"N"}},{"type":"Feature","geometry":{"type":"Point","coordinates":[-122.40738,40.67887]},"properties":{"frp":13.0,"date":"2026-08-24","daynight":"N"}},{"type":"Feature","geometry":{"type":"Point","coordinates":[-122.37225,40.71427]},"properties":{"frp":40.6,"date":"2026-08-24","daynight":"N"}},{"type":"Feature","geometry":{"type":"Point","coordinates":[-122.39081,40.66081]},"properties":{"frp":36.3,"date":"2026-08-24","daynight":"N"}},{"type":"Feature","geometry":{"type":"Point","coordinates":[-122.39931,40.63994]},"properties":{"frp":6.9,"date":"2026-08-24","daynight":"N"}},{"type":"Feature","geometry":{"type":"Point","coordinates":[-122.32869,40.70155]},"properties":{"frp":9.0,"date":"2026-08-24","daynight":"N"}},{"type":"Feature","geometry":{"type":"Point","coordinates":[-122.37795,40.6954]},"properties":{"frp":6.6,"date":"2026-08-24","daynight":"N"}},{"type":"Feature","geometry":{"type":"Point","coordinates":[-122.39628,40.67084]},"properties":{"frp":25.4,"date":"2026-08-24","daynight":"N"}},{"type":"Feature","geometry":{"type":"Point","coordinates":[-122.38,40.72367]},"properties":{"frp":9.4,"date":"2026-08-24","daynight":"N"}},{"type":"Feature","geometry":{"type":"Point","coordinates":[-122.34646,40.72485]},"properties":{"frp":6.8,"date":"2026-08-24","daynight":"N"}},{"type":"Feature","geometry":{"type":"Point","coordinates":[-122.39012,40.6431]},"properties":{"frp":16.1,"date":"2026-08-24","daynight":"N"}},{"type":"Feature","geometry":{"type":"Point","coordinates":[-122.37769,40.66582]},"properties":{"frp":1.9,"date":"2026-08-24","daynight":"N"}},{"type":"Feature","geometry":{"type":"Point","coordinates":[-122.37115,40.65716]},"properties":{"frp":2.4,"date":"2026-08-24","daynight":"N"}},{"type":"Feature","geometry":{"type":"Point","coordinates":[-122.37603,40.69307]},"properties":{"frp":20.2,"date":"2026-08-24","daynight":"N"}},{"type":"Feature","geometry":{"type":"Point","coordinates":[-122.39815,40.68234]},"properties":{"frp":28.8,"date":"2026-08-24","daynight":"N"}},{"type":"Feature","geometry":{"type":"Point","coordinates":[-122.36516,40.68226]},"properties":{"frp":9.5,"date":"2026-08-24","daynight":"N"}},{"type":"Feature","geometry":{"type":"Point","coordinates":[-122.36391,40.68695]},"properties":{"frp":10.1,"date":"2026-08-24","daynight":"N"}},{"type":"Feature","geometry":{"type":"Point","coordinates":[-122.35614,40.70995]},"properties":{"frp":6.5,"date":"2026-08-24","daynight":"N"}},{"type":"Feature","geometry":{"type":"Point","coordinates":[-122.40084,40.68151]},"properties":{"frp":2.7,"date":"2026-08-24","daynight":"N"}},{"type":"Feature","geometry":{"type":"Point","coordinates":[-122.38066,40.66728]},"properties":{"frp":5.1,"date":"2026-08-24","daynight":"N"}},{"type":"Feature","geometry":{"type":"Point","coordinates":[-122.38614,40.68535]},"properties":{"frp":14.8,"date":"2026-08-24","daynight":"N"}},{"type":"Feature","geometry":{"type":"Point","coordinates":[-122.40119,40.66016]},"properties":{"frp":19.6,"date":"2026-08-24","daynight":"N"}},{"type":"Feature","geometry":{"type":"Point","coordinates":[-122.39721,40.64884]},"properties":{"frp":10.0,"date":"2026-08-24","daynight":"N"}},{"type":"Feature","geometry":{"type":"Point","coordinates":[-122.40432,40.67165]},"properties":{"frp":6.3,"date":"2026-08-24","daynight":"N"}},{"type":"Feature","geometry":{"type":"Point","coordinates":[-122.36031,40.68805]},"properties":{"frp":18.3,"date":"2026-08-24","daynight":"N"}},{"type":"Feature","geometry":{"type":"Point","coordinates":[-122.38526,40.66835]},"properties":{"frp":4.5,"date":"2026-08-24","daynight":"N"}},{"type":"Feature","geometry":{"type":"Point","coordinates":[-122.39114,40.69139]},"properties":{"frp":20.6,"date":"2026-08-24","daynight":"N"}},{"type":"Feature","geometry":{"type":"Point","coordinates":[-122.35063,40.66341]},"properties":{"frp":9.2,"date":"2026-08-24","daynight":"N"}},{"type":"Feature","geometry":{"type":"Point","coordinates":[-122.36325,40.69874]},"properties":{"frp":14.3,"date":"2026-08-24","daynight":"N"}},{"type":"Feature","geometry":{"type":"Point","coordinates":[-122.41792,40.69962]},"properties":{"frp":21.7,"date":"2026-08-24","daynight":"N"}},{"type":"Feature","geometry":{"type":"Point","coordinates":[-122.36769,40.7087]},"properties":{"frp":11.8,"date":"2026-08-24","daynight":"N"}},{"type":"Feature","geometry":{"type":"Point","coordinates":[-122.36779,40.70143]},"properties":{"frp":38.8,"date":"2026-08-24","daynight":"N"}},{"type":"Feature","geometry":{"type":"Point","coordinates":[-122.38184,40.68104]},"properties":{"frp":9.5,"date":"2026-08-24","daynight":"N"}},{"type":"Feature","geometry":{"type":"Point","coordinates":[-122.38261,40.68778]},"properties":{"frp":20.3,"date":"2026-08-24","daynight":"N"}},{"type":"Feature","geometry":{"type":"Point","coordinates":[-122.40963,40.6984]},"properties":{"frp":19.5,"date":"2026-08-24","daynight":"N"}},{"type":"Feature","geometry":{"type":"Point","coordinates":[-122.33265,40.66852]},"properties":{"frp":4.3,"date":"2026-08-24","daynight":"N"}},{"type":"Feature","geometry":{"type":"Point","coordinates":[-122.38106,40.66673]},"properties":{"frp":7.6,"date":"2026-08-24","daynight":"N"}},{"type":"Feature","geometry":{"type":"Point","coordinates":[-122.36888,40.66129]},"properties":{"frp":15.7,"date":"2026-08-24","daynight":"N"}},{"type":"Feature","geometry":{"type":"Point","coordinates":[-122.37993,40.66439]},"properties":{"frp":8.4,"date":"2026-08-24","daynight":"N"}},{"type":"Feature","geometry":{"type":"Point","coordinates":[-122.39081,40.698]},"properties":{"frp":20.7,"date":"2026-08-24","daynight":"N"}},{"type":"Feature","geometry":{"type":"Point","coordinates":[-122.35857,40.69672]},"properties":{"frp":5.8,"date":"2026-08-24","daynight":"N"}},{"type":"Feature","geometry":{"type":"Point","coordinates":[-122.37302,40.70237]},"properties":{"frp":16.3,"date":"2026-08-24","daynight":"N"}},{"type":"Feature","geometry":{"type":"Point","coordinates":[-122.39457,40.68689]},"properties":{"frp":15.2,"date":"2026-08-24","daynight":"N"}},{"type":"Feature","geometry":{"type":"Point","coordinates":[-122.34576,40.67794]},"properties":{"frp":17.6,"date":"2026-08-24","daynight":"N"}},{"type":"Feature","geometry":{"type":"Point","coordinates":[-122.34466,40.71624]},"properties":{"frp":18.0,"date":"2026-08-24","daynight":"N"}},{"type":"Feature","geometry":{"type":"Point","coordinates":[-122.40262,40.69665]},"properties":{"frp":35.0,"date":"2026-08-24","daynight":"N"}},{"type":"Feature","geometry":{"type":"Point","coordinates":[-122.40232,40.69033]},"properties":{"frp":19.4,"date":"2026-08-24","daynight":"N"}},{"type":"Feature","geometry":{"type":"Point","coordinates":[-122.37093,40.64847]},"properties":{"frp":10.2,"date":"2026-08-24","daynight":"N"}},{"type":"Feature","geometry":{"type":"Point","coordinates":[-122.35685,40.69109]},"properties":{"frp":7.2,"date":"2026-08-24","daynight":"N"}},{"type":"Feature","geometry":{"type":"Point","coordinates":[-122.36473,40.69054]},"properties":{"frp":16.2,"date":"2026-08-24","daynight":"N"}},{"type":"Feature","geometry":{"type":"Point","coordinates":[-122.37823,40.65913]},"properties":{"frp":28.5,"date":"2026-08-24","daynight":"N"}},{"type":"Feature","geometry":{"type":"Point","coordinates":[-122.39197,40.6957]},"properties":{"frp":25.1,"date":"2026-08-24","daynight":"N"}},{"type":"Feature","geometry":{"type":"Point","coordinates":[-122.3525,40.6985]},"properties":{"frp":5.6,"date":"2026-08-24","daynight":"N"}},{"type":"Feature","geometry":{"type":"Point","coordinates":[-122.36349,40.66687]},"properties":{"frp":31.2,"date":"2026-08-24","daynight":"N"}},{"type":"Feature","geometry":{"type":"Point","coordinates":[-122.41513,40.66598]},"properties":{"frp":7.3,"date":"2026-08-24","daynight":"N"}},{"type":"Feature","geometry":{"type":"Point","coordinates":[-122.38598,40.68261]},"properties":{"frp":12.3,"date":"2026-08-24","daynight":"N"}},{"type":"Feature","geometry":{"type":"Point","coordinates":[-122.33412,40.67067]},"properties":{"frp":16.3,"date":"2026-08-24","daynight":"N"}},{"type":"Feature","geometry":{"type":"Point","coordinates":[-122.36788,40.64765]},"properties":{"frp":14.5,"date":"2026-08-24","daynight":"N"}},{"type":"Feature","geometry":{"type":"Point","coordinates":[-122.35674,40.65891]},"properties":{"frp":18.4,"date":"2026-08-24","daynight":"N"}},{"type":"Feature","geometry":{"type":"Point","coordinates":[-122.36796,40.68633]},"properties":{"frp":9.8,"date":"2026-08-24","daynight":"N"}},{"type":"Feature","geometry":{"type":"Point","coordinates":[-122.39223,40.65997]},"properties":{"frp":22.1,"date":"2026-08-24","daynight":"N"}},{"type":"Feature","geometry":{"type":"Point","coordinates":[-122.33846,40.69966]},"properties":{"frp":20.1,"date":"2026-08-24","daynight":"N"}},{"type":"Feature","geometry":{"type":"Point","coordinates":[-122.39503,40.69018]},"properties":{"frp":12.0,"date":"2026-08-24","daynight":"N"}},{"type":"Feature","geometry":{"type":"Point","coordinates":[-122.34501,40.68217]},"properties":{"frp":15.7,"date":"2026-08-24","daynight":"N"}},{"type":"Feature","geometry":{"type":"Point","coordinates":[-122.37689,40.66431]},"properties":{"frp":18.9,"date":"2026-08-24","daynight":"N"}},{"type":"Feature","geometry":{"type":"Point","coordinates":[-122.36758,40.69313]},"properties":{"frp":11.6,"date":"2026-08-24","daynight":"N"}},{"type":"Feature","geometry":{"type":"Point","coordinates":[-122.39316,40.66375]},"properties":{"frp":15.3,"date":"2026-08-24","daynight":"N"}},{"type":"Feature","geometry":{"type":"Point","coordinates":[-122.35074,40.70095]},"properties":{"frp":19.1,"date":"2026-08-24","daynight":"N"}},{"type":"Feature","geometry":{"type":"Point","coordinates":[-122.33776,40.71206]},"properties":{"frp":2.6,"date":"2026-08-24","daynight":"N"}},{"type":"Feature","geometry":{"type":"Point","coordinates":[-122.3826,40.68285]},"properties":{"frp":15.6,"date":"2026-08-24","daynight":"N"}},{"type":"Feature","geometry":{"type":"Point","coordinates":[-122.36088,40.70864]},"properties":{"frp":7.4,"date":"2026-08-24","daynight":"N"}},{"type":"Feature","geometry":{"type":"Point","coordinates":[-122.39791,40.65917]},"properties":{"frp":11.7,"date":"2026-08-24","daynight":"N"}},{"type":"Feature","geometry":{"type":"Point","coordinates":[-122.37543,40.67947]},"properties":{"frp":10.0,"date":"2026-08-24","daynight":"N"}},{"type":"Feature","geometry":{"type":"Point","coordinates":[-122.37637,40.68064]},"properties":{"frp":10.0,"date":"2026-08-24","daynight":"N"}},{"type":"Feature","geometry":{"type":"Point","coordinates":[-122.37654,40.68127]},"properties":{"frp":10.0,"date":"2026-08-24","daynight":"N"}},{"type":"Feature","geometry":{"type":"Point","coordinates":[-122.37487,40.68077]},"properties":{"frp":10.0,"date":"2026-08-24","daynight":"N"}},{"type":"Feature","geometry":{"type":"Point","coordinates":[-122.37692,40.68522]},"properties":{"frp":10.0,"date":"2026-08-24","daynight":"N"}},{"type":"Feature","geometry":{"type":"Point","coordinates":[-122.37346,40.6821]},"properties":{"frp":10.0,"date":"2026-08-24","daynight":"N"}},{"type":"Feature","geometry":{"type":"Point","coordinates":[-122.37719,40.69021]},"properties":{"frp":10.0,"date":"2026-08-24","daynight":"N"}},{"type":"Feature","geometry":{"type":"Point","coordinates":[-122.37027,40.68791]},"properties":{"frp":10.0,"date":"2026-08-24","daynight":"N"}},{"type":"Feature","geometry":{"type":"Point","coordinates":[-122.37684,40.69084]},"properties":{"frp":10.0,"date":"2026-08-24","daynight":"N"}},{"type":"Feature","geometry":{"type":"Point","coordinates":[-122.37112,40.68449]},"properties":{"frp":10.0,"date":"2026-08-24","daynight":"N"}},{"type":"Feature","geometry":{"type":"Point","coordinates":[-122.38251,40.6931]},"properties":{"frp":10.0,"date":"2026-08-24","daynight":"N"}},{"type":"Feature","geometry":{"type":"Point","coordinates":[-122.36442,40.68917]},"properties":{"frp":10.0,"date":"2026-08-24","daynight":"N"}},{"type":"Feature","geometry":{"type":"Point","coordinates":[-122.39012,40.69602]},"properties":{"frp":10.0,"date":"2026-08-24","daynight":"N"}},{"type":"Feature","geometry":{"type":"Point","coordinates":[-122.36363,40.68555]},"properties":{"frp":10.0,"date":"2026-08-24","daynight":"N"}},{"type":"Feature","geometry":{"type":"Point","coordinates":[-122.38422,40.69874]},"properties":{"frp":10.0,"date":"2026-08-24","daynight":"N"}},{"type":"Feature","geometry":{"type":"Point","coordinates":[-122.35464,40.69003]},"properties":{"frp":10.0,"date":"2026-08-24","daynight":"N"}},{"type":"Feature","geometry":{"type":"Point","coordinates":[-122.38756,40.69563]},"properties":{"frp":10.0,"date":"2026-08-24","daynight":"N"}},{"type":"Feature","geometry":{"type":"Point","coordinates":[-122.35879,40.68711]},"properties":{"frp":10.0,"date":"2026-08-24","daynight":"N"}},{"type":"Feature","geometry":{"type":"Point","coordinates":[-122.3915,40.70076]},"properties":{"frp":10.0,"date":"2026-08-24","daynight":"N"}},{"type":"Feature","geometry":{"type":"Point","coordinates":[-122.35445,40.68929]},"properties":{"frp":10.0,"date":"2026-08-24","daynight":"N"}},{"type":"Feature","geometry":{"type":"Point","coordinates":[-122.38779,40.70498]},"properties":{"frp":10.0,"date":"2026-08-24","daynight":"N"}},{"type":"Feature","geometry":{"type":"Point","coordinates":[-122.35757,40.69065]},"properties":{"frp":10.0,"date":"2026-08-24","daynight":"N"}},{"type":"Feature","geometry":{"type":"Point","coordinates":[-122.38976,40.70697]},"properties":{"frp":10.0,"date":"2026-08-24","daynight":"N"}},{"type":"Feature","geometry":{"type":"Point","coordinates":[-122.35195,40.69397]},"properties":{"frp":10.0,"date":"2026-08-24","daynight":"N"}},{"type":"Feature","geometry":{"type":"Point","coordinates":[-122.39853,40.70922]},"properties":{"frp":10.0,"date":"2026-08-24","daynight":"N"}},{"type":"Feature","geometry":{"type":"Point","coordinates":[-122.34643,40.69595]},"properties":{"frp":10.0,"date":"2026-08-24","daynight":"N"}},{"type":"Feature","geometry":{"type":"Point","coordinates":[-122.38972,40.70998]},"properties":{"frp":10.0,"date":"2026-08-24","daynight":"N"}},{"type":"Feature","geometry":{"type":"Point","coordinates":[-122.34697,40.70098]},"properties":{"frp":10.0,"date":"2026-08-24","daynight":"N"}},{"type":"Feature","geometry":{"type":"Point","coordinates":[-122.3937,40.71841]},"properties":{"frp":10.0,"date":"2026-08-24","daynight":"N"}},{"type":"Feature","geometry":{"type":"Point","coordinates":[-122.3472,40.70262]},"properties":{"frp":10.0,"date":"2026-08-24","daynight":"N"}},{"type":"Feature","geometry":{"type":"Point","coordinates":[-122.39668,40.71335]},"properties":{"frp":10.0,"date":"2026-08-24","daynight":"N"}},{"type":"Feature","geometry":{"type":"Point","coordinates":[-122.34568,40.7025]},"properties":{"frp":10.0,"date":"2026-08-24","daynight":"N"}},{"type":"Feature","geometry":{"type":"Point","coordinates":[-122.3969,40.72035]},"properties":{"frp":10.0,"date":"2026-08-24","daynight":"N"}},{"type":"Feature","geometry":{"type":"Point","coordinates":[-122.34093,40.70087]},"properties":{"frp":10.0,"date":"2026-08-24","daynight":"N"}},{"type":"Feature","geometry":{"type":"Point","coordinates":[-122.39744,40.71892]},"properties":{"frp":10.0,"date":"2026-08-24","daynight":"N"}},{"type":"Feature","geometry":{"type":"Point","coordinates":[-122.33734,40.70569]},"properties":{"frp":10.0,"date":"2026-08-24","daynight":"N"}},{"type":"Feature","geometry":{"type":"Point","coordinates":[-122.39987,40.72093]},"properties":{"frp":10.0,"date":"2026-08-24","daynight":"N"}},{"type":"Feature","geometry":{"type":"Point","coordinates":[-122.3365,40.7095]},"properties":{"frp":10.0,"date":"2026-08-24","daynight":"N"}},{"type":"Feature","geometry":{"type":"Point","coordinates":[-122.40171,40.72678]},"properties":{"frp":10.0,"date":"2026-08-24","daynight":"N"}},{"type":"Feature","geometry":{"type":"Point","coordinates":[-122.3346,40.70802]},"properties":{"frp":10.0,"date":"2026-08-24","daynight":"N"}},{"type":"Feature","geometry":{"type":"Point","coordinates":[-122.4026,40.72791]},"properties":{"frp":10.0,"date":"2026-08-24","daynight":"N"}},{"type":"Feature","geometry":{"type":"Point","coordinates":[-122.32809,40.7105]},"properties":{"frp":10.0,"date":"2026-08-24","daynight":"N"}},{"type":"Feature","geometry":{"type":"Point","coordinates":[-122.40308,40.72778]},"properties":{"frp":10.0,"date":"2026-08-24","daynight":"N"}},{"type":"Feature","geometry":{"type":"Point","coordinates":[-122.33496,40.70965]},"properties":{"frp":10.0,"date":"2026-08-24","daynight":"N"}},{"type":"Feature","geometry":{"type":"Point","coordinates":[-120.87711,39.31134]},"properties":{"frp":16.9,"date":"2026-08-24","daynight":"N"}},{"type":"Feature","geometry":{"type":"Point","coordinates":[-120.85531,39.30094]},"properties":{"frp":26.9,"date":"2026-08-24","daynight":"N"}},{"type":"Feature","geometry":{"type":"Point","coordinates":[-120.84089,39.31179]},"properties":{"frp":3.8,"date":"2026-08-24","daynight":"N"}},{"type":"Feature","geometry":{"type":"Point","coordinates":[-120.83608,39.33934]},"properties":{"frp":22.0,"date":"2026-08-24","daynight":"N"}},{"type":"Feature","geometry":{"type":"Point","coordinates":[-120.82252,39.33028]},"properties":{"frp":29.5,"date":"2026-08-24","daynight":"N"}},{"type":"Feature","geometry":{"type":"Point","coordinates":[-120.8507,39.32282]},"properties":{"frp":33.1,"date":"2026-08-24","daynight":"N"}},{"type":"Feature","geometry":{"type":"Point","coordinates":[-120.82961,39.33117]},"properties":{"frp":2.8,"date":"2026-08-24","daynight":"N"}},{"type":"Feature","geometry":{"type":"Point","coordinates":[-120.87764,39.32432]},"properties":{"frp":8.2,"date":"2026-08-24","daynight":"N"}},{"type":"Feature","geometry":{"type":"Point","coordinates":[-120.85522,39.29601]},"properties":{"frp":13.1,"date":"2026-08-24","daynight":"N"}},{"type":"Feature","geometry":{"type":"Point","coordinates":[-120.85041,39.32681]},"properties":{"frp":61.0,"date":"2026-08-24","daynight":"N"}},{"type":"Feature","geometry":{"type":"Point","coordinates":[-120.82501,39.3336]},"properties":{"frp":20.1,"date":"2026-08-24","daynight":"N"}},{"type":"Feature","geometry":{"type":"Point","coordinates":[-120.82709,39.33478]},"properties":{"frp":15.6,"date":"2026-08-24","daynight":"N"}},{"type":"Feature","geometry":{"type":"Point","coordinates":[-120.84083,39.2923]},"properties":{"frp":13.3,"date":"2026-08-24","daynight":"N"}},{"type":"Feature","geometry":{"type":"Point","coordinates":[-120.88133,39.30046]},"properties":{"frp":9.6,"date":"2026-08-24","daynight":"N"}},{"type":"Feature","geometry":{"type":"Point","coordinates":[-120.82483,39.30654]},"properties":{"frp":0.9,"date":"2026-08-24","daynight":"N"}},{"type":"Feature","geometry":{"type":"Point","coordinates":[-120.81166,39.32075]},"properties":{"frp":21.0,"date":"2026-08-24","daynight":"N"}},{"type":"Feature","geometry":{"type":"Point","coordinates":[-120.80349,39.31537]},"properties":{"frp":22.0,"date":"2026-08-24","daynight":"N"}},{"type":"Feature","geometry":{"type":"Point","coordinates":[-120.84957,39.31537]},"properties":{"frp":21.7,"date":"2026-08-24","daynight":"N"}},{"type":"Feature","geometry":{"type":"Point","coordinates":[-120.8289,39.28769]},"properties":{"frp":21.7,"date":"2026-08-24","daynight":"N"}},{"type":"Feature","geometry":{"type":"Point","coordinates":[-120.86229,39.30246]},"properties":{"frp":7.5,"date":"2026-08-24","daynight":"N"}},{"type":"Feature","geometry":{"type":"Point","coordinates":[-120.82799,39.33634]},"properties":{"frp":3.5,"date":"2026-08-24","daynight":"N"}},{"type":"Feature","geometry":{"type":"Point","coordinates":[-120.85688,39.33351]},"properties":{"frp":8.6,"date":"2026-08-24","daynight":"N"}},{"type":"Feature","geometry":{"type":"Point","coordinates":[-120.85114,39.31103]},"properties":{"frp":38.0,"date":"2026-08-24","daynight":"N"}},{"type":"Feature","geometry":{"type":"Point","coordinates":[-120.82048,39.32687]},"properties":{"frp":16.3,"date":"2026-08-24","daynight":"N"}},{"type":"Feature","geometry":{"type":"Point","coordinates":[-120.81248,39.31899]},"properties":{"frp":19.6,"date":"2026-08-24","daynight":"N"}},{"type":"Feature","geometry":{"type":"Point","coordinates":[-120.85446,39.32905]},"properties":{"frp":23.7,"date":"2026-08-24","daynight":"N"}},{"type":"Feature","geometry":{"type":"Point","coordinates":[-120.81759,39.32775]},"properties":{"frp":14.4,"date":"2026-08-24","daynight":"N"}},{"type":"Feature","geometry":{"type":"Point","coordinates":[-120.82745,39.34997]},"properties":{"frp":9.1,"date":"2026-08-24","daynight":"N"}},{"type":"Feature","geometry":{"type":"Point","coordinates":[-120.85412,39.31249]},"properties":{"frp":5.1,"date":"2026-08-24","daynight":"N"}},{"type":"Feature","geometry":{"type":"Point","coordinates":[-120.81819,39.32295]},"properties":{"frp":33.8,"date":"2026-08-24","daynight":"N"}},{"type":"Feature","geometry":{"type":"Point","coordinates":[-120.84136,39.32024]},"properties":{"frp":9.8,"date":"2026-08-24","daynight":"N"}},{"type":"Feature","geometry":{"type":"Point","coordinates":[-120.85623,39.31298]},"properties":{"frp":17.0,"date":"2026-08-24","daynight":"N"}},{"type":"Feature","geometry":{"type":"Point","coordinates":[-120.84743,39.30892]},"properties":{"frp":11.7,"date":"2026-08-24","daynight":"N"}},{"type":"Feature","geometry":{"type":"Point","coordinates":[-120.85455,39.34464]},"properties":{"frp":11.9,"date":"2026-08-24","daynight":"N"}},{"type":"Feature","geometry":{"type":"Point","coordinates":[-120.86644,39.313]},"properties":{"frp":19.6,"date":"2026-08-24","daynight":"N"}},{"type":"Feature","geometry":{"type":"Point","coordinates":[-120.82403,39.32562]},"properties":{"frp":29.1,"date":"2026-08-24","daynight":"N"}},{"type":"Feature","geometry":{"type":"Point","coordinates":[-120.84614,39.34287]},"properties":{"frp":6.8,"date":"2026-08-24","daynight":"N"}},{"type":"Feature","geometry":{"type":"Point","coordinates":[-120.85292,39.32291]},"properties":{"frp":19.5,"date":"2026-08-24","daynight":"N"}},{"type":"Feature","geometry":{"type":"Point","coordinates":[-120.84403,39.32203]},"properties":{"frp":65.6,"date":"2026-08-24","daynight":"N"}},{"type":"Feature","geometry":{"type":"Point","coordinates":[-120.84738,39.31311]},"properties":{"frp":24.0,"date":"2026-08-24","daynight":"N"}},{"type":"Feature","geometry":{"type":"Point","coordinates":[-120.85559,39.32059]},"properties":{"frp":31.7,"date":"2026-08-24","daynight":"N"}},{"type":"Feature","geometry":{"type":"Point","coordinates":[-120.81756,39.30739]},"properties":{"frp":21.6,"date":"2026-08-24","daynight":"N"}},{"type":"Feature","geometry":{"type":"Point","coordinates":[-120.86819,39.28807]},"properties":{"frp":36.5,"date":"2026-08-24","daynight":"N"}},{"type":"Feature","geometry":{"type":"Point","coordinates":[-123.28754,41.04535]},"properties":{"frp":7.1,"date":"2026-08-24","daynight":"N"}},{"type":"Feature","geometry":{"type":"Point","coordinates":[-123.30055,41.05255]},"properties":{"frp":5.8,"date":"2026-08-24","daynight":"N"}},{"type":"Feature","geometry":{"type":"Point","coordinates":[-123.2817,41.04782]},"properties":{"frp":3.9,"date":"2026-08-24","daynight":"N"}},{"type":"Feature","geometry":{"type":"Point","coordinates":[-123.30798,41.06083]},"properties":{"frp":7.7,"date":"2026-08-24","daynight":"N"}},{"type":"Feature","geometry":{"type":"Point","coordinates":[-123.30378,41.04773]},"properties":{"frp":15.0,"date":"2026-08-24","daynight":"N"}},{"type":"Feature","geometry":{"type":"Point","coordinates":[-123.30782,41.05121]},"properties":{"frp":22.5,"date":"2026-08-24","daynight":"N"}},{"type":"Feature","geometry":{"type":"Point","coordinates":[-123.28995,41.05364]},"properties":{"frp":2.1,"date":"2026-08-24","daynight":"N"}},{"type":"Feature","geometry":{"type":"Point","coordinates":[-123.31136,41.0391]},"properties":{"frp":5.2,"date":"2026-08-24","daynight":"N"}},{"type":"Feature","geometry":{"type":"Point","coordinates":[-123.30563,41.04599]},"properties":{"frp":3.9,"date":"2026-08-24","daynight":"N"}},{"type":"Feature","geometry":{"type":"Point","coordinates":[-123.29369,41.06659]},"properties":{"frp":8.4,"date":"2026-08-24","daynight":"N"}},{"type":"Feature","geometry":{"type":"Point","coordinates":[-123.30419,41.05784]},"properties":{"frp":19.0,"date":"2026-08-24","daynight":"N"}},{"type":"Feature","geometry":{"type":"Point","coordinates":[-123.31405,41.04762]},"properties":{"frp":4.4,"date":"2026-08-24","daynight":"N"}},{"type":"Feature","geometry":{"type":"Point","coordinates":[-123.29792,41.05649]},"properties":{"frp":12.8,"date":"2026-08-24","daynight":"N"}},{"type":"Feature","geometry":{"type":"Point","coordinates":[-123.30375,41.06067]},"properties":{"frp":14.1,"date":"2026-08-24","daynight":"N"}},{"type":"Feature","geometry":{"type":"Point","coordinates":[-123.30059,41.04882]},"properties":{"frp":7.6,"date":"2026-08-24","daynight":"N"}},{"type":"Feature","geometry":{"type":"Point","coordinates":[-123.3142,41.0574]},"properties":{"frp":7.3,"date":"2026-08-24","daynight":"N"}},{"type":"Feature","geometry":{"type":"Point","coordinates":[-123.30217,41.05611]},"properties":{"frp":7.6,"date":"2026-08-24","daynight":"N"}},{"type":"Feature","geometry":{"type":"Point","coordinates":[-123.3193,41.04121]},"properties":{"frp":6.6,"date":"2026-08-24","daynight":"N"}},{"type":"Feature","geometry":{"type":"Point","coordinates":[-123.28998,41.04887]},"properties":{"frp":2.9,"date":"2026-08-24","daynight":"N"}},{"type":"Feature","geometry":{"type":"Point","coordinates":[-123.29905,41.0639]},"properties":{"frp":5.0,"date":"2026-08-24","daynight":"N"}},{"type":"Feature","geometry":{"type":"Point","coordinates":[-123.30236,41.06628]},"properties":{"frp":3.6,"date":"2026-08-24","daynight":"N"}},{"type":"Feature","geometry":{"type":"Point","coordinates":[-123.30575,41.05791]},"properties":{"frp":6.1,"date":"2026-08-24","daynight":"N"}},{"type":"Feature","geometry":{"type":"Point","coordinates":[-123.30762,41.04573]},"properties":{"frp":8.8,"date":"2026-08-24","daynight":"N"}},{"type":"Feature","geometry":{"type":"Point","coordinates":[-123.29132,41.0329]},"properties":{"frp":2.7,"date":"2026-08-24","daynight":"N"}},{"type":"Feature","geometry":{"type":"Point","coordinates":[-123.30865,41.04467]},"properties":{"frp":5.8,"date":"2026-08-24","daynight":"N"}},{"type":"Feature","geometry":{"type":"Point","coordinates":[-123.3037,41.04021]},"properties":{"frp":10.3,"date":"2026-08-24","daynight":"N"}},{"type":"Feature","geometry":{"type":"Point","coordinates":[-123.28462,41.06464]},"properties":{"frp":9.9,"date":"2026-08-24","daynight":"N"}},{"type":"Feature","geometry":{"type":"Point","coordinates":[-123.30494,41.03621]},"properties":{"frp":6.8,"date":"2026-08-24","daynight":"N"}},{"type":"Feature","geometry":{"type":"Point","coordinates":[-123.2938,41.04141]},"properties":{"frp":14.7,"date":"2026-08-24","daynight":"N"}},{"type":"Feature","geometry":{"type":"Point","coordinates":[-123.30728,41.05238]},"properties":{"frp":11.7,"date":"2026-08-24","daynight":"N"}},{"type":"Feature","geometry":{"type":"Point","coordinates":[-123.30596,41.0506]},"properties":{"frp":17.2,"date":"2026-08-24","daynight":"N"}},{"type":"Feature","geometry":{"type":"Point","coordinates":[-123.29746,41.0634]},"properties":{"frp":4.8,"date":"2026-08-24","daynight":"N"}},{"type":"Feature","geometry":{"type":"Point","coordinates":[-123.32414,41.05556]},"properties":{"frp":2.6,"date":"2026-08-24","daynight":"N"}},{"type":"Feature","geometry":{"type":"Point","coordinates":[-123.30265,41.05814]},"properties":{"frp":4.9,"date":"2026-08-24","daynight":"N"}},{"type":"Feature","geometry":{"type":"Point","coordinates":[-123.30396,41.06304]},"properties":{"frp":3.3,"date":"2026-08-24","daynight":"N"}},{"type":"Feature","geometry":{"type":"Point","coordinates":[-123.30696,41.04802]},"properties":{"frp":5.2,"date":"2026-08-24","daynight":"N"}},{"type":"Feature","geometry":{"type":"Point","coordinates":[-123.28059,41.05822]},"properties":{"frp":9.5,"date":"2026-08-24","daynight":"N"}},{"type":"Feature","geometry":{"type":"Point","coordinates":[-123.30087,41.03538]},"properties":{"frp":12.6,"date":"2026-08-24","daynight":"N"}},{"type":"Feature","geometry":{"type":"Point","coordinates":[-123.31001,41.0605]},"properties":{"frp":19.9,"date":"2026-08-24","daynight":"N"}},{"type":"Feature","geometry":{"type":"Point","coordinates":[-123.28786,41.0547]},"properties":{"frp":7.1,"date":"2026-08-24","daynight":"N"}},{"type":"Feature","geometry":{"type":"Point","coordinates":[-123.29343,41.05065]},"properties":{"frp":25.0,"date":"2026-08-24","daynight":"N"}},{"type":"Feature","geometry":{"type":"Point","coordinates":[-123.28183,41.06462]},"properties":{"frp":3.0,"date":"2026-08-24","daynight":"N"}},{"type":"Feature","geometry":{"type":"Point","coordinates":[-123.30242,41.04949]},"properties":{"frp":7.6,"date":"2026-08-24","daynight":"N"}},{"type":"Feature","geometry":{"type":"Point","coordinates":[-123.28989,41.04236]},"properties":{"frp":5.2,"date":"2026-08-24","daynight":"N"}},{"type":"Feature","geometry":{"type":"Point","coordinates":[-123.3001,41.03861]},"properties":{"frp":23.1,"date":"2026-08-24","daynight":"N"}},{"type":"Feature","geometry":{"type":"Point","coordinates":[-123.30217,41.05085]},"properties":{"frp":1.5,"date":"2026-08-24","daynight":"N"}},{"type":"Feature","geometry":{"type":"Point","coordinates":[-123.27671,41.05232]},"properties":{"frp":24.7,"date":"2026-08-24","daynight":"N"}},{"type":"Feature","geometry":{"type":"Point","coordinates":[-123.30161,41.04899]},"properties":{"frp":7.2,"date":"2026-08-24","daynight":"N"}},{"type":"Feature","geometry":{"type":"Point","coordinates":[-123.29601,41.05843]},"properties":{"frp":17.3,"date":"2026-08-24","daynight":"N"}},{"type":"Feature","geometry":{"type":"Point","coordinates":[-123.29663,41.06195]},"properties":{"frp":6.4,"date":"2026-08-24","daynight":"N"}},{"type":"Feature","geometry":{"type":"Point","coordinates":[-123.3128,41.04794]},"properties":{"frp":14.0,"date":"2026-08-24","daynight":"N"}},{"type":"Feature","geometry":{"type":"Point","coordinates":[-123.31324,41.03656]},"properties":{"frp":11.6,"date":"2026-08-24","daynight":"N"}},{"type":"Feature","geometry":{"type":"Point","coordinates":[-123.30931,41.05315]},"properties":{"frp":7.7,"date":"2026-08-24","daynight":"N"}},{"type":"Feature","geometry":{"type":"Point","coordinates":[-123.29775,41.06042]},"properties":{"frp":5.2,"date":"2026-08-24","daynight":"N"}},{"type":"Feature","geometry":{"type":"Point","coordinates":[-123.305,41.04797]},"properties":{"frp":5.8,"date":"2026-08-24","daynight":"N"}},{"type":"Feature","geometry":{"type":"Point","coordinates":[-123.30468,41.05516]},"properties":{"frp":8.3,"date":"2026-08-24","daynight":"N"}},{"type":"Feature","geometry":{"type":"Point","coordinates":[-123.28814,41.04182]},"properties":{"frp":17.8,"date":"2026-08-24","daynight":"N"}},{"type":"Feature","geometry":{"type":"Point","coordinates":[-123.29995,41.05294]},"properties":{"frp":8.0,"date":"2026-08-24","daynight":"N"}},{"type":"Feature","geometry":{"type":"Point","coordinates":[-123.29793,41.05532]},"properties":{"frp":34.9,"date":"2026-08-24","daynight":"N"}},{"type":"Feature","geometry":{"type":"Point","coordinates":[-123.30478,41.05318]},"properties":{"frp":8.5,"date":"2026-08-24","daynight":"N"}},{"type":"Feature","geometry":{"type":"Point","coordinates":[-123.30281,41.06718]},"properties":{"frp":7.2,"date":"2026-08-24","daynight":"N"}},{"type":"Feature","geometry":{"type":"Point","coordinates":[-123.29957,41.06291]},"properties":{"frp":6.3,"date":"2026-08-24","daynight":"N"}},{"type":"Feature","geometry":{"type":"Point","coordinates":[-123.29191,41.0567]},"properties":{"frp":12.0,"date":"2026-08-24","daynight":"N"}},{"type":"Feature","geometry":{"type":"Point","coordinates":[-123.30498,41.05952]},"properties":{"frp":3.9,"date":"2026-08-24","daynight":"N"}},{"type":"Feature","geometry":{"type":"Point","coordinates":[-123.28267,41.05893]},"properties":{"frp":2.8,"date":"2026-08-24","daynight":"N"}},{"type":"Feature","geometry":{"type":"Point","coordinates":[-123.29771,41.04785]},"properties":{"frp":7.3,"date":"2026-08-24","daynight":"N"}},{"type":"Feature","geometry":{"type":"Point","coordinates":[-120.63175,47.6444]},"properties":{"frp":29.5,"date":"2026-08-24","daynight":"N"}},{"type":"Feature","geometry":{"type":"Point","coordinates":[-120.64101,47.62318]},"properties":{"frp":25.5,"date":"2026-08-24","daynight":"N"}},{"type":"Feature","geometry":{"type":"Point","coordinates":[-120.6579,47.60909]},"properties":{"frp":14.5,"date":"2026-08-24","daynight":"N"}},{"type":"Feature","geometry":{"type":"Point","coordinates":[-120.65224,47.60737]},"properties":{"frp":12.9,"date":"2026-08-24","daynight":"N"}},{"type":"Feature","geometry":{"type":"Point","coordinates":[-120.6734,47.60729]},"properties":{"frp":10.6,"date":"2026-08-24","daynight":"N"}},{"type":"Feature","geometry":{"type":"Point","coordinates":[-120.66269,47.62806]},"properties":{"frp":17.0,"date":"2026-08-24","daynight":"N"}},{"type":"Feature","geometry":{"type":"Point","coordinates":[-120.68838,47.58241]},"properties":{"frp":6.2,"date":"2026-08-24","daynight":"N"}},{"type":"Feature","geometry":{"type":"Point","coordinates":[-120.67722,47.59763]},"properties":{"frp":5.1,"date":"2026-08-24","daynight":"N"}},{"type":"Feature","geometry":{"type":"Point","coordinates":[-120.65573,47.62808]},"properties":{"frp":17.8,"date":"2026-08-24","daynight":"N"}},{"type":"Feature","geometry":{"type":"Point","coordinates":[-120.64532,47.64077]},"properties":{"frp":13.6,"date":"2026-08-24","daynight":"N"}},{"type":"Feature","geometry":{"type":"Point","coordinates":[-120.64814,47.6409]},"properties":{"frp":20.8,"date":"2026-08-24","daynight":"N"}},{"type":"Feature","geometry":{"type":"Point","coordinates":[-120.63856,47.62409]},"properties":{"frp":0.5,"date":"2026-08-24","daynight":"N"}},{"type":"Feature","geometry":{"type":"Point","coordinates":[-120.65267,47.63793]},"properties":{"frp":7.1,"date":"2026-08-24","daynight":"N"}},{"type":"Feature","geometry":{"type":"Point","coordinates":[-120.66596,47.61434]},"properties":{"frp":34.7,"date":"2026-08-24","daynight":"N"}},{"type":"Feature","geometry":{"type":"Point","coordinates":[-120.62936,47.64248]},"properties":{"frp":14.9,"date":"2026-08-24","daynight":"N"}},{"type":"Feature","geometry":{"type":"Point","coordinates":[-120.63248,47.59172]},"properties":{"frp":2.7,"date":"2026-08-24","daynight":"N"}},{"type":"Feature","geometry":{"type":"Point","coordinates":[-120.68225,47.59716]},"properties":{"frp":17.8,"date":"2026-08-24","daynight":"N"}},{"type":"Feature","geometry":{"type":"Point","coordinates":[-120.66621,47.61543]},"properties":{"frp":8.2,"date":"2026-08-24","daynight":"N"}},{"type":"Feature","geometry":{"type":"Point","coordinates":[-120.64733,47.58961]},"properties":{"frp":6.6,"date":"2026-08-24","daynight":"N"}},{"type":"Feature","geometry":{"type":"Point","coordinates":[-120.63945,47.63325]},"properties":{"frp":7.7,"date":"2026-08-24","daynight":"N"}},{"type":"Feature","geometry":{"type":"Point","coordinates":[-120.66077,47.61155]},"properties":{"frp":2.8,"date":"2026-08-24","daynight":"N"}},{"type":"Feature","geometry":{"type":"Point","coordinates":[-120.62708,47.61941]},"properties":{"frp":6.7,"date":"2026-08-24","daynight":"N"}},{"type":"Feature","geometry":{"type":"Point","coordinates":[-120.67866,47.56473]},"properties":{"frp":22.3,"date":"2026-08-24","daynight":"N"}},{"type":"Feature","geometry":{"type":"Point","coordinates":[-120.68117,47.62011]},"properties":{"frp":4.1,"date":"2026-08-24","daynight":"N"}},{"type":"Feature","geometry":{"type":"Point","coordinates":[-120.66246,47.61496]},"properties":{"frp":1.3,"date":"2026-08-24","daynight":"N"}},{"type":"Feature","geometry":{"type":"Point","coordinates":[-120.65874,47.60718]},"properties":{"frp":6.1,"date":"2026-08-24","daynight":"N"}},{"type":"Feature","geometry":{"type":"Point","coordinates":[-120.66461,47.63225]},"properties":{"frp":21.3,"date":"2026-08-24","daynight":"N"}},{"type":"Feature","geometry":{"type":"Point","coordinates":[-120.66323,47.61116]},"properties":{"frp":18.9,"date":"2026-08-24","daynight":"N"}},{"type":"Feature","geometry":{"type":"Point","coordinates":[-120.69394,47.61985]},"properties":{"frp":15.4,"date":"2026-08-24","daynight":"N"}},{"type":"Feature","geometry":{"type":"Point","coordinates":[-120.66879,47.629]},"properties":{"frp":6.1,"date":"2026-08-24","daynight":"N"}},{"type":"Feature","geometry":{"type":"Point","coordinates":[-120.64847,47.6446]},"properties":{"frp":5.1,"date":"2026-08-24","daynight":"N"}},{"type":"Feature","geometry":{"type":"Point","coordinates":[-120.67971,47.64282]},"properties":{"frp":7.8,"date":"2026-08-24","daynight":"N"}},{"type":"Feature","geometry":{"type":"Point","coordinates":[-120.68423,47.61276]},"properties":{"frp":16.4,"date":"2026-08-24","daynight":"N"}},{"type":"Feature","geometry":{"type":"Point","coordinates":[-120.63558,47.60625]},"properties":{"frp":9.5,"date":"2026-08-24","daynight":"N"}},{"type":"Feature","geometry":{"type":"Point","coordinates":[-120.68239,47.64901]},"properties":{"frp":30.4,"date":"2026-08-24","daynight":"N"}},{"type":"Feature","geometry":{"type":"Point","coordinates":[-120.66149,47.61106]},"properties":{"frp":7.8,"date":"2026-08-24","daynight":"N"}},{"type":"Feature","geometry":{"type":"Point","coordinates":[-120.69432,47.63142]},"properties":{"frp":32.6,"date":"2026-08-24","daynight":"N"}},{"type":"Feature","geometry":{"type":"Point","coordinates":[-120.65045,47.58874]},"properties":{"frp":14.6,"date":"2026-08-24","daynight":"N"}},{"type":"Feature","geometry":{"type":"Point","coordinates":[-120.66871,47.58199]},"properties":{"frp":3.4,"date":"2026-08-24","daynight":"N"}},{"type":"Feature","geometry":{"type":"Point","coordinates":[-120.65189,47.62316]},"properties":{"frp":3.2,"date":"2026-08-24","daynight":"N"}},{"type":"Feature","geometry":{"type":"Point","coordinates":[-120.66713,47.61724]},"properties":{"frp":3.5,"date":"2026-08-24","daynight":"N"}},{"type":"Feature","geometry":{"type":"Point","coordinates":[-120.65444,47.63647]},"properties":{"frp":1.6,"date":"2026-08-24","daynight":"N"}},{"type":"Feature","geometry":{"type":"Point","coordinates":[-120.65926,47.60738]},"properties":{"frp":16.9,"date":"2026-08-24","daynight":"N"}},{"type":"Feature","geometry":{"type":"Point","coordinates":[-120.62649,47.62747]},"properties":{"frp":10.5,"date":"2026-08-24","daynight":"N"}},{"type":"Feature","geometry":{"type":"Point","coordinates":[-120.63632,47.63533]},"properties":{"frp":2.1,"date":"2026-08-24","daynight":"N"}},{"type":"Feature","geometry":{"type":"Point","coordinates":[-120.67022,47.60809]},"properties":{"frp":9.1,"date":"2026-08-24","daynight":"N"}},{"type":"Feature","geometry":{"type":"Point","coordinates":[-120.6628,47.61541]},"properties":{"frp":21.1,"date":"2026-08-24","daynight":"N"}},{"type":"Feature","geometry":{"type":"Point","coordinates":[-120.63531,47.60034]},"properties":{"frp":13.0,"date":"2026-08-24","daynight":"N"}},{"type":"Feature","geometry":{"type":"Point","coordinates":[-120.66596,47.63723]},"properties":{"frp":12.0,"date":"2026-08-24","daynight":"N"}},{"type":"Feature","geometry":{"type":"Point","coordinates":[-120.65565,47.63251]},"properties":{"frp":11.1,"date":"2026-08-24","daynight":"N"}},{"type":"Feature","geometry":{"type":"Point","coordinates":[-120.68621,47.63404]},"properties":{"frp":41.4,"date":"2026-08-24","daynight":"N"}},{"type":"Feature","geometry":{"type":"Point","coordinates":[-120.66113,47.61716]},"properties":{"frp":1.2,"date":"2026-08-24","daynight":"N"}},{"type":"Feature","geometry":{"type":"Point","coordinates":[-120.67225,47.63216]},"properties":{"frp":8.3,"date":"2026-08-24","daynight":"N"}},{"type":"Feature","geometry":{"type":"Point","coordinates":[-120.68109,47.57125]},"properties":{"frp":13.4,"date":"2026-08-24","daynight":"N"}},{"type":"Feature","geometry":{"type":"Point","coordinates":[-120.65875,47.61881]},"properties":{"frp":25.0,"date":"2026-08-24","daynight":"N"}},{"type":"Feature","geometry":{"type":"Point","coordinates":[-121.4209,43.78914]},"properties":{"frp":5.7,"date":"2026-08-24","daynight":"N"}},{"type":"Feature","geometry":{"type":"Point","coordinates":[-121.41052,43.77308]},"properties":{"frp":1.8,"date":"2026-08-24","daynight":"N"}},{"type":"Feature","geometry":{"type":"Point","coordinates":[-121.39169,43.79645]},"properties":{"frp":5.7,"date":"2026-08-24","daynight":"N"}},{"type":"Feature","geometry":{"type":"Point","coordinates":[-121.43939,43.77774]},"properties":{"frp":4.2,"date":"2026-08-24","daynight":"N"}},{"type":"Feature","geometry":{"type":"Point","coordinates":[-121.41983,43.77171]},"properties":{"frp":22.7,"date":"2026-08-24","daynight":"N"}},{"type":"Feature","geometry":{"type":"Point","coordinates":[-121.39527,43.76289]},"properties":{"frp":20.0,"date":"2026-08-24","daynight":"N"}},{"type":"Feature","geometry":{"type":"Point","coordinates":[-121.41283,43.81159]},"properties":{"frp":5.7,"date":"2026-08-24","daynight":"N"}},{"type":"Feature","geometry":{"type":"Point","coordinates":[-121.43942,43.77784]},"properties":{"frp":3.6,"date":"2026-08-24","daynight":"N"}},{"type":"Feature","geometry":{"type":"Point","coordinates":[-121.41886,43.8012]},"properties":{"frp":5.6,"date":"2026-08-24","daynight":"N"}},{"type":"Feature","geometry":{"type":"Point","coordinates":[-121.41278,43.77366]},"properties":{"frp":17.3,"date":"2026-08-24","daynight":"N"}},{"type":"Feature","geometry":{"type":"Point","coordinates":[-121.4178,43.76921]},"properties":{"frp":7.8,"date":"2026-08-24","daynight":"N"}},{"type":"Feature","geometry":{"type":"Point","coordinates":[-121.40369,43.75636]},"properties":{"frp":10.0,"date":"2026-08-24","daynight":"N"}},{"type":"Feature","geometry":{"type":"Point","coordinates":[-121.40262,43.77643]},"properties":{"frp":18.9,"date":"2026-08-24","daynight":"N"}},{"type":"Feature","geometry":{"type":"Point","coordinates":[-121.42204,43.77498]},"properties":{"frp":2.5,"date":"2026-08-24","daynight":"N"}},{"type":"Feature","geometry":{"type":"Point","coordinates":[-121.4086,43.75982]},"properties":{"frp":3.8,"date":"2026-08-24","daynight":"N"}},{"type":"Feature","geometry":{"type":"Point","coordinates":[-121.4273,43.76486]},"properties":{"frp":5.3,"date":"2026-08-24","daynight":"N"}},{"type":"Feature","geometry":{"type":"Point","coordinates":[-121.41818,43.77802]},"properties":{"frp":5.2,"date":"2026-08-24","daynight":"N"}},{"type":"Feature","geometry":{"type":"Point","coordinates":[-121.42346,43.75241]},"properties":{"frp":1.6,"date":"2026-08-24","daynight":"N"}},{"type":"Feature","geometry":{"type":"Point","coordinates":[-121.42568,43.78993]},"properties":{"frp":3.5,"date":"2026-08-24","daynight":"N"}},{"type":"Feature","geometry":{"type":"Point","coordinates":[-121.41756,43.77463]},"properties":{"frp":5.1,"date":"2026-08-24","daynight":"N"}},{"type":"Feature","geometry":{"type":"Point","coordinates":[-121.43546,43.77611]},"properties":{"frp":4.8,"date":"2026-08-24","daynight":"N"}},{"type":"Feature","geometry":{"type":"Point","coordinates":[-121.40509,43.77745]},"properties":{"frp":17.6,"date":"2026-08-24","daynight":"N"}},{"type":"Feature","geometry":{"type":"Point","coordinates":[-121.42562,43.76223]},"properties":{"frp":7.3,"date":"2026-08-24","daynight":"N"}},{"type":"Feature","geometry":{"type":"Point","coordinates":[-121.40588,43.75728]},"properties":{"frp":1.5,"date":"2026-08-24","daynight":"N"}},{"type":"Feature","geometry":{"type":"Point","coordinates":[-121.43275,43.77661]},"properties":{"frp":7.7,"date":"2026-08-24","daynight":"N"}},{"type":"Feature","geometry":{"type":"Point","coordinates":[-121.43805,43.77938]},"properties":{"frp":19.7,"date":"2026-08-24","daynight":"N"}},{"type":"Feature","geometry":{"type":"Point","coordinates":[-121.4419,43.7625]},"properties":{"frp":2.2,"date":"2026-08-24","daynight":"N"}},{"type":"Feature","geometry":{"type":"Point","coordinates":[-121.39964,43.762]},"properties":{"frp":2.0,"date":"2026-08-24","daynight":"N"}},{"type":"Feature","geometry":{"type":"Point","coordinates":[-121.41301,43.767]},"properties":{"frp":23.5,"date":"2026-08-24","daynight":"N"}},{"type":"Feature","geometry":{"type":"Point","coordinates":[-121.40861,43.76546]},"properties":{"frp":11.2,"date":"2026-08-24","daynight":"N"}},{"type":"Feature","geometry":{"type":"Point","coordinates":[-121.41941,43.76261]},"properties":{"frp":20.5,"date":"2026-08-24","daynight":"N"}},{"type":"Feature","geometry":{"type":"Point","coordinates":[-121.38508,43.77879]},"properties":{"frp":1.0,"date":"2026-08-24","daynight":"N"}},{"type":"Feature","geometry":{"type":"Point","coordinates":[-121.42889,43.78746]},"properties":{"frp":6.8,"date":"2026-08-24","daynight":"N"}},{"type":"Feature","geometry":{"type":"Point","coordinates":[-121.38793,43.78828]},"properties":{"frp":5.4,"date":"2026-08-24","daynight":"N"}},{"type":"Feature","geometry":{"type":"Point","coordinates":[-121.43264,43.75356]},"properties":{"frp":9.0,"date":"2026-08-24","daynight":"N"}},{"type":"Feature","geometry":{"type":"Point","coordinates":[-121.42626,43.77445]},"properties":{"frp":6.9,"date":"2026-08-24","daynight":"N"}},{"type":"Feature","geometry":{"type":"Point","coordinates":[-121.43956,43.77301]},"properties":{"frp":5.1,"date":"2026-08-24","daynight":"N"}},{"type":"Feature","geometry":{"type":"Point","coordinates":[-118.95032,34.55895]},"properties":{"frp":34.4,"date":"2026-08-24","daynight":"N"}},{"type":"Feature","geometry":{"type":"Point","coordinates":[-118.93195,34.55238]},"properties":{"frp":27.7,"date":"2026-08-24","daynight":"N"}},{"type":"Feature","geometry":{"type":"Point","coordinates":[-118.95455,34.55949]},"properties":{"frp":30.2,"date":"2026-08-24","daynight":"N"}},{"type":"Feature","geometry":{"type":"Point","coordinates":[-118.93202,34.53978]},"properties":{"frp":29.5,"date":"2026-08-24","daynight":"N"}},{"type":"Feature","geometry":{"type":"Point","coordinates":[-118.93804,34.55344]},"properties":{"frp":43.2,"date":"2026-08-24","daynight":"N"}},{"type":"Feature","geometry":{"type":"Point","coordinates":[-118.95771,34.57488]},"properties":{"frp":78.2,"date":"2026-08-24","daynight":"N"}},{"type":"Feature","geometry":{"type":"Point","coordinates":[-118.94405,34.55946]},"properties":{"frp":16.7,"date":"2026-08-24","daynight":"N"}},{"type":"Feature","geometry":{"type":"Point","coordinates":[-118.92713,34.56456]},"properties":{"frp":23.0,"date":"2026-08-24","daynight":"N"}},{"type":"Feature","geometry":{"type":"Point","coordinates":[-118.93516,34.54405]},"properties":{"frp":32.1,"date":"2026-08-24","daynight":"N"}},{"type":"Feature","geometry":{"type":"Point","coordinates":[-118.94424,34.57238]},"properties":{"frp":38.6,"date":"2026-08-24","daynight":"N"}},{"type":"Feature","geometry":{"type":"Point","coordinates":[-118.93698,34.55835]},"properties":{"frp":15.5,"date":"2026-08-24","daynight":"N"}},{"type":"Feature","geometry":{"type":"Point","coordinates":[-118.93501,34.56414]},"properties":{"frp":10.5,"date":"2026-08-24","daynight":"N"}},{"type":"Feature","geometry":{"type":"Point","coordinates":[-118.95378,34.56674]},"properties":{"frp":21.5,"date":"2026-08-24","daynight":"N"}},{"type":"Feature","geometry":{"type":"Point","coordinates":[-118.928,34.57188]},"properties":{"frp":42.2,"date":"2026-08-24","daynight":"N"}},{"type":"Feature","geometry":{"type":"Point","coordinates":[-118.95993,34.56223]},"properties":{"frp":12.3,"date":"2026-08-24","daynight":"N"}},{"type":"Feature","geometry":{"type":"Point","coordinates":[-118.93967,34.55862]},"properties":{"frp":25.8,"date":"2026-08-24","daynight":"N"}},{"type":"Feature","geometry":{"type":"Point","coordinates":[-118.94632,34.54626]},"properties":{"frp":17.8,"date":"2026-08-24","daynight":"N"}},{"type":"Feature","geometry":{"type":"Point","coordinates":[-118.93471,34.54309]},"properties":{"frp":18.5,"date":"2026-08-24","daynight":"N"}},{"type":"Feature","geometry":{"type":"Point","coordinates":[-118.96175,34.56199]},"properties":{"frp":27.5,"date":"2026-08-24","daynight":"N"}},{"type":"Feature","geometry":{"type":"Point","coordinates":[-118.94268,34.56422]},"properties":{"frp":21.6,"date":"2026-08-24","daynight":"N"}},{"type":"Feature","geometry":{"type":"Point","coordinates":[-118.9467,34.5662]},"properties":{"frp":37.0,"date":"2026-08-24","daynight":"N"}},{"type":"Feature","geometry":{"type":"Point","coordinates":[-118.95125,34.55038]},"properties":{"frp":51.7,"date":"2026-08-24","daynight":"N"}},{"type":"Feature","geometry":{"type":"Point","coordinates":[-118.94177,34.55354]},"properties":{"frp":55.2,"date":"2026-08-24","daynight":"N"}},{"type":"Feature","geometry":{"type":"Point","coordinates":[-118.94429,34.56178]},"properties":{"frp":19.8,"date":"2026-08-24","daynight":"N"}},{"type":"Feature","geometry":{"type":"Point","coordinates":[-118.94622,34.55492]},"properties":{"frp":35.2,"date":"2026-08-24","daynight":"N"}},{"type":"Feature","geometry":{"type":"Point","coordinates":[-118.95856,34.56505]},"properties":{"frp":13.5,"date":"2026-08-24","daynight":"N"}},{"type":"Feature","geometry":{"type":"Point","coordinates":[-118.95292,34.57011]},"properties":{"frp":55.6,"date":"2026-08-24","daynight":"N"}},{"type":"Feature","geometry":{"type":"Point","coordinates":[-118.94453,34.57091]},"properties":{"frp":34.1,"date":"2026-08-24","daynight":"N"}},{"type":"Feature","geometry":{"type":"Point","coordinates":[-118.92269,34.55472]},"properties":{"frp":35.3,"date":"2026-08-24","daynight":"N"}},{"type":"Feature","geometry":{"type":"Point","coordinates":[-118.93032,34.5668]},"properties":{"frp":35.0,"date":"2026-08-24","daynight":"N"}}]}