{"type":"FeatureCollection","features":[{"type":"Feature","geometry":{"type":"Point","coordinates":[-122.4034,40.62016]},"properties":{"frp":17.2,"date":"2026-08-19","daynight":"N"}},{"type":"Feature","geometry":{"type":"Point","coordinates":[-122.40438,40.65171]},"properties":{"frp":9.8,"date":"2026-08-19","daynight":"N"}},{"type":"Feature","geometry":{"type":"Point","coordinates":[-122.40521,40.63855]},"properties":{"frp":12.5,"date":"2026-08-19","daynight":"N"}},{"type":"Feature","geometry":{"type":"Point","coordinates":[-122.39207,40.6395]},"properties":{"frp":5.5,"date":"2026-08-19","daynight":"N"}},{"type":"Feature","geometry":{"type":"Point","coordinates":[-122.39642,40.6284]},"properties":{"frp":14.8,"date":"2026-08-19","daynight":"N"}},{"type":"Feature","geometry":{"type":"Point","coordinates":[-122.39145,40.62332]},"properties":{"frp":1.0,"date":"2026-08-19","daynight":"N"}},{"type":"Feature","geometry":{"type":"Point","coordinates":[-122.4085,40.62536]},"properties":{"frp":45.2,"date":"2026-08-19","daynight":"N"}},{"type":"Feature","geometry":{"type":"Point","coordinates":[-122.39424,40.61697]},"properties":{"frp":1.9,"date":"2026-08-19","daynight":"N"}},{"type":"Feature","geometry":{"type":"Point","coordinates":[-122.39437,40.64611]},"properties":{"frp":4.3,"date":"2026-08-19","daynight":"N"}},{"type":"Feature","geometry":{"type":"Point","coordinates":[-122.39308,40.62879]},"properties":{"frp":8.6,"date":"2026-08-19","daynight":"N"}},{"type":"Feature","geometry":{"type":"Point","coordinates":[-122.39376,40.64332]},"properties":{"frp":9.6,"date":"2026-08-19","daynight":"N"}},{"type":"Feature","geometry":{"type":"Point","coordinates":[-122.38472,40.62581]},"properties":{"frp":10.5,"date":"2026-08-19","daynight":"N"}},{"type":"Feature","geometry":{"type":"Point","coordinates":[-122.38034,40.63437]},"properties":{"frp":13.9,"date":"2026-08-19","daynight":"N"}},{"type":"Feature","geometry":{"type":"Point","coordinates":[-122.40849,40.63187]},"properties":{"frp":13.1,"date":"2026-08-19","daynight":"N"}},{"type":"Feature","geometry":{"type":"Point","coordinates":[-122.37916,40.61604]},"properties":{"frp":6.3,"date":"2026-08-19","daynight":"N"}},{"type":"Feature","geometry":{"type":"Point","coordinates":[-122.39783,40.64758]},"properties":{"frp":32.4,"date":"2026-08-19","daynight":"N"}},{"type":"Feature","geometry":{"type":"Point","coordinates":[-122.38109,40.62609]},"properties":{"frp":14.2,"date":"2026-08-19","daynight":"N"}},{"type":"Feature","geometry":{"type":"Point","coordinates":[-122.40513,40.61871]},"properties":{"frp":16.6,"date":"2026-08-19","daynight":"N"}},{"type":"Feature","geometry":{"type":"Point","coordinates":[-122.40002,40.63656]},"properties":{"frp":4.2,"date":"2026-08-19","daynight":"N"}},{"type":"Feature","geometry":{"type":"Point","coordinates":[-122.39767,40.62995]},"properties":{"frp":9.2,"date":"2026-08-19","daynight":"N"}},{"type":"Feature","geometry":{"type":"Point","coordinates":[-122.38164,40.63344]},"properties":{"frp":30.7,"date":"2026-08-19","daynight":"N"}},{"type":"Feature","geometry":{"type":"Point","coordinates":[-122.38943,40.63092]},"properties":{"frp":14.6,"date":"2026-08-19","daynight":"N"}},{"type":"Feature","geometry":{"type":"Point","coordinates":[-122.3965,40.60909]},"properties":{"frp":35.3,"date":"2026-08-19","daynight":"N"}},{"type":"Feature","geometry":{"type":"Point","coordinates":[-122.40843,40.6214]},"properties":{"frp":11.1,"date":"2026-08-19","daynight":"N"}},{"type":"Feature","geometry":{"type":"Point","coordinates":[-122.39941,40.62104]},"properties":{"frp":17.8,"date":"2026-08-19","daynight":"N"}},{"type":"Feature","geometry":{"type":"Point","coordinates":[-122.40953,40.63934]},"properties":{"frp":35.6,"date":"2026-08-19","daynight":"N"}},{"type":"Feature","geometry":{"type":"Point","coordinates":[-122.40094,40.63031]},"properties":{"frp":12.3,"date":"2026-08-19","daynight":"N"}},{"type":"Feature","geometry":{"type":"Point","coordinates":[-122.38577,40.62666]},"properties":{"frp":20.3,"date":"2026-08-19","daynight":"N"}},{"type":"Feature","geometry":{"type":"Point","coordinates":[-120.70726,47.62526]},"properties":{"frp":15.3,"date":"2026-08-19","daynight":"N"}},{"type":"Feature","geometry":{"type":"Point","coordinates":[-120.731,47.62512]},"properties":{"frp":18.1,"date":"2026-08-19","daynight":"N"}},{"type":"Feature","geometry":{"type":"Point","coordinates":[-120.7282,47.61953]},"properties":{"frp":11.9,"date":"2026-08-19","daynight":"N"}},{"type":"Feature","geometry":{"type":"Point","coordinates":[-120.70942,47.61637]},"properties":{"frp":8.9,"date":"2026-08-19","daynight":"N"}},{"type":"Feature","geometry":{"type":"Point","coordinates":[-120.72489,47.62446]},"properties":{"frp":3.8,"date":"2026-08-19","daynight":"N"}},{"type":"Feature","geometry":{"type":"Point","coordinates":[-120.71977,47.6129]},"properties":{"frp":4.9,"date":"2026-08-19","daynight":"N"}},{"type":"Feature","geometry":{"type":"Point","coordinates":[-120.7247,47.61148]},"properties":{"frp":24.2,"date":"2026-08-19","daynight":"N"}},{"type":"Feature","geometry":{"type":"Point","coordinates":[-120.71191,47.62218]},"properties":{"frp":41.0,"date":"2026-08-19","daynight":"N"}},{"type":"Feature","geometry":{"type":"Point","coordinates":[-120.73604,47.62426]},"properties":{"frp":6.9,"date":"2026-08-19","daynight":"N"}},{"type":"Feature","geometry":{"type":"Point","coordinates":[-120.7195,47.62213]},"properties":{"frp":3.1,"date":"2026-08-19","daynight":"N"}},{"type":"Feature","geometry":{"type":"Point","coordinates":[-120.70869,47.6229]},"properties":{"frp":14.6,"date":"2026-08-19","daynight":"N"}},{"type":"Feature","geometry":{"type":"Point","coordinates":[-120.72414,47.60556]},"properties":{"frp":10.4,"date":"2026-08-19","daynight":"N"}},{"type":"Feature","geometry":{"type":"Point","coordinates":[-121.4143,43.76404]},"properties":{"frp":5.0,"date":"2026-08-19","daynight":"N"}},{"type":"Feature","geometry":{"type":"Point","coordinates":[-121.41602,43.76472]},"properties":{"frp":8.9,"date":"2026-08-19","daynight":"N"}},{"type":"Feature","geometry":{"type":"Point","coordinates":[-121.42135,43.75771]},"properties":{"frp":1.0,"date":"2026-08-19","daynight":"N"}},{"type":"Feature","geometry":{"type":"Point","coordinates":[-121.41385,43.76448]},"properties":{"frp":2.5,"date":"2026-08-19","daynight":"N"}},{"type":"Feature","geometry":{"type":"Point","coordinates":[-121.41609,43.76005]},"properties":{"frp":8.5,"date":"2026-08-19","daynight":"N"}},{"type":"Feature","geometry":{"type":"Point","coordinates":[-121.42088,43.76101]},"properties":{"frp":1.6,"date":"2026-08-19","daynight":"N"}},{"type":"Feature","geometry":{"type":"Point","coordinates":[-121.43495,43.76922]},"properties":{"frp":8.8,"date":"2026-08-19","daynight":"N"}},{"type":"Feature","geometry":{"type":"Point","coordinates":[-121.43112,43.75328]},"properties":{"frp":24.2,"date":"2026-08-19","daynight":"N"}},{"type":"Feature","geometry":{"type":"Point","coordinates":[-121.42509,43.7455]},"properties":{"frp":3.2,"date":"2026-08-19","daynight":"N"}},{"type":"Feature","geometry":{"type":"Point","coordinates":[-121.42214,43.76862]},"properties":{"frp":3.2,"date":"2026-08-19","daynight":"N"}},{"type":"Feature","geometry":{"type":"Point","coordinates":[-121.41183,43.76448]},"properties":{"frp":4.6,"date":"2026-08-19","daynight":"N"}},{"type":"Feature","geometry":{"type":"Point","coordinates":[-121.42052,43.77296]},"properties":{"frp":2.8,"date":"2026-08-19","daynight":"N"}},{"type":"Feature","geometry":{"type":"Point","coordinates":[-121.41931,43.77315]},"properties":{"frp":7.7,"date":"2026-08-19","daynight":"N"}},{"type":"Feature","geometry":{"type":"Point","coordinates":[-121.42446,43.75672]},"properties":{"frp":2.3,"date":"2026-08-19","daynight":"N"}},{"type":"Feature","geometry":{"type":"Point","coordinates":[-121.42666,43.7519]},"properties":{"frp":17.1,"date":"2026-08-19","daynight":"N"}},{"type":"Feature","geometry":{"type":"Point","coordinates":[-119.05,35.42]},"properties":{"frp":4.0,"date":"2026-08-19","daynight":"N"}},{"type":"Feature","geometry":{"type":"Point","coordinates":[-119.05,35.423]},"properties":{"frp":4.0,"date":"2026-08-19","daynight":"N"}},{"type":"Feature","geometry":{"type":"Point","coordinates":[-119.05,35.417]},"properties":{"frp":4.0,"date":"2026-08-19","daynight":"N"}}]}