{"type":"FeatureCollection","features":[{"type":"Feature","geometry":{"type":"Point","coordinates":[-80.68669,41.12632]},"properties":{"frp":0.95,"date":"2026-09-26","daynight":"N"}},{"type":"Feature","geometry":{"type":"Point","coordinates":[-80.68562,41.12971]},"properties":{"frp":0.75,"date":"2026-09-26","daynight":"N"}},{"type":"Feature","geometry":{"type":"Point","coordinates":[-80.69278,41.13363]},"properties":{"frp":0.65,"date":"2026-09-26","daynight":"N"}},{"type":"Feature","geometry":{"type":"Point","coordinates":[-81.67532,41.45247]},"properties":{"frp":1.66,"date":"2026-09-26","daynight":"N"}},{"type":"Feature","geometry":{"type":"Point","coordinates":[-81.67794,41.4599]},"properties":{"frp":1.53,"date":"2026-09-26","daynight":"N"}},{"type":"Feature","geometry":{"type":"Point","coordinates":[-81.67226,41.46239]},"properties":{"frp":2.83,"date":"2026-09-26","daynight":"N"}},{"type":"Feature","geometry":{"type":"Point","coordinates":[-81.67692,41.46321]},"properties":{"frp":2.83,"date":"2026-09-26","daynight":"N"}},{"type":"Feature","geometry":{"type":"Point","coordinates":[-81.67123,41.4657]},"properties":{"frp":2.83,"date":"2026-09-26","daynight":"N"}},{"type":"Feature","geometry":{"type":"Point","coordinates":[-81.66453,41.4715]},"properties":{"frp":1.55,"date":"2026-09-26","daynight":"N"}},{"type":"Feature","geometry":{"type":"Point","coordinates":[-81.66251,41.47812]},"properties":{"frp":0.75,"date":"2026-09-26","daynight":"N"}},{"type":"Feature","geometry":{"type":"Point","coordinates":[-83.12788,42.27667]},"properties":{"frp":0.61,"date":"2026-09-26","daynight":"N"}},{"type":"Feature","geometry":{"type":"Point","coordinates":[-83.12693,42.27994]},"properties":{"frp":1.36,"date":"2026-09-26","daynight":"N"}},{"type":"Feature","geometry":{"type":"Point","coordinates":[-83.1122,42.28102]},"properties":{"frp":0.8,"date":"2026-09-26","daynight":"N"}},{"type":"Feature","geometry":{"type":"Point","coordinates":[-83.11126,42.28429]},"properties":{"frp":1.52,"date":"2026-09-26","daynight":"N"}},{"type":"Feature","geometry":{"type":"Point","coordinates":[-80.10419,42.80448]},"properties":{"frp":2.59,"date":"2026-09-26","daynight":"N"}},{"type":"Feature","geometry":{"type":"Point","coordinates":[-80.09805,42.80693]},"properties":{"frp":2.59,"date":"2026-09-26","daynight":"N"}},{"type":"Feature","geometry":{"type":"Point","coordinates":[-80.09463,42.81705]},"properties":{"frp":1.28,"date":"2026-09-26","daynight":"N"}},{"type":"Feature","geometry":{"type":"Point","coordinates":[-79.81054,43.26362]},"properties":{"frp":0.96,"date":"2026-09-26","daynight":"N"}},{"type":"Feature","geometry":{"type":"Point","coordinates":[-79.80312,43.26944]},"properties":{"frp":0.76,"date":"2026-09-26","daynight":"N"}},{"type":"Feature","geometry":{"type":"Point","coordinates":[-79.8082,43.27038]},"properties":{"frp":0.76,"date":"2026-09-26","daynight":"N"}},{"type":"Feature","geometry":{"type":"Point","coordinates":[-79.80195,43.27282]},"properties":{"frp":0.76,"date":"2026-09-26","daynight":"N"}},{"type":"Feature","geometry":{"type":"Point","coordinates":[-79.79568,43.27526]},"properties":{"frp":2.16,"date":"2026-09-26","daynight":"N"}},{"type":"Feature","geometry":{"type":"Point","coordinates":[-82.83138,38.59623]},"properties":{"frp":1.6,"date":"2026-09-26","daynight":"N"}},{"type":"Feature","geometry":{"type":"Point","coordinates":[-82.83586,38.597]},"properties":{"frp":0.57,"date":"2026-09-26","daynight":"N"}},{"type":"Feature","geometry":{"type":"Point","coordinates":[-82.83046,38.59954]},"properties":{"frp":1.6,"date":"2026-09-26","daynight":"N"}},{"type":"Feature","geometry":{"type":"Point","coordinates":[-84.38455,39.46962]},"properties":{"frp":1.59,"date":"2026-09-26","daynight":"N"}},{"type":"Feature","geometry":{"type":"Point","coordinates":[-84.382,39.47944]},"properties":{"frp":0.67,"date":"2026-09-26","daynight":"N"}},{"type":"Feature","geometry":{"type":"Point","coordinates":[-84.37679,39.48203]},"properties":{"frp":1.97,"date":"2026-09-26","daynight":"N"}},{"type":"Feature","geometry":{"type":"Point","coordinates":[-84.38115,39.48272]},"properties":{"frp":0.67,"date":"2026-09-26","daynight":"N"}},{"type":"Feature","geometry":{"type":"Point","coordinates":[-84.36182,39.48652]},"properties":{"frp":0.83,"date":"2026-09-26","daynight":"N"}},{"type":"Feature","geometry":{"type":"Point","coordinates":[-84.38472,39.48668]},"properties":{"frp":1.49,"date":"2026-09-26","daynight":"N"}},{"type":"Feature","geometry":{"type":"Point","coordinates":[-84.36097,39.4898]},"properties":{"frp":0.37,"date":"2026-09-26","daynight":"N"}},{"type":"Feature","geometry":{"type":"Point","coordinates":[-79.85046,40.39218]},"properties":{"frp":1.51,"date":"2026-09-26","daynight":"N"}},{"type":"Feature","geometry":{"type":"Point","coordinates":[-79.85567,40.39318]},"properties":{"frp":1.51,"date":"2026-09-26","daynight":"N"}},{"type":"Feature","geometry":{"type":"Point","coordinates":[-79.84936,40.39569]},"properties":{"frp":1.51,"date":"2026-09-26","daynight":"N"}},{"type":"Feature","geometry":{"type":"Point","coordinates":[-79.85458,40.3967]},"properties":{"frp":1.51,"date":"2026-09-26","daynight":"N"}},{"type":"Feature","geometry":{"type":"Point","coordinates":[-87.14334,41.62376]},"properties":{"frp":0.82,"date":"2026-09-26","daynight":"N"}},{"type":"Feature","geometry":{"type":"Point","coordinates":[-87.14255,41.6273]},"properties":{"frp":0.82,"date":"2026-09-26","daynight":"N"}},{"type":"Feature","geometry":{"type":"Point","coordinates":[-87.12949,41.63659]},"properties":{"frp":1.56,"date":"2026-09-26","daynight":"N"}},{"type":"Feature","geometry":{"type":"Point","coordinates":[-87.13483,41.63725]},"properties":{"frp":1.41,"date":"2026-09-26","daynight":"N"}},{"type":"Feature","geometry":{"type":"Point","coordinates":[-87.14018,41.63791]},"properties":{"frp":1.41,"date":"2026-09-26","daynight":"N"}},{"type":"Feature","geometry":{"type":"Point","coordinates":[-87.13406,41.64079]},"properties":{"frp":1.41,"date":"2026-09-26","daynight":"N"}},{"type":"Feature","geometry":{"type":"Point","coordinates":[-87.13942,41.64146]},"properties":{"frp":1.41,"date":"2026-09-26","daynight":"N"}},{"type":"Feature","geometry":{"type":"Point","coordinates":[-87.13329,41.64433]},"properties":{"frp":2.27,"date":"2026-09-26","daynight":"N"}},{"type":"Feature","geometry":{"type":"Point","coordinates":[-87.13864,41.645]},"properties":{"frp":2.27,"date":"2026-09-26","daynight":"N"}},{"type":"Feature","geometry":{"type":"Point","coordinates":[-87.42151,41.67258]},"properties":{"frp":1.53,"date":"2026-09-26","daynight":"N"}},{"type":"Feature","geometry":{"type":"Point","coordinates":[-87.41995,41.67973]},"properties":{"frp":2.02,"date":"2026-09-26","daynight":"N"}},{"type":"Feature","geometry":{"type":"Point","coordinates":[-87.41919,41.68331]},"properties":{"frp":2.02,"date":"2026-09-26","daynight":"N"}},{"type":"Feature","geometry":{"type":"Point","coordinates":[-87.42467,41.68398]},"properties":{"frp":3.43,"date":"2026-09-26","daynight":"N"}},{"type":"Feature","geometry":{"type":"Point","coordinates":[-89.93779,35.64303]},"properties":{"frp":0.96,"date":"2026-09-26","daynight":"N"}},{"type":"Feature","geometry":{"type":"Point","coordinates":[-89.93712,35.64676]},"properties":{"frp":0.96,"date":"2026-09-26","daynight":"N"}},{"type":"Feature","geometry":{"type":"Point","coordinates":[-89.93095,35.64982]},"properties":{"frp":1.74,"date":"2026-09-26","daynight":"N"}},{"type":"Feature","geometry":{"type":"Point","coordinates":[-89.93643,35.65048]},"properties":{"frp":1.74,"date":"2026-09-26","daynight":"N"}},{"type":"Feature","geometry":{"type":"Point","coordinates":[-89.71281,35.93549]},"properties":{"frp":4.87,"date":"2026-09-26","daynight":"N"}},{"type":"Feature","geometry":{"type":"Point","coordinates":[-89.71212,35.93919]},"properties":{"frp":1.95,"date":"2026-09-26","daynight":"N"}},{"type":"Feature","geometry":{"type":"Point","coordinates":[-89.71619,35.94725]},"properties":{"frp":1.87,"date":"2026-09-26","daynight":"N"}},{"type":"Feature","geometry":{"type":"Point","coordinates":[-87.39762,31.09818]},"properties":{"frp":1.57,"date":"2026-09-26","daynight":"N"}},{"type":"Feature","geometry":{"type":"Point","coordinates":[-87.39693,31.10148]},"properties":{"frp":1.57,"date":"2026-09-26","daynight":"N"}},{"type":"Feature","geometry":{"type":"Point","coordinates":[-87.40096,31.10209]},"properties":{"frp":1.57,"date":"2026-09-26","daynight":"N"}},{"type":"Feature","geometry":{"type":"Point","coordinates":[-79.8782,33.00413]},"properties":{"frp":0.92,"date":"2026-09-26","daynight":"N"}},{"type":"Feature","geometry":{"type":"Point","coordinates":[-79.87701,33.00812]},"properties":{"frp":0.96,"date":"2026-09-26","daynight":"N"}},{"type":"Feature","geometry":{"type":"Point","coordinates":[-79.88541,33.00986]},"properties":{"frp":6.15,"date":"2026-09-26","daynight":"N"}},{"type":"Feature","geometry":{"type":"Point","coordinates":[-79.88425,33.01385]},"properties":{"frp":6.15,"date":"2026-09-26","daynight":"N"}},{"type":"Feature","geometry":{"type":"Point","coordinates":[-88.57061,33.44033]},"properties":{"frp":3.1,"date":"2026-09-26","daynight":"N"}},{"type":"Feature","geometry":{"type":"Point","coordinates":[-88.57826,33.44843]},"properties":{"frp":0.81,"date":"2026-09-26","daynight":"N"}},{"type":"Feature","geometry":{"type":"Point","coordinates":[-88.58278,33.44904]},"properties":{"frp":0.81,"date":"2026-09-26","daynight":"N"}},{"type":"Feature","geometry":{"type":"Point","coordinates":[-87.08456,34.63902]},"properties":{"frp":3.91,"date":"2026-09-26","daynight":"N"}},{"type":"Feature","geometry":{"type":"Point","coordinates":[-87.09313,34.64026]},"properties":{"frp":1.23,"date":"2026-09-26","daynight":"N"}},{"type":"Feature","geometry":{"type":"Point","coordinates":[-87.09242,34.64359]},"properties":{"frp":1.23,"date":"2026-09-26","daynight":"N"}},{"type":"Feature","geometry":{"type":"Point","coordinates":[-87.08672,34.64964]},"properties":{"frp":0.78,"date":"2026-09-26","daynight":"N"}},{"type":"Feature","geometry":{"type":"Point","coordinates":[-90.39611,29.99862]},"properties":{"frp":2.99,"date":"2026-09-26","daynight":"N"}},{"type":"Feature","geometry":{"type":"Point","coordinates":[-90.4008,29.99924]},"properties":{"frp":2.77,"date":"2026-09-26","daynight":"N"}},{"type":"Feature","geometry":{"type":"Point","coordinates":[-90.40314,30.00149]},"properties":{"frp":3.18,"date":"2026-09-26","daynight":"N"}},{"type":"Feature","geometry":{"type":"Point","coordinates":[-90.40018,30.00282]},"properties":{"frp":1.73,"date":"2026-09-26","daynight":"N"}},{"type":"Feature","geometry":{"type":"Point","coordinates":[-90.40488,30.00345]},"properties":{"frp":1.73,"date":"2026-09-26","daynight":"N"}},{"type":"Feature","geometry":{"type":"Point","coordinates":[-88.01503,30.93972]},"properties":{"frp":1.66,"date":"2026-09-26","daynight":"N"}},{"type":"Feature","geometry":{"type":"Point","coordinates":[-88.01027,30.94244]},"properties":{"frp":1.66,"date":"2026-09-26","daynight":"N"}},{"type":"Feature","geometry":{"type":"Point","coordinates":[-88.01436,30.94305]},"properties":{"frp":1.66,"date":"2026-09-26","daynight":"N"}},{"type":"Feature","geometry":{"type":"Point","coordinates":[-88.00961,30.94577]},"properties":{"frp":3.05,"date":"2026-09-26","daynight":"N"}},{"type":"Feature","geometry":{"type":"Point","coordinates":[-87.98898,31.14974]},"properties":{"frp":1.83,"date":"2026-09-26","daynight":"N"}},{"type":"Feature","geometry":{"type":"Point","coordinates":[-87.98832,31.15307]},"properties":{"frp":0.76,"date":"2026-09-26","daynight":"N"}},{"type":"Feature","geometry":{"type":"Point","coordinates":[-87.97944,31.15519]},"properties":{"frp":1.67,"date":"2026-09-26","daynight":"N"}},{"type":"Feature","geometry":{"type":"Point","coordinates":[-93.26716,31.35378]},"properties":{"frp":0.75,"date":"2026-09-26","daynight":"N"}},{"type":"Feature","geometry":{"type":"Point","coordinates":[-93.26199,31.35754]},"properties":{"frp":0.99,"date":"2026-09-26","daynight":"N"}},{"type":"Feature","geometry":{"type":"Point","coordinates":[-93.26657,31.35802]},"properties":{"frp":0.99,"date":"2026-09-26","daynight":"N"}},{"type":"Feature","geometry":{"type":"Point","coordinates":[-93.26597,31.36226]},"properties":{"frp":0.99,"date":"2026-09-26","daynight":"N"}}]}