{"type":"FeatureCollection","features":[{"type":"Feature","geometry":{"type":"Point","coordinates":[-74.22472,40.63511]},"properties":{"frp":1.9,"date":"2026-09-09","daynight":"N"}},{"type":"Feature","geometry":{"type":"Point","coordinates":[-74.11972,40.23759]},"properties":{"frp":0.34,"date":"2026-09-09","daynight":"N"}},{"type":"Feature","geometry":{"type":"Point","coordinates":[-74.21805,40.63507]},"properties":{"frp":1.34,"date":"2026-09-09","daynight":"N"}},{"type":"Feature","geometry":{"type":"Point","coordinates":[-74.22308,40.63622]},"properties":{"frp":2.04,"date":"2026-09-09","daynight":"N"}},{"type":"Feature","geometry":{"type":"Point","coordinates":[-77.71236,40.89043]},"properties":{"frp":1.48,"date":"2026-09-09","daynight":"N"}},{"type":"Feature","geometry":{"type":"Point","coordinates":[-77.71114,40.89396]},"properties":{"frp":1.48,"date":"2026-09-09","daynight":"N"}},{"type":"Feature","geometry":{"type":"Point","coordinates":[-77.17032,39.55851]},"properties":{"frp":0.97,"date":"2026-09-09","daynight":"N"}},{"type":"Feature","geometry":{"type":"Point","coordinates":[-77.1691,39.56221]},"properties":{"frp":0.97,"date":"2026-09-09","daynight":"N"}},{"type":"Feature","geometry":{"type":"Point","coordinates":[-77.1699,39.56226]},"properties":{"frp":1.46,"date":"2026-09-09","daynight":"N"}},{"type":"Feature","geometry":{"type":"Point","coordinates":[-75.63618,39.59036]},"properties":{"frp":1.23,"date":"2026-09-09","daynight":"N"}},{"type":"Feature","geometry":{"type":"Point","coordinates":[-86.48703,39.87374]},"properties":{"frp":0.91,"date":"2026-09-09","daynight":"N"}},{"type":"Feature","geometry":{"type":"Point","coordinates":[-86.48784,39.87461]},"properties":{"frp":1.65,"date":"2026-09-09","daynight":"N"}},{"type":"Feature","geometry":{"type":"Point","coordinates":[-86.48629,39.87738]},"properties":{"frp":0.91,"date":"2026-09-09","daynight":"N"}},{"type":"Feature","geometry":{"type":"Point","coordinates":[-86.83285,39.97449]},"properties":{"frp":1.18,"date":"2026-09-09","daynight":"N"}},{"type":"Feature","geometry":{"type":"Point","coordinates":[-86.83854,39.97516]},"properties":{"frp":1.18,"date":"2026-09-09","daynight":"N"}},{"type":"Feature","geometry":{"type":"Point","coordinates":[-86.8378,39.97886]},"properties":{"frp":1.18,"date":"2026-09-09","daynight":"N"}},{"type":"Feature","geometry":{"type":"Point","coordinates":[-79.84991,40.39312]},"properties":{"frp":2.41,"date":"2026-09-09","daynight":"N"}},{"type":"Feature","geometry":{"type":"Point","coordinates":[-79.85461,40.39395]},"properties":{"frp":2.41,"date":"2026-09-09","daynight":"N"}},{"type":"Feature","geometry":{"type":"Point","coordinates":[-79.85931,40.39478]},"properties":{"frp":0.89,"date":"2026-09-09","daynight":"N"}},{"type":"Feature","geometry":{"type":"Point","coordinates":[-89.63748,40.63494]},"properties":{"frp":2.06,"date":"2026-09-09","daynight":"N"}},{"type":"Feature","geometry":{"type":"Point","coordinates":[-89.63515,40.63659]},"properties":{"frp":1.67,"date":"2026-09-09","daynight":"N"}},{"type":"Feature","geometry":{"type":"Point","coordinates":[-89.64207,40.63971]},"properties":{"frp":0.59,"date":"2026-09-09","daynight":"N"}},{"type":"Feature","geometry":{"type":"Point","coordinates":[-89.64499,40.6418]},"properties":{"frp":0.82,"date":"2026-09-09","daynight":"N"}},{"type":"Feature","geometry":{"type":"Point","coordinates":[-78.41141,35.65179]},"properties":{"frp":0.82,"date":"2026-09-09","daynight":"N"}},{"type":"Feature","geometry":{"type":"Point","coordinates":[-80.34913,35.79673]},"properties":{"frp":1.78,"date":"2026-09-09","daynight":"N"}},{"type":"Feature","geometry":{"type":"Point","coordinates":[-80.34816,35.80019]},"properties":{"frp":0.51,"date":"2026-09-09","daynight":"N"}},{"type":"Feature","geometry":{"type":"Point","coordinates":[-82.0407,37.23209]},"properties":{"frp":2.0,"date":"2026-09-09","daynight":"N"}},{"type":"Feature","geometry":{"type":"Point","coordinates":[-82.0355,37.23466]},"properties":{"frp":0.88,"date":"2026-09-09","daynight":"N"}},{"type":"Feature","geometry":{"type":"Point","coordinates":[-82.03981,37.23539]},"properties":{"frp":1.92,"date":"2026-09-09","daynight":"N"}},{"type":"Feature","geometry":{"type":"Point","coordinates":[-82.9643,37.70893]},"properties":{"frp":0.64,"date":"2026-09-09","daynight":"N"}},{"type":"Feature","geometry":{"type":"Point","coordinates":[-82.96347,37.71222]},"properties":{"frp":1.73,"date":"2026-09-09","daynight":"N"}},{"type":"Feature","geometry":{"type":"Point","coordinates":[-82.9678,37.7129]},"properties":{"frp":2.11,"date":"2026-09-09","daynight":"N"}},{"type":"Feature","geometry":{"type":"Point","coordinates":[-90.15247,38.6939]},"properties":{"frp":1.96,"date":"2026-09-09","daynight":"N"}},{"type":"Feature","geometry":{"type":"Point","coordinates":[-90.13111,38.69631]},"properties":{"frp":1.97,"date":"2026-09-09","daynight":"N"}},{"type":"Feature","geometry":{"type":"Point","coordinates":[-90.13626,38.69678]},"properties":{"frp":3.28,"date":"2026-09-09","daynight":"N"}},{"type":"Feature","geometry":{"type":"Point","coordinates":[-79.88435,33.00798]},"properties":{"frp":1.02,"date":"2026-09-09","daynight":"N"}},{"type":"Feature","geometry":{"type":"Point","coordinates":[-79.88335,33.01166]},"properties":{"frp":1.02,"date":"2026-09-09","daynight":"N"}},{"type":"Feature","geometry":{"type":"Point","coordinates":[-79.88234,33.01533]},"properties":{"frp":1.54,"date":"2026-09-09","daynight":"N"}},{"type":"Feature","geometry":{"type":"Point","coordinates":[-79.88757,33.01635]},"properties":{"frp":1.72,"date":"2026-09-09","daynight":"N"}},{"type":"Feature","geometry":{"type":"Point","coordinates":[-86.65864,33.04917]},"properties":{"frp":0.54,"date":"2026-09-09","daynight":"N"}},{"type":"Feature","geometry":{"type":"Point","coordinates":[-86.65797,33.05259]},"properties":{"frp":1.12,"date":"2026-09-09","daynight":"N"}},{"type":"Feature","geometry":{"type":"Point","coordinates":[-86.66238,33.05321]},"properties":{"frp":1.12,"date":"2026-09-09","daynight":"N"}},{"type":"Feature","geometry":{"type":"Point","coordinates":[-88.56789,33.44054]},"properties":{"frp":1.8,"date":"2026-09-09","daynight":"N"}},{"type":"Feature","geometry":{"type":"Point","coordinates":[-88.57314,33.44119]},"properties":{"frp":1.8,"date":"2026-09-09","daynight":"N"}},{"type":"Feature","geometry":{"type":"Point","coordinates":[-88.57841,33.44184]},"properties":{"frp":3.74,"date":"2026-09-09","daynight":"N"}},{"type":"Feature","geometry":{"type":"Point","coordinates":[-88.57182,33.44862]},"properties":{"frp":1.31,"date":"2026-09-09","daynight":"N"}},{"type":"Feature","geometry":{"type":"Point","coordinates":[-98.68629,34.84165]},"properties":{"frp":1.44,"date":"2026-09-09","daynight":"N"}},{"type":"Feature","geometry":{"type":"Point","coordinates":[-98.69331,34.8419]},"properties":{"frp":1.44,"date":"2026-09-09","daynight":"N"}},{"type":"Feature","geometry":{"type":"Point","coordinates":[-98.68581,34.84829]},"properties":{"frp":1.14,"date":"2026-09-09","daynight":"N"}},{"type":"Feature","geometry":{"type":"Point","coordinates":[-98.69278,34.84853]},"properties":{"frp":1.14,"date":"2026-09-09","daynight":"N"}},{"type":"Feature","geometry":{"type":"Point","coordinates":[-98.6858,34.85493]},"properties":{"frp":1.14,"date":"2026-09-09","daynight":"N"}},{"type":"Feature","geometry":{"type":"Point","coordinates":[-98.03354,29.57325]},"properties":{"frp":1.17,"date":"2026-09-09","daynight":"N"}},{"type":"Feature","geometry":{"type":"Point","coordinates":[-98.03168,29.57369]},"properties":{"frp":2.03,"date":"2026-09-09","daynight":"N"}},{"type":"Feature","geometry":{"type":"Point","coordinates":[-98.037,29.57404]},"properties":{"frp":2.95,"date":"2026-09-09","daynight":"N"}},{"type":"Feature","geometry":{"type":"Point","coordinates":[-98.03299,29.5794]},"properties":{"frp":1.45,"date":"2026-09-09","daynight":"N"}},{"type":"Feature","geometry":{"type":"Point","coordinates":[-94.2906,29.61363]},"properties":{"frp":2.89,"date":"2026-09-09","daynight":"N"}},{"type":"Feature","geometry":{"type":"Point","coordinates":[-94.29002,29.61856]},"properties":{"frp":0.72,"date":"2026-09-09","daynight":"N"}},{"type":"Feature","geometry":{"type":"Point","coordinates":[-94.29633,29.61912]},"properties":{"frp":0.72,"date":"2026-09-09","daynight":"N"}},{"type":"Feature","geometry":{"type":"Point","coordinates":[-94.26421,29.62127]},"properties":{"frp":1.8,"date":"2026-09-09","daynight":"N"}},{"type":"Feature","geometry":{"type":"Point","coordinates":[-94.27049,29.62182]},"properties":{"frp":1.8,"date":"2026-09-09","daynight":"N"}},{"type":"Feature","geometry":{"type":"Point","coordinates":[-94.29573,29.62405]},"properties":{"frp":0.72,"date":"2026-09-09","daynight":"N"}},{"type":"Feature","geometry":{"type":"Point","coordinates":[-94.30204,29.6246]},"properties":{"frp":2.66,"date":"2026-09-09","daynight":"N"}},{"type":"Feature","geometry":{"type":"Point","coordinates":[-94.2636,29.62619]},"properties":{"frp":6.86,"date":"2026-09-09","daynight":"N"}},{"type":"Feature","geometry":{"type":"Point","coordinates":[-94.2699,29.62675]},"properties":{"frp":6.86,"date":"2026-09-09","daynight":"N"}},{"type":"Feature","geometry":{"type":"Point","coordinates":[-94.2762,29.6273]},"properties":{"frp":8.56,"date":"2026-09-09","daynight":"N"}},{"type":"Feature","geometry":{"type":"Point","coordinates":[-94.26929,29.63167]},"properties":{"frp":6.86,"date":"2026-09-09","daynight":"N"}},{"type":"Feature","geometry":{"type":"Point","coordinates":[-94.2756,29.63223]},"properties":{"frp":8.56,"date":"2026-09-09","daynight":"N"}},{"type":"Feature","geometry":{"type":"Point","coordinates":[-94.28191,29.63279]},"properties":{"frp":8.56,"date":"2026-09-09","daynight":"N"}},{"type":"Feature","geometry":{"type":"Point","coordinates":[-94.27499,29.63716]},"properties":{"frp":11.05,"date":"2026-09-09","daynight":"N"}},{"type":"Feature","geometry":{"type":"Point","coordinates":[-94.2813,29.63772]},"properties":{"frp":11.05,"date":"2026-09-09","daynight":"N"}},{"type":"Feature","geometry":{"type":"Point","coordinates":[-94.28761,29.63829]},"properties":{"frp":0.77,"date":"2026-09-09","daynight":"N"}},{"type":"Feature","geometry":{"type":"Point","coordinates":[-94.2807,29.64266]},"properties":{"frp":11.05,"date":"2026-09-09","daynight":"N"}},{"type":"Feature","geometry":{"type":"Point","coordinates":[-95.00189,29.74159]},"properties":{"frp":1.71,"date":"2026-09-09","daynight":"N"}},{"type":"Feature","geometry":{"type":"Point","coordinates":[-94.99779,29.74645]},"properties":{"frp":1.71,"date":"2026-09-09","daynight":"N"}},{"type":"Feature","geometry":{"type":"Point","coordinates":[-95.01534,29.74796]},"properties":{"frp":3.21,"date":"2026-09-09","daynight":"N"}},{"type":"Feature","geometry":{"type":"Point","coordinates":[-95.01344,29.75459]},"properties":{"frp":1.18,"date":"2026-09-09","daynight":"N"}},{"type":"Feature","geometry":{"type":"Point","coordinates":[-93.88009,29.75493]},"properties":{"frp":2.48,"date":"2026-09-09","daynight":"N"}},{"type":"Feature","geometry":{"type":"Point","coordinates":[-93.87995,29.75624]},"properties":{"frp":3.04,"date":"2026-09-09","daynight":"N"}},{"type":"Feature","geometry":{"type":"Point","coordinates":[-93.87948,29.75974]},"properties":{"frp":2.48,"date":"2026-09-09","daynight":"N"}},{"type":"Feature","geometry":{"type":"Point","coordinates":[-93.87936,29.76106]},"properties":{"frp":3.04,"date":"2026-09-09","daynight":"N"}},{"type":"Feature","geometry":{"type":"Point","coordinates":[-93.83717,29.99711]},"properties":{"frp":5.22,"date":"2026-09-09","daynight":"N"}},{"type":"Feature","geometry":{"type":"Point","coordinates":[-93.84317,29.99765]},"properties":{"frp":7.12,"date":"2026-09-09","daynight":"N"}},{"type":"Feature","geometry":{"type":"Point","coordinates":[-93.83057,30.00139]},"properties":{"frp":3.15,"date":"2026-09-09","daynight":"N"}},{"type":"Feature","geometry":{"type":"Point","coordinates":[-88.0158,30.94021]},"properties":{"frp":3.46,"date":"2026-09-09","daynight":"N"}},{"type":"Feature","geometry":{"type":"Point","coordinates":[-88.01057,30.94313]},"properties":{"frp":0.87,"date":"2026-09-09","daynight":"N"}},{"type":"Feature","geometry":{"type":"Point","coordinates":[-88.00994,30.94666]},"properties":{"frp":0.87,"date":"2026-09-09","daynight":"N"}},{"type":"Feature","geometry":{"type":"Point","coordinates":[-98.65716,31.06494]},"properties":{"frp":1.99,"date":"2026-09-09","daynight":"N"}},{"type":"Feature","geometry":{"type":"Point","coordinates":[-98.65702,31.06557]},"properties":{"frp":1.22,"date":"2026-09-09","daynight":"N"}},{"type":"Feature","geometry":{"type":"Point","coordinates":[-98.65642,31.07138]},"properties":{"frp":2.12,"date":"2026-09-09","daynight":"N"}},{"type":"Feature","geometry":{"type":"Point","coordinates":[-98.65628,31.07201]},"properties":{"frp":0.97,"date":"2026-09-09","daynight":"N"}},{"type":"Feature","geometry":{"type":"Point","coordinates":[-87.98792,31.14833]},"properties":{"frp":1.89,"date":"2026-09-09","daynight":"N"}},{"type":"Feature","geometry":{"type":"Point","coordinates":[-87.98728,31.15185]},"properties":{"frp":1.89,"date":"2026-09-09","daynight":"N"}},{"type":"Feature","geometry":{"type":"Point","coordinates":[-87.97744,31.15417]},"properties":{"frp":1.54,"date":"2026-09-09","daynight":"N"}},{"type":"Feature","geometry":{"type":"Point","coordinates":[-87.98203,31.15477]},"properties":{"frp":1.83,"date":"2026-09-09","daynight":"N"}},{"type":"Feature","geometry":{"type":"Point","coordinates":[-87.98076,31.16183]},"properties":{"frp":1.45,"date":"2026-09-09","daynight":"N"}},{"type":"Feature","geometry":{"type":"Point","coordinates":[-100.69109,32.04458]},"properties":{"frp":1.47,"date":"2026-09-09","daynight":"N"}},{"type":"Feature","geometry":{"type":"Point","coordinates":[-100.68725,32.04593]},"properties":{"frp":7.12,"date":"2026-09-09","daynight":"N"}},{"type":"Feature","geometry":{"type":"Point","coordinates":[-100.69051,32.05179]},"properties":{"frp":2.74,"date":"2026-09-09","daynight":"N"}},{"type":"Feature","geometry":{"type":"Point","coordinates":[-97.20987,27.82088]},"properties":{"frp":3.09,"date":"2026-09-09","daynight":"N"}},{"type":"Feature","geometry":{"type":"Point","coordinates":[-97.19328,27.82479]},"properties":{"frp":2.28,"date":"2026-09-09","daynight":"N"}},{"type":"Feature","geometry":{"type":"Point","coordinates":[-97.19576,27.82569]},"properties":{"frp":2.31,"date":"2026-09-09","daynight":"N"}},{"type":"Feature","geometry":{"type":"Point","coordinates":[-98.4455,28.52934]},"properties":{"frp":0.88,"date":"2026-09-09","daynight":"N"}},{"type":"Feature","geometry":{"type":"Point","coordinates":[-98.44618,28.53141]},"properties":{"frp":1.85,"date":"2026-09-09","daynight":"N"}},{"type":"Feature","geometry":{"type":"Point","coordinates":[-98.4448,28.53558]},"properties":{"frp":0.75,"date":"2026-09-09","daynight":"N"}},{"type":"Feature","geometry":{"type":"Point","coordinates":[-74.12006,40.23773]},"properties":{"frp":0.27,"date":"2026-09-09","daynight":"N"}},{"type":"Feature","geometry":{"type":"Point","coordinates":[-74.11884,40.24792]},"properties":{"frp":0.14,"date":"2026-09-09","daynight":"N"}},{"type":"Feature","geometry":{"type":"Point","coordinates":[-74.22201,40.63537]},"properties":{"frp":1.86,"date":"2026-09-09","daynight":"N"}},{"type":"Feature","geometry":{"type":"Point","coordinates":[-74.22604,40.63561]},"properties":{"frp":1.42,"date":"2026-09-09","daynight":"N"}},{"type":"Feature","geometry":{"type":"Point","coordinates":[-77.71366,40.89457]},"properties":{"frp":1.56,"date":"2026-09-09","daynight":"N"}},{"type":"Feature","geometry":{"type":"Point","coordinates":[-75.63634,39.58867]},"properties":{"frp":1.03,"date":"2026-09-09","daynight":"N"}},{"type":"Feature","geometry":{"type":"Point","coordinates":[-75.63589,39.59417]},"properties":{"frp":1.03,"date":"2026-09-09","daynight":"N"}},{"type":"Feature","geometry":{"type":"Point","coordinates":[-79.88319,33.00681]},"properties":{"frp":1.44,"date":"2026-09-09","daynight":"N"}},{"type":"Feature","geometry":{"type":"Point","coordinates":[-79.88232,33.00784]},"properties":{"frp":1.51,"date":"2026-09-09","daynight":"N"}},{"type":"Feature","geometry":{"type":"Point","coordinates":[-79.8893,33.01362]},"properties":{"frp":2.63,"date":"2026-09-09","daynight":"N"}},{"type":"Feature","geometry":{"type":"Point","coordinates":[-79.88845,33.01468]},"properties":{"frp":2.5,"date":"2026-09-09","daynight":"N"}},{"type":"Feature","geometry":{"type":"Point","coordinates":[-78.41608,35.65381]},"properties":{"frp":0.63,"date":"2026-09-09","daynight":"N"}},{"type":"Feature","geometry":{"type":"Point","coordinates":[-78.41602,35.65482]},"properties":{"frp":0.69,"date":"2026-09-09","daynight":"N"}},{"type":"Feature","geometry":{"type":"Point","coordinates":[-80.34927,35.79676]},"properties":{"frp":0.98,"date":"2026-09-09","daynight":"N"}}]}