{"type":"FeatureCollection","features":[{"type":"Feature","geometry":{"type":"Point","coordinates":[-122.40832,40.62244]},"properties":{"frp":7.6,"date":"2026-08-18","daynight":"N"}},{"type":"Feature","geometry":{"type":"Point","coordinates":[-122.39248,40.626]},"properties":{"frp":10.7,"date":"2026-08-18","daynight":"N"}},{"type":"Feature","geometry":{"type":"Point","coordinates":[-122.40253,40.62102]},"properties":{"frp":6.6,"date":"2026-08-18","daynight":"N"}},{"type":"Feature","geometry":{"type":"Point","coordinates":[-122.40682,40.61987]},"properties":{"frp":21.4,"date":"2026-08-18","daynight":"N"}},{"type":"Feature","geometry":{"type":"Point","coordinates":[-122.39378,40.62704]},"properties":{"frp":14.5,"date":"2026-08-18","daynight":"N"}},{"type":"Feature","geometry":{"type":"Point","coordinates":[-122.39098,40.62053]},"properties":{"frp":7.9,"date":"2026-08-18","daynight":"N"}},{"type":"Feature","geometry":{"type":"Point","coordinates":[-122.40687,40.62374]},"properties":{"frp":5.5,"date":"2026-08-18","daynight":"N"}},{"type":"Feature","geometry":{"type":"Point","coordinates":[-122.40767,40.62295]},"properties":{"frp":13.2,"date":"2026-08-18","daynight":"N"}},{"type":"Feature","geometry":{"type":"Point","coordinates":[-122.4004,40.62703]},"properties":{"frp":8.8,"date":"2026-08-18","daynight":"N"}},{"type":"Feature","geometry":{"type":"Point","coordinates":[-122.40545,40.61852]},"properties":{"frp":3.5,"date":"2026-08-18","daynight":"N"}},{"type":"Feature","geometry":{"type":"Point","coordinates":[-122.40124,40.62978]},"properties":{"frp":13.0,"date":"2026-08-18","daynight":"N"}},{"type":"Feature","geometry":{"type":"Point","coordinates":[-122.40282,40.61657]},"properties":{"frp":18.3,"date":"2026-08-18","daynight":"N"}},{"type":"Feature","geometry":{"type":"Point","coordinates":[-122.39708,40.62426]},"properties":{"frp":8.7,"date":"2026-08-18","daynight":"N"}},{"type":"Feature","geometry":{"type":"Point","coordinates":[-122.39655,40.6233]},"properties":{"frp":7.9,"date":"2026-08-18","daynight":"N"}},{"type":"Feature","geometry":{"type":"Point","coordinates":[-122.40325,40.63713]},"properties":{"frp":18.8,"date":"2026-08-18","daynight":"N"}},{"type":"Feature","geometry":{"type":"Point","coordinates":[-121.42868,43.74988]},"properties":{"frp":7.0,"date":"2026-08-18","daynight":"N"}},{"type":"Feature","geometry":{"type":"Point","coordinates":[-121.42598,43.75206]},"properties":{"frp":18.8,"date":"2026-08-18","daynight":"N"}},{"type":"Feature","geometry":{"type":"Point","coordinates":[-121.42543,43.7624]},"properties":{"frp":7.9,"date":"2026-08-18","daynight":"N"}},{"type":"Feature","geometry":{"type":"Point","coordinates":[-121.4122,43.75773]},"properties":{"frp":17.4,"date":"2026-08-18","daynight":"N"}},{"type":"Feature","geometry":{"type":"Point","coordinates":[-121.41557,43.75786]},"properties":{"frp":4.8,"date":"2026-08-18","daynight":"N"}},{"type":"Feature","geometry":{"type":"Point","coordinates":[-121.42123,43.7544]},"properties":{"frp":1.6,"date":"2026-08-18","daynight":"N"}},{"type":"Feature","geometry":{"type":"Point","coordinates":[-121.42203,43.7543]},"properties":{"frp":23.2,"date":"2026-08-18","daynight":"N"}},{"type":"Feature","geometry":{"type":"Point","coordinates":[-121.43036,43.76504]},"properties":{"frp":0.6,"date":"2026-08-18","daynight":"N"}},{"type":"Feature","geometry":{"type":"Point","coordinates":[-121.41857,43.76261]},"properties":{"frp":4.0,"date":"2026-08-18","daynight":"N"}},{"type":"Feature","geometry":{"type":"Point","coordinates":[-121.42868,43.75644]},"properties":{"frp":5.9,"date":"2026-08-18","daynight":"N"}},{"type":"Feature","geometry":{"type":"Point","coordinates":[-119.05,35.42]},"properties":{"frp":4.0,"date":"2026-08-18","daynight":"N"}},{"type":"Feature","geometry":{"type":"Point","coordinates":[-119.05,35.423]},"properties":{"frp":4.0,"date":"2026-08-18","daynight":"N"}},{"type":"Feature","geometry":{"type":"Point","coordinates":[-119.05,35.417]},"properties":{"frp":4.0,"date":"2026-08-18","daynight":"N"}}]}