{"type":"FeatureCollection","features":[{"type":"Feature","geometry":{"type":"Point","coordinates":[-84.39252,46.51479]},"properties":{"frp":2.32,"date":"2026-09-04","daynight":"N"}},{"type":"Feature","geometry":{"type":"Point","coordinates":[-84.3994,46.51549]},"properties":{"frp":2.97,"date":"2026-09-04","daynight":"N"}},{"type":"Feature","geometry":{"type":"Point","coordinates":[-84.39857,46.51934]},"properties":{"frp":1.75,"date":"2026-09-04","daynight":"N"}},{"type":"Feature","geometry":{"type":"Point","coordinates":[-84.92419,41.36744]},"properties":{"frp":2.98,"date":"2026-09-04","daynight":"N"}},{"type":"Feature","geometry":{"type":"Point","coordinates":[-84.91761,41.37045]},"properties":{"frp":1.8,"date":"2026-09-04","daynight":"N"}},{"type":"Feature","geometry":{"type":"Point","coordinates":[-84.92343,41.37113]},"properties":{"frp":1.8,"date":"2026-09-04","daynight":"N"}},{"type":"Feature","geometry":{"type":"Point","coordinates":[-81.6768,41.45164]},"properties":{"frp":1.87,"date":"2026-09-04","daynight":"N"}},{"type":"Feature","geometry":{"type":"Point","coordinates":[-81.67595,41.45498]},"properties":{"frp":1.87,"date":"2026-09-04","daynight":"N"}},{"type":"Feature","geometry":{"type":"Point","coordinates":[-81.67509,41.45831]},"properties":{"frp":1.6,"date":"2026-09-04","daynight":"N"}},{"type":"Feature","geometry":{"type":"Point","coordinates":[-83.36709,41.45905]},"properties":{"frp":1.19,"date":"2026-09-04","daynight":"N"}},{"type":"Feature","geometry":{"type":"Point","coordinates":[-81.67425,41.46164]},"properties":{"frp":1.6,"date":"2026-09-04","daynight":"N"}},{"type":"Feature","geometry":{"type":"Point","coordinates":[-81.67896,41.46232]},"properties":{"frp":1.6,"date":"2026-09-04","daynight":"N"}},{"type":"Feature","geometry":{"type":"Point","coordinates":[-81.6734,41.46498]},"properties":{"frp":1.32,"date":"2026-09-04","daynight":"N"}},{"type":"Feature","geometry":{"type":"Point","coordinates":[-83.36549,41.46602]},"properties":{"frp":1.35,"date":"2026-09-04","daynight":"N"}},{"type":"Feature","geometry":{"type":"Point","coordinates":[-83.36471,41.4695]},"properties":{"frp":1.35,"date":"2026-09-04","daynight":"N"}},{"type":"Feature","geometry":{"type":"Point","coordinates":[-81.66615,41.47429]},"properties":{"frp":0.69,"date":"2026-09-04","daynight":"N"}},{"type":"Feature","geometry":{"type":"Point","coordinates":[-84.04385,41.56599]},"properties":{"frp":3.26,"date":"2026-09-04","daynight":"N"}},{"type":"Feature","geometry":{"type":"Point","coordinates":[-84.05472,41.56733]},"properties":{"frp":1.35,"date":"2026-09-04","daynight":"N"}},{"type":"Feature","geometry":{"type":"Point","coordinates":[-84.05393,41.5709]},"properties":{"frp":1.35,"date":"2026-09-04","daynight":"N"}},{"type":"Feature","geometry":{"type":"Point","coordinates":[-87.14448,41.62526]},"properties":{"frp":1.91,"date":"2026-09-04","daynight":"N"}},{"type":"Feature","geometry":{"type":"Point","coordinates":[-87.13689,41.63065]},"properties":{"frp":1.81,"date":"2026-09-04","daynight":"N"}},{"type":"Feature","geometry":{"type":"Point","coordinates":[-87.13811,41.63303]},"properties":{"frp":3.64,"date":"2026-09-04","daynight":"N"}},{"type":"Feature","geometry":{"type":"Point","coordinates":[-87.14112,41.63524]},"properties":{"frp":1.81,"date":"2026-09-04","daynight":"N"}},{"type":"Feature","geometry":{"type":"Point","coordinates":[-87.14236,41.63764]},"properties":{"frp":4.01,"date":"2026-09-04","daynight":"N"}},{"type":"Feature","geometry":{"type":"Point","coordinates":[-87.42398,41.66073]},"properties":{"frp":1.13,"date":"2026-09-04","daynight":"N"}},{"type":"Feature","geometry":{"type":"Point","coordinates":[-87.42326,41.66492]},"properties":{"frp":1.13,"date":"2026-09-04","daynight":"N"}},{"type":"Feature","geometry":{"type":"Point","coordinates":[-87.42834,41.66541]},"properties":{"frp":1.13,"date":"2026-09-04","daynight":"N"}},{"type":"Feature","geometry":{"type":"Point","coordinates":[-87.45175,41.67206]},"properties":{"frp":1.81,"date":"2026-09-04","daynight":"N"}},{"type":"Feature","geometry":{"type":"Point","coordinates":[-87.43573,41.67487]},"properties":{"frp":1.76,"date":"2026-09-04","daynight":"N"}},{"type":"Feature","geometry":{"type":"Point","coordinates":[-87.43501,41.67907]},"properties":{"frp":1.76,"date":"2026-09-04","daynight":"N"}},{"type":"Feature","geometry":{"type":"Point","coordinates":[-87.42405,41.68233]},"properties":{"frp":5.99,"date":"2026-09-04","daynight":"N"}},{"type":"Feature","geometry":{"type":"Point","coordinates":[-80.09772,42.80164]},"properties":{"frp":1.32,"date":"2026-09-04","daynight":"N"}},{"type":"Feature","geometry":{"type":"Point","coordinates":[-80.10238,42.80236]},"properties":{"frp":1.32,"date":"2026-09-04","daynight":"N"}},{"type":"Feature","geometry":{"type":"Point","coordinates":[-80.09521,42.80367]},"properties":{"frp":0.76,"date":"2026-09-04","daynight":"N"}},{"type":"Feature","geometry":{"type":"Point","coordinates":[-80.09987,42.80439]},"properties":{"frp":1.26,"date":"2026-09-04","daynight":"N"}},{"type":"Feature","geometry":{"type":"Point","coordinates":[-80.09428,42.80695]},"properties":{"frp":0.76,"date":"2026-09-04","daynight":"N"}},{"type":"Feature","geometry":{"type":"Point","coordinates":[-80.09893,42.80767]},"properties":{"frp":1.26,"date":"2026-09-04","daynight":"N"}},{"type":"Feature","geometry":{"type":"Point","coordinates":[-80.098,42.81095]},"properties":{"frp":0.76,"date":"2026-09-04","daynight":"N"}},{"type":"Feature","geometry":{"type":"Point","coordinates":[-80.0924,42.81352]},"properties":{"frp":1.2,"date":"2026-09-04","daynight":"N"}},{"type":"Feature","geometry":{"type":"Point","coordinates":[-79.80672,43.26657]},"properties":{"frp":1.22,"date":"2026-09-04","daynight":"N"}},{"type":"Feature","geometry":{"type":"Point","coordinates":[-79.80107,43.26912]},"properties":{"frp":0.64,"date":"2026-09-04","daynight":"N"}},{"type":"Feature","geometry":{"type":"Point","coordinates":[-79.80576,43.26985]},"properties":{"frp":0.64,"date":"2026-09-04","daynight":"N"}},{"type":"Feature","geometry":{"type":"Point","coordinates":[-79.80011,43.2724]},"properties":{"frp":0.64,"date":"2026-09-04","daynight":"N"}},{"type":"Feature","geometry":{"type":"Point","coordinates":[-79.8048,43.27313]},"properties":{"frp":0.64,"date":"2026-09-04","daynight":"N"}},{"type":"Feature","geometry":{"type":"Point","coordinates":[-90.14043,38.69232]},"properties":{"frp":2.26,"date":"2026-09-04","daynight":"N"}},{"type":"Feature","geometry":{"type":"Point","coordinates":[-90.14671,38.69283]},"properties":{"frp":4.9,"date":"2026-09-04","daynight":"N"}},{"type":"Feature","geometry":{"type":"Point","coordinates":[-90.12727,38.69599]},"properties":{"frp":2.46,"date":"2026-09-04","daynight":"N"}},{"type":"Feature","geometry":{"type":"Point","coordinates":[-90.13303,38.6983]},"properties":{"frp":3.01,"date":"2026-09-04","daynight":"N"}},{"type":"Feature","geometry":{"type":"Point","coordinates":[-91.2319,40.69093]},"properties":{"frp":1.56,"date":"2026-09-04","daynight":"N"}},{"type":"Feature","geometry":{"type":"Point","coordinates":[-91.23577,40.69116]},"properties":{"frp":3.09,"date":"2026-09-04","daynight":"N"}},{"type":"Feature","geometry":{"type":"Point","coordinates":[-91.23402,40.69305]},"properties":{"frp":3.19,"date":"2026-09-04","daynight":"N"}},{"type":"Feature","geometry":{"type":"Point","coordinates":[-79.87946,33.00409]},"properties":{"frp":1.15,"date":"2026-09-04","daynight":"N"}},{"type":"Feature","geometry":{"type":"Point","coordinates":[-79.88401,33.00492]},"properties":{"frp":1.15,"date":"2026-09-04","daynight":"N"}},{"type":"Feature","geometry":{"type":"Point","coordinates":[-79.87857,33.00755]},"properties":{"frp":1.01,"date":"2026-09-04","daynight":"N"}},{"type":"Feature","geometry":{"type":"Point","coordinates":[-79.88313,33.00838]},"properties":{"frp":1.01,"date":"2026-09-04","daynight":"N"}},{"type":"Feature","geometry":{"type":"Point","coordinates":[-87.5143,33.22859]},"properties":{"frp":2.87,"date":"2026-09-04","daynight":"N"}},{"type":"Feature","geometry":{"type":"Point","coordinates":[-87.51498,33.23004]},"properties":{"frp":3.63,"date":"2026-09-04","daynight":"N"}},{"type":"Feature","geometry":{"type":"Point","coordinates":[-87.51363,33.23238]},"properties":{"frp":2.87,"date":"2026-09-04","daynight":"N"}},{"type":"Feature","geometry":{"type":"Point","coordinates":[-87.50745,33.23553]},"properties":{"frp":2.8,"date":"2026-09-04","daynight":"N"}},{"type":"Feature","geometry":{"type":"Point","coordinates":[-88.57948,33.44563]},"properties":{"frp":1.17,"date":"2026-09-04","daynight":"N"}},{"type":"Feature","geometry":{"type":"Point","coordinates":[-88.57044,33.44872]},"properties":{"frp":1.57,"date":"2026-09-04","daynight":"N"}},{"type":"Feature","geometry":{"type":"Point","coordinates":[-88.57883,33.44965]},"properties":{"frp":1.17,"date":"2026-09-04","daynight":"N"}},{"type":"Feature","geometry":{"type":"Point","coordinates":[-93.87995,29.75364]},"properties":{"frp":1.05,"date":"2026-09-04","daynight":"N"}},{"type":"Feature","geometry":{"type":"Point","coordinates":[-93.87189,29.75834]},"properties":{"frp":0.99,"date":"2026-09-04","daynight":"N"}},{"type":"Feature","geometry":{"type":"Point","coordinates":[-93.87561,29.75864]},"properties":{"frp":0.99,"date":"2026-09-04","daynight":"N"}},{"type":"Feature","geometry":{"type":"Point","coordinates":[-93.87936,29.75894]},"properties":{"frp":1.05,"date":"2026-09-04","daynight":"N"}},{"type":"Feature","geometry":{"type":"Point","coordinates":[-93.88313,29.75924]},"properties":{"frp":1.05,"date":"2026-09-04","daynight":"N"}},{"type":"Feature","geometry":{"type":"Point","coordinates":[-93.33116,30.17787]},"properties":{"frp":1.32,"date":"2026-09-04","daynight":"N"}},{"type":"Feature","geometry":{"type":"Point","coordinates":[-93.32356,30.18242]},"properties":{"frp":0.96,"date":"2026-09-04","daynight":"N"}},{"type":"Feature","geometry":{"type":"Point","coordinates":[-93.32708,30.18271]},"properties":{"frp":0.96,"date":"2026-09-04","daynight":"N"}},{"type":"Feature","geometry":{"type":"Point","coordinates":[-93.32464,30.1839]},"properties":{"frp":1.44,"date":"2026-09-04","daynight":"N"}},{"type":"Feature","geometry":{"type":"Point","coordinates":[-79.88245,33.00492]},"properties":{"frp":2.51,"date":"2026-09-04","daynight":"N"}},{"type":"Feature","geometry":{"type":"Point","coordinates":[-79.87936,33.00816]},"properties":{"frp":2.13,"date":"2026-09-04","daynight":"N"}},{"type":"Feature","geometry":{"type":"Point","coordinates":[-79.89024,33.01224]},"properties":{"frp":3.18,"date":"2026-09-04","daynight":"N"}},{"type":"Feature","geometry":{"type":"Point","coordinates":[-79.88979,33.01934]},"properties":{"frp":1.09,"date":"2026-09-04","daynight":"N"}}]}