{"type":"FeatureCollection","features":[{"type":"Feature","geometry":{"type":"Point","coordinates":[-122.38537,40.66161]},"properties":{"frp":3.7,"date":"2026-08-21","daynight":"N"}},{"type":"Feature","geometry":{"type":"Point","coordinates":[-122.3701,40.64042]},"properties":{"frp":3.3,"date":"2026-08-21","daynight":"N"}},{"type":"Feature","geometry":{"type":"Point","coordinates":[-122.38078,40.67306]},"properties":{"frp":6.7,"date":"2026-08-21","daynight":"N"}},{"type":"Feature","geometry":{"type":"Point","coordinates":[-122.36987,40.66422]},"properties":{"frp":46.8,"date":"2026-08-21","daynight":"N"}},{"type":"Feature","geometry":{"type":"Point","coordinates":[-122.37903,40.6665]},"properties":{"frp":10.1,"date":"2026-08-21","daynight":"N"}},{"type":"Feature","geometry":{"type":"Point","coordinates":[-122.38041,40.65874]},"properties":{"frp":1.8,"date":"2026-08-21","daynight":"N"}},{"type":"Feature","geometry":{"type":"Point","coordinates":[-122.37777,40.63398]},"properties":{"frp":11.3,"date":"2026-08-21","daynight":"N"}},{"type":"Feature","geometry":{"type":"Point","coordinates":[-122.3996,40.63021]},"properties":{"frp":5.3,"date":"2026-08-21","daynight":"N"}},{"type":"Feature","geometry":{"type":"Point","coordinates":[-122.37573,40.66903]},"properties":{"frp":17.5,"date":"2026-08-21","daynight":"N"}},{"type":"Feature","geometry":{"type":"Point","coordinates":[-122.39197,40.67172]},"properties":{"frp":3.9,"date":"2026-08-21","daynight":"N"}},{"type":"Feature","geometry":{"type":"Point","coordinates":[-122.39151,40.63318]},"properties":{"frp":14.9,"date":"2026-08-21","daynight":"N"}},{"type":"Feature","geometry":{"type":"Point","coordinates":[-122.38685,40.65149]},"properties":{"frp":18.2,"date":"2026-08-21","daynight":"N"}},{"type":"Feature","geometry":{"type":"Point","coordinates":[-122.39327,40.66655]},"properties":{"frp":34.5,"date":"2026-08-21","daynight":"N"}},{"type":"Feature","geometry":{"type":"Point","coordinates":[-122.40243,40.65514]},"properties":{"frp":8.3,"date":"2026-08-21","daynight":"N"}},{"type":"Feature","geometry":{"type":"Point","coordinates":[-122.38795,40.65657]},"properties":{"frp":22.8,"date":"2026-08-21","daynight":"N"}},{"type":"Feature","geometry":{"type":"Point","coordinates":[-122.39144,40.63905]},"properties":{"frp":6.3,"date":"2026-08-21","daynight":"N"}},{"type":"Feature","geometry":{"type":"Point","coordinates":[-122.39194,40.64731]},"properties":{"frp":35.5,"date":"2026-08-21","daynight":"N"}},{"type":"Feature","geometry":{"type":"Point","coordinates":[-122.38944,40.67586]},"properties":{"frp":20.4,"date":"2026-08-21","daynight":"N"}},{"type":"Feature","geometry":{"type":"Point","coordinates":[-122.41862,40.64644]},"properties":{"frp":5.6,"date":"2026-08-21","daynight":"N"}},{"type":"Feature","geometry":{"type":"Point","coordinates":[-122.39184,40.63694]},"properties":{"frp":31.8,"date":"2026-08-21","daynight":"N"}},{"type":"Feature","geometry":{"type":"Point","coordinates":[-122.36783,40.63999]},"properties":{"frp":6.9,"date":"2026-08-21","daynight":"N"}},{"type":"Feature","geometry":{"type":"Point","coordinates":[-122.36919,40.64759]},"properties":{"frp":15.3,"date":"2026-08-21","daynight":"N"}},{"type":"Feature","geometry":{"type":"Point","coordinates":[-122.38746,40.6509]},"properties":{"frp":1.3,"date":"2026-08-21","daynight":"N"}},{"type":"Feature","geometry":{"type":"Point","coordinates":[-122.38794,40.6487]},"properties":{"frp":3.3,"date":"2026-08-21","daynight":"N"}},{"type":"Feature","geometry":{"type":"Point","coordinates":[-122.42187,40.67509]},"properties":{"frp":13.3,"date":"2026-08-21","daynight":"N"}},{"type":"Feature","geometry":{"type":"Point","coordinates":[-122.39593,40.62078]},"properties":{"frp":14.2,"date":"2026-08-21","daynight":"N"}},{"type":"Feature","geometry":{"type":"Point","coordinates":[-122.37792,40.65021]},"properties":{"frp":4.0,"date":"2026-08-21","daynight":"N"}},{"type":"Feature","geometry":{"type":"Point","coordinates":[-122.39361,40.65691]},"properties":{"frp":19.9,"date":"2026-08-21","daynight":"N"}},{"type":"Feature","geometry":{"type":"Point","coordinates":[-122.37296,40.66488]},"properties":{"frp":26.7,"date":"2026-08-21","daynight":"N"}},{"type":"Feature","geometry":{"type":"Point","coordinates":[-122.37395,40.65269]},"properties":{"frp":20.6,"date":"2026-08-21","daynight":"N"}},{"type":"Feature","geometry":{"type":"Point","coordinates":[-122.3962,40.65398]},"properties":{"frp":37.4,"date":"2026-08-21","daynight":"N"}},{"type":"Feature","geometry":{"type":"Point","coordinates":[-122.38639,40.66019]},"properties":{"frp":26.1,"date":"2026-08-21","daynight":"N"}},{"type":"Feature","geometry":{"type":"Point","coordinates":[-122.36649,40.65002]},"properties":{"frp":2.5,"date":"2026-08-21","daynight":"N"}},{"type":"Feature","geometry":{"type":"Point","coordinates":[-122.4087,40.61422]},"properties":{"frp":2.4,"date":"2026-08-21","daynight":"N"}},{"type":"Feature","geometry":{"type":"Point","coordinates":[-122.3933,40.63267]},"properties":{"frp":4.4,"date":"2026-08-21","daynight":"N"}},{"type":"Feature","geometry":{"type":"Point","coordinates":[-122.41001,40.64628]},"properties":{"frp":37.8,"date":"2026-08-21","daynight":"N"}},{"type":"Feature","geometry":{"type":"Point","coordinates":[-122.40057,40.63562]},"properties":{"frp":9.8,"date":"2026-08-21","daynight":"N"}},{"type":"Feature","geometry":{"type":"Point","coordinates":[-122.36169,40.68588]},"properties":{"frp":7.5,"date":"2026-08-21","daynight":"N"}},{"type":"Feature","geometry":{"type":"Point","coordinates":[-122.39331,40.64399]},"properties":{"frp":6.2,"date":"2026-08-21","daynight":"N"}},{"type":"Feature","geometry":{"type":"Point","coordinates":[-122.41586,40.63322]},"properties":{"frp":17.5,"date":"2026-08-21","daynight":"N"}},{"type":"Feature","geometry":{"type":"Point","coordinates":[-122.40257,40.64829]},"properties":{"frp":16.4,"date":"2026-08-21","daynight":"N"}},{"type":"Feature","geometry":{"type":"Point","coordinates":[-122.41136,40.64876]},"properties":{"frp":9.5,"date":"2026-08-21","daynight":"N"}},{"type":"Feature","geometry":{"type":"Point","coordinates":[-122.38583,40.63888]},"properties":{"frp":21.3,"date":"2026-08-21","daynight":"N"}},{"type":"Feature","geometry":{"type":"Point","coordinates":[-122.3819,40.65535]},"properties":{"frp":28.3,"date":"2026-08-21","daynight":"N"}},{"type":"Feature","geometry":{"type":"Point","coordinates":[-122.37552,40.63072]},"properties":{"frp":20.9,"date":"2026-08-21","daynight":"N"}},{"type":"Feature","geometry":{"type":"Point","coordinates":[-122.37876,40.63832]},"properties":{"frp":15.3,"date":"2026-08-21","daynight":"N"}},{"type":"Feature","geometry":{"type":"Point","coordinates":[-122.4081,40.64984]},"properties":{"frp":30.7,"date":"2026-08-21","daynight":"N"}},{"type":"Feature","geometry":{"type":"Point","coordinates":[-122.38267,40.64538]},"properties":{"frp":10.2,"date":"2026-08-21","daynight":"N"}},{"type":"Feature","geometry":{"type":"Point","coordinates":[-122.39006,40.65895]},"properties":{"frp":4.3,"date":"2026-08-21","daynight":"N"}},{"type":"Feature","geometry":{"type":"Point","coordinates":[-122.37329,40.67236]},"properties":{"frp":30.8,"date":"2026-08-21","daynight":"N"}},{"type":"Feature","geometry":{"type":"Point","coordinates":[-122.37705,40.64625]},"properties":{"frp":37.9,"date":"2026-08-21","daynight":"N"}},{"type":"Feature","geometry":{"type":"Point","coordinates":[-122.35938,40.67823]},"properties":{"frp":3.0,"date":"2026-08-21","daynight":"N"}},{"type":"Feature","geometry":{"type":"Point","coordinates":[-122.38916,40.64902]},"properties":{"frp":10.0,"date":"2026-08-21","daynight":"N"}},{"type":"Feature","geometry":{"type":"Point","coordinates":[-122.38802,40.6513]},"properties":{"frp":10.0,"date":"2026-08-21","daynight":"N"}},{"type":"Feature","geometry":{"type":"Point","coordinates":[-122.39242,40.65679]},"properties":{"frp":10.0,"date":"2026-08-21","daynight":"N"}},{"type":"Feature","geometry":{"type":"Point","coordinates":[-122.38144,40.6497]},"properties":{"frp":10.0,"date":"2026-08-21","daynight":"N"}},{"type":"Feature","geometry":{"type":"Point","coordinates":[-122.391,40.65472]},"properties":{"frp":10.0,"date":"2026-08-21","daynight":"N"}},{"type":"Feature","geometry":{"type":"Point","coordinates":[-122.38344,40.6556]},"properties":{"frp":10.0,"date":"2026-08-21","daynight":"N"}},{"type":"Feature","geometry":{"type":"Point","coordinates":[-122.39054,40.65884]},"properties":{"frp":10.0,"date":"2026-08-21","daynight":"N"}},{"type":"Feature","geometry":{"type":"Point","coordinates":[-122.38344,40.65234]},"properties":{"frp":10.0,"date":"2026-08-21","daynight":"N"}},{"type":"Feature","geometry":{"type":"Point","coordinates":[-122.39401,40.65917]},"properties":{"frp":10.0,"date":"2026-08-21","daynight":"N"}},{"type":"Feature","geometry":{"type":"Point","coordinates":[-122.38093,40.65784]},"properties":{"frp":10.0,"date":"2026-08-21","daynight":"N"}},{"type":"Feature","geometry":{"type":"Point","coordinates":[-122.3947,40.66454]},"properties":{"frp":10.0,"date":"2026-08-21","daynight":"N"}},{"type":"Feature","geometry":{"type":"Point","coordinates":[-122.37811,40.66003]},"properties":{"frp":10.0,"date":"2026-08-21","daynight":"N"}},{"type":"Feature","geometry":{"type":"Point","coordinates":[-122.39591,40.66502]},"properties":{"frp":10.0,"date":"2026-08-21","daynight":"N"}},{"type":"Feature","geometry":{"type":"Point","coordinates":[-122.3708,40.65817]},"properties":{"frp":10.0,"date":"2026-08-21","daynight":"N"}},{"type":"Feature","geometry":{"type":"Point","coordinates":[-122.39506,40.66705]},"properties":{"frp":10.0,"date":"2026-08-21","daynight":"N"}},{"type":"Feature","geometry":{"type":"Point","coordinates":[-122.37132,40.66072]},"properties":{"frp":10.0,"date":"2026-08-21","daynight":"N"}},{"type":"Feature","geometry":{"type":"Point","coordinates":[-122.40112,40.66595]},"properties":{"frp":10.0,"date":"2026-08-21","daynight":"N"}},{"type":"Feature","geometry":{"type":"Point","coordinates":[-122.37123,40.66345]},"properties":{"frp":10.0,"date":"2026-08-21","daynight":"N"}},{"type":"Feature","geometry":{"type":"Point","coordinates":[-122.39536,40.67067]},"properties":{"frp":10.0,"date":"2026-08-21","daynight":"N"}},{"type":"Feature","geometry":{"type":"Point","coordinates":[-122.3682,40.66601]},"properties":{"frp":10.0,"date":"2026-08-21","daynight":"N"}},{"type":"Feature","geometry":{"type":"Point","coordinates":[-122.39928,40.67399]},"properties":{"frp":10.0,"date":"2026-08-21","daynight":"N"}},{"type":"Feature","geometry":{"type":"Point","coordinates":[-122.36634,40.66125]},"properties":{"frp":10.0,"date":"2026-08-21","daynight":"N"}},{"type":"Feature","geometry":{"type":"Point","coordinates":[-122.40336,40.67562]},"properties":{"frp":10.0,"date":"2026-08-21","daynight":"N"}},{"type":"Feature","geometry":{"type":"Point","coordinates":[-122.36425,40.66319]},"properties":{"frp":10.0,"date":"2026-08-21","daynight":"N"}},{"type":"Feature","geometry":{"type":"Point","coordinates":[-122.40453,40.67564]},"properties":{"frp":10.0,"date":"2026-08-21","daynight":"N"}},{"type":"Feature","geometry":{"type":"Point","coordinates":[-122.36322,40.66746]},"properties":{"frp":10.0,"date":"2026-08-21","daynight":"N"}},{"type":"Feature","geometry":{"type":"Point","coordinates":[-122.40069,40.68025]},"properties":{"frp":10.0,"date":"2026-08-21","daynight":"N"}},{"type":"Feature","geometry":{"type":"Point","coordinates":[-122.35891,40.6693]},"properties":{"frp":10.0,"date":"2026-08-21","daynight":"N"}},{"type":"Feature","geometry":{"type":"Point","coordinates":[-122.4074,40.68309]},"properties":{"frp":10.0,"date":"2026-08-21","daynight":"N"}},{"type":"Feature","geometry":{"type":"Point","coordinates":[-122.36114,40.66573]},"properties":{"frp":10.0,"date":"2026-08-21","daynight":"N"}},{"type":"Feature","geometry":{"type":"Point","coordinates":[-122.4081,40.68462]},"properties":{"frp":10.0,"date":"2026-08-21","daynight":"N"}},{"type":"Feature","geometry":{"type":"Point","coordinates":[-122.36077,40.67066]},"properties":{"frp":10.0,"date":"2026-08-21","daynight":"N"}},{"type":"Feature","geometry":{"type":"Point","coordinates":[-120.84607,39.30124]},"properties":{"frp":9.1,"date":"2026-08-21","daynight":"N"}},{"type":"Feature","geometry":{"type":"Point","coordinates":[-120.84196,39.29534]},"properties":{"frp":9.9,"date":"2026-08-21","daynight":"N"}},{"type":"Feature","geometry":{"type":"Point","coordinates":[-120.847,39.29616]},"properties":{"frp":10.8,"date":"2026-08-21","daynight":"N"}},{"type":"Feature","geometry":{"type":"Point","coordinates":[-120.85372,39.29325]},"properties":{"frp":16.3,"date":"2026-08-21","daynight":"N"}},{"type":"Feature","geometry":{"type":"Point","coordinates":[-120.85104,39.30607]},"properties":{"frp":6.4,"date":"2026-08-21","daynight":"N"}},{"type":"Feature","geometry":{"type":"Point","coordinates":[-120.84905,39.30336]},"properties":{"frp":20.7,"date":"2026-08-21","daynight":"N"}},{"type":"Feature","geometry":{"type":"Point","coordinates":[-120.84454,39.29958]},"properties":{"frp":15.4,"date":"2026-08-21","daynight":"N"}},{"type":"Feature","geometry":{"type":"Point","coordinates":[-120.85712,39.29905]},"properties":{"frp":5.6,"date":"2026-08-21","daynight":"N"}},{"type":"Feature","geometry":{"type":"Point","coordinates":[-123.30691,41.05162]},"properties":{"frp":5.5,"date":"2026-08-21","daynight":"N"}},{"type":"Feature","geometry":{"type":"Point","coordinates":[-123.30991,41.04928]},"properties":{"frp":8.0,"date":"2026-08-21","daynight":"N"}},{"type":"Feature","geometry":{"type":"Point","coordinates":[-123.31306,41.0467]},"properties":{"frp":1.2,"date":"2026-08-21","daynight":"N"}},{"type":"Feature","geometry":{"type":"Point","coordinates":[-123.32352,41.04238]},"properties":{"frp":7.8,"date":"2026-08-21","daynight":"N"}},{"type":"Feature","geometry":{"type":"Point","coordinates":[-123.31713,41.05443]},"properties":{"frp":16.2,"date":"2026-08-21","daynight":"N"}},{"type":"Feature","geometry":{"type":"Point","coordinates":[-123.31902,41.04786]},"properties":{"frp":15.7,"date":"2026-08-21","daynight":"N"}},{"type":"Feature","geometry":{"type":"Point","coordinates":[-123.31332,41.04337]},"properties":{"frp":7.4,"date":"2026-08-21","daynight":"N"}},{"type":"Feature","geometry":{"type":"Point","coordinates":[-123.31072,41.04657]},"properties":{"frp":14.7,"date":"2026-08-21","daynight":"N"}},{"type":"Feature","geometry":{"type":"Point","coordinates":[-123.31099,41.05213]},"properties":{"frp":10.8,"date":"2026-08-21","daynight":"N"}},{"type":"Feature","geometry":{"type":"Point","coordinates":[-123.30508,41.05112]},"properties":{"frp":1.7,"date":"2026-08-21","daynight":"N"}},{"type":"Feature","geometry":{"type":"Point","coordinates":[-123.31276,41.04498]},"properties":{"frp":6.5,"date":"2026-08-21","daynight":"N"}},{"type":"Feature","geometry":{"type":"Point","coordinates":[-123.30656,41.05532]},"properties":{"frp":11.1,"date":"2026-08-21","daynight":"N"}},{"type":"Feature","geometry":{"type":"Point","coordinates":[-123.31397,41.04332]},"properties":{"frp":10.0,"date":"2026-08-21","daynight":"N"}},{"type":"Feature","geometry":{"type":"Point","coordinates":[-123.31011,41.05638]},"properties":{"frp":31.7,"date":"2026-08-21","daynight":"N"}},{"type":"Feature","geometry":{"type":"Point","coordinates":[-123.31352,41.05092]},"properties":{"frp":16.8,"date":"2026-08-21","daynight":"N"}},{"type":"Feature","geometry":{"type":"Point","coordinates":[-123.29078,41.05133]},"properties":{"frp":1.3,"date":"2026-08-21","daynight":"N"}},{"type":"Feature","geometry":{"type":"Point","coordinates":[-123.29501,41.04958]},"properties":{"frp":8.4,"date":"2026-08-21","daynight":"N"}},{"type":"Feature","geometry":{"type":"Point","coordinates":[-123.28538,41.05064]},"properties":{"frp":5.2,"date":"2026-08-21","daynight":"N"}},{"type":"Feature","geometry":{"type":"Point","coordinates":[-123.29509,41.04893]},"properties":{"frp":4.6,"date":"2026-08-21","daynight":"N"}},{"type":"Feature","geometry":{"type":"Point","coordinates":[-123.28579,41.05465]},"properties":{"frp":3.0,"date":"2026-08-21","daynight":"N"}},{"type":"Feature","geometry":{"type":"Point","coordinates":[-123.28882,41.04659]},"properties":{"frp":11.6,"date":"2026-08-21","daynight":"N"}},{"type":"Feature","geometry":{"type":"Point","coordinates":[-123.29232,41.04295]},"properties":{"frp":4.3,"date":"2026-08-21","daynight":"N"}},{"type":"Feature","geometry":{"type":"Point","coordinates":[-123.28173,41.04747]},"properties":{"frp":3.3,"date":"2026-08-21","daynight":"N"}},{"type":"Feature","geometry":{"type":"Point","coordinates":[-123.28449,41.04699]},"properties":{"frp":7.0,"date":"2026-08-21","daynight":"N"}},{"type":"Feature","geometry":{"type":"Point","coordinates":[-123.28633,41.04747]},"properties":{"frp":4.9,"date":"2026-08-21","daynight":"N"}},{"type":"Feature","geometry":{"type":"Point","coordinates":[-123.2834,41.04934]},"properties":{"frp":3.7,"date":"2026-08-21","daynight":"N"}},{"type":"Feature","geometry":{"type":"Point","coordinates":[-123.29489,41.04749]},"properties":{"frp":10.8,"date":"2026-08-21","daynight":"N"}},{"type":"Feature","geometry":{"type":"Point","coordinates":[-123.29,41.0435]},"properties":{"frp":4.6,"date":"2026-08-21","daynight":"N"}},{"type":"Feature","geometry":{"type":"Point","coordinates":[-123.28557,41.04413]},"properties":{"frp":3.8,"date":"2026-08-21","daynight":"N"}},{"type":"Feature","geometry":{"type":"Point","coordinates":[-123.27634,41.04781]},"properties":{"frp":15.9,"date":"2026-08-21","daynight":"N"}},{"type":"Feature","geometry":{"type":"Point","coordinates":[-120.69515,47.60763]},"properties":{"frp":14.2,"date":"2026-08-21","daynight":"N"}},{"type":"Feature","geometry":{"type":"Point","coordinates":[-120.70533,47.60589]},"properties":{"frp":22.8,"date":"2026-08-21","daynight":"N"}},{"type":"Feature","geometry":{"type":"Point","coordinates":[-120.70869,47.61244]},"properties":{"frp":18.3,"date":"2026-08-21","daynight":"N"}},{"type":"Feature","geometry":{"type":"Point","coordinates":[-120.69773,47.60738]},"properties":{"frp":17.0,"date":"2026-08-21","daynight":"N"}},{"type":"Feature","geometry":{"type":"Point","coordinates":[-120.68589,47.6054]},"properties":{"frp":15.2,"date":"2026-08-21","daynight":"N"}},{"type":"Feature","geometry":{"type":"Point","coordinates":[-120.66229,47.60899]},"properties":{"frp":26.4,"date":"2026-08-21","daynight":"N"}},{"type":"Feature","geometry":{"type":"Point","coordinates":[-120.69514,47.61458]},"properties":{"frp":18.5,"date":"2026-08-21","daynight":"N"}},{"type":"Feature","geometry":{"type":"Point","coordinates":[-120.67553,47.60446]},"properties":{"frp":10.3,"date":"2026-08-21","daynight":"N"}},{"type":"Feature","geometry":{"type":"Point","coordinates":[-120.69244,47.63343]},"properties":{"frp":5.8,"date":"2026-08-21","daynight":"N"}},{"type":"Feature","geometry":{"type":"Point","coordinates":[-120.69347,47.60384]},"properties":{"frp":14.2,"date":"2026-08-21","daynight":"N"}},{"type":"Feature","geometry":{"type":"Point","coordinates":[-120.67845,47.60654]},"properties":{"frp":13.4,"date":"2026-08-21","daynight":"N"}},{"type":"Feature","geometry":{"type":"Point","coordinates":[-120.69485,47.62971]},"properties":{"frp":25.4,"date":"2026-08-21","daynight":"N"}},{"type":"Feature","geometry":{"type":"Point","coordinates":[-120.7078,47.59076]},"properties":{"frp":8.5,"date":"2026-08-21","daynight":"N"}},{"type":"Feature","geometry":{"type":"Point","coordinates":[-120.68145,47.62825]},"properties":{"frp":18.4,"date":"2026-08-21","daynight":"N"}},{"type":"Feature","geometry":{"type":"Point","coordinates":[-120.7151,47.63331]},"properties":{"frp":3.8,"date":"2026-08-21","daynight":"N"}},{"type":"Feature","geometry":{"type":"Point","coordinates":[-120.68381,47.62362]},"properties":{"frp":25.6,"date":"2026-08-21","daynight":"N"}},{"type":"Feature","geometry":{"type":"Point","coordinates":[-120.69609,47.6001]},"properties":{"frp":6.9,"date":"2026-08-21","daynight":"N"}},{"type":"Feature","geometry":{"type":"Point","coordinates":[-120.69961,47.62329]},"properties":{"frp":3.8,"date":"2026-08-21","daynight":"N"}},{"type":"Feature","geometry":{"type":"Point","coordinates":[-120.69991,47.59777]},"properties":{"frp":20.2,"date":"2026-08-21","daynight":"N"}},{"type":"Feature","geometry":{"type":"Point","coordinates":[-120.69778,47.61607]},"properties":{"frp":8.1,"date":"2026-08-21","daynight":"N"}},{"type":"Feature","geometry":{"type":"Point","coordinates":[-120.70132,47.61324]},"properties":{"frp":6.9,"date":"2026-08-21","daynight":"N"}},{"type":"Feature","geometry":{"type":"Point","coordinates":[-120.69069,47.61952]},"properties":{"frp":15.4,"date":"2026-08-21","daynight":"N"}},{"type":"Feature","geometry":{"type":"Point","coordinates":[-120.70092,47.61635]},"properties":{"frp":10.3,"date":"2026-08-21","daynight":"N"}},{"type":"Feature","geometry":{"type":"Point","coordinates":[-120.71905,47.62111]},"properties":{"frp":5.1,"date":"2026-08-21","daynight":"N"}},{"type":"Feature","geometry":{"type":"Point","coordinates":[-120.69601,47.62572]},"properties":{"frp":22.3,"date":"2026-08-21","daynight":"N"}},{"type":"Feature","geometry":{"type":"Point","coordinates":[-120.68447,47.62048]},"properties":{"frp":7.7,"date":"2026-08-21","daynight":"N"}},{"type":"Feature","geometry":{"type":"Point","coordinates":[-120.71969,47.59657]},"properties":{"frp":1.3,"date":"2026-08-21","daynight":"N"}},{"type":"Feature","geometry":{"type":"Point","coordinates":[-120.69609,47.62329]},"properties":{"frp":6.1,"date":"2026-08-21","daynight":"N"}},{"type":"Feature","geometry":{"type":"Point","coordinates":[-120.70155,47.62204]},"properties":{"frp":1.7,"date":"2026-08-21","daynight":"N"}},{"type":"Feature","geometry":{"type":"Point","coordinates":[-120.68481,47.62797]},"properties":{"frp":2.8,"date":"2026-08-21","daynight":"N"}},{"type":"Feature","geometry":{"type":"Point","coordinates":[-121.42842,43.76189]},"properties":{"frp":3.3,"date":"2026-08-21","daynight":"N"}},{"type":"Feature","geometry":{"type":"Point","coordinates":[-121.419,43.75562]},"properties":{"frp":7.9,"date":"2026-08-21","daynight":"N"}},{"type":"Feature","geometry":{"type":"Point","coordinates":[-121.44289,43.75611]},"properties":{"frp":8.4,"date":"2026-08-21","daynight":"N"}},{"type":"Feature","geometry":{"type":"Point","coordinates":[-121.43893,43.76501]},"properties":{"frp":4.6,"date":"2026-08-21","daynight":"N"}},{"type":"Feature","geometry":{"type":"Point","coordinates":[-121.42955,43.7611]},"properties":{"frp":6.2,"date":"2026-08-21","daynight":"N"}},{"type":"Feature","geometry":{"type":"Point","coordinates":[-121.39899,43.75985]},"properties":{"frp":2.0,"date":"2026-08-21","daynight":"N"}},{"type":"Feature","geometry":{"type":"Point","coordinates":[-121.41742,43.76959]},"properties":{"frp":7.5,"date":"2026-08-21","daynight":"N"}},{"type":"Feature","geometry":{"type":"Point","coordinates":[-121.42687,43.75035]},"properties":{"frp":9.4,"date":"2026-08-21","daynight":"N"}},{"type":"Feature","geometry":{"type":"Point","coordinates":[-121.43076,43.77126]},"properties":{"frp":6.3,"date":"2026-08-21","daynight":"N"}},{"type":"Feature","geometry":{"type":"Point","coordinates":[-121.43263,43.77853]},"properties":{"frp":0.5,"date":"2026-08-21","daynight":"N"}},{"type":"Feature","geometry":{"type":"Point","coordinates":[-121.42615,43.76599]},"properties":{"frp":4.4,"date":"2026-08-21","daynight":"N"}},{"type":"Feature","geometry":{"type":"Point","coordinates":[-121.42673,43.77073]},"properties":{"frp":11.2,"date":"2026-08-21","daynight":"N"}},{"type":"Feature","geometry":{"type":"Point","coordinates":[-121.42248,43.76616]},"properties":{"frp":8.3,"date":"2026-08-21","daynight":"N"}},{"type":"Feature","geometry":{"type":"Point","coordinates":[-121.41491,43.76129]},"properties":{"frp":3.5,"date":"2026-08-21","daynight":"N"}},{"type":"Feature","geometry":{"type":"Point","coordinates":[-121.42093,43.7715]},"properties":{"frp":9.6,"date":"2026-08-21","daynight":"N"}},{"type":"Feature","geometry":{"type":"Point","coordinates":[-121.41164,43.76448]},"properties":{"frp":2.1,"date":"2026-08-21","daynight":"N"}},{"type":"Feature","geometry":{"type":"Point","coordinates":[-121.42322,43.76652]},"properties":{"frp":6.9,"date":"2026-08-21","daynight":"N"}},{"type":"Feature","geometry":{"type":"Point","coordinates":[-121.40219,43.7701]},"properties":{"frp":4.0,"date":"2026-08-21","daynight":"N"}},{"type":"Feature","geometry":{"type":"Point","coordinates":[-121.41192,43.75493]},"properties":{"frp":8.2,"date":"2026-08-21","daynight":"N"}},{"type":"Feature","geometry":{"type":"Point","coordinates":[-121.41772,43.74912]},"properties":{"frp":13.0,"date":"2026-08-21","daynight":"N"}},{"type":"Feature","geometry":{"type":"Point","coordinates":[-121.42588,43.77079]},"properties":{"frp":7.0,"date":"2026-08-21","daynight":"N"}},{"type":"Feature","geometry":{"type":"Point","coordinates":[-121.42265,43.76933]},"properties":{"frp":0.6,"date":"2026-08-21","daynight":"N"}},{"type":"Feature","geometry":{"type":"Point","coordinates":[-121.42304,43.76075]},"properties":{"frp":2.3,"date":"2026-08-21","daynight":"N"}},{"type":"Feature","geometry":{"type":"Point","coordinates":[-121.42806,43.77108]},"properties":{"frp":6.2,"date":"2026-08-21","daynight":"N"}},{"type":"Feature","geometry":{"type":"Point","coordinates":[-119.05,35.42]},"properties":{"frp":4.0,"date":"2026-08-21","daynight":"N"}},{"type":"Feature","geometry":{"type":"Point","coordinates":[-119.05,35.423]},"properties":{"frp":4.0,"date":"2026-08-21","daynight":"N"}},{"type":"Feature","geometry":{"type":"Point","coordinates":[-119.05,35.417]},"properties":{"frp":4.0,"date":"2026-08-21","daynight":"N"}}]}