{"type":"FeatureCollection","features":[{"type":"Feature","geometry":{"type":"Point","coordinates":[-73.25462,45.83954]},"properties":{"frp":2.29,"date":"2026-09-23","daynight":"N"}},{"type":"Feature","geometry":{"type":"Point","coordinates":[-73.14444,46.04298]},"properties":{"frp":2.63,"date":"2026-09-23","daynight":"N"}},{"type":"Feature","geometry":{"type":"Point","coordinates":[-80.79769,46.57446]},"properties":{"frp":2.22,"date":"2026-09-23","daynight":"N"}},{"type":"Feature","geometry":{"type":"Point","coordinates":[-80.10478,42.79925]},"properties":{"frp":0.9,"date":"2026-09-23","daynight":"N"}},{"type":"Feature","geometry":{"type":"Point","coordinates":[-80.10342,42.79964]},"properties":{"frp":1.93,"date":"2026-09-23","daynight":"N"}},{"type":"Feature","geometry":{"type":"Point","coordinates":[-80.09811,42.80519]},"properties":{"frp":6.11,"date":"2026-09-23","daynight":"N"}},{"type":"Feature","geometry":{"type":"Point","coordinates":[-80.09677,42.80555]},"properties":{"frp":4.84,"date":"2026-09-23","daynight":"N"}},{"type":"Feature","geometry":{"type":"Point","coordinates":[-80.10301,42.80574]},"properties":{"frp":1.93,"date":"2026-09-23","daynight":"N"}},{"type":"Feature","geometry":{"type":"Point","coordinates":[-80.09732,42.8174]},"properties":{"frp":1.35,"date":"2026-09-23","daynight":"N"}},{"type":"Feature","geometry":{"type":"Point","coordinates":[-80.09604,42.81775]},"properties":{"frp":1.92,"date":"2026-09-23","daynight":"N"}},{"type":"Feature","geometry":{"type":"Point","coordinates":[-79.80934,43.26133]},"properties":{"frp":1.52,"date":"2026-09-23","daynight":"N"}},{"type":"Feature","geometry":{"type":"Point","coordinates":[-79.80897,43.26737]},"properties":{"frp":1.52,"date":"2026-09-23","daynight":"N"}},{"type":"Feature","geometry":{"type":"Point","coordinates":[-82.64562,43.65007]},"properties":{"frp":0.47,"date":"2026-09-23","daynight":"N"}},{"type":"Feature","geometry":{"type":"Point","coordinates":[-77.12057,44.0533]},"properties":{"frp":0.88,"date":"2026-09-23","daynight":"N"}},{"type":"Feature","geometry":{"type":"Point","coordinates":[-83.40896,45.07167]},"properties":{"frp":3.55,"date":"2026-09-23","daynight":"N"}},{"type":"Feature","geometry":{"type":"Point","coordinates":[-83.40564,45.07397]},"properties":{"frp":3.71,"date":"2026-09-23","daynight":"N"}},{"type":"Feature","geometry":{"type":"Point","coordinates":[-82.35403,31.51505]},"properties":{"frp":0.71,"date":"2026-09-23","daynight":"N"}},{"type":"Feature","geometry":{"type":"Point","coordinates":[-82.71413,31.55947]},"properties":{"frp":1.26,"date":"2026-09-23","daynight":"N"}},{"type":"Feature","geometry":{"type":"Point","coordinates":[-82.71451,31.55969]},"properties":{"frp":0.98,"date":"2026-09-23","daynight":"N"}},{"type":"Feature","geometry":{"type":"Point","coordinates":[-82.71364,31.56594]},"properties":{"frp":1.7,"date":"2026-09-23","daynight":"N"}},{"type":"Feature","geometry":{"type":"Point","coordinates":[-82.714,31.56616]},"properties":{"frp":2.17,"date":"2026-09-23","daynight":"N"}},{"type":"Feature","geometry":{"type":"Point","coordinates":[-82.71986,31.56626]},"properties":{"frp":1.7,"date":"2026-09-23","daynight":"N"}},{"type":"Feature","geometry":{"type":"Point","coordinates":[-82.7202,31.56645]},"properties":{"frp":2.43,"date":"2026-09-23","daynight":"N"}},{"type":"Feature","geometry":{"type":"Point","coordinates":[-73.24957,45.83945]},"properties":{"frp":2.13,"date":"2026-09-23","daynight":"N"}},{"type":"Feature","geometry":{"type":"Point","coordinates":[-73.13974,46.04356]},"properties":{"frp":0.78,"date":"2026-09-23","daynight":"N"}},{"type":"Feature","geometry":{"type":"Point","coordinates":[-79.01887,48.25137]},"properties":{"frp":1.7,"date":"2026-09-23","daynight":"N"}},{"type":"Feature","geometry":{"type":"Point","coordinates":[-79.02477,48.25284]},"properties":{"frp":2.29,"date":"2026-09-23","daynight":"N"}},{"type":"Feature","geometry":{"type":"Point","coordinates":[-80.1021,42.80183]},"properties":{"frp":1.25,"date":"2026-09-23","daynight":"N"}},{"type":"Feature","geometry":{"type":"Point","coordinates":[-80.09319,42.80469]},"properties":{"frp":1.93,"date":"2026-09-23","daynight":"N"}},{"type":"Feature","geometry":{"type":"Point","coordinates":[-80.09995,42.80642]},"properties":{"frp":1.25,"date":"2026-09-23","daynight":"N"}},{"type":"Feature","geometry":{"type":"Point","coordinates":[-80.09501,42.81456]},"properties":{"frp":2.3,"date":"2026-09-23","daynight":"N"}},{"type":"Feature","geometry":{"type":"Point","coordinates":[-81.32462,42.81519]},"properties":{"frp":0.64,"date":"2026-09-23","daynight":"N"}},{"type":"Feature","geometry":{"type":"Point","coordinates":[-80.09558,42.81558]},"properties":{"frp":1.6,"date":"2026-09-23","daynight":"N"}},{"type":"Feature","geometry":{"type":"Point","coordinates":[-80.85604,43.06947]},"properties":{"frp":1.18,"date":"2026-09-23","daynight":"N"}},{"type":"Feature","geometry":{"type":"Point","coordinates":[-82.64389,43.64651]},"properties":{"frp":1.11,"date":"2026-09-23","daynight":"N"}},{"type":"Feature","geometry":{"type":"Point","coordinates":[-77.12023,44.0523]},"properties":{"frp":1.33,"date":"2026-09-23","daynight":"N"}},{"type":"Feature","geometry":{"type":"Point","coordinates":[-77.12033,44.05477]},"properties":{"frp":1.03,"date":"2026-09-23","daynight":"N"}},{"type":"Feature","geometry":{"type":"Point","coordinates":[-93.04045,44.76569]},"properties":{"frp":1.25,"date":"2026-09-23","daynight":"N"}},{"type":"Feature","geometry":{"type":"Point","coordinates":[-83.40125,45.07123]},"properties":{"frp":1.69,"date":"2026-09-23","daynight":"N"}},{"type":"Feature","geometry":{"type":"Point","coordinates":[-83.40793,45.07267]},"properties":{"frp":1.9,"date":"2026-09-23","daynight":"N"}},{"type":"Feature","geometry":{"type":"Point","coordinates":[-83.40696,45.07301]},"properties":{"frp":3.98,"date":"2026-09-23","daynight":"N"}},{"type":"Feature","geometry":{"type":"Point","coordinates":[-81.0321,46.48751]},"properties":{"frp":1.9,"date":"2026-09-23","daynight":"N"}},{"type":"Feature","geometry":{"type":"Point","coordinates":[-81.03738,46.48875]},"properties":{"frp":1.9,"date":"2026-09-23","daynight":"N"}},{"type":"Feature","geometry":{"type":"Point","coordinates":[-92.07531,46.73158]},"properties":{"frp":1.69,"date":"2026-09-23","daynight":"N"}},{"type":"Feature","geometry":{"type":"Point","coordinates":[-103.31292,48.63287]},"properties":{"frp":0.54,"date":"2026-09-23","daynight":"N"}},{"type":"Feature","geometry":{"type":"Point","coordinates":[-103.3139,48.63373]},"properties":{"frp":0.61,"date":"2026-09-23","daynight":"N"}},{"type":"Feature","geometry":{"type":"Point","coordinates":[-103.64605,49.02882]},"properties":{"frp":0.46,"date":"2026-09-23","daynight":"N"}},{"type":"Feature","geometry":{"type":"Point","coordinates":[-87.08217,34.63753]},"properties":{"frp":1.77,"date":"2026-09-23","daynight":"N"}},{"type":"Feature","geometry":{"type":"Point","coordinates":[-87.0864,34.63842]},"properties":{"frp":1.35,"date":"2026-09-23","daynight":"N"}},{"type":"Feature","geometry":{"type":"Point","coordinates":[-87.09064,34.63932]},"properties":{"frp":1.35,"date":"2026-09-23","daynight":"N"}},{"type":"Feature","geometry":{"type":"Point","coordinates":[-93.7733,35.41118]},"properties":{"frp":1.59,"date":"2026-09-23","daynight":"N"}},{"type":"Feature","geometry":{"type":"Point","coordinates":[-93.77753,35.41183]},"properties":{"frp":0.81,"date":"2026-09-23","daynight":"N"}},{"type":"Feature","geometry":{"type":"Point","coordinates":[-94.87213,36.01674]},"properties":{"frp":0.98,"date":"2026-09-23","daynight":"N"}},{"type":"Feature","geometry":{"type":"Point","coordinates":[-94.87662,36.01738]},"properties":{"frp":1.18,"date":"2026-09-23","daynight":"N"}},{"type":"Feature","geometry":{"type":"Point","coordinates":[-94.87588,36.02076]},"properties":{"frp":1.18,"date":"2026-09-23","daynight":"N"}},{"type":"Feature","geometry":{"type":"Point","coordinates":[-97.83581,36.5186]},"properties":{"frp":0.87,"date":"2026-09-23","daynight":"N"}},{"type":"Feature","geometry":{"type":"Point","coordinates":[-97.84161,36.51928]},"properties":{"frp":1.84,"date":"2026-09-23","daynight":"N"}},{"type":"Feature","geometry":{"type":"Point","coordinates":[-82.04183,37.23336]},"properties":{"frp":2.9,"date":"2026-09-23","daynight":"N"}},{"type":"Feature","geometry":{"type":"Point","coordinates":[-93.9799,37.73486]},"properties":{"frp":1.12,"date":"2026-09-23","daynight":"N"}},{"type":"Feature","geometry":{"type":"Point","coordinates":[-93.97913,37.73821]},"properties":{"frp":1.12,"date":"2026-09-23","daynight":"N"}},{"type":"Feature","geometry":{"type":"Point","coordinates":[-90.07884,37.9667]},"properties":{"frp":0.87,"date":"2026-09-23","daynight":"N"}},{"type":"Feature","geometry":{"type":"Point","coordinates":[-90.06673,37.97517]},"properties":{"frp":0.92,"date":"2026-09-23","daynight":"N"}},{"type":"Feature","geometry":{"type":"Point","coordinates":[-90.07891,38.00916]},"properties":{"frp":1.41,"date":"2026-09-23","daynight":"N"}},{"type":"Feature","geometry":{"type":"Point","coordinates":[-90.08349,38.00998]},"properties":{"frp":1.41,"date":"2026-09-23","daynight":"N"}},{"type":"Feature","geometry":{"type":"Point","coordinates":[-90.14382,38.69116]},"properties":{"frp":0.95,"date":"2026-09-23","daynight":"N"}},{"type":"Feature","geometry":{"type":"Point","coordinates":[-90.14838,38.69197]},"properties":{"frp":1.25,"date":"2026-09-23","daynight":"N"}},{"type":"Feature","geometry":{"type":"Point","coordinates":[-90.12918,38.6921]},"properties":{"frp":0.89,"date":"2026-09-23","daynight":"N"}},{"type":"Feature","geometry":{"type":"Point","coordinates":[-90.13831,38.6937]},"properties":{"frp":0.95,"date":"2026-09-23","daynight":"N"}},{"type":"Feature","geometry":{"type":"Point","coordinates":[-90.14743,38.69531]},"properties":{"frp":1.25,"date":"2026-09-23","daynight":"N"}},{"type":"Feature","geometry":{"type":"Point","coordinates":[-90.12823,38.69544]},"properties":{"frp":2.08,"date":"2026-09-23","daynight":"N"}},{"type":"Feature","geometry":{"type":"Point","coordinates":[-90.13279,38.69624]},"properties":{"frp":2.08,"date":"2026-09-23","daynight":"N"}},{"type":"Feature","geometry":{"type":"Point","coordinates":[-90.68161,39.72003]},"properties":{"frp":2.56,"date":"2026-09-23","daynight":"N"}},{"type":"Feature","geometry":{"type":"Point","coordinates":[-90.68068,39.72332]},"properties":{"frp":2.56,"date":"2026-09-23","daynight":"N"}},{"type":"Feature","geometry":{"type":"Point","coordinates":[-90.18177,27.36077]},"properties":{"frp":7.7,"date":"2026-09-23","daynight":"N"}},{"type":"Feature","geometry":{"type":"Point","coordinates":[-90.1808,27.36466]},"properties":{"frp":8.91,"date":"2026-09-23","daynight":"N"}},{"type":"Feature","geometry":{"type":"Point","coordinates":[-90.09846,27.51812]},"properties":{"frp":4.78,"date":"2026-09-23","daynight":"N"}},{"type":"Feature","geometry":{"type":"Point","coordinates":[-90.0975,27.52202]},"properties":{"frp":4.78,"date":"2026-09-23","daynight":"N"}},{"type":"Feature","geometry":{"type":"Point","coordinates":[-97.46257,27.81401]},"properties":{"frp":2.22,"date":"2026-09-23","daynight":"N"}},{"type":"Feature","geometry":{"type":"Point","coordinates":[-97.46677,27.81461]},"properties":{"frp":1.89,"date":"2026-09-23","daynight":"N"}},{"type":"Feature","geometry":{"type":"Point","coordinates":[-97.48357,27.81699]},"properties":{"frp":1.43,"date":"2026-09-23","daynight":"N"}},{"type":"Feature","geometry":{"type":"Point","coordinates":[-97.48779,27.81758]},"properties":{"frp":1.43,"date":"2026-09-23","daynight":"N"}},{"type":"Feature","geometry":{"type":"Point","coordinates":[-97.271,27.88794]},"properties":{"frp":1.57,"date":"2026-09-23","daynight":"N"}},{"type":"Feature","geometry":{"type":"Point","coordinates":[-97.27038,27.89135]},"properties":{"frp":1.57,"date":"2026-09-23","daynight":"N"}},{"type":"Feature","geometry":{"type":"Point","coordinates":[-97.26851,27.90158]},"properties":{"frp":2.77,"date":"2026-09-23","daynight":"N"}},{"type":"Feature","geometry":{"type":"Point","coordinates":[-97.44899,28.05264]},"properties":{"frp":1.22,"date":"2026-09-23","daynight":"N"}},{"type":"Feature","geometry":{"type":"Point","coordinates":[-97.4351,28.05771]},"properties":{"frp":6.92,"date":"2026-09-23","daynight":"N"}},{"type":"Feature","geometry":{"type":"Point","coordinates":[-97.43932,28.05831]},"properties":{"frp":6.92,"date":"2026-09-23","daynight":"N"}},{"type":"Feature","geometry":{"type":"Point","coordinates":[-95.7502,29.06636]},"properties":{"frp":1.42,"date":"2026-09-23","daynight":"N"}},{"type":"Feature","geometry":{"type":"Point","coordinates":[-95.74954,29.06968]},"properties":{"frp":2.2,"date":"2026-09-23","daynight":"N"}},{"type":"Feature","geometry":{"type":"Point","coordinates":[-97.1121,29.3393]},"properties":{"frp":0.89,"date":"2026-09-23","daynight":"N"}},{"type":"Feature","geometry":{"type":"Point","coordinates":[-97.10899,29.3414]},"properties":{"frp":1.07,"date":"2026-09-23","daynight":"N"}},{"type":"Feature","geometry":{"type":"Point","coordinates":[-97.11147,29.34273]},"properties":{"frp":0.89,"date":"2026-09-23","daynight":"N"}},{"type":"Feature","geometry":{"type":"Point","coordinates":[-94.90764,29.36955]},"properties":{"frp":3.2,"date":"2026-09-23","daynight":"N"}},{"type":"Feature","geometry":{"type":"Point","coordinates":[-94.91944,29.37141]},"properties":{"frp":1.88,"date":"2026-09-23","daynight":"N"}},{"type":"Feature","geometry":{"type":"Point","coordinates":[-94.91876,29.37471]},"properties":{"frp":1.49,"date":"2026-09-23","daynight":"N"}},{"type":"Feature","geometry":{"type":"Point","coordinates":[-98.03322,29.57561]},"properties":{"frp":5.98,"date":"2026-09-23","daynight":"N"}},{"type":"Feature","geometry":{"type":"Point","coordinates":[-98.03107,29.57711]},"properties":{"frp":2.97,"date":"2026-09-23","daynight":"N"}},{"type":"Feature","geometry":{"type":"Point","coordinates":[-98.03568,29.57772]},"properties":{"frp":2.97,"date":"2026-09-23","daynight":"N"}},{"type":"Feature","geometry":{"type":"Point","coordinates":[-95.02718,29.61201]},"properties":{"frp":2.01,"date":"2026-09-23","daynight":"N"}},{"type":"Feature","geometry":{"type":"Point","coordinates":[-95.04953,29.62231]},"properties":{"frp":2.4,"date":"2026-09-23","daynight":"N"}},{"type":"Feature","geometry":{"type":"Point","coordinates":[-95.06138,29.62417]},"properties":{"frp":1.11,"date":"2026-09-23","daynight":"N"}},{"type":"Feature","geometry":{"type":"Point","coordinates":[-95.06532,29.62478]},"properties":{"frp":1.11,"date":"2026-09-23","daynight":"N"}},{"type":"Feature","geometry":{"type":"Point","coordinates":[-98.18546,29.67429]},"properties":{"frp":0.88,"date":"2026-09-23","daynight":"N"}},{"type":"Feature","geometry":{"type":"Point","coordinates":[-95.1294,29.71616]},"properties":{"frp":0.89,"date":"2026-09-23","daynight":"N"}},{"type":"Feature","geometry":{"type":"Point","coordinates":[-95.10825,29.7197]},"properties":{"frp":0.6,"date":"2026-09-23","daynight":"N"}},{"type":"Feature","geometry":{"type":"Point","coordinates":[-95.12206,29.73208]},"properties":{"frp":1.1,"date":"2026-09-23","daynight":"N"}},{"type":"Feature","geometry":{"type":"Point","coordinates":[-95.12468,29.7393]},"properties":{"frp":1.15,"date":"2026-09-23","daynight":"N"}},{"type":"Feature","geometry":{"type":"Point","coordinates":[-95.124,29.74261]},"properties":{"frp":1.15,"date":"2026-09-23","daynight":"N"}},{"type":"Feature","geometry":{"type":"Point","coordinates":[-93.87196,29.74891]},"properties":{"frp":1.12,"date":"2026-09-23","daynight":"N"}},{"type":"Feature","geometry":{"type":"Point","coordinates":[-93.8785,29.75686]},"properties":{"frp":3.03,"date":"2026-09-23","daynight":"N"}},{"type":"Feature","geometry":{"type":"Point","coordinates":[-93.8698,29.75885]},"properties":{"frp":2.11,"date":"2026-09-23","daynight":"N"}},{"type":"Feature","geometry":{"type":"Point","coordinates":[-93.96457,29.83615]},"properties":{"frp":2.53,"date":"2026-09-23","daynight":"N"}},{"type":"Feature","geometry":{"type":"Point","coordinates":[-90.40018,29.99623]},"properties":{"frp":1.86,"date":"2026-09-23","daynight":"N"}},{"type":"Feature","geometry":{"type":"Point","coordinates":[-90.39925,29.9999]},"properties":{"frp":3.11,"date":"2026-09-23","daynight":"N"}},{"type":"Feature","geometry":{"type":"Point","coordinates":[-93.32913,30.17775]},"properties":{"frp":1.49,"date":"2026-09-23","daynight":"N"}},{"type":"Feature","geometry":{"type":"Point","coordinates":[-93.32839,30.18108]},"properties":{"frp":1.13,"date":"2026-09-23","daynight":"N"}},{"type":"Feature","geometry":{"type":"Point","coordinates":[-93.32359,30.18373]},"properties":{"frp":2.28,"date":"2026-09-23","daynight":"N"}},{"type":"Feature","geometry":{"type":"Point","coordinates":[-91.27766,30.33025]},"properties":{"frp":0.92,"date":"2026-09-23","daynight":"N"}},{"type":"Feature","geometry":{"type":"Point","coordinates":[-88.48496,30.34186]},"properties":{"frp":1.5,"date":"2026-09-23","daynight":"N"}},{"type":"Feature","geometry":{"type":"Point","coordinates":[-88.48911,30.3427]},"properties":{"frp":1.5,"date":"2026-09-23","daynight":"N"}},{"type":"Feature","geometry":{"type":"Point","coordinates":[-91.17808,30.48229]},"properties":{"frp":2.19,"date":"2026-09-23","daynight":"N"}},{"type":"Feature","geometry":{"type":"Point","coordinates":[-91.18271,30.48315]},"properties":{"frp":2.58,"date":"2026-09-23","daynight":"N"}},{"type":"Feature","geometry":{"type":"Point","coordinates":[-88.01332,30.93869]},"properties":{"frp":2.57,"date":"2026-09-23","daynight":"N"}},{"type":"Feature","geometry":{"type":"Point","coordinates":[-88.01217,30.94278]},"properties":{"frp":2.1,"date":"2026-09-23","daynight":"N"}},{"type":"Feature","geometry":{"type":"Point","coordinates":[-87.98663,31.14403]},"properties":{"frp":0.88,"date":"2026-09-23","daynight":"N"}},{"type":"Feature","geometry":{"type":"Point","coordinates":[-87.98978,31.14901]},"properties":{"frp":2.7,"date":"2026-09-23","daynight":"N"}},{"type":"Feature","geometry":{"type":"Point","coordinates":[-87.97888,31.15534]},"properties":{"frp":1.65,"date":"2026-09-23","daynight":"N"}},{"type":"Feature","geometry":{"type":"Point","coordinates":[-87.98083,31.16439]},"properties":{"frp":1.39,"date":"2026-09-23","daynight":"N"}},{"type":"Feature","geometry":{"type":"Point","coordinates":[-82.35262,31.51751]},"properties":{"frp":0.66,"date":"2026-09-23","daynight":"N"}},{"type":"Feature","geometry":{"type":"Point","coordinates":[-103.35866,32.138]},"properties":{"frp":1.24,"date":"2026-09-23","daynight":"N"}},{"type":"Feature","geometry":{"type":"Point","coordinates":[-97.54939,32.2455]},"properties":{"frp":0.76,"date":"2026-09-23","daynight":"N"}},{"type":"Feature","geometry":{"type":"Point","coordinates":[-97.55416,32.24612]},"properties":{"frp":1.05,"date":"2026-09-23","daynight":"N"}},{"type":"Feature","geometry":{"type":"Point","coordinates":[-101.71239,32.2985]},"properties":{"frp":2.21,"date":"2026-09-23","daynight":"N"}},{"type":"Feature","geometry":{"type":"Point","coordinates":[-101.71767,32.299]},"properties":{"frp":2.21,"date":"2026-09-23","daynight":"N"}},{"type":"Feature","geometry":{"type":"Point","coordinates":[-90.1317,32.31418]},"properties":{"frp":1.22,"date":"2026-09-23","daynight":"N"}},{"type":"Feature","geometry":{"type":"Point","coordinates":[-90.13662,32.31511]},"properties":{"frp":2.72,"date":"2026-09-23","daynight":"N"}},{"type":"Feature","geometry":{"type":"Point","coordinates":[-103.40987,32.35904]},"properties":{"frp":0.81,"date":"2026-09-23","daynight":"N"}},{"type":"Feature","geometry":{"type":"Point","coordinates":[-87.70584,32.41191]},"properties":{"frp":0.4,"date":"2026-09-23","daynight":"N"}},{"type":"Feature","geometry":{"type":"Point","coordinates":[-87.70467,32.41594]},"properties":{"frp":0.45,"date":"2026-09-23","daynight":"N"}},{"type":"Feature","geometry":{"type":"Point","coordinates":[-94.47562,32.91242]},"properties":{"frp":0.45,"date":"2026-09-23","daynight":"N"}},{"type":"Feature","geometry":{"type":"Point","coordinates":[-86.80549,33.08985]},"properties":{"frp":1.83,"date":"2026-09-23","daynight":"N"}},{"type":"Feature","geometry":{"type":"Point","coordinates":[-86.80418,33.09401]},"properties":{"frp":1.33,"date":"2026-09-23","daynight":"N"}},{"type":"Feature","geometry":{"type":"Point","coordinates":[-86.75591,33.18056]},"properties":{"frp":1.62,"date":"2026-09-23","daynight":"N"}},{"type":"Feature","geometry":{"type":"Point","coordinates":[-86.78861,33.21883]},"properties":{"frp":0.64,"date":"2026-09-23","daynight":"N"}},{"type":"Feature","geometry":{"type":"Point","coordinates":[-86.81725,33.22063]},"properties":{"frp":1.5,"date":"2026-09-23","daynight":"N"}},{"type":"Feature","geometry":{"type":"Point","coordinates":[-87.51405,33.22995]},"properties":{"frp":1.04,"date":"2026-09-23","daynight":"N"}},{"type":"Feature","geometry":{"type":"Point","coordinates":[-87.50867,33.23306]},"properties":{"frp":1.04,"date":"2026-09-23","daynight":"N"}},{"type":"Feature","geometry":{"type":"Point","coordinates":[-87.50748,33.23707]},"properties":{"frp":1.39,"date":"2026-09-23","daynight":"N"}},{"type":"Feature","geometry":{"type":"Point","coordinates":[-86.75784,33.53352]},"properties":{"frp":2.07,"date":"2026-09-23","daynight":"N"}},{"type":"Feature","geometry":{"type":"Point","coordinates":[-99.93433,25.57802]},"properties":{"frp":1.29,"date":"2026-09-23","daynight":"N"}},{"type":"Feature","geometry":{"type":"Point","coordinates":[-99.93924,25.57866]},"properties":{"frp":1.72,"date":"2026-09-23","daynight":"N"}},{"type":"Feature","geometry":{"type":"Point","coordinates":[-99.94234,25.59048]},"properties":{"frp":1.72,"date":"2026-09-23","daynight":"N"}},{"type":"Feature","geometry":{"type":"Point","coordinates":[-100.91716,25.6032]},"properties":{"frp":1.36,"date":"2026-09-23","daynight":"N"}},{"type":"Feature","geometry":{"type":"Point","coordinates":[-100.92268,25.60388]},"properties":{"frp":1.32,"date":"2026-09-23","daynight":"N"}},{"type":"Feature","geometry":{"type":"Point","coordinates":[-99.46255,25.67219]},"properties":{"frp":1.11,"date":"2026-09-23","daynight":"N"}},{"type":"Feature","geometry":{"type":"Point","coordinates":[-99.45947,25.67489]},"properties":{"frp":2.34,"date":"2026-09-23","daynight":"N"}},{"type":"Feature","geometry":{"type":"Point","coordinates":[-99.46197,25.67584]},"properties":{"frp":1.33,"date":"2026-09-23","daynight":"N"}},{"type":"Feature","geometry":{"type":"Point","coordinates":[-100.29848,25.72085]},"properties":{"frp":2.09,"date":"2026-09-23","daynight":"N"}},{"type":"Feature","geometry":{"type":"Point","coordinates":[-100.30362,25.7215]},"properties":{"frp":2.09,"date":"2026-09-23","daynight":"N"}},{"type":"Feature","geometry":{"type":"Point","coordinates":[-100.10183,25.72276]},"properties":{"frp":1.25,"date":"2026-09-23","daynight":"N"}},{"type":"Feature","geometry":{"type":"Point","coordinates":[-103.54092,25.74167]},"properties":{"frp":1.14,"date":"2026-09-23","daynight":"N"}},{"type":"Feature","geometry":{"type":"Point","coordinates":[-103.53984,25.74409]},"properties":{"frp":0.54,"date":"2026-09-23","daynight":"N"}},{"type":"Feature","geometry":{"type":"Point","coordinates":[-114.23985,47.34889]},"properties":{"frp":1.38,"date":"2026-09-23","daynight":"N"}},{"type":"Feature","geometry":{"type":"Point","coordinates":[-114.23872,47.35215]},"properties":{"frp":1.38,"date":"2026-09-23","daynight":"N"}},{"type":"Feature","geometry":{"type":"Point","coordinates":[-114.2437,47.35295]},"properties":{"frp":1.98,"date":"2026-09-23","daynight":"N"}},{"type":"Feature","geometry":{"type":"Point","coordinates":[-103.79528,47.72976]},"properties":{"frp":0.46,"date":"2026-09-23","daynight":"N"}},{"type":"Feature","geometry":{"type":"Point","coordinates":[-115.22242,47.73581]},"properties":{"frp":2.63,"date":"2026-09-23","daynight":"N"}},{"type":"Feature","geometry":{"type":"Point","coordinates":[-115.22741,47.73655]},"properties":{"frp":3.58,"date":"2026-09-23","daynight":"N"}},{"type":"Feature","geometry":{"type":"Point","coordinates":[-115.23245,47.7373]},"properties":{"frp":3.58,"date":"2026-09-23","daynight":"N"}},{"type":"Feature","geometry":{"type":"Point","coordinates":[-115.22129,47.73909]},"properties":{"frp":0.98,"date":"2026-09-23","daynight":"N"}},{"type":"Feature","geometry":{"type":"Point","coordinates":[-115.22632,47.73984]},"properties":{"frp":1.98,"date":"2026-09-23","daynight":"N"}},{"type":"Feature","geometry":{"type":"Point","coordinates":[-115.91854,47.99557]},"properties":{"frp":0.86,"date":"2026-09-23","daynight":"N"}},{"type":"Feature","geometry":{"type":"Point","coordinates":[-115.92371,47.9963]},"properties":{"frp":1.24,"date":"2026-09-23","daynight":"N"}},{"type":"Feature","geometry":{"type":"Point","coordinates":[-115.91766,47.99892]},"properties":{"frp":0.86,"date":"2026-09-23","daynight":"N"}},{"type":"Feature","geometry":{"type":"Point","coordinates":[-121.08451,49.08728]},"properties":{"frp":1.02,"date":"2026-09-23","daynight":"N"}},{"type":"Feature","geometry":{"type":"Point","coordinates":[-121.08253,49.09119]},"properties":{"frp":1.02,"date":"2026-09-23","daynight":"N"}},{"type":"Feature","geometry":{"type":"Point","coordinates":[-121.21511,49.67632]},"properties":{"frp":3.52,"date":"2026-09-23","daynight":"N"}},{"type":"Feature","geometry":{"type":"Point","coordinates":[-121.22118,49.67684]},"properties":{"frp":3.52,"date":"2026-09-23","daynight":"N"}},{"type":"Feature","geometry":{"type":"Point","coordinates":[-121.22749,49.67739]},"properties":{"frp":1.74,"date":"2026-09-23","daynight":"N"}},{"type":"Feature","geometry":{"type":"Point","coordinates":[-114.25394,40.8228]},"properties":{"frp":1.19,"date":"2026-09-23","daynight":"N"}},{"type":"Feature","geometry":{"type":"Point","coordinates":[-122.9023,42.61261]},"properties":{"frp":2.72,"date":"2026-09-23","daynight":"N"}},{"type":"Feature","geometry":{"type":"Point","coordinates":[-111.59184,42.68455]},"properties":{"frp":16.86,"date":"2026-09-23","daynight":"N"}},{"type":"Feature","geometry":{"type":"Point","coordinates":[-111.59058,42.6881]},"properties":{"frp":2.43,"date":"2026-09-23","daynight":"N"}},{"type":"Feature","geometry":{"type":"Point","coordinates":[-122.98008,44.06345]},"properties":{"frp":0.35,"date":"2026-09-23","daynight":"N"}},{"type":"Feature","geometry":{"type":"Point","coordinates":[-122.9836,44.06523]},"properties":{"frp":0.58,"date":"2026-09-23","daynight":"N"}},{"type":"Feature","geometry":{"type":"Point","coordinates":[-120.22753,45.64152]},"properties":{"frp":0.85,"date":"2026-09-23","daynight":"N"}},{"type":"Feature","geometry":{"type":"Point","coordinates":[-118.19226,34.153]},"properties":{"frp":1.11,"date":"2026-09-23","daynight":"N"}},{"type":"Feature","geometry":{"type":"Point","coordinates":[-118.64257,34.42962]},"properties":{"frp":0.42,"date":"2026-09-23","daynight":"N"}},{"type":"Feature","geometry":{"type":"Point","coordinates":[-118.64672,34.43028]},"properties":{"frp":0.75,"date":"2026-09-23","daynight":"N"}},{"type":"Feature","geometry":{"type":"Point","coordinates":[-119.27797,35.68113]},"properties":{"frp":1.27,"date":"2026-09-23","daynight":"N"}},{"type":"Feature","geometry":{"type":"Point","coordinates":[-119.28223,35.68177]},"properties":{"frp":1.75,"date":"2026-09-23","daynight":"N"}},{"type":"Feature","geometry":{"type":"Point","coordinates":[-114.91338,36.35621]},"properties":{"frp":0.8,"date":"2026-09-23","daynight":"N"}},{"type":"Feature","geometry":{"type":"Point","coordinates":[-114.91236,36.35968]},"properties":{"frp":0.8,"date":"2026-09-23","daynight":"N"}},{"type":"Feature","geometry":{"type":"Point","coordinates":[-121.6804,37.18309]},"properties":{"frp":0.56,"date":"2026-09-23","daynight":"N"}},{"type":"Feature","geometry":{"type":"Point","coordinates":[-121.67878,37.18367]},"properties":{"frp":0.48,"date":"2026-09-23","daynight":"N"}},{"type":"Feature","geometry":{"type":"Point","coordinates":[-119.5904,37.58852]},"properties":{"frp":1.92,"date":"2026-09-23","daynight":"N"}},{"type":"Feature","geometry":{"type":"Point","coordinates":[-119.59485,37.58916]},"properties":{"frp":4.94,"date":"2026-09-23","daynight":"N"}},{"type":"Feature","geometry":{"type":"Point","coordinates":[-119.58955,37.59187]},"properties":{"frp":4.21,"date":"2026-09-23","daynight":"N"}},{"type":"Feature","geometry":{"type":"Point","coordinates":[-119.59406,37.59251]},"properties":{"frp":1.62,"date":"2026-09-23","daynight":"N"}},{"type":"Feature","geometry":{"type":"Point","coordinates":[-119.59854,37.59315]},"properties":{"frp":1.62,"date":"2026-09-23","daynight":"N"}},{"type":"Feature","geometry":{"type":"Point","coordinates":[-119.58868,37.59521]},"properties":{"frp":4.21,"date":"2026-09-23","daynight":"N"}},{"type":"Feature","geometry":{"type":"Point","coordinates":[-119.59324,37.59586]},"properties":{"frp":1.62,"date":"2026-09-23","daynight":"N"}},{"type":"Feature","geometry":{"type":"Point","coordinates":[-119.58783,37.59855]},"properties":{"frp":2.95,"date":"2026-09-23","daynight":"N"}},{"type":"Feature","geometry":{"type":"Point","coordinates":[-119.60146,37.60049]},"properties":{"frp":7.28,"date":"2026-09-23","daynight":"N"}},{"type":"Feature","geometry":{"type":"Point","coordinates":[-119.60601,37.60114]},"properties":{"frp":7.28,"date":"2026-09-23","daynight":"N"}},{"type":"Feature","geometry":{"type":"Point","coordinates":[-119.61057,37.60179]},"properties":{"frp":0.73,"date":"2026-09-23","daynight":"N"}},{"type":"Feature","geometry":{"type":"Point","coordinates":[-119.58698,37.60189]},"properties":{"frp":2.95,"date":"2026-09-23","daynight":"N"}},{"type":"Feature","geometry":{"type":"Point","coordinates":[-119.6152,37.60245]},"properties":{"frp":0.73,"date":"2026-09-23","daynight":"N"}},{"type":"Feature","geometry":{"type":"Point","coordinates":[-119.59608,37.60319]},"properties":{"frp":2.88,"date":"2026-09-23","daynight":"N"}},{"type":"Feature","geometry":{"type":"Point","coordinates":[-119.60065,37.60384]},"properties":{"frp":7.28,"date":"2026-09-23","daynight":"N"}},{"type":"Feature","geometry":{"type":"Point","coordinates":[-119.60527,37.6045]},"properties":{"frp":7.28,"date":"2026-09-23","daynight":"N"}},{"type":"Feature","geometry":{"type":"Point","coordinates":[-119.59074,37.60589]},"properties":{"frp":5.28,"date":"2026-09-23","daynight":"N"}},{"type":"Feature","geometry":{"type":"Point","coordinates":[-119.59528,37.60654]},"properties":{"frp":5.28,"date":"2026-09-23","daynight":"N"}},{"type":"Feature","geometry":{"type":"Point","coordinates":[-119.59988,37.6072]},"properties":{"frp":8.94,"date":"2026-09-23","daynight":"N"}},{"type":"Feature","geometry":{"type":"Point","coordinates":[-119.60447,37.60785]},"properties":{"frp":8.94,"date":"2026-09-23","daynight":"N"}},{"type":"Feature","geometry":{"type":"Point","coordinates":[-119.60907,37.60851]},"properties":{"frp":2.73,"date":"2026-09-23","daynight":"N"}},{"type":"Feature","geometry":{"type":"Point","coordinates":[-119.61373,37.60917]},"properties":{"frp":2.73,"date":"2026-09-23","daynight":"N"}},{"type":"Feature","geometry":{"type":"Point","coordinates":[-119.59,37.60925]},"properties":{"frp":5.28,"date":"2026-09-23","daynight":"N"}},{"type":"Feature","geometry":{"type":"Point","coordinates":[-119.59452,37.6099]},"properties":{"frp":5.28,"date":"2026-09-23","daynight":"N"}},{"type":"Feature","geometry":{"type":"Point","coordinates":[-119.59908,37.61055]},"properties":{"frp":8.94,"date":"2026-09-23","daynight":"N"}},{"type":"Feature","geometry":{"type":"Point","coordinates":[-119.60829,37.61186]},"properties":{"frp":2.73,"date":"2026-09-23","daynight":"N"}},{"type":"Feature","geometry":{"type":"Point","coordinates":[-119.62234,37.61386]},"properties":{"frp":5.39,"date":"2026-09-23","daynight":"N"}},{"type":"Feature","geometry":{"type":"Point","coordinates":[-119.60295,37.61456]},"properties":{"frp":0.83,"date":"2026-09-23","daynight":"N"}},{"type":"Feature","geometry":{"type":"Point","coordinates":[-119.61687,37.61655]},"properties":{"frp":4.56,"date":"2026-09-23","daynight":"N"}},{"type":"Feature","geometry":{"type":"Point","coordinates":[-119.62156,37.61721]},"properties":{"frp":4.56,"date":"2026-09-23","daynight":"N"}},{"type":"Feature","geometry":{"type":"Point","coordinates":[-119.5977,37.61728]},"properties":{"frp":0.83,"date":"2026-09-23","daynight":"N"}},{"type":"Feature","geometry":{"type":"Point","coordinates":[-119.61608,37.6199]},"properties":{"frp":4.56,"date":"2026-09-23","daynight":"N"}},{"type":"Feature","geometry":{"type":"Point","coordinates":[-119.62072,37.62056]},"properties":{"frp":4.56,"date":"2026-09-23","daynight":"N"}},{"type":"Feature","geometry":{"type":"Point","coordinates":[-119.60162,37.6213]},"properties":{"frp":1.26,"date":"2026-09-23","daynight":"N"}},{"type":"Feature","geometry":{"type":"Point","coordinates":[-119.61527,37.62325]},"properties":{"frp":6.55,"date":"2026-09-23","daynight":"N"}},{"type":"Feature","geometry":{"type":"Point","coordinates":[-119.61987,37.62391]},"properties":{"frp":6.55,"date":"2026-09-23","daynight":"N"}},{"type":"Feature","geometry":{"type":"Point","coordinates":[-119.60091,37.62467]},"properties":{"frp":1.26,"date":"2026-09-23","daynight":"N"}},{"type":"Feature","geometry":{"type":"Point","coordinates":[-119.60999,37.62596]},"properties":{"frp":1.66,"date":"2026-09-23","daynight":"N"}},{"type":"Feature","geometry":{"type":"Point","coordinates":[-119.61449,37.62661]},"properties":{"frp":6.55,"date":"2026-09-23","daynight":"N"}},{"type":"Feature","geometry":{"type":"Point","coordinates":[-119.59564,37.62738]},"properties":{"frp":1.97,"date":"2026-09-23","daynight":"N"}},{"type":"Feature","geometry":{"type":"Point","coordinates":[-119.60022,37.62803]},"properties":{"frp":1.97,"date":"2026-09-23","daynight":"N"}},{"type":"Feature","geometry":{"type":"Point","coordinates":[-119.60925,37.62933]},"properties":{"frp":2.61,"date":"2026-09-23","daynight":"N"}},{"type":"Feature","geometry":{"type":"Point","coordinates":[-119.6137,37.62996]},"properties":{"frp":17.34,"date":"2026-09-23","daynight":"N"}},{"type":"Feature","geometry":{"type":"Point","coordinates":[-119.59949,37.63139]},"properties":{"frp":1.97,"date":"2026-09-23","daynight":"N"}},{"type":"Feature","geometry":{"type":"Point","coordinates":[-119.60403,37.63204]},"properties":{"frp":2.61,"date":"2026-09-23","daynight":"N"}},{"type":"Feature","geometry":{"type":"Point","coordinates":[-119.60848,37.63268]},"properties":{"frp":2.61,"date":"2026-09-23","daynight":"N"}},{"type":"Feature","geometry":{"type":"Point","coordinates":[-119.61295,37.63332]},"properties":{"frp":17.34,"date":"2026-09-23","daynight":"N"}},{"type":"Feature","geometry":{"type":"Point","coordinates":[-119.59877,37.63475]},"properties":{"frp":0.55,"date":"2026-09-23","daynight":"N"}},{"type":"Feature","geometry":{"type":"Point","coordinates":[-119.60773,37.63604]},"properties":{"frp":5.05,"date":"2026-09-23","daynight":"N"}},{"type":"Feature","geometry":{"type":"Point","coordinates":[-121.18791,37.88292]},"properties":{"frp":1.09,"date":"2026-09-23","daynight":"N"}},{"type":"Feature","geometry":{"type":"Point","coordinates":[-112.81553,38.93843]},"properties":{"frp":2.37,"date":"2026-09-23","daynight":"N"}},{"type":"Feature","geometry":{"type":"Point","coordinates":[-119.26321,39.61841]},"properties":{"frp":1.53,"date":"2026-09-23","daynight":"N"}},{"type":"Feature","geometry":{"type":"Point","coordinates":[-119.26241,39.62179]},"properties":{"frp":0.47,"date":"2026-09-23","daynight":"N"}},{"type":"Feature","geometry":{"type":"Point","coordinates":[-122.20125,40.07299]},"properties":{"frp":2.33,"date":"2026-09-23","daynight":"N"}},{"type":"Feature","geometry":{"type":"Point","coordinates":[-122.20728,40.07366]},"properties":{"frp":2.33,"date":"2026-09-23","daynight":"N"}},{"type":"Feature","geometry":{"type":"Point","coordinates":[-122.20052,40.07679]},"properties":{"frp":0.92,"date":"2026-09-23","daynight":"N"}},{"type":"Feature","geometry":{"type":"Point","coordinates":[-122.20654,40.07746]},"properties":{"frp":0.92,"date":"2026-09-23","daynight":"N"}},{"type":"Feature","geometry":{"type":"Point","coordinates":[-120.98975,49.07648]},"properties":{"frp":1.42,"date":"2026-09-23","daynight":"N"}},{"type":"Feature","geometry":{"type":"Point","coordinates":[-120.99088,49.07771]},"properties":{"frp":1.88,"date":"2026-09-23","daynight":"N"}},{"type":"Feature","geometry":{"type":"Point","coordinates":[-121.07968,49.08594]},"properties":{"frp":1.0,"date":"2026-09-23","daynight":"N"}},{"type":"Feature","geometry":{"type":"Point","coordinates":[-121.08119,49.08775]},"properties":{"frp":1.56,"date":"2026-09-23","daynight":"N"}},{"type":"Feature","geometry":{"type":"Point","coordinates":[-121.08524,49.0878]},"properties":{"frp":1.0,"date":"2026-09-23","daynight":"N"}},{"type":"Feature","geometry":{"type":"Point","coordinates":[-83.08463,30.80511]},"properties":{"frp":9.9,"date":"2026-09-23","daynight":"D"}},{"type":"Feature","geometry":{"type":"Point","coordinates":[-83.07876,30.80671]},"properties":{"frp":13.56,"date":"2026-09-23","daynight":"D"}},{"type":"Feature","geometry":{"type":"Point","coordinates":[-83.08422,30.80754]},"properties":{"frp":7.1,"date":"2026-09-23","daynight":"D"}},{"type":"Feature","geometry":{"type":"Point","coordinates":[-83.07838,30.80916]},"properties":{"frp":7.1,"date":"2026-09-23","daynight":"D"}},{"type":"Feature","geometry":{"type":"Point","coordinates":[-80.10305,42.80005]},"properties":{"frp":4.66,"date":"2026-09-23","daynight":"D"}},{"type":"Feature","geometry":{"type":"Point","coordinates":[-80.10207,42.80263]},"properties":{"frp":5.65,"date":"2026-09-23","daynight":"D"}},{"type":"Feature","geometry":{"type":"Point","coordinates":[-80.09237,42.80483]},"properties":{"frp":4.34,"date":"2026-09-23","daynight":"D"}},{"type":"Feature","geometry":{"type":"Point","coordinates":[-80.09494,42.80618]},"properties":{"frp":6.35,"date":"2026-09-23","daynight":"D"}},{"type":"Feature","geometry":{"type":"Point","coordinates":[-76.13058,44.07044]},"properties":{"frp":8.26,"date":"2026-09-23","daynight":"D"}},{"type":"Feature","geometry":{"type":"Point","coordinates":[-76.12032,44.07232]},"properties":{"frp":16.35,"date":"2026-09-23","daynight":"D"}},{"type":"Feature","geometry":{"type":"Point","coordinates":[-76.12663,44.07476]},"properties":{"frp":6.66,"date":"2026-09-23","daynight":"D"}},{"type":"Feature","geometry":{"type":"Point","coordinates":[-76.1215,44.0757]},"properties":{"frp":6.66,"date":"2026-09-23","daynight":"D"}},{"type":"Feature","geometry":{"type":"Point","coordinates":[-83.40451,45.07125]},"properties":{"frp":3.19,"date":"2026-09-23","daynight":"D"}},{"type":"Feature","geometry":{"type":"Point","coordinates":[-67.70966,45.7316]},"properties":{"frp":19.82,"date":"2026-09-23","daynight":"D"}},{"type":"Feature","geometry":{"type":"Point","coordinates":[-73.25023,45.83841]},"properties":{"frp":4.91,"date":"2026-09-23","daynight":"D"}},{"type":"Feature","geometry":{"type":"Point","coordinates":[-73.1386,46.04521]},"properties":{"frp":2.05,"date":"2026-09-23","daynight":"D"}},{"type":"Feature","geometry":{"type":"Point","coordinates":[-84.39623,46.51783]},"properties":{"frp":6.85,"date":"2026-09-23","daynight":"D"}},{"type":"Feature","geometry":{"type":"Point","coordinates":[-77.12413,44.05365]},"properties":{"frp":1.13,"date":"2026-09-23","daynight":"N"}},{"type":"Feature","geometry":{"type":"Point","coordinates":[-83.40884,45.07328]},"properties":{"frp":2.47,"date":"2026-09-23","daynight":"N"}},{"type":"Feature","geometry":{"type":"Point","coordinates":[-73.24922,45.8364]},"properties":{"frp":1.16,"date":"2026-09-23","daynight":"N"}},{"type":"Feature","geometry":{"type":"Point","coordinates":[-73.25444,45.8371]},"properties":{"frp":1.15,"date":"2026-09-23","daynight":"N"}},{"type":"Feature","geometry":{"type":"Point","coordinates":[-73.24829,45.83978]},"properties":{"frp":0.7,"date":"2026-09-23","daynight":"N"}},{"type":"Feature","geometry":{"type":"Point","coordinates":[-73.14484,46.04315]},"properties":{"frp":1.08,"date":"2026-09-23","daynight":"N"}},{"type":"Feature","geometry":{"type":"Point","coordinates":[-73.1439,46.04652]},"properties":{"frp":1.08,"date":"2026-09-23","daynight":"N"}},{"type":"Feature","geometry":{"type":"Point","coordinates":[-84.3969,46.51546]},"properties":{"frp":1.48,"date":"2026-09-23","daynight":"N"}},{"type":"Feature","geometry":{"type":"Point","coordinates":[-80.79728,46.57726]},"properties":{"frp":1.29,"date":"2026-09-23","daynight":"N"}},{"type":"Feature","geometry":{"type":"Point","coordinates":[-79.0241,48.25315]},"properties":{"frp":3.65,"date":"2026-09-23","daynight":"N"}},{"type":"Feature","geometry":{"type":"Point","coordinates":[-82.0363,37.23359]},"properties":{"frp":1.09,"date":"2026-09-23","daynight":"N"}},{"type":"Feature","geometry":{"type":"Point","coordinates":[-82.04215,37.23408]},"properties":{"frp":0.74,"date":"2026-09-23","daynight":"N"}},{"type":"Feature","geometry":{"type":"Point","coordinates":[-82.03773,37.23681]},"properties":{"frp":0.72,"date":"2026-09-23","daynight":"N"}},{"type":"Feature","geometry":{"type":"Point","coordinates":[-90.08376,37.96613]},"properties":{"frp":1.0,"date":"2026-09-23","daynight":"N"}},{"type":"Feature","geometry":{"type":"Point","coordinates":[-90.08949,38.00664]},"properties":{"frp":1.39,"date":"2026-09-23","daynight":"N"}},{"type":"Feature","geometry":{"type":"Point","coordinates":[-90.08991,38.01363]},"properties":{"frp":2.07,"date":"2026-09-23","daynight":"N"}},{"type":"Feature","geometry":{"type":"Point","coordinates":[-80.10586,42.80398]},"properties":{"frp":2.3,"date":"2026-09-23","daynight":"N"}},{"type":"Feature","geometry":{"type":"Point","coordinates":[-80.09388,42.80734]},"properties":{"frp":3.13,"date":"2026-09-23","daynight":"N"}},{"type":"Feature","geometry":{"type":"Point","coordinates":[-80.09951,42.80783]},"properties":{"frp":2.3,"date":"2026-09-23","daynight":"N"}},{"type":"Feature","geometry":{"type":"Point","coordinates":[-80.09248,42.81601]},"properties":{"frp":1.43,"date":"2026-09-23","daynight":"N"}},{"type":"Feature","geometry":{"type":"Point","coordinates":[-80.09809,42.8165]},"properties":{"frp":1.27,"date":"2026-09-23","daynight":"N"}},{"type":"Feature","geometry":{"type":"Point","coordinates":[-80.09637,42.81751]},"properties":{"frp":2.76,"date":"2026-09-23","daynight":"N"}},{"type":"Feature","geometry":{"type":"Point","coordinates":[-81.32621,42.81879]},"properties":{"frp":0.62,"date":"2026-09-23","daynight":"N"}},{"type":"Feature","geometry":{"type":"Point","coordinates":[-81.3258,42.82022]},"properties":{"frp":0.74,"date":"2026-09-23","daynight":"N"}},{"type":"Feature","geometry":{"type":"Point","coordinates":[-80.85801,43.07006]},"properties":{"frp":1.65,"date":"2026-09-23","daynight":"N"}},{"type":"Feature","geometry":{"type":"Point","coordinates":[-79.81198,43.26375]},"properties":{"frp":0.96,"date":"2026-09-23","daynight":"N"}},{"type":"Feature","geometry":{"type":"Point","coordinates":[-79.80571,43.26757]},"properties":{"frp":1.26,"date":"2026-09-23","daynight":"N"}},{"type":"Feature","geometry":{"type":"Point","coordinates":[-79.805,43.27187]},"properties":{"frp":1.26,"date":"2026-09-23","daynight":"N"}},{"type":"Feature","geometry":{"type":"Point","coordinates":[-79.81054,43.27234]},"properties":{"frp":2.02,"date":"2026-09-23","daynight":"N"}},{"type":"Feature","geometry":{"type":"Point","coordinates":[-79.79879,43.27569]},"properties":{"frp":1.67,"date":"2026-09-23","daynight":"N"}},{"type":"Feature","geometry":{"type":"Point","coordinates":[-79.80432,43.27616]},"properties":{"frp":1.67,"date":"2026-09-23","daynight":"N"}},{"type":"Feature","geometry":{"type":"Point","coordinates":[-82.64693,43.64922]},"properties":{"frp":1.2,"date":"2026-09-23","daynight":"N"}},{"type":"Feature","geometry":{"type":"Point","coordinates":[-82.64764,43.64923]},"properties":{"frp":1.39,"date":"2026-09-23","daynight":"N"}},{"type":"Feature","geometry":{"type":"Point","coordinates":[-88.01647,30.93961]},"properties":{"frp":1.3,"date":"2026-09-23","daynight":"N"}},{"type":"Feature","geometry":{"type":"Point","coordinates":[-88.01593,30.94559]},"properties":{"frp":1.61,"date":"2026-09-23","daynight":"N"}},{"type":"Feature","geometry":{"type":"Point","coordinates":[-87.98882,31.14783]},"properties":{"frp":2.23,"date":"2026-09-23","daynight":"N"}},{"type":"Feature","geometry":{"type":"Point","coordinates":[-87.98827,31.1538]},"properties":{"frp":3.68,"date":"2026-09-23","daynight":"N"}},{"type":"Feature","geometry":{"type":"Point","coordinates":[-82.35339,31.51529]},"properties":{"frp":0.81,"date":"2026-09-23","daynight":"N"}},{"type":"Feature","geometry":{"type":"Point","coordinates":[-82.35813,31.51577]},"properties":{"frp":1.0,"date":"2026-09-23","daynight":"N"}},{"type":"Feature","geometry":{"type":"Point","coordinates":[-82.71614,31.56012]},"properties":{"frp":1.13,"date":"2026-09-23","daynight":"N"}},{"type":"Feature","geometry":{"type":"Point","coordinates":[-82.71054,31.56402]},"properties":{"frp":1.56,"date":"2026-09-23","daynight":"N"}},{"type":"Feature","geometry":{"type":"Point","coordinates":[-82.71552,31.56451]},"properties":{"frp":1.62,"date":"2026-09-23","daynight":"N"}},{"type":"Feature","geometry":{"type":"Point","coordinates":[-82.72051,31.565]},"properties":{"frp":1.62,"date":"2026-09-23","daynight":"N"}},{"type":"Feature","geometry":{"type":"Point","coordinates":[-82.71491,31.5689]},"properties":{"frp":1.62,"date":"2026-09-23","daynight":"N"}},{"type":"Feature","geometry":{"type":"Point","coordinates":[-82.71988,31.56939]},"properties":{"frp":1.62,"date":"2026-09-23","daynight":"N"}},{"type":"Feature","geometry":{"type":"Point","coordinates":[-87.70969,32.41444]},"properties":{"frp":0.49,"date":"2026-09-23","daynight":"N"}},{"type":"Feature","geometry":{"type":"Point","coordinates":[-86.80696,33.09529]},"properties":{"frp":1.85,"date":"2026-09-23","daynight":"N"}},{"type":"Feature","geometry":{"type":"Point","coordinates":[-86.79195,33.21685]},"properties":{"frp":0.97,"date":"2026-09-23","daynight":"N"}},{"type":"Feature","geometry":{"type":"Point","coordinates":[-86.81955,33.22433]},"properties":{"frp":1.3,"date":"2026-09-23","daynight":"N"}},{"type":"Feature","geometry":{"type":"Point","coordinates":[-87.51479,33.23062]},"properties":{"frp":1.27,"date":"2026-09-23","daynight":"N"}},{"type":"Feature","geometry":{"type":"Point","coordinates":[-87.50919,33.23626]},"properties":{"frp":0.97,"date":"2026-09-23","daynight":"N"}},{"type":"Feature","geometry":{"type":"Point","coordinates":[-87.51426,33.23655]},"properties":{"frp":0.97,"date":"2026-09-23","daynight":"N"}},{"type":"Feature","geometry":{"type":"Point","coordinates":[-88.57581,33.43993]},"properties":{"frp":1.26,"date":"2026-09-23","daynight":"N"}},{"type":"Feature","geometry":{"type":"Point","coordinates":[-88.57383,33.44335]},"properties":{"frp":1.57,"date":"2026-09-23","daynight":"N"}},{"type":"Feature","geometry":{"type":"Point","coordinates":[-86.75811,33.53594]},"properties":{"frp":0.82,"date":"2026-09-23","daynight":"N"}},{"type":"Feature","geometry":{"type":"Point","coordinates":[-86.76284,33.53624]},"properties":{"frp":0.82,"date":"2026-09-23","daynight":"N"}},{"type":"Feature","geometry":{"type":"Point","coordinates":[-90.00582,34.2356]},"properties":{"frp":0.83,"date":"2026-09-23","daynight":"N"}},{"type":"Feature","geometry":{"type":"Point","coordinates":[-87.08907,34.64048]},"properties":{"frp":2.24,"date":"2026-09-23","daynight":"N"}},{"type":"Feature","geometry":{"type":"Point","coordinates":[-87.09411,34.64075]},"properties":{"frp":1.39,"date":"2026-09-23","daynight":"N"}},{"type":"Feature","geometry":{"type":"Point","coordinates":[-87.08639,34.6413]},"properties":{"frp":1.87,"date":"2026-09-23","daynight":"N"}},{"type":"Feature","geometry":{"type":"Point","coordinates":[-87.09143,34.64159]},"properties":{"frp":1.18,"date":"2026-09-23","daynight":"N"}},{"type":"Feature","geometry":{"type":"Point","coordinates":[-87.09646,34.64188]},"properties":{"frp":1.18,"date":"2026-09-23","daynight":"N"}},{"type":"Feature","geometry":{"type":"Point","coordinates":[-90.97183,27.2944]},"properties":{"frp":10.23,"date":"2026-09-23","daynight":"N"}},{"type":"Feature","geometry":{"type":"Point","coordinates":[-90.97875,27.29479]},"properties":{"frp":10.23,"date":"2026-09-23","daynight":"N"}},{"type":"Feature","geometry":{"type":"Point","coordinates":[-90.97079,27.2956]},"properties":{"frp":12.08,"date":"2026-09-23","daynight":"N"}},{"type":"Feature","geometry":{"type":"Point","coordinates":[-90.97772,27.29595]},"properties":{"frp":12.19,"date":"2026-09-23","daynight":"N"}},{"type":"Feature","geometry":{"type":"Point","coordinates":[-90.18359,27.36408]},"properties":{"frp":9.28,"date":"2026-09-23","daynight":"N"}},{"type":"Feature","geometry":{"type":"Point","coordinates":[-90.18979,27.36443]},"properties":{"frp":9.95,"date":"2026-09-23","daynight":"N"}},{"type":"Feature","geometry":{"type":"Point","coordinates":[-90.18321,27.36507]},"properties":{"frp":4.51,"date":"2026-09-23","daynight":"N"}},{"type":"Feature","geometry":{"type":"Point","coordinates":[-90.18941,27.36546]},"properties":{"frp":4.51,"date":"2026-09-23","daynight":"N"}},{"type":"Feature","geometry":{"type":"Point","coordinates":[-90.10016,27.52292]},"properties":{"frp":11.29,"date":"2026-09-23","daynight":"N"}},{"type":"Feature","geometry":{"type":"Point","coordinates":[-90.10632,27.52329]},"properties":{"frp":9.94,"date":"2026-09-23","daynight":"N"}},{"type":"Feature","geometry":{"type":"Point","coordinates":[-90.40097,29.99808]},"properties":{"frp":2.0,"date":"2026-09-23","daynight":"N"}},{"type":"Feature","geometry":{"type":"Point","coordinates":[-90.40786,29.99842]},"properties":{"frp":2.0,"date":"2026-09-23","daynight":"N"}},{"type":"Feature","geometry":{"type":"Point","coordinates":[-90.39999,30.0004]},"properties":{"frp":3.4,"date":"2026-09-23","daynight":"N"}},{"type":"Feature","geometry":{"type":"Point","coordinates":[-90.40689,30.00071]},"properties":{"frp":4.15,"date":"2026-09-23","daynight":"N"}},{"type":"Feature","geometry":{"type":"Point","coordinates":[-90.40739,30.00519]},"properties":{"frp":2.33,"date":"2026-09-23","daynight":"N"}},{"type":"Feature","geometry":{"type":"Point","coordinates":[-88.4893,30.34463]},"properties":{"frp":2.6,"date":"2026-09-23","daynight":"N"}},{"type":"Feature","geometry":{"type":"Point","coordinates":[-81.03606,46.48935]},"properties":{"frp":1.32,"date":"2026-09-23","daynight":"N"}},{"type":"Feature","geometry":{"type":"Point","coordinates":[-81.03593,46.4896]},"properties":{"frp":1.29,"date":"2026-09-23","daynight":"N"}},{"type":"Feature","geometry":{"type":"Point","coordinates":[-84.39388,46.51317]},"properties":{"frp":1.73,"date":"2026-09-23","daynight":"N"}},{"type":"Feature","geometry":{"type":"Point","coordinates":[-80.79488,46.57478]},"properties":{"frp":6.86,"date":"2026-09-23","daynight":"N"}},{"type":"Feature","geometry":{"type":"Point","coordinates":[-80.79163,46.57998]},"properties":{"frp":6.86,"date":"2026-09-23","daynight":"N"}},{"type":"Feature","geometry":{"type":"Point","coordinates":[-79.02704,48.25224]},"properties":{"frp":0.92,"date":"2026-09-23","daynight":"N"}},{"type":"Feature","geometry":{"type":"Point","coordinates":[-79.02345,48.2575]},"properties":{"frp":1.29,"date":"2026-09-23","daynight":"N"}},{"type":"Feature","geometry":{"type":"Point","coordinates":[-82.04342,37.23579]},"properties":{"frp":1.75,"date":"2026-09-23","daynight":"N"}},{"type":"Feature","geometry":{"type":"Point","coordinates":[-90.68221,39.72015]},"properties":{"frp":3.1,"date":"2026-09-23","daynight":"N"}},{"type":"Feature","geometry":{"type":"Point","coordinates":[-111.59426,42.68486]},"properties":{"frp":4.56,"date":"2026-09-23","daynight":"N"}},{"type":"Feature","geometry":{"type":"Point","coordinates":[-111.60017,42.68505]},"properties":{"frp":4.56,"date":"2026-09-23","daynight":"N"}},{"type":"Feature","geometry":{"type":"Point","coordinates":[-111.59371,42.6908]},"properties":{"frp":1.75,"date":"2026-09-23","daynight":"N"}},{"type":"Feature","geometry":{"type":"Point","coordinates":[-80.10086,42.80368]},"properties":{"frp":4.24,"date":"2026-09-23","daynight":"N"}},{"type":"Feature","geometry":{"type":"Point","coordinates":[-80.10753,42.80586]},"properties":{"frp":4.24,"date":"2026-09-23","daynight":"N"}},{"type":"Feature","geometry":{"type":"Point","coordinates":[-80.09733,42.80965]},"properties":{"frp":2.71,"date":"2026-09-23","daynight":"N"}},{"type":"Feature","geometry":{"type":"Point","coordinates":[-80.09373,42.81558]},"properties":{"frp":2.71,"date":"2026-09-23","daynight":"N"}},{"type":"Feature","geometry":{"type":"Point","coordinates":[-80.09664,42.81829]},"properties":{"frp":1.71,"date":"2026-09-23","daynight":"N"}},{"type":"Feature","geometry":{"type":"Point","coordinates":[-80.85847,43.06741]},"properties":{"frp":1.66,"date":"2026-09-23","daynight":"N"}},{"type":"Feature","geometry":{"type":"Point","coordinates":[-80.86167,43.06786]},"properties":{"frp":1.26,"date":"2026-09-23","daynight":"N"}},{"type":"Feature","geometry":{"type":"Point","coordinates":[-79.81356,43.26031]},"properties":{"frp":1.25,"date":"2026-09-23","daynight":"N"}},{"type":"Feature","geometry":{"type":"Point","coordinates":[-79.80991,43.26623]},"properties":{"frp":2.69,"date":"2026-09-23","daynight":"N"}},{"type":"Feature","geometry":{"type":"Point","coordinates":[-82.64727,43.64746]},"properties":{"frp":0.62,"date":"2026-09-23","daynight":"N"}},{"type":"Feature","geometry":{"type":"Point","coordinates":[-93.03896,44.76237]},"properties":{"frp":0.84,"date":"2026-09-23","daynight":"N"}},{"type":"Feature","geometry":{"type":"Point","coordinates":[-93.04297,44.76678]},"properties":{"frp":0.83,"date":"2026-09-23","daynight":"N"}},{"type":"Feature","geometry":{"type":"Point","coordinates":[-83.40628,45.06986]},"properties":{"frp":1.62,"date":"2026-09-23","daynight":"N"}},{"type":"Feature","geometry":{"type":"Point","coordinates":[-83.40339,45.07473]},"properties":{"frp":1.62,"date":"2026-09-23","daynight":"N"}},{"type":"Feature","geometry":{"type":"Point","coordinates":[-92.0745,46.73116]},"properties":{"frp":1.04,"date":"2026-09-23","daynight":"N"}},{"type":"Feature","geometry":{"type":"Point","coordinates":[-92.08,46.73223]},"properties":{"frp":1.04,"date":"2026-09-23","daynight":"N"}},{"type":"Feature","geometry":{"type":"Point","coordinates":[-114.24715,47.35125]},"properties":{"frp":2.22,"date":"2026-09-23","daynight":"N"}},{"type":"Feature","geometry":{"type":"Point","coordinates":[-115.23271,47.73563]},"properties":{"frp":2.93,"date":"2026-09-23","daynight":"N"}},{"type":"Feature","geometry":{"type":"Point","coordinates":[-115.2286,47.73952]},"properties":{"frp":3.66,"date":"2026-09-23","daynight":"N"}},{"type":"Feature","geometry":{"type":"Point","coordinates":[-103.3091,48.63508]},"properties":{"frp":1.18,"date":"2026-09-23","daynight":"N"}},{"type":"Feature","geometry":{"type":"Point","coordinates":[-103.6445,49.02998]},"properties":{"frp":0.51,"date":"2026-09-23","daynight":"N"}},{"type":"Feature","geometry":{"type":"Point","coordinates":[-103.64384,49.03257]},"properties":{"frp":0.41,"date":"2026-09-23","daynight":"N"}},{"type":"Feature","geometry":{"type":"Point","coordinates":[-90.09515,27.52267]},"properties":{"frp":7.11,"date":"2026-09-23","daynight":"N"}},{"type":"Feature","geometry":{"type":"Point","coordinates":[-90.09959,27.52378]},"properties":{"frp":8.37,"date":"2026-09-23","daynight":"N"}},{"type":"Feature","geometry":{"type":"Point","coordinates":[-97.46206,27.81463]},"properties":{"frp":2.26,"date":"2026-09-23","daynight":"N"}},{"type":"Feature","geometry":{"type":"Point","coordinates":[-97.48806,27.81576]},"properties":{"frp":2.22,"date":"2026-09-23","daynight":"N"}},{"type":"Feature","geometry":{"type":"Point","coordinates":[-97.27301,27.88801]},"properties":{"frp":1.47,"date":"2026-09-23","daynight":"N"}},{"type":"Feature","geometry":{"type":"Point","coordinates":[-97.26698,27.89075]},"properties":{"frp":1.68,"date":"2026-09-23","daynight":"N"}},{"type":"Feature","geometry":{"type":"Point","coordinates":[-97.2721,27.89174]},"properties":{"frp":1.47,"date":"2026-09-23","daynight":"N"}},{"type":"Feature","geometry":{"type":"Point","coordinates":[-97.43702,28.05631]},"properties":{"frp":1.93,"date":"2026-09-23","daynight":"N"}},{"type":"Feature","geometry":{"type":"Point","coordinates":[-97.43613,28.06]},"properties":{"frp":2.39,"date":"2026-09-23","daynight":"N"}},{"type":"Feature","geometry":{"type":"Point","coordinates":[-97.44115,28.06095]},"properties":{"frp":2.39,"date":"2026-09-23","daynight":"N"}},{"type":"Feature","geometry":{"type":"Point","coordinates":[-111.45723,28.73684]},"properties":{"frp":1.02,"date":"2026-09-23","daynight":"N"}},{"type":"Feature","geometry":{"type":"Point","coordinates":[-111.45687,28.73749]},"properties":{"frp":2.01,"date":"2026-09-23","daynight":"N"}},{"type":"Feature","geometry":{"type":"Point","coordinates":[-111.45663,28.74205]},"properties":{"frp":1.02,"date":"2026-09-23","daynight":"N"}},{"type":"Feature","geometry":{"type":"Point","coordinates":[-95.74915,29.06751]},"properties":{"frp":1.21,"date":"2026-09-23","daynight":"N"}},{"type":"Feature","geometry":{"type":"Point","coordinates":[-95.75308,29.0683]},"properties":{"frp":1.21,"date":"2026-09-23","daynight":"N"}},{"type":"Feature","geometry":{"type":"Point","coordinates":[-94.90903,29.36778]},"properties":{"frp":3.24,"date":"2026-09-23","daynight":"N"}},{"type":"Feature","geometry":{"type":"Point","coordinates":[-94.92007,29.37308]},"properties":{"frp":2.93,"date":"2026-09-23","daynight":"N"}},{"type":"Feature","geometry":{"type":"Point","coordinates":[-94.92439,29.37396]},"properties":{"frp":2.26,"date":"2026-09-23","daynight":"N"}},{"type":"Feature","geometry":{"type":"Point","coordinates":[-94.92089,29.37465]},"properties":{"frp":2.43,"date":"2026-09-23","daynight":"N"}},{"type":"Feature","geometry":{"type":"Point","coordinates":[-94.93736,29.37661]},"properties":{"frp":3.15,"date":"2026-09-23","daynight":"N"}},{"type":"Feature","geometry":{"type":"Point","coordinates":[-94.93383,29.37738]},"properties":{"frp":2.02,"date":"2026-09-23","daynight":"N"}},{"type":"Feature","geometry":{"type":"Point","coordinates":[-98.03485,29.57537]},"properties":{"frp":5.01,"date":"2026-09-23","daynight":"N"}},{"type":"Feature","geometry":{"type":"Point","coordinates":[-95.02724,29.61314]},"properties":{"frp":2.0,"date":"2026-09-23","daynight":"N"}},{"type":"Feature","geometry":{"type":"Point","coordinates":[-95.02898,29.6152]},"properties":{"frp":2.18,"date":"2026-09-23","daynight":"N"}},{"type":"Feature","geometry":{"type":"Point","coordinates":[-95.0641,29.62519]},"properties":{"frp":2.11,"date":"2026-09-23","daynight":"N"}},{"type":"Feature","geometry":{"type":"Point","coordinates":[-98.18183,29.67536]},"properties":{"frp":1.09,"date":"2026-09-23","daynight":"N"}},{"type":"Feature","geometry":{"type":"Point","coordinates":[-98.18468,29.67599]},"properties":{"frp":0.88,"date":"2026-09-23","daynight":"N"}},{"type":"Feature","geometry":{"type":"Point","coordinates":[-95.12065,29.72683]},"properties":{"frp":3.04,"date":"2026-09-23","daynight":"N"}},{"type":"Feature","geometry":{"type":"Point","coordinates":[-95.1237,29.73172]},"properties":{"frp":1.72,"date":"2026-09-23","daynight":"N"}},{"type":"Feature","geometry":{"type":"Point","coordinates":[-95.12734,29.73997]},"properties":{"frp":2.13,"date":"2026-09-23","daynight":"N"}},{"type":"Feature","geometry":{"type":"Point","coordinates":[-95.12566,29.74065]},"properties":{"frp":2.42,"date":"2026-09-23","daynight":"N"}},{"type":"Feature","geometry":{"type":"Point","coordinates":[-93.96582,29.83441]},"properties":{"frp":2.64,"date":"2026-09-23","daynight":"N"}},{"type":"Feature","geometry":{"type":"Point","coordinates":[-88.0153,30.93764]},"properties":{"frp":1.61,"date":"2026-09-23","daynight":"N"}},{"type":"Feature","geometry":{"type":"Point","coordinates":[-88.01611,30.94117]},"properties":{"frp":1.73,"date":"2026-09-23","daynight":"N"}},{"type":"Feature","geometry":{"type":"Point","coordinates":[-88.01323,30.94343]},"properties":{"frp":1.61,"date":"2026-09-23","daynight":"N"}},{"type":"Feature","geometry":{"type":"Point","coordinates":[-88.01404,30.94695]},"properties":{"frp":1.73,"date":"2026-09-23","daynight":"N"}},{"type":"Feature","geometry":{"type":"Point","coordinates":[-87.98969,31.14684]},"properties":{"frp":1.05,"date":"2026-09-23","daynight":"N"}},{"type":"Feature","geometry":{"type":"Point","coordinates":[-87.99054,31.14997]},"properties":{"frp":3.66,"date":"2026-09-23","daynight":"N"}},{"type":"Feature","geometry":{"type":"Point","coordinates":[-87.98054,31.15703]},"properties":{"frp":2.46,"date":"2026-09-23","daynight":"N"}},{"type":"Feature","geometry":{"type":"Point","coordinates":[-90.13461,32.31482]},"properties":{"frp":1.78,"date":"2026-09-23","daynight":"N"}},{"type":"Feature","geometry":{"type":"Point","coordinates":[-87.71127,32.41417]},"properties":{"frp":0.87,"date":"2026-09-23","daynight":"N"}},{"type":"Feature","geometry":{"type":"Point","coordinates":[-87.70799,32.41451]},"properties":{"frp":1.04,"date":"2026-09-23","daynight":"N"}},{"type":"Feature","geometry":{"type":"Point","coordinates":[-94.47662,32.91042]},"properties":{"frp":0.7,"date":"2026-09-23","daynight":"N"}},{"type":"Feature","geometry":{"type":"Point","coordinates":[-94.47735,32.91238]},"properties":{"frp":0.54,"date":"2026-09-23","daynight":"N"}},{"type":"Feature","geometry":{"type":"Point","coordinates":[-86.80699,33.09041]},"properties":{"frp":1.53,"date":"2026-09-23","daynight":"N"}},{"type":"Feature","geometry":{"type":"Point","coordinates":[-86.76045,33.18095]},"properties":{"frp":0.75,"date":"2026-09-23","daynight":"N"}},{"type":"Feature","geometry":{"type":"Point","coordinates":[-86.75709,33.18195]},"properties":{"frp":0.96,"date":"2026-09-23","daynight":"N"}},{"type":"Feature","geometry":{"type":"Point","coordinates":[-86.79537,33.21839]},"properties":{"frp":0.74,"date":"2026-09-23","daynight":"N"}},{"type":"Feature","geometry":{"type":"Point","coordinates":[-86.81585,33.22404]},"properties":{"frp":0.91,"date":"2026-09-23","daynight":"N"}},{"type":"Feature","geometry":{"type":"Point","coordinates":[-87.51173,33.2341]},"properties":{"frp":1.05,"date":"2026-09-23","daynight":"N"}},{"type":"Feature","geometry":{"type":"Point","coordinates":[-87.51006,33.23969]},"properties":{"frp":0.7,"date":"2026-09-23","daynight":"N"}},{"type":"Feature","geometry":{"type":"Point","coordinates":[-87.50965,33.23973]},"properties":{"frp":1.08,"date":"2026-09-23","daynight":"N"}},{"type":"Feature","geometry":{"type":"Point","coordinates":[-88.57142,33.44189]},"properties":{"frp":7.34,"date":"2026-09-23","daynight":"N"}},{"type":"Feature","geometry":{"type":"Point","coordinates":[-93.77399,35.40952]},"properties":{"frp":1.85,"date":"2026-09-23","daynight":"N"}},{"type":"Feature","geometry":{"type":"Point","coordinates":[-93.77239,35.41226]},"properties":{"frp":1.28,"date":"2026-09-23","daynight":"N"}},{"type":"Feature","geometry":{"type":"Point","coordinates":[-114.91642,36.35657]},"properties":{"frp":1.43,"date":"2026-09-23","daynight":"N"}},{"type":"Feature","geometry":{"type":"Point","coordinates":[-114.91812,36.35898]},"properties":{"frp":1.97,"date":"2026-09-23","daynight":"N"}},{"type":"Feature","geometry":{"type":"Point","coordinates":[-97.8377,36.51791]},"properties":{"frp":1.92,"date":"2026-09-23","daynight":"N"}},{"type":"Feature","geometry":{"type":"Point","coordinates":[-97.84205,36.51865]},"properties":{"frp":1.35,"date":"2026-09-23","daynight":"N"}},{"type":"Feature","geometry":{"type":"Point","coordinates":[-97.83858,36.52045]},"properties":{"frp":1.68,"date":"2026-09-23","daynight":"N"}},{"type":"Feature","geometry":{"type":"Point","coordinates":[-93.98075,37.73565]},"properties":{"frp":2.17,"date":"2026-09-23","daynight":"N"}},{"type":"Feature","geometry":{"type":"Point","coordinates":[-90.07856,37.96822]},"properties":{"frp":1.06,"date":"2026-09-23","daynight":"N"}},{"type":"Feature","geometry":{"type":"Point","coordinates":[-90.08197,38.00738]},"properties":{"frp":1.66,"date":"2026-09-23","daynight":"N"}},{"type":"Feature","geometry":{"type":"Point","coordinates":[-90.14534,38.69139]},"properties":{"frp":1.04,"date":"2026-09-23","daynight":"N"}},{"type":"Feature","geometry":{"type":"Point","coordinates":[-90.1508,38.69266]},"properties":{"frp":1.04,"date":"2026-09-23","daynight":"N"}},{"type":"Feature","geometry":{"type":"Point","coordinates":[-90.13277,38.69315]},"properties":{"frp":1.44,"date":"2026-09-23","daynight":"N"}},{"type":"Feature","geometry":{"type":"Point","coordinates":[-90.13824,38.69443]},"properties":{"frp":1.44,"date":"2026-09-23","daynight":"N"}},{"type":"Feature","geometry":{"type":"Point","coordinates":[-90.13113,38.69747]},"properties":{"frp":1.44,"date":"2026-09-23","daynight":"N"}},{"type":"Feature","geometry":{"type":"Point","coordinates":[-112.82149,38.9382]},"properties":{"frp":1.9,"date":"2026-09-23","daynight":"N"}},{"type":"Feature","geometry":{"type":"Point","coordinates":[-114.26172,40.82243]},"properties":{"frp":1.1,"date":"2026-09-23","daynight":"N"}},{"type":"Feature","geometry":{"type":"Point","coordinates":[-114.25913,40.82557]},"properties":{"frp":1.66,"date":"2026-09-23","daynight":"N"}},{"type":"Feature","geometry":{"type":"Point","coordinates":[-99.9422,25.59059]},"properties":{"frp":2.25,"date":"2026-09-23","daynight":"N"}},{"type":"Feature","geometry":{"type":"Point","coordinates":[-100.91862,25.60344]},"properties":{"frp":2.64,"date":"2026-09-23","daynight":"N"}},{"type":"Feature","geometry":{"type":"Point","coordinates":[-99.46067,25.67381]},"properties":{"frp":2.23,"date":"2026-09-23","daynight":"N"}},{"type":"Feature","geometry":{"type":"Point","coordinates":[-100.30443,25.72028]},"properties":{"frp":1.79,"date":"2026-09-23","daynight":"N"}},{"type":"Feature","geometry":{"type":"Point","coordinates":[-100.10495,25.72094]},"properties":{"frp":0.71,"date":"2026-09-23","daynight":"N"}},{"type":"Feature","geometry":{"type":"Point","coordinates":[-100.29964,25.72297]},"properties":{"frp":1.79,"date":"2026-09-23","daynight":"N"}},{"type":"Feature","geometry":{"type":"Point","coordinates":[-100.10422,25.72435]},"properties":{"frp":0.71,"date":"2026-09-23","daynight":"N"}},{"type":"Feature","geometry":{"type":"Point","coordinates":[-103.54294,25.74279]},"properties":{"frp":2.37,"date":"2026-09-23","daynight":"N"}},{"type":"Feature","geometry":{"type":"Point","coordinates":[-93.96286,29.8345]},"properties":{"frp":2.04,"date":"2026-09-23","daynight":"N"}},{"type":"Feature","geometry":{"type":"Point","coordinates":[-90.39639,29.99541]},"properties":{"frp":1.41,"date":"2026-09-23","daynight":"N"}},{"type":"Feature","geometry":{"type":"Point","coordinates":[-90.40021,29.99636]},"properties":{"frp":1.41,"date":"2026-09-23","daynight":"N"}},{"type":"Feature","geometry":{"type":"Point","coordinates":[-90.39482,29.99754]},"properties":{"frp":1.81,"date":"2026-09-23","daynight":"N"}},{"type":"Feature","geometry":{"type":"Point","coordinates":[-90.39864,29.99847]},"properties":{"frp":1.81,"date":"2026-09-23","daynight":"N"}},{"type":"Feature","geometry":{"type":"Point","coordinates":[-90.40247,29.99939]},"properties":{"frp":1.51,"date":"2026-09-23","daynight":"N"}},{"type":"Feature","geometry":{"type":"Point","coordinates":[-90.40628,30.00031]},"properties":{"frp":1.51,"date":"2026-09-23","daynight":"N"}},{"type":"Feature","geometry":{"type":"Point","coordinates":[-90.40614,30.00349]},"properties":{"frp":1.17,"date":"2026-09-23","daynight":"N"}},{"type":"Feature","geometry":{"type":"Point","coordinates":[-93.32087,30.18116]},"properties":{"frp":2.07,"date":"2026-09-23","daynight":"N"}},{"type":"Feature","geometry":{"type":"Point","coordinates":[-93.32601,30.18229]},"properties":{"frp":3.18,"date":"2026-09-23","daynight":"N"}},{"type":"Feature","geometry":{"type":"Point","coordinates":[-91.28201,30.3288]},"properties":{"frp":0.73,"date":"2026-09-23","daynight":"N"}},{"type":"Feature","geometry":{"type":"Point","coordinates":[-91.2793,30.32916]},"properties":{"frp":0.78,"date":"2026-09-23","daynight":"N"}},{"type":"Feature","geometry":{"type":"Point","coordinates":[-88.48821,30.34311]},"properties":{"frp":2.93,"date":"2026-09-23","daynight":"N"}},{"type":"Feature","geometry":{"type":"Point","coordinates":[-91.18034,30.48425]},"properties":{"frp":2.87,"date":"2026-09-23","daynight":"N"}},{"type":"Feature","geometry":{"type":"Point","coordinates":[-91.18369,30.48505]},"properties":{"frp":1.89,"date":"2026-09-23","daynight":"N"}},{"type":"Feature","geometry":{"type":"Point","coordinates":[-103.35888,32.13717]},"properties":{"frp":1.05,"date":"2026-09-23","daynight":"N"}},{"type":"Feature","geometry":{"type":"Point","coordinates":[-103.35601,32.13838]},"properties":{"frp":1.65,"date":"2026-09-23","daynight":"N"}},{"type":"Feature","geometry":{"type":"Point","coordinates":[-97.55382,32.24659]},"properties":{"frp":1.94,"date":"2026-09-23","daynight":"N"}},{"type":"Feature","geometry":{"type":"Point","coordinates":[-101.71384,32.29866]},"properties":{"frp":2.38,"date":"2026-09-23","daynight":"N"}},{"type":"Feature","geometry":{"type":"Point","coordinates":[-103.41243,32.35566]},"properties":{"frp":0.87,"date":"2026-09-23","daynight":"N"}},{"type":"Feature","geometry":{"type":"Point","coordinates":[-103.4072,32.3585]},"properties":{"frp":0.55,"date":"2026-09-23","daynight":"N"}},{"type":"Feature","geometry":{"type":"Point","coordinates":[-114.23801,47.34635]},"properties":{"frp":1.41,"date":"2026-09-23","daynight":"N"}},{"type":"Feature","geometry":{"type":"Point","coordinates":[-114.23611,47.35004]},"properties":{"frp":1.94,"date":"2026-09-23","daynight":"N"}},{"type":"Feature","geometry":{"type":"Point","coordinates":[-114.24276,47.35149]},"properties":{"frp":1.94,"date":"2026-09-23","daynight":"N"}},{"type":"Feature","geometry":{"type":"Point","coordinates":[-115.23346,47.73597]},"properties":{"frp":1.1,"date":"2026-09-23","daynight":"N"}},{"type":"Feature","geometry":{"type":"Point","coordinates":[-115.22473,47.73804]},"properties":{"frp":3.61,"date":"2026-09-23","daynight":"N"}},{"type":"Feature","geometry":{"type":"Point","coordinates":[-115.2318,47.73952]},"properties":{"frp":3.61,"date":"2026-09-23","daynight":"N"}},{"type":"Feature","geometry":{"type":"Point","coordinates":[-115.91917,47.99654]},"properties":{"frp":0.9,"date":"2026-09-23","daynight":"N"}},{"type":"Feature","geometry":{"type":"Point","coordinates":[-121.14088,48.7776]},"properties":{"frp":1.04,"date":"2026-09-23","daynight":"N"}},{"type":"Feature","geometry":{"type":"Point","coordinates":[-121.13478,48.78011]},"properties":{"frp":1.34,"date":"2026-09-23","daynight":"N"}},{"type":"Feature","geometry":{"type":"Point","coordinates":[-121.13981,48.78086]},"properties":{"frp":1.34,"date":"2026-09-23","daynight":"N"}},{"type":"Feature","geometry":{"type":"Point","coordinates":[-121.13372,48.78337]},"properties":{"frp":1.34,"date":"2026-09-23","daynight":"N"}},{"type":"Feature","geometry":{"type":"Point","coordinates":[-120.99358,49.08047]},"properties":{"frp":0.53,"date":"2026-09-23","daynight":"N"}},{"type":"Feature","geometry":{"type":"Point","coordinates":[-121.08345,49.09053]},"properties":{"frp":0.44,"date":"2026-09-23","daynight":"N"}},{"type":"Feature","geometry":{"type":"Point","coordinates":[-121.22128,49.67552]},"properties":{"frp":2.4,"date":"2026-09-23","daynight":"N"}},{"type":"Feature","geometry":{"type":"Point","coordinates":[-121.22,49.67878]},"properties":{"frp":2.4,"date":"2026-09-23","daynight":"N"}},{"type":"Feature","geometry":{"type":"Point","coordinates":[-112.81846,38.93945]},"properties":{"frp":2.41,"date":"2026-09-23","daynight":"N"}},{"type":"Feature","geometry":{"type":"Point","coordinates":[-119.26308,39.62039]},"properties":{"frp":2.23,"date":"2026-09-23","daynight":"N"}},{"type":"Feature","geometry":{"type":"Point","coordinates":[-122.20461,40.07304]},"properties":{"frp":2.17,"date":"2026-09-23","daynight":"N"}},{"type":"Feature","geometry":{"type":"Point","coordinates":[-122.20914,40.07381]},"properties":{"frp":2.17,"date":"2026-09-23","daynight":"N"}},{"type":"Feature","geometry":{"type":"Point","coordinates":[-122.20367,40.07632]},"properties":{"frp":2.17,"date":"2026-09-23","daynight":"N"}},{"type":"Feature","geometry":{"type":"Point","coordinates":[-114.25486,40.8216]},"properties":{"frp":2.86,"date":"2026-09-23","daynight":"N"}},{"type":"Feature","geometry":{"type":"Point","coordinates":[-122.90219,42.61002]},"properties":{"frp":1.67,"date":"2026-09-23","daynight":"N"}},{"type":"Feature","geometry":{"type":"Point","coordinates":[-122.90681,42.61074]},"properties":{"frp":1.67,"date":"2026-09-23","daynight":"N"}},{"type":"Feature","geometry":{"type":"Point","coordinates":[-122.98071,44.06293]},"properties":{"frp":0.9,"date":"2026-09-23","daynight":"N"}},{"type":"Feature","geometry":{"type":"Point","coordinates":[-120.22599,45.63518]},"properties":{"frp":0.64,"date":"2026-09-23","daynight":"N"}},{"type":"Feature","geometry":{"type":"Point","coordinates":[-120.22485,45.63845]},"properties":{"frp":0.64,"date":"2026-09-23","daynight":"N"}},{"type":"Feature","geometry":{"type":"Point","coordinates":[-120.22309,45.64072]},"properties":{"frp":1.06,"date":"2026-09-23","daynight":"N"}},{"type":"Feature","geometry":{"type":"Point","coordinates":[-103.79626,47.72918]},"properties":{"frp":0.62,"date":"2026-09-23","daynight":"N"}},{"type":"Feature","geometry":{"type":"Point","coordinates":[-103.79503,47.73128]},"properties":{"frp":0.84,"date":"2026-09-23","daynight":"N"}},{"type":"Feature","geometry":{"type":"Point","coordinates":[-118.19175,34.15173]},"properties":{"frp":0.82,"date":"2026-09-23","daynight":"N"}},{"type":"Feature","geometry":{"type":"Point","coordinates":[-118.1965,34.15277]},"properties":{"frp":0.82,"date":"2026-09-23","daynight":"N"}},{"type":"Feature","geometry":{"type":"Point","coordinates":[-118.64648,34.43231]},"properties":{"frp":1.39,"date":"2026-09-23","daynight":"N"}},{"type":"Feature","geometry":{"type":"Point","coordinates":[-119.28008,35.68104]},"properties":{"frp":2.25,"date":"2026-09-23","daynight":"N"}},{"type":"Feature","geometry":{"type":"Point","coordinates":[-114.91131,36.356]},"properties":{"frp":0.65,"date":"2026-09-23","daynight":"N"}},{"type":"Feature","geometry":{"type":"Point","coordinates":[-121.68147,37.18558]},"properties":{"frp":0.54,"date":"2026-09-23","daynight":"N"}},{"type":"Feature","geometry":{"type":"Point","coordinates":[-119.59533,37.58937]},"properties":{"frp":3.77,"date":"2026-09-23","daynight":"N"}},{"type":"Feature","geometry":{"type":"Point","coordinates":[-119.5888,37.59193]},"properties":{"frp":3.77,"date":"2026-09-23","daynight":"N"}},{"type":"Feature","geometry":{"type":"Point","coordinates":[-119.59426,37.59303]},"properties":{"frp":3.77,"date":"2026-09-23","daynight":"N"}},{"type":"Feature","geometry":{"type":"Point","coordinates":[-119.58709,37.59933]},"properties":{"frp":4.55,"date":"2026-09-23","daynight":"N"}},{"type":"Feature","geometry":{"type":"Point","coordinates":[-119.61481,37.60105]},"properties":{"frp":1.2,"date":"2026-09-23","daynight":"N"}},{"type":"Feature","geometry":{"type":"Point","coordinates":[-119.60311,37.60256]},"properties":{"frp":10.95,"date":"2026-09-23","daynight":"N"}},{"type":"Feature","geometry":{"type":"Point","coordinates":[-119.58616,37.60302]},"properties":{"frp":3.15,"date":"2026-09-23","daynight":"N"}},{"type":"Feature","geometry":{"type":"Point","coordinates":[-119.60836,37.60362]},"properties":{"frp":1.2,"date":"2026-09-23","daynight":"N"}},{"type":"Feature","geometry":{"type":"Point","coordinates":[-119.59683,37.60517]},"properties":{"frp":11.23,"date":"2026-09-23","daynight":"N"}},{"type":"Feature","geometry":{"type":"Point","coordinates":[-119.60205,37.60622]},"properties":{"frp":11.23,"date":"2026-09-23","daynight":"N"}},{"type":"Feature","geometry":{"type":"Point","coordinates":[-119.60724,37.60727]},"properties":{"frp":3.52,"date":"2026-09-23","daynight":"N"}},{"type":"Feature","geometry":{"type":"Point","coordinates":[-119.59039,37.60774]},"properties":{"frp":3.15,"date":"2026-09-23","daynight":"N"}},{"type":"Feature","geometry":{"type":"Point","coordinates":[-119.61237,37.60829]},"properties":{"frp":3.52,"date":"2026-09-23","daynight":"N"}},{"type":"Feature","geometry":{"type":"Point","coordinates":[-119.59574,37.60882]},"properties":{"frp":11.23,"date":"2026-09-23","daynight":"N"}},{"type":"Feature","geometry":{"type":"Point","coordinates":[-119.60101,37.60987]},"properties":{"frp":11.23,"date":"2026-09-23","daynight":"N"}},{"type":"Feature","geometry":{"type":"Point","coordinates":[-119.61128,37.61194]},"properties":{"frp":3.52,"date":"2026-09-23","daynight":"N"}},{"type":"Feature","geometry":{"type":"Point","coordinates":[-119.59984,37.61351]},"properties":{"frp":1.04,"date":"2026-09-23","daynight":"N"}},{"type":"Feature","geometry":{"type":"Point","coordinates":[-119.6263,37.61496]},"properties":{"frp":5.56,"date":"2026-09-23","daynight":"N"}},{"type":"Feature","geometry":{"type":"Point","coordinates":[-119.62022,37.6176]},"properties":{"frp":5.72,"date":"2026-09-23","daynight":"N"}},{"type":"Feature","geometry":{"type":"Point","coordinates":[-119.62535,37.61863]},"properties":{"frp":4.43,"date":"2026-09-23","daynight":"N"}},{"type":"Feature","geometry":{"type":"Point","coordinates":[-119.61928,37.62128]},"properties":{"frp":5.72,"date":"2026-09-23","daynight":"N"}},{"type":"Feature","geometry":{"type":"Point","coordinates":[-119.60231,37.62174]},"properties":{"frp":1.18,"date":"2026-09-23","daynight":"N"}},{"type":"Feature","geometry":{"type":"Point","coordinates":[-119.62448,37.62232]},"properties":{"frp":4.43,"date":"2026-09-23","daynight":"N"}},{"type":"Feature","geometry":{"type":"Point","coordinates":[-119.61308,37.6239]},"properties":{"frp":6.54,"date":"2026-09-23","daynight":"N"}},{"type":"Feature","geometry":{"type":"Point","coordinates":[-119.61839,37.62497]},"properties":{"frp":6.54,"date":"2026-09-23","daynight":"N"}},{"type":"Feature","geometry":{"type":"Point","coordinates":[-119.60103,37.62535]},"properties":{"frp":1.18,"date":"2026-09-23","daynight":"N"}},{"type":"Feature","geometry":{"type":"Point","coordinates":[-119.6119,37.62753]},"properties":{"frp":6.54,"date":"2026-09-23","daynight":"N"}},{"type":"Feature","geometry":{"type":"Point","coordinates":[-119.61747,37.62865]},"properties":{"frp":6.54,"date":"2026-09-23","daynight":"N"}},{"type":"Feature","geometry":{"type":"Point","coordinates":[-119.59974,37.62896]},"properties":{"frp":2.3,"date":"2026-09-23","daynight":"N"}},{"type":"Feature","geometry":{"type":"Point","coordinates":[-119.61074,37.63116]},"properties":{"frp":8.93,"date":"2026-09-23","daynight":"N"}},{"type":"Feature","geometry":{"type":"Point","coordinates":[-119.61638,37.63229]},"properties":{"frp":8.93,"date":"2026-09-23","daynight":"N"}},{"type":"Feature","geometry":{"type":"Point","coordinates":[-119.59851,37.63258]},"properties":{"frp":2.3,"date":"2026-09-23","daynight":"N"}},{"type":"Feature","geometry":{"type":"Point","coordinates":[-119.60395,37.63367]},"properties":{"frp":2.3,"date":"2026-09-23","daynight":"N"}},{"type":"Feature","geometry":{"type":"Point","coordinates":[-119.6096,37.6348]},"properties":{"frp":8.93,"date":"2026-09-23","daynight":"N"}},{"type":"Feature","geometry":{"type":"Point","coordinates":[-121.18848,37.88321]},"properties":{"frp":1.09,"date":"2026-09-23","daynight":"N"}},{"type":"Feature","geometry":{"type":"Point","coordinates":[-121.18604,37.88417]},"properties":{"frp":0.92,"date":"2026-09-23","daynight":"N"}},{"type":"Feature","geometry":{"type":"Point","coordinates":[-67.70929,45.73234]},"properties":{"frp":2.46,"date":"2026-09-23","daynight":"D"}},{"type":"Feature","geometry":{"type":"Point","coordinates":[-90.1823,27.36354]},"properties":{"frp":8.72,"date":"2026-09-23","daynight":"D"}},{"type":"Feature","geometry":{"type":"Point","coordinates":[-90.10115,27.51745]},"properties":{"frp":15.61,"date":"2026-09-23","daynight":"D"}},{"type":"Feature","geometry":{"type":"Point","coordinates":[-90.10262,27.518]},"properties":{"frp":8.43,"date":"2026-09-23","daynight":"D"}},{"type":"Feature","geometry":{"type":"Point","coordinates":[-90.09531,27.52002]},"properties":{"frp":8.43,"date":"2026-09-23","daynight":"D"}},{"type":"Feature","geometry":{"type":"Point","coordinates":[-85.18182,30.27052]},"properties":{"frp":4.68,"date":"2026-09-23","daynight":"D"}},{"type":"Feature","geometry":{"type":"Point","coordinates":[-85.17848,30.2713]},"properties":{"frp":4.5,"date":"2026-09-23","daynight":"D"}},{"type":"Feature","geometry":{"type":"Point","coordinates":[-85.18336,30.27547]},"properties":{"frp":4.68,"date":"2026-09-23","daynight":"D"}},{"type":"Feature","geometry":{"type":"Point","coordinates":[-85.18002,30.27625]},"properties":{"frp":4.5,"date":"2026-09-23","daynight":"D"}},{"type":"Feature","geometry":{"type":"Point","coordinates":[-89.95639,30.80057]},"properties":{"frp":21.69,"date":"2026-09-23","daynight":"D"}},{"type":"Feature","geometry":{"type":"Point","coordinates":[-89.95811,30.80074]},"properties":{"frp":18.1,"date":"2026-09-23","daynight":"D"}},{"type":"Feature","geometry":{"type":"Point","coordinates":[-89.95043,30.8022]},"properties":{"frp":26.34,"date":"2026-09-23","daynight":"D"}},{"type":"Feature","geometry":{"type":"Point","coordinates":[-89.95206,30.80243]},"properties":{"frp":18.1,"date":"2026-09-23","daynight":"D"}},{"type":"Feature","geometry":{"type":"Point","coordinates":[-89.95866,30.80683]},"properties":{"frp":21.69,"date":"2026-09-23","daynight":"D"}},{"type":"Feature","geometry":{"type":"Point","coordinates":[-89.96031,30.80701]},"properties":{"frp":18.1,"date":"2026-09-23","daynight":"D"}},{"type":"Feature","geometry":{"type":"Point","coordinates":[-89.96699,30.81144]},"properties":{"frp":19.1,"date":"2026-09-23","daynight":"D"}},{"type":"Feature","geometry":{"type":"Point","coordinates":[-89.96867,30.81157]},"properties":{"frp":22.07,"date":"2026-09-23","daynight":"D"}},{"type":"Feature","geometry":{"type":"Point","coordinates":[-89.96091,30.81309]},"properties":{"frp":19.1,"date":"2026-09-23","daynight":"D"}},{"type":"Feature","geometry":{"type":"Point","coordinates":[-89.96256,30.81327]},"properties":{"frp":28.24,"date":"2026-09-23","daynight":"D"}},{"type":"Feature","geometry":{"type":"Point","coordinates":[-88.01341,30.93892]},"properties":{"frp":4.11,"date":"2026-09-23","daynight":"D"}},{"type":"Feature","geometry":{"type":"Point","coordinates":[-87.98427,31.14984]},"properties":{"frp":7.31,"date":"2026-09-23","daynight":"D"}},{"type":"Feature","geometry":{"type":"Point","coordinates":[-90.37641,32.40825]},"properties":{"frp":9.51,"date":"2026-09-23","daynight":"D"}},{"type":"Feature","geometry":{"type":"Point","coordinates":[-90.37884,32.41437]},"properties":{"frp":9.51,"date":"2026-09-23","daynight":"D"}},{"type":"Feature","geometry":{"type":"Point","coordinates":[-90.37292,32.41602]},"properties":{"frp":12.88,"date":"2026-09-23","daynight":"D"}},{"type":"Feature","geometry":{"type":"Point","coordinates":[-86.80402,33.09214]},"properties":{"frp":2.86,"date":"2026-09-23","daynight":"D"}},{"type":"Feature","geometry":{"type":"Point","coordinates":[-87.50636,33.23203]},"properties":{"frp":2.15,"date":"2026-09-23","daynight":"D"}},{"type":"Feature","geometry":{"type":"Point","coordinates":[-86.75719,33.5321]},"properties":{"frp":2.1,"date":"2026-09-23","daynight":"D"}},{"type":"Feature","geometry":{"type":"Point","coordinates":[-91.31702,33.69036]},"properties":{"frp":16.33,"date":"2026-09-23","daynight":"D"}},{"type":"Feature","geometry":{"type":"Point","coordinates":[-91.31081,33.69215]},"properties":{"frp":19.9,"date":"2026-09-23","daynight":"D"}},{"type":"Feature","geometry":{"type":"Point","coordinates":[-91.31956,33.69656]},"properties":{"frp":16.33,"date":"2026-09-23","daynight":"D"}},{"type":"Feature","geometry":{"type":"Point","coordinates":[-91.31336,33.69835]},"properties":{"frp":19.9,"date":"2026-09-23","daynight":"D"}},{"type":"Feature","geometry":{"type":"Point","coordinates":[-90.00084,34.22816]},"properties":{"frp":4.91,"date":"2026-09-23","daynight":"D"}},{"type":"Feature","geometry":{"type":"Point","coordinates":[-90.00064,34.23133]},"properties":{"frp":2.65,"date":"2026-09-23","daynight":"D"}},{"type":"Feature","geometry":{"type":"Point","coordinates":[-89.42901,34.2616]},"properties":{"frp":31.42,"date":"2026-09-23","daynight":"D"}},{"type":"Feature","geometry":{"type":"Point","coordinates":[-89.42419,34.26289]},"properties":{"frp":33.18,"date":"2026-09-23","daynight":"D"}},{"type":"Feature","geometry":{"type":"Point","coordinates":[-89.41937,34.26417]},"properties":{"frp":33.18,"date":"2026-09-23","daynight":"D"}},{"type":"Feature","geometry":{"type":"Point","coordinates":[-90.31635,34.62653]},"properties":{"frp":10.58,"date":"2026-09-23","daynight":"D"}},{"type":"Feature","geometry":{"type":"Point","coordinates":[-90.31869,34.63232]},"properties":{"frp":9.09,"date":"2026-09-23","daynight":"D"}},{"type":"Feature","geometry":{"type":"Point","coordinates":[-90.32629,34.63664]},"properties":{"frp":9.09,"date":"2026-09-23","daynight":"D"}},{"type":"Feature","geometry":{"type":"Point","coordinates":[-91.80754,34.84425]},"properties":{"frp":6.07,"date":"2026-09-23","daynight":"D"}},{"type":"Feature","geometry":{"type":"Point","coordinates":[-91.80133,34.84609]},"properties":{"frp":6.07,"date":"2026-09-23","daynight":"D"}},{"type":"Feature","geometry":{"type":"Point","coordinates":[-91.80962,34.84901]},"properties":{"frp":17.94,"date":"2026-09-23","daynight":"D"}},{"type":"Feature","geometry":{"type":"Point","coordinates":[-91.81014,34.85043]},"properties":{"frp":9.89,"date":"2026-09-23","daynight":"D"}},{"type":"Feature","geometry":{"type":"Point","coordinates":[-91.80336,34.85081]},"properties":{"frp":18.85,"date":"2026-09-23","daynight":"D"}},{"type":"Feature","geometry":{"type":"Point","coordinates":[-91.80389,34.85227]},"properties":{"frp":9.89,"date":"2026-09-23","daynight":"D"}},{"type":"Feature","geometry":{"type":"Point","coordinates":[-91.03808,35.02253]},"properties":{"frp":15.24,"date":"2026-09-23","daynight":"D"}},{"type":"Feature","geometry":{"type":"Point","coordinates":[-91.03242,35.02413]},"properties":{"frp":15.24,"date":"2026-09-23","daynight":"D"}},{"type":"Feature","geometry":{"type":"Point","coordinates":[-91.02678,35.02574]},"properties":{"frp":13.14,"date":"2026-09-23","daynight":"D"}},{"type":"Feature","geometry":{"type":"Point","coordinates":[-91.0462,35.02686]},"properties":{"frp":184.28,"date":"2026-09-23","daynight":"D"}},{"type":"Feature","geometry":{"type":"Point","coordinates":[-91.10499,35.02937]},"properties":{"frp":7.91,"date":"2026-09-23","daynight":"D"}},{"type":"Feature","geometry":{"type":"Point","coordinates":[-91.10464,35.03023]},"properties":{"frp":5.05,"date":"2026-09-23","daynight":"D"}},{"type":"Feature","geometry":{"type":"Point","coordinates":[-91.02926,35.03166]},"properties":{"frp":102.52,"date":"2026-09-23","daynight":"D"}},{"type":"Feature","geometry":{"type":"Point","coordinates":[-91.10748,35.03531]},"properties":{"frp":7.91,"date":"2026-09-23","daynight":"D"}},{"type":"Feature","geometry":{"type":"Point","coordinates":[-91.10716,35.03616]},"properties":{"frp":7.28,"date":"2026-09-23","daynight":"D"}},{"type":"Feature","geometry":{"type":"Point","coordinates":[-91.06743,35.16622]},"properties":{"frp":19.38,"date":"2026-09-23","daynight":"D"}},{"type":"Feature","geometry":{"type":"Point","coordinates":[-91.06181,35.1678]},"properties":{"frp":19.38,"date":"2026-09-23","daynight":"D"}},{"type":"Feature","geometry":{"type":"Point","coordinates":[-91.06992,35.17213]},"properties":{"frp":20.64,"date":"2026-09-23","daynight":"D"}},{"type":"Feature","geometry":{"type":"Point","coordinates":[-91.06429,35.17371]},"properties":{"frp":20.64,"date":"2026-09-23","daynight":"D"}},{"type":"Feature","geometry":{"type":"Point","coordinates":[-91.0691,35.16519]},"properties":{"frp":18.74,"date":"2026-09-23","daynight":"D"}},{"type":"Feature","geometry":{"type":"Point","coordinates":[-91.06351,35.1668]},"properties":{"frp":37.53,"date":"2026-09-23","daynight":"D"}},{"type":"Feature","geometry":{"type":"Point","coordinates":[-91.07159,35.1711]},"properties":{"frp":18.74,"date":"2026-09-23","daynight":"D"}},{"type":"Feature","geometry":{"type":"Point","coordinates":[-91.06597,35.17271]},"properties":{"frp":37.53,"date":"2026-09-23","daynight":"D"}},{"type":"Feature","geometry":{"type":"Point","coordinates":[-80.09766,42.79895]},"properties":{"frp":3.76,"date":"2026-09-23","daynight":"D"}},{"type":"Feature","geometry":{"type":"Point","coordinates":[-82.64512,43.64493]},"properties":{"frp":2.89,"date":"2026-09-23","daynight":"D"}},{"type":"Feature","geometry":{"type":"Point","coordinates":[-82.64629,43.64832]},"properties":{"frp":2.89,"date":"2026-09-23","daynight":"D"}},{"type":"Feature","geometry":{"type":"Point","coordinates":[-67.71063,45.72779]},"properties":{"frp":1.7,"date":"2026-09-23","daynight":"D"}},{"type":"Feature","geometry":{"type":"Point","coordinates":[-67.71003,45.73199]},"properties":{"frp":4.72,"date":"2026-09-23","daynight":"D"}},{"type":"Feature","geometry":{"type":"Point","coordinates":[-83.40446,45.07048]},"properties":{"frp":3.22,"date":"2026-09-23","daynight":"D"}},{"type":"Feature","geometry":{"type":"Point","coordinates":[-84.39497,46.51791]},"properties":{"frp":6.42,"date":"2026-09-23","daynight":"D"}}]}