{"type":"FeatureCollection","features":[{"type":"Feature","geometry":{"type":"Point","coordinates":[-66.02099,45.27768]},"properties":{"frp":0.98,"date":"2026-09-15","daynight":"N"}},{"type":"Feature","geometry":{"type":"Point","coordinates":[-73.14437,46.04076]},"properties":{"frp":0.74,"date":"2026-09-15","daynight":"N"}},{"type":"Feature","geometry":{"type":"Point","coordinates":[-73.14301,46.04418]},"properties":{"frp":2.87,"date":"2026-09-15","daynight":"N"}},{"type":"Feature","geometry":{"type":"Point","coordinates":[-73.91315,45.7804]},"properties":{"frp":0.59,"date":"2026-09-15","daynight":"N"}},{"type":"Feature","geometry":{"type":"Point","coordinates":[-73.91187,45.78377]},"properties":{"frp":0.52,"date":"2026-09-15","daynight":"N"}},{"type":"Feature","geometry":{"type":"Point","coordinates":[-73.25105,45.83626]},"properties":{"frp":1.31,"date":"2026-09-15","daynight":"N"}},{"type":"Feature","geometry":{"type":"Point","coordinates":[-73.2497,45.83968]},"properties":{"frp":1.31,"date":"2026-09-15","daynight":"N"}},{"type":"Feature","geometry":{"type":"Point","coordinates":[-77.97418,39.43431]},"properties":{"frp":0.83,"date":"2026-09-15","daynight":"N"}},{"type":"Feature","geometry":{"type":"Point","coordinates":[-77.97868,39.43508]},"properties":{"frp":0.76,"date":"2026-09-15","daynight":"N"}},{"type":"Feature","geometry":{"type":"Point","coordinates":[-75.63157,39.59033]},"properties":{"frp":1.11,"date":"2026-09-15","daynight":"N"}},{"type":"Feature","geometry":{"type":"Point","coordinates":[-75.63661,39.59129]},"properties":{"frp":1.11,"date":"2026-09-15","daynight":"N"}},{"type":"Feature","geometry":{"type":"Point","coordinates":[-76.81377,39.938]},"properties":{"frp":0.85,"date":"2026-09-15","daynight":"N"}},{"type":"Feature","geometry":{"type":"Point","coordinates":[-79.87839,40.30291]},"properties":{"frp":1.35,"date":"2026-09-15","daynight":"N"}},{"type":"Feature","geometry":{"type":"Point","coordinates":[-79.87754,40.30622]},"properties":{"frp":1.35,"date":"2026-09-15","daynight":"N"}},{"type":"Feature","geometry":{"type":"Point","coordinates":[-80.60692,40.31128]},"properties":{"frp":2.03,"date":"2026-09-15","daynight":"N"}},{"type":"Feature","geometry":{"type":"Point","coordinates":[-80.61156,40.31195]},"properties":{"frp":1.06,"date":"2026-09-15","daynight":"N"}},{"type":"Feature","geometry":{"type":"Point","coordinates":[-79.84857,40.39307]},"properties":{"frp":0.94,"date":"2026-09-15","daynight":"N"}},{"type":"Feature","geometry":{"type":"Point","coordinates":[-79.85313,40.39375]},"properties":{"frp":3.04,"date":"2026-09-15","daynight":"N"}},{"type":"Feature","geometry":{"type":"Point","coordinates":[-74.22461,40.63419]},"properties":{"frp":0.93,"date":"2026-09-15","daynight":"N"}},{"type":"Feature","geometry":{"type":"Point","coordinates":[-74.21785,40.63668]},"properties":{"frp":0.83,"date":"2026-09-15","daynight":"N"}},{"type":"Feature","geometry":{"type":"Point","coordinates":[-74.22338,40.63778]},"properties":{"frp":1.25,"date":"2026-09-15","daynight":"N"}},{"type":"Feature","geometry":{"type":"Point","coordinates":[-77.71025,40.89109]},"properties":{"frp":1.87,"date":"2026-09-15","daynight":"N"}},{"type":"Feature","geometry":{"type":"Point","coordinates":[-77.70928,40.89437]},"properties":{"frp":1.87,"date":"2026-09-15","daynight":"N"}},{"type":"Feature","geometry":{"type":"Point","coordinates":[-85.75105,41.1194]},"properties":{"frp":2.5,"date":"2026-09-15","daynight":"N"}},{"type":"Feature","geometry":{"type":"Point","coordinates":[-85.756,41.11987]},"properties":{"frp":2.5,"date":"2026-09-15","daynight":"N"}},{"type":"Feature","geometry":{"type":"Point","coordinates":[-84.91689,41.37019]},"properties":{"frp":1.79,"date":"2026-09-15","daynight":"N"}},{"type":"Feature","geometry":{"type":"Point","coordinates":[-84.04218,41.56724]},"properties":{"frp":4.28,"date":"2026-09-15","daynight":"N"}},{"type":"Feature","geometry":{"type":"Point","coordinates":[-84.05482,41.56859]},"properties":{"frp":1.41,"date":"2026-09-15","daynight":"N"}},{"type":"Feature","geometry":{"type":"Point","coordinates":[-87.34737,41.6138]},"properties":{"frp":1.29,"date":"2026-09-15","daynight":"N"}},{"type":"Feature","geometry":{"type":"Point","coordinates":[-87.32837,41.61686]},"properties":{"frp":1.38,"date":"2026-09-15","daynight":"N"}},{"type":"Feature","geometry":{"type":"Point","coordinates":[-87.14423,41.6245]},"properties":{"frp":0.94,"date":"2026-09-15","daynight":"N"}},{"type":"Feature","geometry":{"type":"Point","coordinates":[-87.14421,41.62547]},"properties":{"frp":1.13,"date":"2026-09-15","daynight":"N"}},{"type":"Feature","geometry":{"type":"Point","coordinates":[-87.14288,41.63447]},"properties":{"frp":1.04,"date":"2026-09-15","daynight":"N"}},{"type":"Feature","geometry":{"type":"Point","coordinates":[-87.13023,41.63803]},"properties":{"frp":1.85,"date":"2026-09-15","daynight":"N"}},{"type":"Feature","geometry":{"type":"Point","coordinates":[-87.13621,41.6385]},"properties":{"frp":1.85,"date":"2026-09-15","daynight":"N"}},{"type":"Feature","geometry":{"type":"Point","coordinates":[-87.14223,41.63898]},"properties":{"frp":2.66,"date":"2026-09-15","daynight":"N"}},{"type":"Feature","geometry":{"type":"Point","coordinates":[-87.40597,41.64106]},"properties":{"frp":1.22,"date":"2026-09-15","daynight":"N"}},{"type":"Feature","geometry":{"type":"Point","coordinates":[-87.41214,41.64153]},"properties":{"frp":1.15,"date":"2026-09-15","daynight":"N"}},{"type":"Feature","geometry":{"type":"Point","coordinates":[-87.40551,41.64159]},"properties":{"frp":1.17,"date":"2026-09-15","daynight":"N"}},{"type":"Feature","geometry":{"type":"Point","coordinates":[-87.41167,41.64209]},"properties":{"frp":1.17,"date":"2026-09-15","daynight":"N"}},{"type":"Feature","geometry":{"type":"Point","coordinates":[-87.1356,41.64301]},"properties":{"frp":1.85,"date":"2026-09-15","daynight":"N"}},{"type":"Feature","geometry":{"type":"Point","coordinates":[-87.14161,41.64348]},"properties":{"frp":2.66,"date":"2026-09-15","daynight":"N"}},{"type":"Feature","geometry":{"type":"Point","coordinates":[-87.4839,41.66549]},"properties":{"frp":4.27,"date":"2026-09-15","daynight":"N"}},{"type":"Feature","geometry":{"type":"Point","coordinates":[-87.42729,41.66579]},"properties":{"frp":3.12,"date":"2026-09-15","daynight":"N"}},{"type":"Feature","geometry":{"type":"Point","coordinates":[-87.45833,41.66817]},"properties":{"frp":1.07,"date":"2026-09-15","daynight":"N"}},{"type":"Feature","geometry":{"type":"Point","coordinates":[-87.41913,41.67903]},"properties":{"frp":1.77,"date":"2026-09-15","daynight":"N"}},{"type":"Feature","geometry":{"type":"Point","coordinates":[-87.4185,41.68361]},"properties":{"frp":1.77,"date":"2026-09-15","daynight":"N"}},{"type":"Feature","geometry":{"type":"Point","coordinates":[-87.4247,41.68409]},"properties":{"frp":1.77,"date":"2026-09-15","daynight":"N"}},{"type":"Feature","geometry":{"type":"Point","coordinates":[-80.10586,42.80138]},"properties":{"frp":1.18,"date":"2026-09-15","daynight":"N"}},{"type":"Feature","geometry":{"type":"Point","coordinates":[-80.09431,42.80675]},"properties":{"frp":0.91,"date":"2026-09-15","daynight":"N"}},{"type":"Feature","geometry":{"type":"Point","coordinates":[-80.09922,42.80743]},"properties":{"frp":0.91,"date":"2026-09-15","daynight":"N"}},{"type":"Feature","geometry":{"type":"Point","coordinates":[-80.09834,42.81079]},"properties":{"frp":0.91,"date":"2026-09-15","daynight":"N"}},{"type":"Feature","geometry":{"type":"Point","coordinates":[-80.0917,42.81685]},"properties":{"frp":0.93,"date":"2026-09-15","daynight":"N"}},{"type":"Feature","geometry":{"type":"Point","coordinates":[-80.0966,42.81753]},"properties":{"frp":0.93,"date":"2026-09-15","daynight":"N"}},{"type":"Feature","geometry":{"type":"Point","coordinates":[-76.80746,36.35501]},"properties":{"frp":5.47,"date":"2026-09-15","daynight":"N"}},{"type":"Feature","geometry":{"type":"Point","coordinates":[-76.80646,36.35849]},"properties":{"frp":1.93,"date":"2026-09-15","daynight":"N"}},{"type":"Feature","geometry":{"type":"Point","coordinates":[-78.38526,36.91198]},"properties":{"frp":1.63,"date":"2026-09-15","daynight":"N"}},{"type":"Feature","geometry":{"type":"Point","coordinates":[-78.38438,36.91531]},"properties":{"frp":1.63,"date":"2026-09-15","daynight":"N"}},{"type":"Feature","geometry":{"type":"Point","coordinates":[-84.58794,36.9707]},"properties":{"frp":0.69,"date":"2026-09-15","daynight":"N"}},{"type":"Feature","geometry":{"type":"Point","coordinates":[-77.44367,37.18009]},"properties":{"frp":0.8,"date":"2026-09-15","daynight":"N"}},{"type":"Feature","geometry":{"type":"Point","coordinates":[-77.44827,37.18091]},"properties":{"frp":0.8,"date":"2026-09-15","daynight":"N"}},{"type":"Feature","geometry":{"type":"Point","coordinates":[-77.4427,37.18348]},"properties":{"frp":0.94,"date":"2026-09-15","daynight":"N"}},{"type":"Feature","geometry":{"type":"Point","coordinates":[-82.03793,37.23296]},"properties":{"frp":1.29,"date":"2026-09-15","daynight":"N"}},{"type":"Feature","geometry":{"type":"Point","coordinates":[-82.03724,37.23635]},"properties":{"frp":0.65,"date":"2026-09-15","daynight":"N"}},{"type":"Feature","geometry":{"type":"Point","coordinates":[-81.20471,37.31324]},"properties":{"frp":1.76,"date":"2026-09-15","daynight":"N"}},{"type":"Feature","geometry":{"type":"Point","coordinates":[-81.21195,37.32118]},"properties":{"frp":2.27,"date":"2026-09-15","daynight":"N"}},{"type":"Feature","geometry":{"type":"Point","coordinates":[-90.07871,37.96504]},"properties":{"frp":0.78,"date":"2026-09-15","daynight":"N"}},{"type":"Feature","geometry":{"type":"Point","coordinates":[-90.07825,37.97013]},"properties":{"frp":0.78,"date":"2026-09-15","daynight":"N"}},{"type":"Feature","geometry":{"type":"Point","coordinates":[-90.06671,37.97448]},"properties":{"frp":1.0,"date":"2026-09-15","daynight":"N"}},{"type":"Feature","geometry":{"type":"Point","coordinates":[-90.08182,38.00627]},"properties":{"frp":0.89,"date":"2026-09-15","daynight":"N"}},{"type":"Feature","geometry":{"type":"Point","coordinates":[-90.08156,38.01139]},"properties":{"frp":0.89,"date":"2026-09-15","daynight":"N"}},{"type":"Feature","geometry":{"type":"Point","coordinates":[-84.55651,38.16251]},"properties":{"frp":1.12,"date":"2026-09-15","daynight":"N"}},{"type":"Feature","geometry":{"type":"Point","coordinates":[-84.55699,38.1634]},"properties":{"frp":1.52,"date":"2026-09-15","daynight":"N"}},{"type":"Feature","geometry":{"type":"Point","coordinates":[-90.14861,38.69094]},"properties":{"frp":0.69,"date":"2026-09-15","daynight":"N"}},{"type":"Feature","geometry":{"type":"Point","coordinates":[-90.13255,38.6951]},"properties":{"frp":1.26,"date":"2026-09-15","daynight":"N"}},{"type":"Feature","geometry":{"type":"Point","coordinates":[-90.13641,38.69535]},"properties":{"frp":1.26,"date":"2026-09-15","daynight":"N"}},{"type":"Feature","geometry":{"type":"Point","coordinates":[-90.14027,38.69559]},"properties":{"frp":2.34,"date":"2026-09-15","daynight":"N"}},{"type":"Feature","geometry":{"type":"Point","coordinates":[-90.148,38.69609]},"properties":{"frp":1.0,"date":"2026-09-15","daynight":"N"}},{"type":"Feature","geometry":{"type":"Point","coordinates":[-90.13582,38.70049]},"properties":{"frp":1.26,"date":"2026-09-15","daynight":"N"}},{"type":"Feature","geometry":{"type":"Point","coordinates":[-84.99599,38.75728]},"properties":{"frp":3.75,"date":"2026-09-15","daynight":"N"}},{"type":"Feature","geometry":{"type":"Point","coordinates":[-84.99553,38.75742]},"properties":{"frp":2.11,"date":"2026-09-15","daynight":"N"}},{"type":"Feature","geometry":{"type":"Point","coordinates":[-85.00174,38.76188]},"properties":{"frp":1.22,"date":"2026-09-15","daynight":"N"}},{"type":"Feature","geometry":{"type":"Point","coordinates":[-85.00128,38.76199]},"properties":{"frp":1.96,"date":"2026-09-15","daynight":"N"}},{"type":"Feature","geometry":{"type":"Point","coordinates":[-84.24092,38.83472]},"properties":{"frp":3.94,"date":"2026-09-15","daynight":"N"}},{"type":"Feature","geometry":{"type":"Point","coordinates":[-90.06349,38.83739]},"properties":{"frp":2.73,"date":"2026-09-15","daynight":"N"}},{"type":"Feature","geometry":{"type":"Point","coordinates":[-87.72321,38.99924]},"properties":{"frp":2.13,"date":"2026-09-15","daynight":"N"}},{"type":"Feature","geometry":{"type":"Point","coordinates":[-86.41297,39.32938]},"properties":{"frp":1.95,"date":"2026-09-15","daynight":"N"}},{"type":"Feature","geometry":{"type":"Point","coordinates":[-86.41471,39.32972]},"properties":{"frp":2.76,"date":"2026-09-15","daynight":"N"}},{"type":"Feature","geometry":{"type":"Point","coordinates":[-86.41783,39.32983]},"properties":{"frp":1.95,"date":"2026-09-15","daynight":"N"}},{"type":"Feature","geometry":{"type":"Point","coordinates":[-84.38618,39.46741]},"properties":{"frp":1.54,"date":"2026-09-15","daynight":"N"}},{"type":"Feature","geometry":{"type":"Point","coordinates":[-84.38547,39.47122]},"properties":{"frp":1.54,"date":"2026-09-15","daynight":"N"}},{"type":"Feature","geometry":{"type":"Point","coordinates":[-84.40348,39.47322]},"properties":{"frp":1.59,"date":"2026-09-15","daynight":"N"}},{"type":"Feature","geometry":{"type":"Point","coordinates":[-84.38332,39.48262]},"properties":{"frp":1.51,"date":"2026-09-15","daynight":"N"}},{"type":"Feature","geometry":{"type":"Point","coordinates":[-84.38931,39.4833]},"properties":{"frp":0.81,"date":"2026-09-15","daynight":"N"}},{"type":"Feature","geometry":{"type":"Point","coordinates":[-84.3886,39.4871]},"properties":{"frp":0.81,"date":"2026-09-15","daynight":"N"}},{"type":"Feature","geometry":{"type":"Point","coordinates":[-82.14846,39.73104]},"properties":{"frp":0.81,"date":"2026-09-15","daynight":"N"}},{"type":"Feature","geometry":{"type":"Point","coordinates":[-82.14768,39.73451]},"properties":{"frp":0.83,"date":"2026-09-15","daynight":"N"}},{"type":"Feature","geometry":{"type":"Point","coordinates":[-86.48734,39.8764]},"properties":{"frp":1.47,"date":"2026-09-15","daynight":"N"}},{"type":"Feature","geometry":{"type":"Point","coordinates":[-86.93417,33.48372]},"properties":{"frp":1.99,"date":"2026-09-15","daynight":"N"}},{"type":"Feature","geometry":{"type":"Point","coordinates":[-86.80279,33.54322]},"properties":{"frp":0.86,"date":"2026-09-15","daynight":"N"}},{"type":"Feature","geometry":{"type":"Point","coordinates":[-86.80218,33.54723]},"properties":{"frp":0.86,"date":"2026-09-15","daynight":"N"}},{"type":"Feature","geometry":{"type":"Point","coordinates":[-86.78412,33.58189]},"properties":{"frp":2.04,"date":"2026-09-15","daynight":"N"}},{"type":"Feature","geometry":{"type":"Point","coordinates":[-83.19911,33.59208]},"properties":{"frp":0.94,"date":"2026-09-15","daynight":"N"}},{"type":"Feature","geometry":{"type":"Point","coordinates":[-83.19842,33.59549]},"properties":{"frp":0.53,"date":"2026-09-15","daynight":"N"}},{"type":"Feature","geometry":{"type":"Point","coordinates":[-78.13647,34.07125]},"properties":{"frp":1.83,"date":"2026-09-15","daynight":"N"}},{"type":"Feature","geometry":{"type":"Point","coordinates":[-78.13737,34.07334]},"properties":{"frp":1.31,"date":"2026-09-15","daynight":"N"}},{"type":"Feature","geometry":{"type":"Point","coordinates":[-80.59752,34.15455]},"properties":{"frp":0.75,"date":"2026-09-15","daynight":"N"}},{"type":"Feature","geometry":{"type":"Point","coordinates":[-80.59675,34.15784]},"properties":{"frp":0.75,"date":"2026-09-15","daynight":"N"}},{"type":"Feature","geometry":{"type":"Point","coordinates":[-80.60089,34.1585]},"properties":{"frp":0.75,"date":"2026-09-15","daynight":"N"}},{"type":"Feature","geometry":{"type":"Point","coordinates":[-90.85336,34.54689]},"properties":{"frp":2.12,"date":"2026-09-15","daynight":"N"}},{"type":"Feature","geometry":{"type":"Point","coordinates":[-87.08397,34.63701]},"properties":{"frp":1.81,"date":"2026-09-15","daynight":"N"}},{"type":"Feature","geometry":{"type":"Point","coordinates":[-87.08335,34.64114]},"properties":{"frp":2.5,"date":"2026-09-15","daynight":"N"}},{"type":"Feature","geometry":{"type":"Point","coordinates":[-87.09232,34.64207]},"properties":{"frp":3.25,"date":"2026-09-15","daynight":"N"}},{"type":"Feature","geometry":{"type":"Point","coordinates":[-88.32228,34.8042]},"properties":{"frp":1.95,"date":"2026-09-15","daynight":"N"}},{"type":"Feature","geometry":{"type":"Point","coordinates":[-88.32749,34.8047]},"properties":{"frp":1.95,"date":"2026-09-15","daynight":"N"}},{"type":"Feature","geometry":{"type":"Point","coordinates":[-90.04115,34.98147]},"properties":{"frp":1.45,"date":"2026-09-15","daynight":"N"}},{"type":"Feature","geometry":{"type":"Point","coordinates":[-90.04129,34.98278]},"properties":{"frp":1.51,"date":"2026-09-15","daynight":"N"}},{"type":"Feature","geometry":{"type":"Point","coordinates":[-89.94419,35.60925]},"properties":{"frp":1.55,"date":"2026-09-15","daynight":"N"}},{"type":"Feature","geometry":{"type":"Point","coordinates":[-89.94207,35.61095]},"properties":{"frp":4.28,"date":"2026-09-15","daynight":"N"}},{"type":"Feature","geometry":{"type":"Point","coordinates":[-89.94361,35.61417]},"properties":{"frp":1.55,"date":"2026-09-15","daynight":"N"}},{"type":"Feature","geometry":{"type":"Point","coordinates":[-89.93789,35.64542]},"properties":{"frp":7.77,"date":"2026-09-15","daynight":"N"}},{"type":"Feature","geometry":{"type":"Point","coordinates":[-89.93054,35.64982]},"properties":{"frp":9.33,"date":"2026-09-15","daynight":"N"}},{"type":"Feature","geometry":{"type":"Point","coordinates":[-84.9706,35.7122]},"properties":{"frp":1.63,"date":"2026-09-15","daynight":"N"}},{"type":"Feature","geometry":{"type":"Point","coordinates":[-84.97614,35.71286]},"properties":{"frp":1.67,"date":"2026-09-15","daynight":"N"}},{"type":"Feature","geometry":{"type":"Point","coordinates":[-84.96993,35.71594]},"properties":{"frp":0.86,"date":"2026-09-15","daynight":"N"}},{"type":"Feature","geometry":{"type":"Point","coordinates":[-84.97543,35.71659]},"properties":{"frp":0.6,"date":"2026-09-15","daynight":"N"}},{"type":"Feature","geometry":{"type":"Point","coordinates":[-88.80684,35.72979]},"properties":{"frp":1.25,"date":"2026-09-15","daynight":"N"}},{"type":"Feature","geometry":{"type":"Point","coordinates":[-88.80871,35.73008]},"properties":{"frp":1.94,"date":"2026-09-15","daynight":"N"}},{"type":"Feature","geometry":{"type":"Point","coordinates":[-85.05794,35.76326]},"properties":{"frp":1.33,"date":"2026-09-15","daynight":"N"}},{"type":"Feature","geometry":{"type":"Point","coordinates":[-85.05746,35.76477]},"properties":{"frp":0.77,"date":"2026-09-15","daynight":"N"}},{"type":"Feature","geometry":{"type":"Point","coordinates":[-83.95685,35.97685]},"properties":{"frp":2.5,"date":"2026-09-15","daynight":"N"}},{"type":"Feature","geometry":{"type":"Point","coordinates":[-88.67891,36.84831]},"properties":{"frp":1.94,"date":"2026-09-15","daynight":"N"}},{"type":"Feature","geometry":{"type":"Point","coordinates":[-90.95992,30.09903]},"properties":{"frp":3.24,"date":"2026-09-15","daynight":"N"}},{"type":"Feature","geometry":{"type":"Point","coordinates":[-91.23971,30.32446]},"properties":{"frp":2.9,"date":"2026-09-15","daynight":"N"}},{"type":"Feature","geometry":{"type":"Point","coordinates":[-83.50706,30.74266]},"properties":{"frp":0.81,"date":"2026-09-15","daynight":"N"}},{"type":"Feature","geometry":{"type":"Point","coordinates":[-83.50641,30.74604]},"properties":{"frp":0.81,"date":"2026-09-15","daynight":"N"}},{"type":"Feature","geometry":{"type":"Point","coordinates":[-87.9838,31.15002]},"properties":{"frp":1.25,"date":"2026-09-15","daynight":"N"}},{"type":"Feature","geometry":{"type":"Point","coordinates":[-87.97881,31.15369]},"properties":{"frp":1.25,"date":"2026-09-15","daynight":"N"}},{"type":"Feature","geometry":{"type":"Point","coordinates":[-87.98316,31.15417]},"properties":{"frp":1.25,"date":"2026-09-15","daynight":"N"}},{"type":"Feature","geometry":{"type":"Point","coordinates":[-87.98195,31.16249]},"properties":{"frp":1.76,"date":"2026-09-15","daynight":"N"}},{"type":"Feature","geometry":{"type":"Point","coordinates":[-97.75464,31.18305]},"properties":{"frp":0.79,"date":"2026-09-15","daynight":"N"}},{"type":"Feature","geometry":{"type":"Point","coordinates":[-97.7462,31.20463]},"properties":{"frp":2.35,"date":"2026-09-15","daynight":"N"}},{"type":"Feature","geometry":{"type":"Point","coordinates":[-97.7485,31.20597]},"properties":{"frp":2.33,"date":"2026-09-15","daynight":"N"}},{"type":"Feature","geometry":{"type":"Point","coordinates":[-96.16924,31.35039]},"properties":{"frp":3.31,"date":"2026-09-15","daynight":"N"}},{"type":"Feature","geometry":{"type":"Point","coordinates":[-96.176,31.35066]},"properties":{"frp":3.31,"date":"2026-09-15","daynight":"N"}},{"type":"Feature","geometry":{"type":"Point","coordinates":[-96.16803,31.35424]},"properties":{"frp":4.64,"date":"2026-09-15","daynight":"N"}},{"type":"Feature","geometry":{"type":"Point","coordinates":[-96.17484,31.35456]},"properties":{"frp":4.32,"date":"2026-09-15","daynight":"N"}},{"type":"Feature","geometry":{"type":"Point","coordinates":[-87.58956,32.18764]},"properties":{"frp":0.68,"date":"2026-09-15","daynight":"N"}},{"type":"Feature","geometry":{"type":"Point","coordinates":[-87.59388,32.18812]},"properties":{"frp":0.85,"date":"2026-09-15","daynight":"N"}},{"type":"Feature","geometry":{"type":"Point","coordinates":[-87.59108,32.19017]},"properties":{"frp":0.82,"date":"2026-09-15","daynight":"N"}},{"type":"Feature","geometry":{"type":"Point","coordinates":[-97.55291,32.2439]},"properties":{"frp":1.8,"date":"2026-09-15","daynight":"N"}},{"type":"Feature","geometry":{"type":"Point","coordinates":[-82.73191,32.51689]},"properties":{"frp":0.73,"date":"2026-09-15","daynight":"N"}},{"type":"Feature","geometry":{"type":"Point","coordinates":[-82.73611,32.51751]},"properties":{"frp":0.73,"date":"2026-09-15","daynight":"N"}},{"type":"Feature","geometry":{"type":"Point","coordinates":[-82.7403,32.51812]},"properties":{"frp":1.0,"date":"2026-09-15","daynight":"N"}},{"type":"Feature","geometry":{"type":"Point","coordinates":[-86.80866,33.0917]},"properties":{"frp":1.93,"date":"2026-09-15","daynight":"N"}},{"type":"Feature","geometry":{"type":"Point","coordinates":[-86.80064,33.10298]},"properties":{"frp":1.47,"date":"2026-09-15","daynight":"N"}},{"type":"Feature","geometry":{"type":"Point","coordinates":[-86.75726,33.1791]},"properties":{"frp":1.84,"date":"2026-09-15","daynight":"N"}},{"type":"Feature","geometry":{"type":"Point","coordinates":[-86.75629,33.18085]},"properties":{"frp":2.0,"date":"2026-09-15","daynight":"N"}},{"type":"Feature","geometry":{"type":"Point","coordinates":[-87.50932,33.23418]},"properties":{"frp":1.18,"date":"2026-09-15","daynight":"N"}},{"type":"Feature","geometry":{"type":"Point","coordinates":[-87.50867,33.23833]},"properties":{"frp":1.18,"date":"2026-09-15","daynight":"N"}},{"type":"Feature","geometry":{"type":"Point","coordinates":[-88.57014,33.44147]},"properties":{"frp":2.86,"date":"2026-09-15","daynight":"N"}},{"type":"Feature","geometry":{"type":"Point","coordinates":[-88.5798,33.44691]},"properties":{"frp":1.62,"date":"2026-09-15","daynight":"N"}},{"type":"Feature","geometry":{"type":"Point","coordinates":[-92.60105,33.56318]},"properties":{"frp":5.99,"date":"2026-09-15","daynight":"N"}},{"type":"Feature","geometry":{"type":"Point","coordinates":[-92.60555,33.56344]},"properties":{"frp":3.42,"date":"2026-09-15","daynight":"N"}},{"type":"Feature","geometry":{"type":"Point","coordinates":[-92.59332,33.56532]},"properties":{"frp":3.27,"date":"2026-09-15","daynight":"N"}},{"type":"Feature","geometry":{"type":"Point","coordinates":[-92.59779,33.56562]},"properties":{"frp":3.27,"date":"2026-09-15","daynight":"N"}},{"type":"Feature","geometry":{"type":"Point","coordinates":[-92.60228,33.56591]},"properties":{"frp":5.36,"date":"2026-09-15","daynight":"N"}},{"type":"Feature","geometry":{"type":"Point","coordinates":[-92.60677,33.56621]},"properties":{"frp":5.36,"date":"2026-09-15","daynight":"N"}},{"type":"Feature","geometry":{"type":"Point","coordinates":[-92.61124,33.56651]},"properties":{"frp":2.64,"date":"2026-09-15","daynight":"N"}},{"type":"Feature","geometry":{"type":"Point","coordinates":[-92.59153,33.56826]},"properties":{"frp":7.12,"date":"2026-09-15","daynight":"N"}},{"type":"Feature","geometry":{"type":"Point","coordinates":[-92.59603,33.56853]},"properties":{"frp":5.99,"date":"2026-09-15","daynight":"N"}},{"type":"Feature","geometry":{"type":"Point","coordinates":[-92.60049,33.5688]},"properties":{"frp":5.99,"date":"2026-09-15","daynight":"N"}},{"type":"Feature","geometry":{"type":"Point","coordinates":[-92.60496,33.56907]},"properties":{"frp":3.42,"date":"2026-09-15","daynight":"N"}},{"type":"Feature","geometry":{"type":"Point","coordinates":[-92.60945,33.56934]},"properties":{"frp":3.42,"date":"2026-09-15","daynight":"N"}},{"type":"Feature","geometry":{"type":"Point","coordinates":[-92.61396,33.5696]},"properties":{"frp":2.47,"date":"2026-09-15","daynight":"N"}},{"type":"Feature","geometry":{"type":"Point","coordinates":[-92.59282,33.57094]},"properties":{"frp":5.32,"date":"2026-09-15","daynight":"N"}},{"type":"Feature","geometry":{"type":"Point","coordinates":[-92.5973,33.57124]},"properties":{"frp":5.32,"date":"2026-09-15","daynight":"N"}},{"type":"Feature","geometry":{"type":"Point","coordinates":[-92.60619,33.57183]},"properties":{"frp":4.57,"date":"2026-09-15","daynight":"N"}},{"type":"Feature","geometry":{"type":"Point","coordinates":[-92.61066,33.57213]},"properties":{"frp":1.83,"date":"2026-09-15","daynight":"N"}},{"type":"Feature","geometry":{"type":"Point","coordinates":[-92.61517,33.57243]},"properties":{"frp":1.83,"date":"2026-09-15","daynight":"N"}},{"type":"Feature","geometry":{"type":"Point","coordinates":[-91.79333,33.58259]},"properties":{"frp":0.38,"date":"2026-09-15","daynight":"N"}},{"type":"Feature","geometry":{"type":"Point","coordinates":[-80.71622,27.72521]},"properties":{"frp":1.67,"date":"2026-09-15","daynight":"N"}},{"type":"Feature","geometry":{"type":"Point","coordinates":[-80.72031,27.72591]},"properties":{"frp":3.25,"date":"2026-09-15","daynight":"N"}},{"type":"Feature","geometry":{"type":"Point","coordinates":[-80.72441,27.72662]},"properties":{"frp":3.25,"date":"2026-09-15","daynight":"N"}},{"type":"Feature","geometry":{"type":"Point","coordinates":[-80.71548,27.72859]},"properties":{"frp":1.23,"date":"2026-09-15","daynight":"N"}},{"type":"Feature","geometry":{"type":"Point","coordinates":[-94.92348,29.37482]},"properties":{"frp":3.78,"date":"2026-09-15","daynight":"N"}},{"type":"Feature","geometry":{"type":"Point","coordinates":[-94.93973,29.37582]},"properties":{"frp":2.6,"date":"2026-09-15","daynight":"N"}},{"type":"Feature","geometry":{"type":"Point","coordinates":[-95.12105,29.72543]},"properties":{"frp":3.15,"date":"2026-09-15","daynight":"N"}},{"type":"Feature","geometry":{"type":"Point","coordinates":[-95.12569,29.73832]},"properties":{"frp":1.55,"date":"2026-09-15","daynight":"N"}},{"type":"Feature","geometry":{"type":"Point","coordinates":[-95.00244,29.74114]},"properties":{"frp":2.21,"date":"2026-09-15","daynight":"N"}},{"type":"Feature","geometry":{"type":"Point","coordinates":[-95.00797,29.74145]},"properties":{"frp":2.21,"date":"2026-09-15","daynight":"N"}},{"type":"Feature","geometry":{"type":"Point","coordinates":[-95.1256,29.74173]},"properties":{"frp":1.93,"date":"2026-09-15","daynight":"N"}},{"type":"Feature","geometry":{"type":"Point","coordinates":[-95.0022,29.74323]},"properties":{"frp":3.43,"date":"2026-09-15","daynight":"N"}},{"type":"Feature","geometry":{"type":"Point","coordinates":[-93.96288,29.83667]},"properties":{"frp":3.33,"date":"2026-09-15","daynight":"N"}},{"type":"Feature","geometry":{"type":"Point","coordinates":[-90.39391,29.99549]},"properties":{"frp":2.24,"date":"2026-09-15","daynight":"N"}},{"type":"Feature","geometry":{"type":"Point","coordinates":[-90.39909,30.00079]},"properties":{"frp":2.52,"date":"2026-09-15","daynight":"N"}},{"type":"Feature","geometry":{"type":"Point","coordinates":[-90.40489,30.00134]},"properties":{"frp":2.52,"date":"2026-09-15","daynight":"N"}},{"type":"Feature","geometry":{"type":"Point","coordinates":[-94.03654,30.00927]},"properties":{"frp":1.72,"date":"2026-09-15","daynight":"N"}},{"type":"Feature","geometry":{"type":"Point","coordinates":[-94.03753,30.0115]},"properties":{"frp":2.0,"date":"2026-09-15","daynight":"N"}},{"type":"Feature","geometry":{"type":"Point","coordinates":[-93.33566,30.04288]},"properties":{"frp":2.27,"date":"2026-09-15","daynight":"N"}},{"type":"Feature","geometry":{"type":"Point","coordinates":[-93.75475,30.04961]},"properties":{"frp":2.53,"date":"2026-09-15","daynight":"N"}},{"type":"Feature","geometry":{"type":"Point","coordinates":[-93.33374,30.05025]},"properties":{"frp":2.55,"date":"2026-09-15","daynight":"N"}},{"type":"Feature","geometry":{"type":"Point","coordinates":[-66.01612,45.28076]},"properties":{"frp":2.25,"date":"2026-09-15","daynight":"N"}},{"type":"Feature","geometry":{"type":"Point","coordinates":[-66.02147,45.28123]},"properties":{"frp":2.25,"date":"2026-09-15","daynight":"N"}},{"type":"Feature","geometry":{"type":"Point","coordinates":[-73.25549,45.84052]},"properties":{"frp":1.68,"date":"2026-09-15","daynight":"N"}},{"type":"Feature","geometry":{"type":"Point","coordinates":[-75.64038,39.58881]},"properties":{"frp":1.03,"date":"2026-09-15","daynight":"N"}},{"type":"Feature","geometry":{"type":"Point","coordinates":[-75.63955,39.58926]},"properties":{"frp":0.69,"date":"2026-09-15","daynight":"N"}},{"type":"Feature","geometry":{"type":"Point","coordinates":[-75.64014,39.59528]},"properties":{"frp":1.03,"date":"2026-09-15","daynight":"N"}},{"type":"Feature","geometry":{"type":"Point","coordinates":[-75.6393,39.59573]},"properties":{"frp":0.69,"date":"2026-09-15","daynight":"N"}},{"type":"Feature","geometry":{"type":"Point","coordinates":[-76.81987,39.93922]},"properties":{"frp":1.97,"date":"2026-09-15","daynight":"N"}},{"type":"Feature","geometry":{"type":"Point","coordinates":[-74.22124,40.63546]},"properties":{"frp":1.77,"date":"2026-09-15","daynight":"N"}},{"type":"Feature","geometry":{"type":"Point","coordinates":[-74.22723,40.63566]},"properties":{"frp":1.33,"date":"2026-09-15","daynight":"N"}},{"type":"Feature","geometry":{"type":"Point","coordinates":[-77.71382,40.89524]},"properties":{"frp":2.78,"date":"2026-09-15","daynight":"N"}},{"type":"Feature","geometry":{"type":"Point","coordinates":[-76.80811,36.35567]},"properties":{"frp":2.91,"date":"2026-09-15","daynight":"N"}},{"type":"Feature","geometry":{"type":"Point","coordinates":[-76.81541,36.35587]},"properties":{"frp":2.21,"date":"2026-09-15","daynight":"N"}},{"type":"Feature","geometry":{"type":"Point","coordinates":[-78.1439,34.07029]},"properties":{"frp":0.86,"date":"2026-09-15","daynight":"N"}},{"type":"Feature","geometry":{"type":"Point","coordinates":[-78.14356,34.07322]},"properties":{"frp":1.01,"date":"2026-09-15","daynight":"N"}},{"type":"Feature","geometry":{"type":"Point","coordinates":[-73.91069,45.78232]},"properties":{"frp":0.56,"date":"2026-09-15","daynight":"N"}},{"type":"Feature","geometry":{"type":"Point","coordinates":[-73.25036,45.83799]},"properties":{"frp":2.25,"date":"2026-09-15","daynight":"N"}},{"type":"Feature","geometry":{"type":"Point","coordinates":[-73.14172,46.04269]},"properties":{"frp":2.78,"date":"2026-09-15","daynight":"N"}},{"type":"Feature","geometry":{"type":"Point","coordinates":[-74.22248,40.63605]},"properties":{"frp":0.92,"date":"2026-09-15","daynight":"N"}},{"type":"Feature","geometry":{"type":"Point","coordinates":[-74.22607,40.63699]},"properties":{"frp":0.92,"date":"2026-09-15","daynight":"N"}},{"type":"Feature","geometry":{"type":"Point","coordinates":[-77.70844,40.89043]},"properties":{"frp":0.91,"date":"2026-09-15","daynight":"N"}},{"type":"Feature","geometry":{"type":"Point","coordinates":[-77.71329,40.89152]},"properties":{"frp":0.91,"date":"2026-09-15","daynight":"N"}},{"type":"Feature","geometry":{"type":"Point","coordinates":[-77.71165,40.89555]},"properties":{"frp":0.98,"date":"2026-09-15","daynight":"N"}},{"type":"Feature","geometry":{"type":"Point","coordinates":[-83.12971,42.27994]},"properties":{"frp":0.46,"date":"2026-09-15","daynight":"N"}},{"type":"Feature","geometry":{"type":"Point","coordinates":[-83.10983,42.27998]},"properties":{"frp":0.63,"date":"2026-09-15","daynight":"N"}},{"type":"Feature","geometry":{"type":"Point","coordinates":[-83.1135,42.28409]},"properties":{"frp":1.59,"date":"2026-09-15","daynight":"N"}},{"type":"Feature","geometry":{"type":"Point","coordinates":[-78.38257,36.91364]},"properties":{"frp":1.16,"date":"2026-09-15","daynight":"N"}},{"type":"Feature","geometry":{"type":"Point","coordinates":[-77.4503,37.18058]},"properties":{"frp":1.74,"date":"2026-09-15","daynight":"N"}},{"type":"Feature","geometry":{"type":"Point","coordinates":[-84.55708,38.16299]},"properties":{"frp":1.48,"date":"2026-09-15","daynight":"N"}},{"type":"Feature","geometry":{"type":"Point","coordinates":[-84.99355,38.75672]},"properties":{"frp":1.76,"date":"2026-09-15","daynight":"N"}},{"type":"Feature","geometry":{"type":"Point","coordinates":[-84.24037,38.83438]},"properties":{"frp":2.58,"date":"2026-09-15","daynight":"N"}},{"type":"Feature","geometry":{"type":"Point","coordinates":[-84.23941,38.83769]},"properties":{"frp":2.58,"date":"2026-09-15","daynight":"N"}},{"type":"Feature","geometry":{"type":"Point","coordinates":[-87.72231,38.99052]},"properties":{"frp":0.93,"date":"2026-09-15","daynight":"N"}},{"type":"Feature","geometry":{"type":"Point","coordinates":[-87.72533,38.99788]},"properties":{"frp":1.25,"date":"2026-09-15","daynight":"N"}},{"type":"Feature","geometry":{"type":"Point","coordinates":[-87.72707,38.99951]},"properties":{"frp":1.66,"date":"2026-09-15","daynight":"N"}},{"type":"Feature","geometry":{"type":"Point","coordinates":[-86.41594,39.33171]},"properties":{"frp":3.5,"date":"2026-09-15","daynight":"N"}},{"type":"Feature","geometry":{"type":"Point","coordinates":[-77.9775,39.43444]},"properties":{"frp":0.83,"date":"2026-09-15","daynight":"N"}},{"type":"Feature","geometry":{"type":"Point","coordinates":[-84.3858,39.46897]},"properties":{"frp":2.26,"date":"2026-09-15","daynight":"N"}},{"type":"Feature","geometry":{"type":"Point","coordinates":[-84.37139,39.46997]},"properties":{"frp":0.28,"date":"2026-09-15","daynight":"N"}},{"type":"Feature","geometry":{"type":"Point","coordinates":[-84.39927,39.47127]},"properties":{"frp":0.94,"date":"2026-09-15","daynight":"N"}},{"type":"Feature","geometry":{"type":"Point","coordinates":[-84.40282,39.47533]},"properties":{"frp":0.94,"date":"2026-09-15","daynight":"N"}},{"type":"Feature","geometry":{"type":"Point","coordinates":[-84.37759,39.48138]},"properties":{"frp":1.1,"date":"2026-09-15","daynight":"N"}},{"type":"Feature","geometry":{"type":"Point","coordinates":[-84.36224,39.48568]},"properties":{"frp":0.94,"date":"2026-09-15","daynight":"N"}},{"type":"Feature","geometry":{"type":"Point","coordinates":[-84.38564,39.48621]},"properties":{"frp":5.55,"date":"2026-09-15","daynight":"N"}},{"type":"Feature","geometry":{"type":"Point","coordinates":[-75.63463,39.58761]},"properties":{"frp":1.9,"date":"2026-09-15","daynight":"N"}},{"type":"Feature","geometry":{"type":"Point","coordinates":[-75.63266,39.5922]},"properties":{"frp":1.43,"date":"2026-09-15","daynight":"N"}},{"type":"Feature","geometry":{"type":"Point","coordinates":[-82.1497,39.73222]},"properties":{"frp":1.81,"date":"2026-09-15","daynight":"N"}},{"type":"Feature","geometry":{"type":"Point","coordinates":[-86.48389,39.87667]},"properties":{"frp":1.08,"date":"2026-09-15","daynight":"N"}},{"type":"Feature","geometry":{"type":"Point","coordinates":[-86.48838,39.87735]},"properties":{"frp":0.69,"date":"2026-09-15","daynight":"N"}},{"type":"Feature","geometry":{"type":"Point","coordinates":[-76.81358,39.93888]},"properties":{"frp":0.66,"date":"2026-09-15","daynight":"N"}},{"type":"Feature","geometry":{"type":"Point","coordinates":[-79.87762,40.30487]},"properties":{"frp":2.91,"date":"2026-09-15","daynight":"N"}},{"type":"Feature","geometry":{"type":"Point","coordinates":[-80.60915,40.31333]},"properties":{"frp":1.21,"date":"2026-09-15","daynight":"N"}},{"type":"Feature","geometry":{"type":"Point","coordinates":[-79.85152,40.39433]},"properties":{"frp":1.01,"date":"2026-09-15","daynight":"N"}},{"type":"Feature","geometry":{"type":"Point","coordinates":[-79.85748,40.39558]},"properties":{"frp":1.98,"date":"2026-09-15","daynight":"N"}},{"type":"Feature","geometry":{"type":"Point","coordinates":[-85.75503,41.11901]},"properties":{"frp":4.03,"date":"2026-09-15","daynight":"N"}},{"type":"Feature","geometry":{"type":"Point","coordinates":[-84.91859,41.36732]},"properties":{"frp":2.36,"date":"2026-09-15","daynight":"N"}},{"type":"Feature","geometry":{"type":"Point","coordinates":[-84.92313,41.36805]},"properties":{"frp":2.36,"date":"2026-09-15","daynight":"N"}},{"type":"Feature","geometry":{"type":"Point","coordinates":[-84.91766,41.37059]},"properties":{"frp":0.88,"date":"2026-09-15","daynight":"N"}},{"type":"Feature","geometry":{"type":"Point","coordinates":[-84.92221,41.37132]},"properties":{"frp":0.88,"date":"2026-09-15","daynight":"N"}},{"type":"Feature","geometry":{"type":"Point","coordinates":[-83.36623,41.46255]},"properties":{"frp":0.96,"date":"2026-09-15","daynight":"N"}},{"type":"Feature","geometry":{"type":"Point","coordinates":[-83.3642,41.46915]},"properties":{"frp":2.23,"date":"2026-09-15","daynight":"N"}},{"type":"Feature","geometry":{"type":"Point","coordinates":[-83.36887,41.46996]},"properties":{"frp":1.12,"date":"2026-09-15","daynight":"N"}},{"type":"Feature","geometry":{"type":"Point","coordinates":[-84.04371,41.56704]},"properties":{"frp":3.35,"date":"2026-09-15","daynight":"N"}},{"type":"Feature","geometry":{"type":"Point","coordinates":[-84.05288,41.56856]},"properties":{"frp":2.4,"date":"2026-09-15","daynight":"N"}},{"type":"Feature","geometry":{"type":"Point","coordinates":[-87.32695,41.61238]},"properties":{"frp":1.73,"date":"2026-09-15","daynight":"N"}},{"type":"Feature","geometry":{"type":"Point","coordinates":[-87.34644,41.61506]},"properties":{"frp":1.18,"date":"2026-09-15","daynight":"N"}},{"type":"Feature","geometry":{"type":"Point","coordinates":[-87.32612,41.61576]},"properties":{"frp":1.73,"date":"2026-09-15","daynight":"N"}},{"type":"Feature","geometry":{"type":"Point","coordinates":[-87.33015,41.61981]},"properties":{"frp":2.87,"date":"2026-09-15","daynight":"N"}},{"type":"Feature","geometry":{"type":"Point","coordinates":[-87.34966,41.62249]},"properties":{"frp":0.54,"date":"2026-09-15","daynight":"N"}},{"type":"Feature","geometry":{"type":"Point","coordinates":[-87.32935,41.62319]},"properties":{"frp":2.87,"date":"2026-09-15","daynight":"N"}},{"type":"Feature","geometry":{"type":"Point","coordinates":[-87.14265,41.62869]},"properties":{"frp":0.74,"date":"2026-09-15","daynight":"N"}},{"type":"Feature","geometry":{"type":"Point","coordinates":[-87.13901,41.63576]},"properties":{"frp":1.36,"date":"2026-09-15","daynight":"N"}},{"type":"Feature","geometry":{"type":"Point","coordinates":[-87.14384,41.63643]},"properties":{"frp":1.36,"date":"2026-09-15","daynight":"N"}},{"type":"Feature","geometry":{"type":"Point","coordinates":[-87.13335,41.63846]},"properties":{"frp":1.91,"date":"2026-09-15","daynight":"N"}},{"type":"Feature","geometry":{"type":"Point","coordinates":[-87.13818,41.63913]},"properties":{"frp":1.4,"date":"2026-09-15","daynight":"N"}},{"type":"Feature","geometry":{"type":"Point","coordinates":[-87.14301,41.63979]},"properties":{"frp":1.4,"date":"2026-09-15","daynight":"N"}},{"type":"Feature","geometry":{"type":"Point","coordinates":[-87.40579,41.64069]},"properties":{"frp":1.1,"date":"2026-09-15","daynight":"N"}},{"type":"Feature","geometry":{"type":"Point","coordinates":[-87.41068,41.64135]},"properties":{"frp":1.1,"date":"2026-09-15","daynight":"N"}},{"type":"Feature","geometry":{"type":"Point","coordinates":[-87.13253,41.64183]},"properties":{"frp":1.91,"date":"2026-09-15","daynight":"N"}},{"type":"Feature","geometry":{"type":"Point","coordinates":[-87.13736,41.64249]},"properties":{"frp":1.4,"date":"2026-09-15","daynight":"N"}},{"type":"Feature","geometry":{"type":"Point","coordinates":[-87.14219,41.64316]},"properties":{"frp":1.4,"date":"2026-09-15","daynight":"N"}},{"type":"Feature","geometry":{"type":"Point","coordinates":[-87.42043,41.66371]},"properties":{"frp":0.84,"date":"2026-09-15","daynight":"N"}},{"type":"Feature","geometry":{"type":"Point","coordinates":[-87.42531,41.66438]},"properties":{"frp":0.84,"date":"2026-09-15","daynight":"N"}},{"type":"Feature","geometry":{"type":"Point","coordinates":[-87.48094,41.66499]},"properties":{"frp":2.07,"date":"2026-09-15","daynight":"N"}},{"type":"Feature","geometry":{"type":"Point","coordinates":[-87.43021,41.66505]},"properties":{"frp":0.99,"date":"2026-09-15","daynight":"N"}},{"type":"Feature","geometry":{"type":"Point","coordinates":[-87.48586,41.66566]},"properties":{"frp":2.07,"date":"2026-09-15","daynight":"N"}},{"type":"Feature","geometry":{"type":"Point","coordinates":[-87.48504,41.66906]},"properties":{"frp":1.47,"date":"2026-09-15","daynight":"N"}},{"type":"Feature","geometry":{"type":"Point","coordinates":[-87.42366,41.67116]},"properties":{"frp":0.73,"date":"2026-09-15","daynight":"N"}},{"type":"Feature","geometry":{"type":"Point","coordinates":[-87.45882,41.67249]},"properties":{"frp":0.38,"date":"2026-09-15","daynight":"N"}},{"type":"Feature","geometry":{"type":"Point","coordinates":[-87.46375,41.67316]},"properties":{"frp":0.38,"date":"2026-09-15","daynight":"N"}},{"type":"Feature","geometry":{"type":"Point","coordinates":[-87.42031,41.67754]},"properties":{"frp":1.11,"date":"2026-09-15","daynight":"N"}},{"type":"Feature","geometry":{"type":"Point","coordinates":[-87.41949,41.68093]},"properties":{"frp":1.11,"date":"2026-09-15","daynight":"N"}},{"type":"Feature","geometry":{"type":"Point","coordinates":[-87.41867,41.68433]},"properties":{"frp":2.18,"date":"2026-09-15","daynight":"N"}},{"type":"Feature","geometry":{"type":"Point","coordinates":[-87.42358,41.68499]},"properties":{"frp":2.18,"date":"2026-09-15","daynight":"N"}},{"type":"Feature","geometry":{"type":"Point","coordinates":[-78.14119,34.07067]},"properties":{"frp":1.05,"date":"2026-09-15","daynight":"N"}},{"type":"Feature","geometry":{"type":"Point","coordinates":[-89.9435,35.6101]},"properties":{"frp":4.89,"date":"2026-09-15","daynight":"N"}},{"type":"Feature","geometry":{"type":"Point","coordinates":[-89.94825,35.61074]},"properties":{"frp":4.89,"date":"2026-09-15","daynight":"N"}},{"type":"Feature","geometry":{"type":"Point","coordinates":[-89.93941,35.64281]},"properties":{"frp":1.51,"date":"2026-09-15","daynight":"N"}},{"type":"Feature","geometry":{"type":"Point","coordinates":[-89.93326,35.64915]},"properties":{"frp":3.31,"date":"2026-09-15","daynight":"N"}},{"type":"Feature","geometry":{"type":"Point","coordinates":[-84.97467,35.71424]},"properties":{"frp":3.15,"date":"2026-09-15","daynight":"N"}},{"type":"Feature","geometry":{"type":"Point","coordinates":[-88.81143,35.73019]},"properties":{"frp":2.76,"date":"2026-09-15","daynight":"N"}},{"type":"Feature","geometry":{"type":"Point","coordinates":[-85.05453,35.76459]},"properties":{"frp":1.2,"date":"2026-09-15","daynight":"N"}},{"type":"Feature","geometry":{"type":"Point","coordinates":[-83.95618,35.97962]},"properties":{"frp":3.94,"date":"2026-09-15","daynight":"N"}},{"type":"Feature","geometry":{"type":"Point","coordinates":[-83.95374,35.98139]},"properties":{"frp":0.32,"date":"2026-09-15","daynight":"N"}},{"type":"Feature","geometry":{"type":"Point","coordinates":[-76.81471,36.35535]},"properties":{"frp":2.59,"date":"2026-09-15","daynight":"N"}},{"type":"Feature","geometry":{"type":"Point","coordinates":[-76.80643,36.35845]},"properties":{"frp":2.59,"date":"2026-09-15","daynight":"N"}},{"type":"Feature","geometry":{"type":"Point","coordinates":[-88.67509,36.85201]},"properties":{"frp":2.06,"date":"2026-09-15","daynight":"N"}},{"type":"Feature","geometry":{"type":"Point","coordinates":[-88.67279,36.85214]},"properties":{"frp":1.67,"date":"2026-09-15","daynight":"N"}},{"type":"Feature","geometry":{"type":"Point","coordinates":[-84.58435,36.97223]},"properties":{"frp":0.54,"date":"2026-09-15","daynight":"N"}},{"type":"Feature","geometry":{"type":"Point","coordinates":[-84.58565,36.97395]},"properties":{"frp":0.41,"date":"2026-09-15","daynight":"N"}},{"type":"Feature","geometry":{"type":"Point","coordinates":[-82.03994,37.23291]},"properties":{"frp":1.59,"date":"2026-09-15","daynight":"N"}},{"type":"Feature","geometry":{"type":"Point","coordinates":[-82.03876,37.23648]},"properties":{"frp":1.59,"date":"2026-09-15","daynight":"N"}},{"type":"Feature","geometry":{"type":"Point","coordinates":[-81.2018,37.31438]},"properties":{"frp":0.94,"date":"2026-09-15","daynight":"N"}},{"type":"Feature","geometry":{"type":"Point","coordinates":[-81.20757,37.31554]},"properties":{"frp":0.94,"date":"2026-09-15","daynight":"N"}},{"type":"Feature","geometry":{"type":"Point","coordinates":[-90.07893,37.96666]},"properties":{"frp":2.53,"date":"2026-09-15","daynight":"N"}},{"type":"Feature","geometry":{"type":"Point","coordinates":[-90.06647,37.97613]},"properties":{"frp":1.53,"date":"2026-09-15","daynight":"N"}},{"type":"Feature","geometry":{"type":"Point","coordinates":[-90.08095,38.01103]},"properties":{"frp":3.24,"date":"2026-09-15","daynight":"N"}},{"type":"Feature","geometry":{"type":"Point","coordinates":[-90.14024,38.69274]},"properties":{"frp":1.57,"date":"2026-09-15","daynight":"N"}},{"type":"Feature","geometry":{"type":"Point","coordinates":[-90.14562,38.69339]},"properties":{"frp":1.57,"date":"2026-09-15","daynight":"N"}},{"type":"Feature","geometry":{"type":"Point","coordinates":[-90.13412,38.69572]},"properties":{"frp":4.34,"date":"2026-09-15","daynight":"N"}},{"type":"Feature","geometry":{"type":"Point","coordinates":[-90.1334,38.69934]},"properties":{"frp":2.61,"date":"2026-09-15","daynight":"N"}},{"type":"Feature","geometry":{"type":"Point","coordinates":[-90.06618,38.83605]},"properties":{"frp":1.65,"date":"2026-09-15","daynight":"N"}},{"type":"Feature","geometry":{"type":"Point","coordinates":[-90.06545,38.83967]},"properties":{"frp":1.65,"date":"2026-09-15","daynight":"N"}},{"type":"Feature","geometry":{"type":"Point","coordinates":[-83.50588,30.74426]},"properties":{"frp":1.8,"date":"2026-09-15","daynight":"N"}},{"type":"Feature","geometry":{"type":"Point","coordinates":[-87.58967,32.18837]},"properties":{"frp":0.86,"date":"2026-09-15","daynight":"N"}},{"type":"Feature","geometry":{"type":"Point","coordinates":[-87.59371,32.18903]},"properties":{"frp":0.86,"date":"2026-09-15","daynight":"N"}},{"type":"Feature","geometry":{"type":"Point","coordinates":[-82.74129,32.51857]},"properties":{"frp":1.28,"date":"2026-09-15","daynight":"N"}},{"type":"Feature","geometry":{"type":"Point","coordinates":[-86.8052,33.09396]},"properties":{"frp":3.94,"date":"2026-09-15","daynight":"N"}},{"type":"Feature","geometry":{"type":"Point","coordinates":[-86.80289,33.10384]},"properties":{"frp":1.16,"date":"2026-09-15","daynight":"N"}},{"type":"Feature","geometry":{"type":"Point","coordinates":[-86.75489,33.18142]},"properties":{"frp":1.82,"date":"2026-09-15","daynight":"N"}},{"type":"Feature","geometry":{"type":"Point","coordinates":[-86.75901,33.18209]},"properties":{"frp":1.09,"date":"2026-09-15","daynight":"N"}},{"type":"Feature","geometry":{"type":"Point","coordinates":[-87.50613,33.23845]},"properties":{"frp":0.99,"date":"2026-09-15","daynight":"N"}},{"type":"Feature","geometry":{"type":"Point","coordinates":[-88.56972,33.4403]},"properties":{"frp":3.83,"date":"2026-09-15","daynight":"N"}},{"type":"Feature","geometry":{"type":"Point","coordinates":[-88.58078,33.44878]},"properties":{"frp":1.44,"date":"2026-09-15","daynight":"N"}},{"type":"Feature","geometry":{"type":"Point","coordinates":[-86.93221,33.4836]},"properties":{"frp":2.3,"date":"2026-09-15","daynight":"N"}},{"type":"Feature","geometry":{"type":"Point","coordinates":[-86.92992,33.49347]},"properties":{"frp":0.75,"date":"2026-09-15","daynight":"N"}},{"type":"Feature","geometry":{"type":"Point","coordinates":[-86.8041,33.54443]},"properties":{"frp":1.43,"date":"2026-09-15","daynight":"N"}},{"type":"Feature","geometry":{"type":"Point","coordinates":[-92.60349,33.56571]},"properties":{"frp":5.53,"date":"2026-09-15","daynight":"N"}},{"type":"Feature","geometry":{"type":"Point","coordinates":[-92.59898,33.56701]},"properties":{"frp":5.06,"date":"2026-09-15","daynight":"N"}},{"type":"Feature","geometry":{"type":"Point","coordinates":[-92.60466,33.56768]},"properties":{"frp":5.06,"date":"2026-09-15","daynight":"N"}},{"type":"Feature","geometry":{"type":"Point","coordinates":[-92.59145,33.56826]},"properties":{"frp":9.47,"date":"2026-09-15","daynight":"N"}},{"type":"Feature","geometry":{"type":"Point","coordinates":[-92.61037,33.56836]},"properties":{"frp":3.21,"date":"2026-09-15","daynight":"N"}},{"type":"Feature","geometry":{"type":"Point","coordinates":[-92.59715,33.5689]},"properties":{"frp":9.47,"date":"2026-09-15","daynight":"N"}},{"type":"Feature","geometry":{"type":"Point","coordinates":[-92.60283,33.56954]},"properties":{"frp":5.53,"date":"2026-09-15","daynight":"N"}},{"type":"Feature","geometry":{"type":"Point","coordinates":[-92.59267,33.57017]},"properties":{"frp":21.22,"date":"2026-09-15","daynight":"N"}},{"type":"Feature","geometry":{"type":"Point","coordinates":[-92.60851,33.57019]},"properties":{"frp":5.53,"date":"2026-09-15","daynight":"N"}},{"type":"Feature","geometry":{"type":"Point","coordinates":[-92.61422,33.57083]},"properties":{"frp":2.75,"date":"2026-09-15","daynight":"N"}},{"type":"Feature","geometry":{"type":"Point","coordinates":[-92.59834,33.57084]},"properties":{"frp":5.06,"date":"2026-09-15","daynight":"N"}},{"type":"Feature","geometry":{"type":"Point","coordinates":[-92.60401,33.57152]},"properties":{"frp":5.06,"date":"2026-09-15","daynight":"N"}},{"type":"Feature","geometry":{"type":"Point","coordinates":[-92.59081,33.57209]},"properties":{"frp":5.63,"date":"2026-09-15","daynight":"N"}},{"type":"Feature","geometry":{"type":"Point","coordinates":[-92.6097,33.57219]},"properties":{"frp":3.21,"date":"2026-09-15","daynight":"N"}},{"type":"Feature","geometry":{"type":"Point","coordinates":[-92.59649,33.57273]},"properties":{"frp":5.63,"date":"2026-09-15","daynight":"N"}},{"type":"Feature","geometry":{"type":"Point","coordinates":[-92.6154,33.57287]},"properties":{"frp":3.21,"date":"2026-09-15","daynight":"N"}},{"type":"Feature","geometry":{"type":"Point","coordinates":[-92.59202,33.574]},"properties":{"frp":2.01,"date":"2026-09-15","daynight":"N"}},{"type":"Feature","geometry":{"type":"Point","coordinates":[-92.60786,33.57402]},"properties":{"frp":3.1,"date":"2026-09-15","daynight":"N"}},{"type":"Feature","geometry":{"type":"Point","coordinates":[-92.61357,33.57467]},"properties":{"frp":4.65,"date":"2026-09-15","daynight":"N"}},{"type":"Feature","geometry":{"type":"Point","coordinates":[-86.78248,33.58185]},"properties":{"frp":1.35,"date":"2026-09-15","daynight":"N"}},{"type":"Feature","geometry":{"type":"Point","coordinates":[-91.79366,33.58275]},"properties":{"frp":0.72,"date":"2026-09-15","daynight":"N"}},{"type":"Feature","geometry":{"type":"Point","coordinates":[-91.78967,33.58366]},"properties":{"frp":0.94,"date":"2026-09-15","daynight":"N"}},{"type":"Feature","geometry":{"type":"Point","coordinates":[-86.78172,33.58514]},"properties":{"frp":0.57,"date":"2026-09-15","daynight":"N"}},{"type":"Feature","geometry":{"type":"Point","coordinates":[-83.19864,33.59497]},"properties":{"frp":1.09,"date":"2026-09-15","daynight":"N"}},{"type":"Feature","geometry":{"type":"Point","coordinates":[-96.10178,34.43148]},"properties":{"frp":1.87,"date":"2026-09-15","daynight":"N"}},{"type":"Feature","geometry":{"type":"Point","coordinates":[-96.10057,34.44096]},"properties":{"frp":2.49,"date":"2026-09-15","daynight":"N"}},{"type":"Feature","geometry":{"type":"Point","coordinates":[-96.09991,34.44568]},"properties":{"frp":2.25,"date":"2026-09-15","daynight":"N"}},{"type":"Feature","geometry":{"type":"Point","coordinates":[-96.1114,34.44754]},"properties":{"frp":2.0,"date":"2026-09-15","daynight":"N"}},{"type":"Feature","geometry":{"type":"Point","coordinates":[-96.11116,34.45145]},"properties":{"frp":4.03,"date":"2026-09-15","daynight":"N"}},{"type":"Feature","geometry":{"type":"Point","coordinates":[-96.11083,34.45229]},"properties":{"frp":2.0,"date":"2026-09-15","daynight":"N"}},{"type":"Feature","geometry":{"type":"Point","coordinates":[-90.85388,34.54601]},"properties":{"frp":3.04,"date":"2026-09-15","daynight":"N"}},{"type":"Feature","geometry":{"type":"Point","coordinates":[-90.85038,34.54729]},"properties":{"frp":1.69,"date":"2026-09-15","daynight":"N"}},{"type":"Feature","geometry":{"type":"Point","coordinates":[-90.85531,34.54793]},"properties":{"frp":1.69,"date":"2026-09-15","daynight":"N"}},{"type":"Feature","geometry":{"type":"Point","coordinates":[-87.08394,34.64032]},"properties":{"frp":8.12,"date":"2026-09-15","daynight":"N"}},{"type":"Feature","geometry":{"type":"Point","coordinates":[-87.09224,34.64164]},"properties":{"frp":2.56,"date":"2026-09-15","daynight":"N"}},{"type":"Feature","geometry":{"type":"Point","coordinates":[-88.3221,34.80369]},"properties":{"frp":2.12,"date":"2026-09-15","daynight":"N"}},{"type":"Feature","geometry":{"type":"Point","coordinates":[-90.04007,34.98191]},"properties":{"frp":1.55,"date":"2026-09-15","daynight":"N"}},{"type":"Feature","geometry":{"type":"Point","coordinates":[-80.72406,27.72499]},"properties":{"frp":2.41,"date":"2026-09-15","daynight":"N"}},{"type":"Feature","geometry":{"type":"Point","coordinates":[-80.71748,27.72717]},"properties":{"frp":3.39,"date":"2026-09-15","daynight":"N"}},{"type":"Feature","geometry":{"type":"Point","coordinates":[-80.72309,27.72839]},"properties":{"frp":3.39,"date":"2026-09-15","daynight":"N"}},{"type":"Feature","geometry":{"type":"Point","coordinates":[-80.71717,27.72839]},"properties":{"frp":5.22,"date":"2026-09-15","daynight":"N"}},{"type":"Feature","geometry":{"type":"Point","coordinates":[-94.91035,29.36971]},"properties":{"frp":1.72,"date":"2026-09-15","daynight":"N"}},{"type":"Feature","geometry":{"type":"Point","coordinates":[-94.92258,29.37527]},"properties":{"frp":3.22,"date":"2026-09-15","daynight":"N"}},{"type":"Feature","geometry":{"type":"Point","coordinates":[-94.93549,29.3767]},"properties":{"frp":2.27,"date":"2026-09-15","daynight":"N"}},{"type":"Feature","geometry":{"type":"Point","coordinates":[-94.9398,29.37717]},"properties":{"frp":2.22,"date":"2026-09-15","daynight":"N"}},{"type":"Feature","geometry":{"type":"Point","coordinates":[-95.12553,29.74033]},"properties":{"frp":2.06,"date":"2026-09-15","daynight":"N"}},{"type":"Feature","geometry":{"type":"Point","coordinates":[-94.99899,29.74347]},"properties":{"frp":1.62,"date":"2026-09-15","daynight":"N"}},{"type":"Feature","geometry":{"type":"Point","coordinates":[-94.99837,29.74766]},"properties":{"frp":1.62,"date":"2026-09-15","daynight":"N"}},{"type":"Feature","geometry":{"type":"Point","coordinates":[-93.96391,29.8314]},"properties":{"frp":2.58,"date":"2026-09-15","daynight":"N"}},{"type":"Feature","geometry":{"type":"Point","coordinates":[-93.96329,29.83535]},"properties":{"frp":2.58,"date":"2026-09-15","daynight":"N"}},{"type":"Feature","geometry":{"type":"Point","coordinates":[-90.39608,29.99787]},"properties":{"frp":2.36,"date":"2026-09-15","daynight":"N"}},{"type":"Feature","geometry":{"type":"Point","coordinates":[-94.03585,30.01045]},"properties":{"frp":2.0,"date":"2026-09-15","daynight":"N"}},{"type":"Feature","geometry":{"type":"Point","coordinates":[-93.75103,30.04935]},"properties":{"frp":3.21,"date":"2026-09-15","daynight":"N"}},{"type":"Feature","geometry":{"type":"Point","coordinates":[-93.75265,30.04936]},"properties":{"frp":2.02,"date":"2026-09-15","daynight":"N"}},{"type":"Feature","geometry":{"type":"Point","coordinates":[-93.33171,30.05122]},"properties":{"frp":2.29,"date":"2026-09-15","daynight":"N"}},{"type":"Feature","geometry":{"type":"Point","coordinates":[-90.95618,30.09839]},"properties":{"frp":1.09,"date":"2026-09-15","daynight":"N"}},{"type":"Feature","geometry":{"type":"Point","coordinates":[-90.96052,30.09899]},"properties":{"frp":1.09,"date":"2026-09-15","daynight":"N"}},{"type":"Feature","geometry":{"type":"Point","coordinates":[-91.23819,30.32569]},"properties":{"frp":1.17,"date":"2026-09-15","daynight":"N"}},{"type":"Feature","geometry":{"type":"Point","coordinates":[-91.24265,30.3263]},"properties":{"frp":1.8,"date":"2026-09-15","daynight":"N"}},{"type":"Feature","geometry":{"type":"Point","coordinates":[-88.01117,30.94057]},"properties":{"frp":1.71,"date":"2026-09-15","daynight":"N"}},{"type":"Feature","geometry":{"type":"Point","coordinates":[-88.01515,30.9412]},"properties":{"frp":1.35,"date":"2026-09-15","daynight":"N"}},{"type":"Feature","geometry":{"type":"Point","coordinates":[-88.00975,30.94713]},"properties":{"frp":0.43,"date":"2026-09-15","daynight":"N"}},{"type":"Feature","geometry":{"type":"Point","coordinates":[-87.9856,31.14435]},"properties":{"frp":0.95,"date":"2026-09-15","daynight":"N"}},{"type":"Feature","geometry":{"type":"Point","coordinates":[-87.98418,31.15092]},"properties":{"frp":1.29,"date":"2026-09-15","daynight":"N"}},{"type":"Feature","geometry":{"type":"Point","coordinates":[-87.97877,31.15685]},"properties":{"frp":2.45,"date":"2026-09-15","daynight":"N"}},{"type":"Feature","geometry":{"type":"Point","coordinates":[-97.75648,31.18349]},"properties":{"frp":0.87,"date":"2026-09-15","daynight":"N"}},{"type":"Feature","geometry":{"type":"Point","coordinates":[-97.75266,31.18825]},"properties":{"frp":0.98,"date":"2026-09-15","daynight":"N"}},{"type":"Feature","geometry":{"type":"Point","coordinates":[-97.76286,31.18912]},"properties":{"frp":1.1,"date":"2026-09-15","daynight":"N"}},{"type":"Feature","geometry":{"type":"Point","coordinates":[-97.74879,31.193]},"properties":{"frp":0.98,"date":"2026-09-15","daynight":"N"}},{"type":"Feature","geometry":{"type":"Point","coordinates":[-97.76973,31.19383]},"properties":{"frp":0.71,"date":"2026-09-15","daynight":"N"}},{"type":"Feature","geometry":{"type":"Point","coordinates":[-97.77314,31.1941]},"properties":{"frp":0.71,"date":"2026-09-15","daynight":"N"}},{"type":"Feature","geometry":{"type":"Point","coordinates":[-97.76914,31.19475]},"properties":{"frp":0.93,"date":"2026-09-15","daynight":"N"}},{"type":"Feature","geometry":{"type":"Point","coordinates":[-97.77254,31.19504]},"properties":{"frp":0.93,"date":"2026-09-15","daynight":"N"}},{"type":"Feature","geometry":{"type":"Point","coordinates":[-97.74493,31.19775]},"properties":{"frp":1.09,"date":"2026-09-15","daynight":"N"}},{"type":"Feature","geometry":{"type":"Point","coordinates":[-97.76928,31.19889]},"properties":{"frp":0.71,"date":"2026-09-15","daynight":"N"}},{"type":"Feature","geometry":{"type":"Point","coordinates":[-97.77269,31.19916]},"properties":{"frp":0.71,"date":"2026-09-15","daynight":"N"}},{"type":"Feature","geometry":{"type":"Point","coordinates":[-97.76872,31.1998]},"properties":{"frp":0.96,"date":"2026-09-15","daynight":"N"}},{"type":"Feature","geometry":{"type":"Point","coordinates":[-97.77213,31.2001]},"properties":{"frp":0.96,"date":"2026-09-15","daynight":"N"}},{"type":"Feature","geometry":{"type":"Point","coordinates":[-97.745,31.20204]},"properties":{"frp":1.05,"date":"2026-09-15","daynight":"N"}},{"type":"Feature","geometry":{"type":"Point","coordinates":[-97.74448,31.2028]},"properties":{"frp":1.09,"date":"2026-09-15","daynight":"N"}},{"type":"Feature","geometry":{"type":"Point","coordinates":[-97.76886,31.20395]},"properties":{"frp":0.88,"date":"2026-09-15","daynight":"N"}},{"type":"Feature","geometry":{"type":"Point","coordinates":[-97.77227,31.20422]},"properties":{"frp":0.88,"date":"2026-09-15","daynight":"N"}},{"type":"Feature","geometry":{"type":"Point","coordinates":[-97.7683,31.20486]},"properties":{"frp":0.96,"date":"2026-09-15","daynight":"N"}},{"type":"Feature","geometry":{"type":"Point","coordinates":[-97.74449,31.20709]},"properties":{"frp":1.05,"date":"2026-09-15","daynight":"N"}},{"type":"Feature","geometry":{"type":"Point","coordinates":[-97.7406,31.21186]},"properties":{"frp":1.28,"date":"2026-09-15","daynight":"N"}},{"type":"Feature","geometry":{"type":"Point","coordinates":[-96.17172,31.3538]},"properties":{"frp":2.16,"date":"2026-09-15","daynight":"N"}},{"type":"Feature","geometry":{"type":"Point","coordinates":[-101.77876,31.36398]},"properties":{"frp":5.04,"date":"2026-09-15","daynight":"N"}},{"type":"Feature","geometry":{"type":"Point","coordinates":[-101.78471,31.3643]},"properties":{"frp":5.04,"date":"2026-09-15","daynight":"N"}},{"type":"Feature","geometry":{"type":"Point","coordinates":[-101.78298,31.36651]},"properties":{"frp":12.16,"date":"2026-09-15","daynight":"N"}},{"type":"Feature","geometry":{"type":"Point","coordinates":[-102.16698,31.71011]},"properties":{"frp":3.34,"date":"2026-09-15","daynight":"N"}},{"type":"Feature","geometry":{"type":"Point","coordinates":[-102.16644,31.71054]},"properties":{"frp":5.23,"date":"2026-09-15","daynight":"N"}},{"type":"Feature","geometry":{"type":"Point","coordinates":[-102.16013,31.71634]},"properties":{"frp":3.34,"date":"2026-09-15","daynight":"N"}},{"type":"Feature","geometry":{"type":"Point","coordinates":[-102.15962,31.71673]},"properties":{"frp":3.46,"date":"2026-09-15","daynight":"N"}},{"type":"Feature","geometry":{"type":"Point","coordinates":[-103.67461,31.76816]},"properties":{"frp":1.46,"date":"2026-09-15","daynight":"N"}},{"type":"Feature","geometry":{"type":"Point","coordinates":[-103.68268,31.76842]},"properties":{"frp":1.46,"date":"2026-09-15","daynight":"N"}},{"type":"Feature","geometry":{"type":"Point","coordinates":[-103.68034,31.77086]},"properties":{"frp":2.46,"date":"2026-09-15","daynight":"N"}},{"type":"Feature","geometry":{"type":"Point","coordinates":[-97.65118,31.84595]},"properties":{"frp":1.07,"date":"2026-09-15","daynight":"N"}},{"type":"Feature","geometry":{"type":"Point","coordinates":[-97.65681,31.85658]},"properties":{"frp":1.98,"date":"2026-09-15","daynight":"N"}},{"type":"Feature","geometry":{"type":"Point","coordinates":[-97.66016,31.85685]},"properties":{"frp":1.11,"date":"2026-09-15","daynight":"N"}},{"type":"Feature","geometry":{"type":"Point","coordinates":[-97.65958,31.86189]},"properties":{"frp":0.91,"date":"2026-09-15","daynight":"N"}},{"type":"Feature","geometry":{"type":"Point","coordinates":[-97.55317,32.24697]},"properties":{"frp":1.51,"date":"2026-09-15","daynight":"N"}},{"type":"Feature","geometry":{"type":"Point","coordinates":[-97.55268,32.24774]},"properties":{"frp":1.49,"date":"2026-09-15","daynight":"N"}}]}