{"type":"FeatureCollection","features":[{"type":"Feature","geometry":{"type":"Point","coordinates":[-66.01326,45.27904]},"properties":{"frp":1.75,"date":"2026-09-01","daynight":"N"}},{"type":"Feature","geometry":{"type":"Point","coordinates":[-66.01514,45.27813]},"properties":{"frp":0.81,"date":"2026-09-01","daynight":"N"}},{"type":"Feature","geometry":{"type":"Point","coordinates":[-86.84148,39.9772]},"properties":{"frp":1.93,"date":"2026-09-01","daynight":"N"}},{"type":"Feature","geometry":{"type":"Point","coordinates":[-79.85303,40.39207]},"properties":{"frp":2.23,"date":"2026-09-01","daynight":"N"}},{"type":"Feature","geometry":{"type":"Point","coordinates":[-79.86049,40.39255]},"properties":{"frp":4.92,"date":"2026-09-01","daynight":"N"}},{"type":"Feature","geometry":{"type":"Point","coordinates":[-79.8521,40.39704]},"properties":{"frp":2.23,"date":"2026-09-01","daynight":"N"}},{"type":"Feature","geometry":{"type":"Point","coordinates":[-84.92384,41.36296]},"properties":{"frp":0.87,"date":"2026-09-01","daynight":"N"}},{"type":"Feature","geometry":{"type":"Point","coordinates":[-84.91637,41.36934]},"properties":{"frp":1.35,"date":"2026-09-01","daynight":"N"}},{"type":"Feature","geometry":{"type":"Point","coordinates":[-84.92354,41.36948]},"properties":{"frp":1.35,"date":"2026-09-01","daynight":"N"}},{"type":"Feature","geometry":{"type":"Point","coordinates":[-87.14311,41.63369]},"properties":{"frp":4.28,"date":"2026-09-01","daynight":"N"}},{"type":"Feature","geometry":{"type":"Point","coordinates":[-87.13438,41.63898]},"properties":{"frp":4.08,"date":"2026-09-01","daynight":"N"}},{"type":"Feature","geometry":{"type":"Point","coordinates":[-87.1336,41.64094]},"properties":{"frp":2.57,"date":"2026-09-01","daynight":"N"}},{"type":"Feature","geometry":{"type":"Point","coordinates":[-83.1162,42.28135]},"properties":{"frp":1.39,"date":"2026-09-01","daynight":"N"}},{"type":"Feature","geometry":{"type":"Point","coordinates":[-77.44684,37.18058]},"properties":{"frp":2.14,"date":"2026-09-01","daynight":"N"}},{"type":"Feature","geometry":{"type":"Point","coordinates":[-76.69363,38.0687]},"properties":{"frp":0.49,"date":"2026-09-01","daynight":"N"}},{"type":"Feature","geometry":{"type":"Point","coordinates":[-76.69825,38.06918]},"properties":{"frp":0.86,"date":"2026-09-01","daynight":"N"}},{"type":"Feature","geometry":{"type":"Point","coordinates":[-84.23825,38.83251]},"properties":{"frp":1.39,"date":"2026-09-01","daynight":"N"}},{"type":"Feature","geometry":{"type":"Point","coordinates":[-84.24391,38.8327]},"properties":{"frp":2.02,"date":"2026-09-01","daynight":"N"}},{"type":"Feature","geometry":{"type":"Point","coordinates":[-84.38769,39.46638]},"properties":{"frp":1.06,"date":"2026-09-01","daynight":"N"}},{"type":"Feature","geometry":{"type":"Point","coordinates":[-84.40005,39.47304]},"properties":{"frp":1.59,"date":"2026-09-01","daynight":"N"}},{"type":"Feature","geometry":{"type":"Point","coordinates":[-84.3806,39.47876]},"properties":{"frp":1.32,"date":"2026-09-01","daynight":"N"}},{"type":"Feature","geometry":{"type":"Point","coordinates":[-84.38658,39.48523]},"properties":{"frp":1.32,"date":"2026-09-01","daynight":"N"}},{"type":"Feature","geometry":{"type":"Point","coordinates":[-79.8812,33.00693]},"properties":{"frp":1.96,"date":"2026-09-01","daynight":"N"}},{"type":"Feature","geometry":{"type":"Point","coordinates":[-79.88558,33.01665]},"properties":{"frp":2.67,"date":"2026-09-01","daynight":"N"}},{"type":"Feature","geometry":{"type":"Point","coordinates":[-86.80622,33.0928]},"properties":{"frp":1.64,"date":"2026-09-01","daynight":"N"}},{"type":"Feature","geometry":{"type":"Point","coordinates":[-87.51231,33.2277]},"properties":{"frp":1.36,"date":"2026-09-01","daynight":"N"}},{"type":"Feature","geometry":{"type":"Point","coordinates":[-87.51387,33.23191]},"properties":{"frp":2.84,"date":"2026-09-01","daynight":"N"}},{"type":"Feature","geometry":{"type":"Point","coordinates":[-87.51186,33.23478]},"properties":{"frp":1.36,"date":"2026-09-01","daynight":"N"}},{"type":"Feature","geometry":{"type":"Point","coordinates":[-86.7577,33.5318]},"properties":{"frp":1.74,"date":"2026-09-01","daynight":"N"}},{"type":"Feature","geometry":{"type":"Point","coordinates":[-86.76102,33.53233]},"properties":{"frp":1.18,"date":"2026-09-01","daynight":"N"}},{"type":"Feature","geometry":{"type":"Point","coordinates":[-81.05114,33.96296]},"properties":{"frp":1.36,"date":"2026-09-01","daynight":"N"}},{"type":"Feature","geometry":{"type":"Point","coordinates":[-87.08538,34.63588]},"properties":{"frp":2.03,"date":"2026-09-01","daynight":"N"}},{"type":"Feature","geometry":{"type":"Point","coordinates":[-87.09116,34.63749]},"properties":{"frp":2.63,"date":"2026-09-01","daynight":"N"}},{"type":"Feature","geometry":{"type":"Point","coordinates":[-87.09306,34.64307]},"properties":{"frp":2.03,"date":"2026-09-01","daynight":"N"}},{"type":"Feature","geometry":{"type":"Point","coordinates":[-82.56276,29.48548]},"properties":{"frp":1.19,"date":"2026-09-01","daynight":"N"}},{"type":"Feature","geometry":{"type":"Point","coordinates":[-82.56248,29.4906]},"properties":{"frp":3.58,"date":"2026-09-01","daynight":"N"}},{"type":"Feature","geometry":{"type":"Point","coordinates":[-82.56216,29.49069]},"properties":{"frp":1.19,"date":"2026-09-01","daynight":"N"}},{"type":"Feature","geometry":{"type":"Point","coordinates":[-82.56574,29.49097]},"properties":{"frp":1.19,"date":"2026-09-01","daynight":"N"}},{"type":"Feature","geometry":{"type":"Point","coordinates":[-83.35409,30.39252]},"properties":{"frp":1.02,"date":"2026-09-01","daynight":"N"}},{"type":"Feature","geometry":{"type":"Point","coordinates":[-83.35326,30.39326]},"properties":{"frp":0.76,"date":"2026-09-01","daynight":"N"}},{"type":"Feature","geometry":{"type":"Point","coordinates":[-88.01748,30.93614]},"properties":{"frp":0.78,"date":"2026-09-01","daynight":"N"}},{"type":"Feature","geometry":{"type":"Point","coordinates":[-88.01704,30.9433]},"properties":{"frp":0.78,"date":"2026-09-01","daynight":"N"}},{"type":"Feature","geometry":{"type":"Point","coordinates":[-87.9903,31.14856]},"properties":{"frp":3.38,"date":"2026-09-01","daynight":"N"}},{"type":"Feature","geometry":{"type":"Point","coordinates":[-87.98397,31.15254]},"properties":{"frp":1.7,"date":"2026-09-01","daynight":"N"}},{"type":"Feature","geometry":{"type":"Point","coordinates":[-87.99197,31.15283]},"properties":{"frp":1.7,"date":"2026-09-01","daynight":"N"}},{"type":"Feature","geometry":{"type":"Point","coordinates":[-83.86985,31.79601]},"properties":{"frp":2.21,"date":"2026-09-01","daynight":"N"}},{"type":"Feature","geometry":{"type":"Point","coordinates":[-83.86822,31.79653]},"properties":{"frp":2.7,"date":"2026-09-01","daynight":"N"}},{"type":"Feature","geometry":{"type":"Point","coordinates":[-84.12569,32.06252]},"properties":{"frp":0.59,"date":"2026-09-01","daynight":"N"}},{"type":"Feature","geometry":{"type":"Point","coordinates":[-80.15519,26.27911]},"properties":{"frp":1.34,"date":"2026-09-01","daynight":"N"}},{"type":"Feature","geometry":{"type":"Point","coordinates":[-80.15636,26.28228]},"properties":{"frp":0.91,"date":"2026-09-01","daynight":"N"}},{"type":"Feature","geometry":{"type":"Point","coordinates":[-80.77562,26.41267]},"properties":{"frp":3.04,"date":"2026-09-01","daynight":"N"}},{"type":"Feature","geometry":{"type":"Point","coordinates":[-80.77501,26.41717]},"properties":{"frp":2.48,"date":"2026-09-01","daynight":"N"}},{"type":"Feature","geometry":{"type":"Point","coordinates":[-81.88235,28.69804]},"properties":{"frp":1.82,"date":"2026-09-01","daynight":"N"}},{"type":"Feature","geometry":{"type":"Point","coordinates":[-81.88196,28.69902]},"properties":{"frp":0.58,"date":"2026-09-01","daynight":"N"}},{"type":"Feature","geometry":{"type":"Point","coordinates":[-81.88827,28.69958]},"properties":{"frp":0.71,"date":"2026-09-01","daynight":"N"}},{"type":"Feature","geometry":{"type":"Point","coordinates":[-66.01589,45.28149]},"properties":{"frp":1.97,"date":"2026-09-01","daynight":"N"}},{"type":"Feature","geometry":{"type":"Point","coordinates":[-66.01112,45.27998]},"properties":{"frp":1.25,"date":"2026-09-01","daynight":"N"}},{"type":"Feature","geometry":{"type":"Point","coordinates":[-66.01628,45.28119]},"properties":{"frp":1.32,"date":"2026-09-01","daynight":"N"}},{"type":"Feature","geometry":{"type":"Point","coordinates":[-83.13063,42.27724]},"properties":{"frp":0.44,"date":"2026-09-01","daynight":"N"}},{"type":"Feature","geometry":{"type":"Point","coordinates":[-83.113,42.28439]},"properties":{"frp":2.11,"date":"2026-09-01","daynight":"N"}},{"type":"Feature","geometry":{"type":"Point","coordinates":[-77.44688,37.18081]},"properties":{"frp":1.26,"date":"2026-09-01","daynight":"N"}},{"type":"Feature","geometry":{"type":"Point","coordinates":[-77.45117,37.18147]},"properties":{"frp":1.09,"date":"2026-09-01","daynight":"N"}},{"type":"Feature","geometry":{"type":"Point","coordinates":[-77.44179,37.18343]},"properties":{"frp":2.08,"date":"2026-09-01","daynight":"N"}},{"type":"Feature","geometry":{"type":"Point","coordinates":[-76.69498,38.06934]},"properties":{"frp":1.22,"date":"2026-09-01","daynight":"N"}},{"type":"Feature","geometry":{"type":"Point","coordinates":[-88.94869,38.32603]},"properties":{"frp":1.0,"date":"2026-09-01","daynight":"N"}},{"type":"Feature","geometry":{"type":"Point","coordinates":[-88.94579,38.32938]},"properties":{"frp":1.05,"date":"2026-09-01","daynight":"N"}},{"type":"Feature","geometry":{"type":"Point","coordinates":[-88.95063,38.32962]},"properties":{"frp":1.15,"date":"2026-09-01","daynight":"N"}},{"type":"Feature","geometry":{"type":"Point","coordinates":[-90.15207,38.69347]},"properties":{"frp":2.21,"date":"2026-09-01","daynight":"N"}},{"type":"Feature","geometry":{"type":"Point","coordinates":[-90.14336,38.69518]},"properties":{"frp":2.23,"date":"2026-09-01","daynight":"N"}},{"type":"Feature","geometry":{"type":"Point","coordinates":[-90.149,38.69539]},"properties":{"frp":2.23,"date":"2026-09-01","daynight":"N"}},{"type":"Feature","geometry":{"type":"Point","coordinates":[-90.13472,38.69875]},"properties":{"frp":2.75,"date":"2026-09-01","daynight":"N"}},{"type":"Feature","geometry":{"type":"Point","coordinates":[-90.13164,38.70075]},"properties":{"frp":2.13,"date":"2026-09-01","daynight":"N"}},{"type":"Feature","geometry":{"type":"Point","coordinates":[-84.24216,38.8373]},"properties":{"frp":4.31,"date":"2026-09-01","daynight":"N"}},{"type":"Feature","geometry":{"type":"Point","coordinates":[-87.72422,38.99014]},"properties":{"frp":0.56,"date":"2026-09-01","daynight":"N"}},{"type":"Feature","geometry":{"type":"Point","coordinates":[-87.72182,38.99119]},"properties":{"frp":0.56,"date":"2026-09-01","daynight":"N"}},{"type":"Feature","geometry":{"type":"Point","coordinates":[-87.72731,39.00097]},"properties":{"frp":0.92,"date":"2026-09-01","daynight":"N"}},{"type":"Feature","geometry":{"type":"Point","coordinates":[-84.38637,39.47184]},"properties":{"frp":1.47,"date":"2026-09-01","daynight":"N"}},{"type":"Feature","geometry":{"type":"Point","coordinates":[-84.40314,39.47333]},"properties":{"frp":1.96,"date":"2026-09-01","daynight":"N"}},{"type":"Feature","geometry":{"type":"Point","coordinates":[-84.3773,39.48364]},"properties":{"frp":3.54,"date":"2026-09-01","daynight":"N"}},{"type":"Feature","geometry":{"type":"Point","coordinates":[-84.3885,39.48457]},"properties":{"frp":2.66,"date":"2026-09-01","daynight":"N"}},{"type":"Feature","geometry":{"type":"Point","coordinates":[-84.37881,39.48461]},"properties":{"frp":2.06,"date":"2026-09-01","daynight":"N"}},{"type":"Feature","geometry":{"type":"Point","coordinates":[-84.38441,39.48511]},"properties":{"frp":4.22,"date":"2026-09-01","daynight":"N"}},{"type":"Feature","geometry":{"type":"Point","coordinates":[-84.36142,39.48753]},"properties":{"frp":1.64,"date":"2026-09-01","daynight":"N"}},{"type":"Feature","geometry":{"type":"Point","coordinates":[-86.83842,39.9746]},"properties":{"frp":0.9,"date":"2026-09-01","daynight":"N"}},{"type":"Feature","geometry":{"type":"Point","coordinates":[-86.83185,39.97718]},"properties":{"frp":1.18,"date":"2026-09-01","daynight":"N"}},{"type":"Feature","geometry":{"type":"Point","coordinates":[-86.83962,39.97765]},"properties":{"frp":1.15,"date":"2026-09-01","daynight":"N"}},{"type":"Feature","geometry":{"type":"Point","coordinates":[-86.8301,39.97918]},"properties":{"frp":1.12,"date":"2026-09-01","daynight":"N"}},{"type":"Feature","geometry":{"type":"Point","coordinates":[-86.83787,39.97969]},"properties":{"frp":0.9,"date":"2026-09-01","daynight":"N"}},{"type":"Feature","geometry":{"type":"Point","coordinates":[-86.83344,39.98452]},"properties":{"frp":0.47,"date":"2026-09-01","daynight":"N"}},{"type":"Feature","geometry":{"type":"Point","coordinates":[-79.85696,40.39311]},"properties":{"frp":4.68,"date":"2026-09-01","daynight":"N"}},{"type":"Feature","geometry":{"type":"Point","coordinates":[-79.85613,40.39668]},"properties":{"frp":4.72,"date":"2026-09-01","daynight":"N"}},{"type":"Feature","geometry":{"type":"Point","coordinates":[-84.91759,41.37004]},"properties":{"frp":1.43,"date":"2026-09-01","daynight":"N"}},{"type":"Feature","geometry":{"type":"Point","coordinates":[-84.92404,41.37051]},"properties":{"frp":1.43,"date":"2026-09-01","daynight":"N"}},{"type":"Feature","geometry":{"type":"Point","coordinates":[-87.14662,41.62898]},"properties":{"frp":1.17,"date":"2026-09-01","daynight":"N"}},{"type":"Feature","geometry":{"type":"Point","coordinates":[-87.12842,41.63855]},"properties":{"frp":2.1,"date":"2026-09-01","daynight":"N"}},{"type":"Feature","geometry":{"type":"Point","coordinates":[-87.13268,41.63878]},"properties":{"frp":2.63,"date":"2026-09-01","daynight":"N"}},{"type":"Feature","geometry":{"type":"Point","coordinates":[-87.13225,41.64404]},"properties":{"frp":2.63,"date":"2026-09-01","daynight":"N"}},{"type":"Feature","geometry":{"type":"Point","coordinates":[-87.14082,41.64451]},"properties":{"frp":1.98,"date":"2026-09-01","daynight":"N"}},{"type":"Feature","geometry":{"type":"Point","coordinates":[-81.05405,33.96252]},"properties":{"frp":1.6,"date":"2026-09-01","daynight":"N"}},{"type":"Feature","geometry":{"type":"Point","coordinates":[-87.08727,34.63801]},"properties":{"frp":3.41,"date":"2026-09-01","daynight":"N"}},{"type":"Feature","geometry":{"type":"Point","coordinates":[-87.09328,34.64342]},"properties":{"frp":3.41,"date":"2026-09-01","daynight":"N"}},{"type":"Feature","geometry":{"type":"Point","coordinates":[-89.71734,35.93536]},"properties":{"frp":1.83,"date":"2026-09-01","daynight":"N"}},{"type":"Feature","geometry":{"type":"Point","coordinates":[-89.71633,35.94685]},"properties":{"frp":2.88,"date":"2026-09-01","daynight":"N"}},{"type":"Feature","geometry":{"type":"Point","coordinates":[-89.71506,35.94773]},"properties":{"frp":1.24,"date":"2026-09-01","daynight":"N"}},{"type":"Feature","geometry":{"type":"Point","coordinates":[-89.71996,35.94799]},"properties":{"frp":1.24,"date":"2026-09-01","daynight":"N"}},{"type":"Feature","geometry":{"type":"Point","coordinates":[-83.86994,31.79909]},"properties":{"frp":3.81,"date":"2026-09-01","daynight":"N"}},{"type":"Feature","geometry":{"type":"Point","coordinates":[-84.12872,32.06411]},"properties":{"frp":1.15,"date":"2026-09-01","daynight":"N"}},{"type":"Feature","geometry":{"type":"Point","coordinates":[-84.12786,32.06597]},"properties":{"frp":0.81,"date":"2026-09-01","daynight":"N"}},{"type":"Feature","geometry":{"type":"Point","coordinates":[-89.80348,32.55151]},"properties":{"frp":0.61,"date":"2026-09-01","daynight":"N"}},{"type":"Feature","geometry":{"type":"Point","coordinates":[-89.80785,32.5518]},"properties":{"frp":0.61,"date":"2026-09-01","daynight":"N"}},{"type":"Feature","geometry":{"type":"Point","coordinates":[-89.80292,32.55711]},"properties":{"frp":0.61,"date":"2026-09-01","daynight":"N"}},{"type":"Feature","geometry":{"type":"Point","coordinates":[-79.87852,33.00454]},"properties":{"frp":0.76,"date":"2026-09-01","daynight":"N"}},{"type":"Feature","geometry":{"type":"Point","coordinates":[-79.88277,33.00515]},"properties":{"frp":1.22,"date":"2026-09-01","daynight":"N"}},{"type":"Feature","geometry":{"type":"Point","coordinates":[-79.87783,33.00789]},"properties":{"frp":0.76,"date":"2026-09-01","daynight":"N"}},{"type":"Feature","geometry":{"type":"Point","coordinates":[-79.88497,33.01583]},"properties":{"frp":4.94,"date":"2026-09-01","daynight":"N"}},{"type":"Feature","geometry":{"type":"Point","coordinates":[-86.80581,33.09258]},"properties":{"frp":3.49,"date":"2026-09-01","daynight":"N"}},{"type":"Feature","geometry":{"type":"Point","coordinates":[-86.80441,33.09393]},"properties":{"frp":3.43,"date":"2026-09-01","daynight":"N"}},{"type":"Feature","geometry":{"type":"Point","coordinates":[-87.51005,33.23595]},"properties":{"frp":3.02,"date":"2026-09-01","daynight":"N"}},{"type":"Feature","geometry":{"type":"Point","coordinates":[-86.7573,33.53439]},"properties":{"frp":3.38,"date":"2026-09-01","daynight":"N"}},{"type":"Feature","geometry":{"type":"Point","coordinates":[-81.05191,33.96181]},"properties":{"frp":0.85,"date":"2026-09-01","daynight":"N"}},{"type":"Feature","geometry":{"type":"Point","coordinates":[-81.05125,33.96532]},"properties":{"frp":0.85,"date":"2026-09-01","daynight":"N"}},{"type":"Feature","geometry":{"type":"Point","coordinates":[-81.88599,28.6985]},"properties":{"frp":0.91,"date":"2026-09-01","daynight":"N"}},{"type":"Feature","geometry":{"type":"Point","coordinates":[-81.88538,28.70194]},"properties":{"frp":0.91,"date":"2026-09-01","daynight":"N"}},{"type":"Feature","geometry":{"type":"Point","coordinates":[-82.56324,29.49015]},"properties":{"frp":4.88,"date":"2026-09-01","daynight":"N"}},{"type":"Feature","geometry":{"type":"Point","coordinates":[-83.34798,30.39441]},"properties":{"frp":0.84,"date":"2026-09-01","daynight":"N"}},{"type":"Feature","geometry":{"type":"Point","coordinates":[-83.35318,30.39504]},"properties":{"frp":0.84,"date":"2026-09-01","daynight":"N"}},{"type":"Feature","geometry":{"type":"Point","coordinates":[-88.01801,30.94291]},"properties":{"frp":1.88,"date":"2026-09-01","daynight":"N"}},{"type":"Feature","geometry":{"type":"Point","coordinates":[-88.01096,30.94729]},"properties":{"frp":1.88,"date":"2026-09-01","daynight":"N"}},{"type":"Feature","geometry":{"type":"Point","coordinates":[-88.01105,30.94826]},"properties":{"frp":1.38,"date":"2026-09-01","daynight":"N"}},{"type":"Feature","geometry":{"type":"Point","coordinates":[-80.15548,26.28019]},"properties":{"frp":1.59,"date":"2026-09-01","daynight":"N"}},{"type":"Feature","geometry":{"type":"Point","coordinates":[-80.77267,26.4132]},"properties":{"frp":1.49,"date":"2026-09-01","daynight":"N"}},{"type":"Feature","geometry":{"type":"Point","coordinates":[-80.77653,26.41379]},"properties":{"frp":1.49,"date":"2026-09-01","daynight":"N"}},{"type":"Feature","geometry":{"type":"Point","coordinates":[-80.77206,26.41651]},"properties":{"frp":1.49,"date":"2026-09-01","daynight":"N"}},{"type":"Feature","geometry":{"type":"Point","coordinates":[-80.77591,26.4171]},"properties":{"frp":1.49,"date":"2026-09-01","daynight":"N"}}]}