{"type":"FeatureCollection","features":[{"type":"Feature","geometry":{"type":"Point","coordinates":[-73.25291,45.83774]},"properties":{"frp":1.5,"date":"2026-09-11","daynight":"N"}},{"type":"Feature","geometry":{"type":"Point","coordinates":[-73.24668,45.84043]},"properties":{"frp":1.5,"date":"2026-09-11","daynight":"N"}},{"type":"Feature","geometry":{"type":"Point","coordinates":[-73.13908,46.0424]},"properties":{"frp":0.34,"date":"2026-09-11","daynight":"N"}},{"type":"Feature","geometry":{"type":"Point","coordinates":[-73.14437,46.04312]},"properties":{"frp":1.37,"date":"2026-09-11","daynight":"N"}},{"type":"Feature","geometry":{"type":"Point","coordinates":[-73.13814,46.04581]},"properties":{"frp":0.9,"date":"2026-09-11","daynight":"N"}},{"type":"Feature","geometry":{"type":"Point","coordinates":[-73.14343,46.04652]},"properties":{"frp":1.58,"date":"2026-09-11","daynight":"N"}},{"type":"Feature","geometry":{"type":"Point","coordinates":[-79.80766,43.26136]},"properties":{"frp":1.28,"date":"2026-09-11","daynight":"N"}},{"type":"Feature","geometry":{"type":"Point","coordinates":[-79.80675,43.26183]},"properties":{"frp":1.13,"date":"2026-09-11","daynight":"N"}},{"type":"Feature","geometry":{"type":"Point","coordinates":[-79.81242,43.26229]},"properties":{"frp":1.13,"date":"2026-09-11","daynight":"N"}},{"type":"Feature","geometry":{"type":"Point","coordinates":[-79.80696,43.26571]},"properties":{"frp":1.28,"date":"2026-09-11","daynight":"N"}},{"type":"Feature","geometry":{"type":"Point","coordinates":[-79.80603,43.26619]},"properties":{"frp":1.13,"date":"2026-09-11","daynight":"N"}},{"type":"Feature","geometry":{"type":"Point","coordinates":[-79.80626,43.27005]},"properties":{"frp":2.57,"date":"2026-09-11","daynight":"N"}},{"type":"Feature","geometry":{"type":"Point","coordinates":[-79.80531,43.27053]},"properties":{"frp":1.28,"date":"2026-09-11","daynight":"N"}},{"type":"Feature","geometry":{"type":"Point","coordinates":[-79.81099,43.27099]},"properties":{"frp":1.28,"date":"2026-09-11","daynight":"N"}},{"type":"Feature","geometry":{"type":"Point","coordinates":[-79.79429,43.27341]},"properties":{"frp":1.52,"date":"2026-09-11","daynight":"N"}},{"type":"Feature","geometry":{"type":"Point","coordinates":[-79.79993,43.27391]},"properties":{"frp":2.57,"date":"2026-09-11","daynight":"N"}},{"type":"Feature","geometry":{"type":"Point","coordinates":[-79.79897,43.27442]},"properties":{"frp":2.9,"date":"2026-09-11","daynight":"N"}},{"type":"Feature","geometry":{"type":"Point","coordinates":[-79.80462,43.27488]},"properties":{"frp":1.28,"date":"2026-09-11","daynight":"N"}},{"type":"Feature","geometry":{"type":"Point","coordinates":[-79.98658,43.28965]},"properties":{"frp":0.91,"date":"2026-09-11","daynight":"N"}},{"type":"Feature","geometry":{"type":"Point","coordinates":[-79.98724,43.29016]},"properties":{"frp":1.16,"date":"2026-09-11","daynight":"N"}},{"type":"Feature","geometry":{"type":"Point","coordinates":[-79.98589,43.29404]},"properties":{"frp":1.19,"date":"2026-09-11","daynight":"N"}},{"type":"Feature","geometry":{"type":"Point","coordinates":[-86.48519,39.87276]},"properties":{"frp":1.15,"date":"2026-09-11","daynight":"N"}},{"type":"Feature","geometry":{"type":"Point","coordinates":[-86.48528,39.87648]},"properties":{"frp":1.13,"date":"2026-09-11","daynight":"N"}},{"type":"Feature","geometry":{"type":"Point","coordinates":[-86.83797,39.97598]},"properties":{"frp":2.31,"date":"2026-09-11","daynight":"N"}},{"type":"Feature","geometry":{"type":"Point","coordinates":[-83.1368,40.57035]},"properties":{"frp":1.32,"date":"2026-09-11","daynight":"N"}},{"type":"Feature","geometry":{"type":"Point","coordinates":[-83.13541,40.57145]},"properties":{"frp":3.1,"date":"2026-09-11","daynight":"N"}},{"type":"Feature","geometry":{"type":"Point","coordinates":[-86.43375,40.73151]},"properties":{"frp":1.66,"date":"2026-09-11","daynight":"N"}},{"type":"Feature","geometry":{"type":"Point","coordinates":[-86.43334,40.73352]},"properties":{"frp":0.89,"date":"2026-09-11","daynight":"N"}},{"type":"Feature","geometry":{"type":"Point","coordinates":[-85.35558,41.11578]},"properties":{"frp":2.49,"date":"2026-09-11","daynight":"N"}},{"type":"Feature","geometry":{"type":"Point","coordinates":[-85.35001,41.12127]},"properties":{"frp":2.49,"date":"2026-09-11","daynight":"N"}},{"type":"Feature","geometry":{"type":"Point","coordinates":[-85.35513,41.12149]},"properties":{"frp":2.49,"date":"2026-09-11","daynight":"N"}},{"type":"Feature","geometry":{"type":"Point","coordinates":[-83.20963,41.22641]},"properties":{"frp":1.92,"date":"2026-09-11","daynight":"N"}},{"type":"Feature","geometry":{"type":"Point","coordinates":[-84.92169,41.36755]},"properties":{"frp":1.21,"date":"2026-09-11","daynight":"N"}},{"type":"Feature","geometry":{"type":"Point","coordinates":[-82.26588,41.43018]},"properties":{"frp":1.55,"date":"2026-09-11","daynight":"N"}},{"type":"Feature","geometry":{"type":"Point","coordinates":[-81.68039,41.44973]},"properties":{"frp":1.36,"date":"2026-09-11","daynight":"N"}},{"type":"Feature","geometry":{"type":"Point","coordinates":[-81.67979,41.45444]},"properties":{"frp":1.36,"date":"2026-09-11","daynight":"N"}},{"type":"Feature","geometry":{"type":"Point","coordinates":[-83.36617,41.46162]},"properties":{"frp":0.77,"date":"2026-09-11","daynight":"N"}},{"type":"Feature","geometry":{"type":"Point","coordinates":[-81.67187,41.46335]},"properties":{"frp":0.64,"date":"2026-09-11","daynight":"N"}},{"type":"Feature","geometry":{"type":"Point","coordinates":[-83.36969,41.46702]},"properties":{"frp":2.78,"date":"2026-09-11","daynight":"N"}},{"type":"Feature","geometry":{"type":"Point","coordinates":[-84.04674,41.56438]},"properties":{"frp":2.99,"date":"2026-09-11","daynight":"N"}},{"type":"Feature","geometry":{"type":"Point","coordinates":[-84.05003,41.56705]},"properties":{"frp":1.91,"date":"2026-09-11","daynight":"N"}},{"type":"Feature","geometry":{"type":"Point","coordinates":[-84.05444,41.56728]},"properties":{"frp":1.91,"date":"2026-09-11","daynight":"N"}},{"type":"Feature","geometry":{"type":"Point","coordinates":[-84.05389,41.57263]},"properties":{"frp":1.91,"date":"2026-09-11","daynight":"N"}},{"type":"Feature","geometry":{"type":"Point","coordinates":[-87.35212,41.61497]},"properties":{"frp":1.62,"date":"2026-09-11","daynight":"N"}},{"type":"Feature","geometry":{"type":"Point","coordinates":[-87.34518,41.62112]},"properties":{"frp":3.54,"date":"2026-09-11","daynight":"N"}},{"type":"Feature","geometry":{"type":"Point","coordinates":[-87.35178,41.62128]},"properties":{"frp":1.94,"date":"2026-09-11","daynight":"N"}},{"type":"Feature","geometry":{"type":"Point","coordinates":[-87.37147,41.62807]},"properties":{"frp":1.72,"date":"2026-09-11","daynight":"N"}},{"type":"Feature","geometry":{"type":"Point","coordinates":[-87.37808,41.62823]},"properties":{"frp":1.11,"date":"2026-09-11","daynight":"N"}},{"type":"Feature","geometry":{"type":"Point","coordinates":[-87.14812,41.62878]},"properties":{"frp":2.06,"date":"2026-09-11","daynight":"N"}},{"type":"Feature","geometry":{"type":"Point","coordinates":[-87.12833,41.63451]},"properties":{"frp":7.21,"date":"2026-09-11","daynight":"N"}},{"type":"Feature","geometry":{"type":"Point","coordinates":[-87.1413,41.63486]},"properties":{"frp":2.06,"date":"2026-09-11","daynight":"N"}},{"type":"Feature","geometry":{"type":"Point","coordinates":[-87.14784,41.63503]},"properties":{"frp":2.06,"date":"2026-09-11","daynight":"N"}},{"type":"Feature","geometry":{"type":"Point","coordinates":[-87.13454,41.64093]},"properties":{"frp":3.28,"date":"2026-09-11","daynight":"N"}},{"type":"Feature","geometry":{"type":"Point","coordinates":[-87.14106,41.64111]},"properties":{"frp":5.78,"date":"2026-09-11","daynight":"N"}},{"type":"Feature","geometry":{"type":"Point","coordinates":[-87.48369,41.66251]},"properties":{"frp":2.21,"date":"2026-09-11","daynight":"N"}},{"type":"Feature","geometry":{"type":"Point","coordinates":[-87.45636,41.66819]},"properties":{"frp":1.55,"date":"2026-09-11","daynight":"N"}},{"type":"Feature","geometry":{"type":"Point","coordinates":[-87.46311,41.66837]},"properties":{"frp":1.55,"date":"2026-09-11","daynight":"N"}},{"type":"Feature","geometry":{"type":"Point","coordinates":[-87.45197,41.66972]},"properties":{"frp":1.9,"date":"2026-09-11","daynight":"N"}},{"type":"Feature","geometry":{"type":"Point","coordinates":[-87.4587,41.66986]},"properties":{"frp":1.9,"date":"2026-09-11","daynight":"N"}},{"type":"Feature","geometry":{"type":"Point","coordinates":[-87.46548,41.66999]},"properties":{"frp":3.46,"date":"2026-09-11","daynight":"N"}},{"type":"Feature","geometry":{"type":"Point","coordinates":[-87.48576,41.67039]},"properties":{"frp":2.44,"date":"2026-09-11","daynight":"N"}},{"type":"Feature","geometry":{"type":"Point","coordinates":[-87.45606,41.67454]},"properties":{"frp":1.9,"date":"2026-09-11","daynight":"N"}},{"type":"Feature","geometry":{"type":"Point","coordinates":[-87.46286,41.67471]},"properties":{"frp":1.9,"date":"2026-09-11","daynight":"N"}},{"type":"Feature","geometry":{"type":"Point","coordinates":[-87.46964,41.67488]},"properties":{"frp":2.67,"date":"2026-09-11","daynight":"N"}},{"type":"Feature","geometry":{"type":"Point","coordinates":[-87.42221,41.68002]},"properties":{"frp":4.52,"date":"2026-09-11","daynight":"N"}},{"type":"Feature","geometry":{"type":"Point","coordinates":[-87.4289,41.6802]},"properties":{"frp":1.78,"date":"2026-09-11","daynight":"N"}},{"type":"Feature","geometry":{"type":"Point","coordinates":[-87.43571,41.68037]},"properties":{"frp":1.78,"date":"2026-09-11","daynight":"N"}},{"type":"Feature","geometry":{"type":"Point","coordinates":[-87.41773,41.68173]},"properties":{"frp":1.88,"date":"2026-09-11","daynight":"N"}},{"type":"Feature","geometry":{"type":"Point","coordinates":[-87.42444,41.68187]},"properties":{"frp":4.24,"date":"2026-09-11","daynight":"N"}},{"type":"Feature","geometry":{"type":"Point","coordinates":[-83.11166,42.28214]},"properties":{"frp":1.29,"date":"2026-09-11","daynight":"N"}},{"type":"Feature","geometry":{"type":"Point","coordinates":[-83.1157,42.28237]},"properties":{"frp":1.26,"date":"2026-09-11","daynight":"N"}},{"type":"Feature","geometry":{"type":"Point","coordinates":[-83.15388,42.30526]},"properties":{"frp":0.58,"date":"2026-09-11","daynight":"N"}},{"type":"Feature","geometry":{"type":"Point","coordinates":[-80.51981,35.35238]},"properties":{"frp":0.88,"date":"2026-09-11","daynight":"N"}},{"type":"Feature","geometry":{"type":"Point","coordinates":[-86.38965,36.04494]},"properties":{"frp":6.78,"date":"2026-09-11","daynight":"N"}},{"type":"Feature","geometry":{"type":"Point","coordinates":[-86.39466,36.04519]},"properties":{"frp":10.96,"date":"2026-09-11","daynight":"N"}},{"type":"Feature","geometry":{"type":"Point","coordinates":[-86.39962,36.04545]},"properties":{"frp":10.96,"date":"2026-09-11","daynight":"N"}},{"type":"Feature","geometry":{"type":"Point","coordinates":[-86.38918,36.05072]},"properties":{"frp":6.78,"date":"2026-09-11","daynight":"N"}},{"type":"Feature","geometry":{"type":"Point","coordinates":[-86.39421,36.05098]},"properties":{"frp":10.96,"date":"2026-09-11","daynight":"N"}},{"type":"Feature","geometry":{"type":"Point","coordinates":[-86.39918,36.05124]},"properties":{"frp":10.96,"date":"2026-09-11","daynight":"N"}},{"type":"Feature","geometry":{"type":"Point","coordinates":[-76.80627,36.35457]},"properties":{"frp":1.28,"date":"2026-09-11","daynight":"N"}},{"type":"Feature","geometry":{"type":"Point","coordinates":[-76.81106,36.35521]},"properties":{"frp":1.49,"date":"2026-09-11","daynight":"N"}},{"type":"Feature","geometry":{"type":"Point","coordinates":[-76.80557,36.35806]},"properties":{"frp":1.28,"date":"2026-09-11","daynight":"N"}},{"type":"Feature","geometry":{"type":"Point","coordinates":[-90.07916,37.96932]},"properties":{"frp":1.74,"date":"2026-09-11","daynight":"N"}},{"type":"Feature","geometry":{"type":"Point","coordinates":[-90.08709,38.00835]},"properties":{"frp":1.83,"date":"2026-09-11","daynight":"N"}},{"type":"Feature","geometry":{"type":"Point","coordinates":[-90.1351,38.69657]},"properties":{"frp":3.69,"date":"2026-09-11","daynight":"N"}},{"type":"Feature","geometry":{"type":"Point","coordinates":[-90.06464,38.83433]},"properties":{"frp":2.09,"date":"2026-09-11","daynight":"N"}},{"type":"Feature","geometry":{"type":"Point","coordinates":[-90.06918,38.83776]},"properties":{"frp":2.08,"date":"2026-09-11","daynight":"N"}},{"type":"Feature","geometry":{"type":"Point","coordinates":[-79.87794,33.00558]},"properties":{"frp":2.57,"date":"2026-09-11","daynight":"N"}},{"type":"Feature","geometry":{"type":"Point","coordinates":[-79.88866,33.01078]},"properties":{"frp":1.46,"date":"2026-09-11","daynight":"N"}},{"type":"Feature","geometry":{"type":"Point","coordinates":[-79.88233,33.01396]},"properties":{"frp":3.85,"date":"2026-09-11","daynight":"N"}},{"type":"Feature","geometry":{"type":"Point","coordinates":[-79.88801,33.01463]},"properties":{"frp":7.75,"date":"2026-09-11","daynight":"N"}},{"type":"Feature","geometry":{"type":"Point","coordinates":[-86.80191,33.1039]},"properties":{"frp":2.02,"date":"2026-09-11","daynight":"N"}},{"type":"Feature","geometry":{"type":"Point","coordinates":[-86.80248,33.10396]},"properties":{"frp":1.98,"date":"2026-09-11","daynight":"N"}},{"type":"Feature","geometry":{"type":"Point","coordinates":[-86.79045,33.21926]},"properties":{"frp":1.28,"date":"2026-09-11","daynight":"N"}},{"type":"Feature","geometry":{"type":"Point","coordinates":[-86.79369,33.2197]},"properties":{"frp":1.2,"date":"2026-09-11","daynight":"N"}},{"type":"Feature","geometry":{"type":"Point","coordinates":[-86.81459,33.22079]},"properties":{"frp":1.1,"date":"2026-09-11","daynight":"N"}},{"type":"Feature","geometry":{"type":"Point","coordinates":[-86.81807,33.22109]},"properties":{"frp":1.41,"date":"2026-09-11","daynight":"N"}},{"type":"Feature","geometry":{"type":"Point","coordinates":[-88.5723,33.43649]},"properties":{"frp":1.92,"date":"2026-09-11","daynight":"N"}},{"type":"Feature","geometry":{"type":"Point","coordinates":[-88.57047,33.43772]},"properties":{"frp":2.69,"date":"2026-09-11","daynight":"N"}},{"type":"Feature","geometry":{"type":"Point","coordinates":[-88.57658,33.43798]},"properties":{"frp":2.69,"date":"2026-09-11","daynight":"N"}},{"type":"Feature","geometry":{"type":"Point","coordinates":[-88.57179,33.44286]},"properties":{"frp":1.92,"date":"2026-09-11","daynight":"N"}},{"type":"Feature","geometry":{"type":"Point","coordinates":[-86.75935,33.53145]},"properties":{"frp":1.29,"date":"2026-09-11","daynight":"N"}},{"type":"Feature","geometry":{"type":"Point","coordinates":[-86.75998,33.53162]},"properties":{"frp":1.14,"date":"2026-09-11","daynight":"N"}},{"type":"Feature","geometry":{"type":"Point","coordinates":[-86.80676,33.54576]},"properties":{"frp":1.33,"date":"2026-09-11","daynight":"N"}},{"type":"Feature","geometry":{"type":"Point","coordinates":[-86.80739,33.54623]},"properties":{"frp":1.38,"date":"2026-09-11","daynight":"N"}},{"type":"Feature","geometry":{"type":"Point","coordinates":[-78.62479,33.93385]},"properties":{"frp":1.18,"date":"2026-09-11","daynight":"N"}},{"type":"Feature","geometry":{"type":"Point","coordinates":[-78.62992,33.9345]},"properties":{"frp":1.18,"date":"2026-09-11","daynight":"N"}},{"type":"Feature","geometry":{"type":"Point","coordinates":[-78.62413,33.93751]},"properties":{"frp":1.18,"date":"2026-09-11","daynight":"N"}},{"type":"Feature","geometry":{"type":"Point","coordinates":[-78.62926,33.93816]},"properties":{"frp":1.18,"date":"2026-09-11","daynight":"N"}},{"type":"Feature","geometry":{"type":"Point","coordinates":[-87.08337,34.63563]},"properties":{"frp":1.38,"date":"2026-09-11","daynight":"N"}},{"type":"Feature","geometry":{"type":"Point","coordinates":[-87.08296,34.64157]},"properties":{"frp":1.32,"date":"2026-09-11","daynight":"N"}},{"type":"Feature","geometry":{"type":"Point","coordinates":[-87.08817,34.64184]},"properties":{"frp":1.32,"date":"2026-09-11","daynight":"N"}},{"type":"Feature","geometry":{"type":"Point","coordinates":[-87.09334,34.64211]},"properties":{"frp":1.74,"date":"2026-09-11","daynight":"N"}},{"type":"Feature","geometry":{"type":"Point","coordinates":[-87.84956,34.7402]},"properties":{"frp":1.58,"date":"2026-09-11","daynight":"N"}},{"type":"Feature","geometry":{"type":"Point","coordinates":[-87.84702,34.74122]},"properties":{"frp":2.31,"date":"2026-09-11","daynight":"N"}},{"type":"Feature","geometry":{"type":"Point","coordinates":[-80.49641,34.96457]},"properties":{"frp":2.44,"date":"2026-09-11","daynight":"N"}},{"type":"Feature","geometry":{"type":"Point","coordinates":[-80.1596,35.14652]},"properties":{"frp":1.25,"date":"2026-09-11","daynight":"N"}},{"type":"Feature","geometry":{"type":"Point","coordinates":[-88.19737,30.79067]},"properties":{"frp":0.85,"date":"2026-09-11","daynight":"N"}},{"type":"Feature","geometry":{"type":"Point","coordinates":[-88.19634,30.79078]},"properties":{"frp":0.78,"date":"2026-09-11","daynight":"N"}},{"type":"Feature","geometry":{"type":"Point","coordinates":[-88.01466,30.93941]},"properties":{"frp":2.51,"date":"2026-09-11","daynight":"N"}},{"type":"Feature","geometry":{"type":"Point","coordinates":[-88.01411,30.94548]},"properties":{"frp":1.72,"date":"2026-09-11","daynight":"N"}},{"type":"Feature","geometry":{"type":"Point","coordinates":[-73.25301,45.83662]},"properties":{"frp":1.51,"date":"2026-09-11","daynight":"N"}},{"type":"Feature","geometry":{"type":"Point","coordinates":[-73.24617,45.83898]},"properties":{"frp":0.68,"date":"2026-09-11","daynight":"N"}},{"type":"Feature","geometry":{"type":"Point","coordinates":[-73.25164,45.84004]},"properties":{"frp":0.68,"date":"2026-09-11","daynight":"N"}},{"type":"Feature","geometry":{"type":"Point","coordinates":[-73.25027,45.84346]},"properties":{"frp":0.68,"date":"2026-09-11","daynight":"N"}},{"type":"Feature","geometry":{"type":"Point","coordinates":[-73.13793,46.0439]},"properties":{"frp":1.22,"date":"2026-09-11","daynight":"N"}},{"type":"Feature","geometry":{"type":"Point","coordinates":[-73.14343,46.04497]},"properties":{"frp":1.22,"date":"2026-09-11","daynight":"N"}},{"type":"Feature","geometry":{"type":"Point","coordinates":[-85.35221,41.12216]},"properties":{"frp":2.08,"date":"2026-09-11","daynight":"N"}},{"type":"Feature","geometry":{"type":"Point","coordinates":[-83.20739,41.22554]},"properties":{"frp":2.1,"date":"2026-09-11","daynight":"N"}},{"type":"Feature","geometry":{"type":"Point","coordinates":[-83.20829,41.22594]},"properties":{"frp":3.3,"date":"2026-09-11","daynight":"N"}},{"type":"Feature","geometry":{"type":"Point","coordinates":[-84.9241,41.36768]},"properties":{"frp":1.99,"date":"2026-09-11","daynight":"N"}},{"type":"Feature","geometry":{"type":"Point","coordinates":[-84.91667,41.37093]},"properties":{"frp":1.99,"date":"2026-09-11","daynight":"N"}},{"type":"Feature","geometry":{"type":"Point","coordinates":[-82.26376,41.42899]},"properties":{"frp":0.88,"date":"2026-09-11","daynight":"N"}},{"type":"Feature","geometry":{"type":"Point","coordinates":[-82.26902,41.42966]},"properties":{"frp":0.88,"date":"2026-09-11","daynight":"N"}},{"type":"Feature","geometry":{"type":"Point","coordinates":[-83.36739,41.4594]},"properties":{"frp":1.4,"date":"2026-09-11","daynight":"N"}},{"type":"Feature","geometry":{"type":"Point","coordinates":[-83.36794,41.46078]},"properties":{"frp":0.91,"date":"2026-09-11","daynight":"N"}},{"type":"Feature","geometry":{"type":"Point","coordinates":[-81.67133,41.46368]},"properties":{"frp":3.35,"date":"2026-09-11","daynight":"N"}},{"type":"Feature","geometry":{"type":"Point","coordinates":[-81.67639,41.46436]},"properties":{"frp":2.46,"date":"2026-09-11","daynight":"N"}},{"type":"Feature","geometry":{"type":"Point","coordinates":[-83.36514,41.47041]},"properties":{"frp":1.75,"date":"2026-09-11","daynight":"N"}},{"type":"Feature","geometry":{"type":"Point","coordinates":[-81.66776,41.47209]},"properties":{"frp":0.63,"date":"2026-09-11","daynight":"N"}},{"type":"Feature","geometry":{"type":"Point","coordinates":[-81.66695,41.47553]},"properties":{"frp":0.69,"date":"2026-09-11","daynight":"N"}},{"type":"Feature","geometry":{"type":"Point","coordinates":[-84.04639,41.56924]},"properties":{"frp":3.0,"date":"2026-09-11","daynight":"N"}},{"type":"Feature","geometry":{"type":"Point","coordinates":[-84.05257,41.56991]},"properties":{"frp":3.0,"date":"2026-09-11","daynight":"N"}},{"type":"Feature","geometry":{"type":"Point","coordinates":[-87.32866,41.61611]},"properties":{"frp":1.87,"date":"2026-09-11","daynight":"N"}},{"type":"Feature","geometry":{"type":"Point","coordinates":[-87.34653,41.61758]},"properties":{"frp":0.96,"date":"2026-09-11","daynight":"N"}},{"type":"Feature","geometry":{"type":"Point","coordinates":[-87.33396,41.62108]},"properties":{"frp":1.87,"date":"2026-09-11","daynight":"N"}},{"type":"Feature","geometry":{"type":"Point","coordinates":[-87.33993,41.62157]},"properties":{"frp":0.96,"date":"2026-09-11","daynight":"N"}},{"type":"Feature","geometry":{"type":"Point","coordinates":[-87.34588,41.62207]},"properties":{"frp":0.96,"date":"2026-09-11","daynight":"N"}},{"type":"Feature","geometry":{"type":"Point","coordinates":[-87.33337,41.62557]},"properties":{"frp":2.71,"date":"2026-09-11","daynight":"N"}},{"type":"Feature","geometry":{"type":"Point","coordinates":[-87.14825,41.62656]},"properties":{"frp":1.92,"date":"2026-09-11","daynight":"N"}},{"type":"Feature","geometry":{"type":"Point","coordinates":[-87.14275,41.62756]},"properties":{"frp":1.26,"date":"2026-09-11","daynight":"N"}},{"type":"Feature","geometry":{"type":"Point","coordinates":[-87.36907,41.62852]},"properties":{"frp":2.38,"date":"2026-09-11","daynight":"N"}},{"type":"Feature","geometry":{"type":"Point","coordinates":[-87.12875,41.63847]},"properties":{"frp":5.63,"date":"2026-09-11","daynight":"N"}},{"type":"Feature","geometry":{"type":"Point","coordinates":[-87.13457,41.63894]},"properties":{"frp":5.63,"date":"2026-09-11","daynight":"N"}},{"type":"Feature","geometry":{"type":"Point","coordinates":[-87.1404,41.6394]},"properties":{"frp":5.84,"date":"2026-09-11","daynight":"N"}},{"type":"Feature","geometry":{"type":"Point","coordinates":[-87.13979,41.64385]},"properties":{"frp":6.59,"date":"2026-09-11","daynight":"N"}},{"type":"Feature","geometry":{"type":"Point","coordinates":[-87.45325,41.67323]},"properties":{"frp":3.98,"date":"2026-09-11","daynight":"N"}},{"type":"Feature","geometry":{"type":"Point","coordinates":[-87.45932,41.6737]},"properties":{"frp":2.66,"date":"2026-09-11","daynight":"N"}},{"type":"Feature","geometry":{"type":"Point","coordinates":[-87.4654,41.67418]},"properties":{"frp":2.66,"date":"2026-09-11","daynight":"N"}},{"type":"Feature","geometry":{"type":"Point","coordinates":[-87.42175,41.67988]},"properties":{"frp":2.64,"date":"2026-09-11","daynight":"N"}},{"type":"Feature","geometry":{"type":"Point","coordinates":[-87.43386,41.68083]},"properties":{"frp":3.04,"date":"2026-09-11","daynight":"N"}},{"type":"Feature","geometry":{"type":"Point","coordinates":[-87.42113,41.68439]},"properties":{"frp":1.35,"date":"2026-09-11","daynight":"N"}},{"type":"Feature","geometry":{"type":"Point","coordinates":[-87.42716,41.68487]},"properties":{"frp":1.35,"date":"2026-09-11","daynight":"N"}},{"type":"Feature","geometry":{"type":"Point","coordinates":[-83.12897,42.28016]},"properties":{"frp":0.74,"date":"2026-09-11","daynight":"N"}},{"type":"Feature","geometry":{"type":"Point","coordinates":[-83.11073,42.28177]},"properties":{"frp":0.77,"date":"2026-09-11","daynight":"N"}},{"type":"Feature","geometry":{"type":"Point","coordinates":[-83.10995,42.28544]},"properties":{"frp":0.77,"date":"2026-09-11","daynight":"N"}},{"type":"Feature","geometry":{"type":"Point","coordinates":[-83.15348,42.30561]},"properties":{"frp":0.75,"date":"2026-09-11","daynight":"N"}},{"type":"Feature","geometry":{"type":"Point","coordinates":[-83.15233,42.3078]},"properties":{"frp":1.04,"date":"2026-09-11","daynight":"N"}},{"type":"Feature","geometry":{"type":"Point","coordinates":[-79.8058,43.26289]},"properties":{"frp":1.21,"date":"2026-09-11","daynight":"N"}},{"type":"Feature","geometry":{"type":"Point","coordinates":[-79.81065,43.26359]},"properties":{"frp":1.17,"date":"2026-09-11","daynight":"N"}},{"type":"Feature","geometry":{"type":"Point","coordinates":[-79.80491,43.26622]},"properties":{"frp":0.98,"date":"2026-09-11","daynight":"N"}},{"type":"Feature","geometry":{"type":"Point","coordinates":[-79.80975,43.26691]},"properties":{"frp":0.79,"date":"2026-09-11","daynight":"N"}},{"type":"Feature","geometry":{"type":"Point","coordinates":[-79.80402,43.26955]},"properties":{"frp":0.98,"date":"2026-09-11","daynight":"N"}},{"type":"Feature","geometry":{"type":"Point","coordinates":[-79.80887,43.27024]},"properties":{"frp":0.79,"date":"2026-09-11","daynight":"N"}},{"type":"Feature","geometry":{"type":"Point","coordinates":[-79.80314,43.27288]},"properties":{"frp":1.69,"date":"2026-09-11","daynight":"N"}},{"type":"Feature","geometry":{"type":"Point","coordinates":[-79.79741,43.27552]},"properties":{"frp":1.69,"date":"2026-09-11","daynight":"N"}},{"type":"Feature","geometry":{"type":"Point","coordinates":[-79.98455,43.29179]},"properties":{"frp":1.94,"date":"2026-09-11","daynight":"N"}},{"type":"Feature","geometry":{"type":"Point","coordinates":[-76.81148,36.35374]},"properties":{"frp":1.48,"date":"2026-09-11","daynight":"N"}},{"type":"Feature","geometry":{"type":"Point","coordinates":[-76.80556,36.3563]},"properties":{"frp":1.48,"date":"2026-09-11","daynight":"N"}},{"type":"Feature","geometry":{"type":"Point","coordinates":[-90.07696,37.96611]},"properties":{"frp":1.17,"date":"2026-09-11","daynight":"N"}},{"type":"Feature","geometry":{"type":"Point","coordinates":[-90.07648,37.97113]},"properties":{"frp":1.17,"date":"2026-09-11","daynight":"N"}},{"type":"Feature","geometry":{"type":"Point","coordinates":[-90.06878,37.97564]},"properties":{"frp":0.55,"date":"2026-09-11","daynight":"N"}},{"type":"Feature","geometry":{"type":"Point","coordinates":[-90.08062,38.0114]},"properties":{"frp":2.93,"date":"2026-09-11","daynight":"N"}},{"type":"Feature","geometry":{"type":"Point","coordinates":[-90.07951,38.01175]},"properties":{"frp":1.31,"date":"2026-09-11","daynight":"N"}},{"type":"Feature","geometry":{"type":"Point","coordinates":[-90.13177,38.69464]},"properties":{"frp":0.32,"date":"2026-09-11","daynight":"N"}},{"type":"Feature","geometry":{"type":"Point","coordinates":[-90.13551,38.69489]},"properties":{"frp":0.32,"date":"2026-09-11","daynight":"N"}},{"type":"Feature","geometry":{"type":"Point","coordinates":[-90.15054,38.69587]},"properties":{"frp":1.03,"date":"2026-09-11","daynight":"N"}},{"type":"Feature","geometry":{"type":"Point","coordinates":[-90.06467,38.83675]},"properties":{"frp":1.32,"date":"2026-09-11","daynight":"N"}},{"type":"Feature","geometry":{"type":"Point","coordinates":[-90.06407,38.8418]},"properties":{"frp":1.39,"date":"2026-09-11","daynight":"N"}},{"type":"Feature","geometry":{"type":"Point","coordinates":[-86.48473,39.87282]},"properties":{"frp":0.91,"date":"2026-09-11","daynight":"N"}},{"type":"Feature","geometry":{"type":"Point","coordinates":[-86.48404,39.87701]},"properties":{"frp":0.91,"date":"2026-09-11","daynight":"N"}},{"type":"Feature","geometry":{"type":"Point","coordinates":[-86.83676,39.97835]},"properties":{"frp":1.43,"date":"2026-09-11","daynight":"N"}},{"type":"Feature","geometry":{"type":"Point","coordinates":[-86.83086,39.98214]},"properties":{"frp":0.48,"date":"2026-09-11","daynight":"N"}},{"type":"Feature","geometry":{"type":"Point","coordinates":[-83.13718,40.56954]},"properties":{"frp":1.71,"date":"2026-09-11","daynight":"N"}},{"type":"Feature","geometry":{"type":"Point","coordinates":[-83.13582,40.57022]},"properties":{"frp":1.19,"date":"2026-09-11","daynight":"N"}},{"type":"Feature","geometry":{"type":"Point","coordinates":[-83.1413,40.57087]},"properties":{"frp":1.19,"date":"2026-09-11","daynight":"N"}},{"type":"Feature","geometry":{"type":"Point","coordinates":[-86.43214,40.73513]},"properties":{"frp":0.84,"date":"2026-09-11","daynight":"N"}},{"type":"Feature","geometry":{"type":"Point","coordinates":[-86.43729,40.73559]},"properties":{"frp":0.87,"date":"2026-09-11","daynight":"N"}},{"type":"Feature","geometry":{"type":"Point","coordinates":[-92.29797,40.97461]},"properties":{"frp":0.95,"date":"2026-09-11","daynight":"N"}},{"type":"Feature","geometry":{"type":"Point","coordinates":[-92.2985,40.97481]},"properties":{"frp":1.22,"date":"2026-09-11","daynight":"N"}},{"type":"Feature","geometry":{"type":"Point","coordinates":[-92.30341,40.97483]},"properties":{"frp":0.95,"date":"2026-09-11","daynight":"N"}},{"type":"Feature","geometry":{"type":"Point","coordinates":[-78.62739,33.93467]},"properties":{"frp":2.57,"date":"2026-09-11","daynight":"N"}},{"type":"Feature","geometry":{"type":"Point","coordinates":[-78.62652,33.93806]},"properties":{"frp":2.57,"date":"2026-09-11","daynight":"N"}},{"type":"Feature","geometry":{"type":"Point","coordinates":[-87.08284,34.63972]},"properties":{"frp":3.77,"date":"2026-09-11","daynight":"N"}},{"type":"Feature","geometry":{"type":"Point","coordinates":[-87.09157,34.64066]},"properties":{"frp":1.99,"date":"2026-09-11","daynight":"N"}},{"type":"Feature","geometry":{"type":"Point","coordinates":[-87.84716,34.74064]},"properties":{"frp":1.17,"date":"2026-09-11","daynight":"N"}},{"type":"Feature","geometry":{"type":"Point","coordinates":[-80.49877,34.964]},"properties":{"frp":0.17,"date":"2026-09-11","daynight":"N"}},{"type":"Feature","geometry":{"type":"Point","coordinates":[-80.49384,34.96662]},"properties":{"frp":0.78,"date":"2026-09-11","daynight":"N"}},{"type":"Feature","geometry":{"type":"Point","coordinates":[-80.498,34.96728]},"properties":{"frp":0.17,"date":"2026-09-11","daynight":"N"}},{"type":"Feature","geometry":{"type":"Point","coordinates":[-80.15993,35.14468]},"properties":{"frp":0.53,"date":"2026-09-11","daynight":"N"}},{"type":"Feature","geometry":{"type":"Point","coordinates":[-80.15914,35.14796]},"properties":{"frp":1.14,"date":"2026-09-11","daynight":"N"}},{"type":"Feature","geometry":{"type":"Point","coordinates":[-80.517,35.35242]},"properties":{"frp":0.6,"date":"2026-09-11","daynight":"N"}},{"type":"Feature","geometry":{"type":"Point","coordinates":[-80.52118,35.35308]},"properties":{"frp":0.6,"date":"2026-09-11","daynight":"N"}},{"type":"Feature","geometry":{"type":"Point","coordinates":[-86.39651,36.04748]},"properties":{"frp":80.14,"date":"2026-09-11","daynight":"N"}},{"type":"Feature","geometry":{"type":"Point","coordinates":[-86.38947,36.05078]},"properties":{"frp":13.85,"date":"2026-09-11","daynight":"N"}},{"type":"Feature","geometry":{"type":"Point","coordinates":[-86.39587,36.05147]},"properties":{"frp":13.85,"date":"2026-09-11","daynight":"N"}},{"type":"Feature","geometry":{"type":"Point","coordinates":[-94.44258,37.9552]},"properties":{"frp":1.68,"date":"2026-09-11","daynight":"N"}},{"type":"Feature","geometry":{"type":"Point","coordinates":[-94.44121,37.95798]},"properties":{"frp":2.04,"date":"2026-09-11","daynight":"N"}},{"type":"Feature","geometry":{"type":"Point","coordinates":[-94.44759,37.95818]},"properties":{"frp":2.04,"date":"2026-09-11","daynight":"N"}},{"type":"Feature","geometry":{"type":"Point","coordinates":[-88.19454,30.78813]},"properties":{"frp":0.78,"date":"2026-09-11","daynight":"N"}},{"type":"Feature","geometry":{"type":"Point","coordinates":[-88.01579,30.94132]},"properties":{"frp":3.68,"date":"2026-09-11","daynight":"N"}},{"type":"Feature","geometry":{"type":"Point","coordinates":[-88.01094,30.94496]},"properties":{"frp":1.48,"date":"2026-09-11","daynight":"N"}},{"type":"Feature","geometry":{"type":"Point","coordinates":[-79.88673,33.01586]},"properties":{"frp":0.93,"date":"2026-09-11","daynight":"N"}},{"type":"Feature","geometry":{"type":"Point","coordinates":[-86.80235,33.09364]},"properties":{"frp":1.7,"date":"2026-09-11","daynight":"N"}},{"type":"Feature","geometry":{"type":"Point","coordinates":[-86.8083,33.09431]},"properties":{"frp":1.7,"date":"2026-09-11","daynight":"N"}},{"type":"Feature","geometry":{"type":"Point","coordinates":[-86.80043,33.10541]},"properties":{"frp":1.75,"date":"2026-09-11","daynight":"N"}},{"type":"Feature","geometry":{"type":"Point","coordinates":[-86.79232,33.22006]},"properties":{"frp":2.16,"date":"2026-09-11","daynight":"N"}},{"type":"Feature","geometry":{"type":"Point","coordinates":[-86.81641,33.22281]},"properties":{"frp":1.91,"date":"2026-09-11","daynight":"N"}},{"type":"Feature","geometry":{"type":"Point","coordinates":[-88.5714,33.44184]},"properties":{"frp":0.73,"date":"2026-09-11","daynight":"N"}},{"type":"Feature","geometry":{"type":"Point","coordinates":[-86.75791,33.53446]},"properties":{"frp":2.7,"date":"2026-09-11","daynight":"N"}},{"type":"Feature","geometry":{"type":"Point","coordinates":[-86.80509,33.54784]},"properties":{"frp":1.61,"date":"2026-09-11","daynight":"N"}},{"type":"Feature","geometry":{"type":"Point","coordinates":[-90.2709,27.19064]},"properties":{"frp":8.71,"date":"2026-09-11","daynight":"N"}},{"type":"Feature","geometry":{"type":"Point","coordinates":[-94.9149,29.36852]},"properties":{"frp":2.76,"date":"2026-09-11","daynight":"N"}},{"type":"Feature","geometry":{"type":"Point","coordinates":[-94.92205,29.37411]},"properties":{"frp":2.49,"date":"2026-09-11","daynight":"N"}},{"type":"Feature","geometry":{"type":"Point","coordinates":[-94.9273,29.37445]},"properties":{"frp":2.01,"date":"2026-09-11","daynight":"N"}},{"type":"Feature","geometry":{"type":"Point","coordinates":[-94.92479,29.37523]},"properties":{"frp":2.91,"date":"2026-09-11","daynight":"N"}},{"type":"Feature","geometry":{"type":"Point","coordinates":[-94.94054,29.37616]},"properties":{"frp":1.93,"date":"2026-09-11","daynight":"N"}},{"type":"Feature","geometry":{"type":"Point","coordinates":[-94.94249,29.38158]},"properties":{"frp":2.56,"date":"2026-09-11","daynight":"N"}},{"type":"Feature","geometry":{"type":"Point","coordinates":[-93.90941,29.75426]},"properties":{"frp":0.98,"date":"2026-09-11","daynight":"N"}},{"type":"Feature","geometry":{"type":"Point","coordinates":[-93.90868,29.75521]},"properties":{"frp":3.0,"date":"2026-09-11","daynight":"N"}},{"type":"Feature","geometry":{"type":"Point","coordinates":[-93.90812,29.76097]},"properties":{"frp":4.02,"date":"2026-09-11","daynight":"N"}},{"type":"Feature","geometry":{"type":"Point","coordinates":[-90.27277,27.18839]},"properties":{"frp":2.79,"date":"2026-09-11","daynight":"N"}},{"type":"Feature","geometry":{"type":"Point","coordinates":[-90.27217,27.19287]},"properties":{"frp":2.79,"date":"2026-09-11","daynight":"N"}}]}